<?xml version="1.0" encoding="UTF-8" standalone="yes"?>
<gpx version="1.1" creator="outdooractive - http://www.outdooractive.com" xmlns="http://www.topografix.com/GPX/1/1" xmlns:oa="http://www.outdooractive.com/GPX/Extensions/1" xmlns:xsi="http://www.w3.org/2001/XMLSchema-instance" xsi:schemaLocation="http://www.topografix.com/GPX/1/1 http://www.topografix.com/GPX/1/1/gpx.xsd http://www.outdooractive.com/GPX/Extensions/1 https://www.outdooractive.com/schema/gpx_extensions.xsd">
  <metadata>
    <name>21 - Brighella</name>
    <author>
      <name>Redazione Finale Outdoor Region - Finale Outdoor</name>
    </author>
    <link href="https://www.outdooractive.com/r/45582594"/>
    <time>2026-04-19T17:16:13.901Z</time>
    <extensions>
      <oa:oaCategory>mountainbiking</oa:oaCategory>
    </extensions>
  </metadata>
  <trk>
    <name>21 - Brighella</name>
    <desc>Briga&apos;s little sister.</desc>
    <type>mountainbiking</type>
    <trkseg>
      <trkpt lat="44.188872" lon="8.367893">
        <ele>279.9</ele>
        <name>44.188872,8.367893</name>
      </trkpt>
      <trkpt lat="44.188875" lon="8.367906">
        <ele>279.8</ele>
      </trkpt>
      <trkpt lat="44.188879" lon="8.367904">
        <ele>279.8</ele>
      </trkpt>
      <trkpt lat="44.18891" lon="8.367871">
        <ele>280.0</ele>
      </trkpt>
      <trkpt lat="44.188981" lon="8.367855">
        <ele>280.1</ele>
      </trkpt>
      <trkpt lat="44.189035" lon="8.367859">
        <ele>280.0</ele>
      </trkpt>
      <trkpt lat="44.189084" lon="8.36786">
        <ele>280.0</ele>
      </trkpt>
      <trkpt lat="44.189138" lon="8.367843">
        <ele>280.0</ele>
      </trkpt>
      <trkpt lat="44.189212" lon="8.367851">
        <ele>279.8</ele>
      </trkpt>
      <trkpt lat="44.189278" lon="8.367832">
        <ele>279.6</ele>
      </trkpt>
      <trkpt lat="44.18934" lon="8.367824">
        <ele>279.2</ele>
      </trkpt>
      <trkpt lat="44.18943" lon="8.367818">
        <ele>278.6</ele>
      </trkpt>
      <trkpt lat="44.189501" lon="8.367748">
        <ele>278.1</ele>
      </trkpt>
      <trkpt lat="44.189576" lon="8.367681">
        <ele>277.5</ele>
      </trkpt>
      <trkpt lat="44.189624" lon="8.367626">
        <ele>276.9</ele>
      </trkpt>
      <trkpt lat="44.18967" lon="8.36758">
        <ele>276.4</ele>
      </trkpt>
      <trkpt lat="44.189711" lon="8.367462">
        <ele>275.8</ele>
      </trkpt>
      <trkpt lat="44.18974" lon="8.367382">
        <ele>275.4</ele>
      </trkpt>
      <trkpt lat="44.18976" lon="8.367289">
        <ele>275.2</ele>
      </trkpt>
      <trkpt lat="44.189816" lon="8.367112">
        <ele>274.7</ele>
      </trkpt>
      <trkpt lat="44.189835" lon="8.367031">
        <ele>274.5</ele>
      </trkpt>
      <trkpt lat="44.189863" lon="8.366931">
        <ele>274.2</ele>
      </trkpt>
      <trkpt lat="44.189882" lon="8.366822">
        <ele>273.9</ele>
      </trkpt>
      <trkpt lat="44.189931" lon="8.366656">
        <ele>272.8</ele>
      </trkpt>
      <trkpt lat="44.189959" lon="8.366595">
        <ele>272.2</ele>
      </trkpt>
      <trkpt lat="44.189991" lon="8.366508">
        <ele>271.4</ele>
      </trkpt>
      <trkpt lat="44.19002" lon="8.366429">
        <ele>270.8</ele>
      </trkpt>
      <trkpt lat="44.190046" lon="8.366292">
        <ele>269.7</ele>
      </trkpt>
      <trkpt lat="44.190068" lon="8.366235">
        <ele>269.1</ele>
      </trkpt>
      <trkpt lat="44.190101" lon="8.36619">
        <ele>268.5</ele>
      </trkpt>
      <trkpt lat="44.190121" lon="8.366146">
        <ele>268.0</ele>
      </trkpt>
      <trkpt lat="44.190179" lon="8.365991">
        <ele>265.9</ele>
      </trkpt>
      <trkpt lat="44.190191" lon="8.365926">
        <ele>265.1</ele>
      </trkpt>
      <trkpt lat="44.190178" lon="8.365836">
        <ele>264.1</ele>
      </trkpt>
      <trkpt lat="44.190134" lon="8.365722">
        <ele>263.1</ele>
      </trkpt>
      <trkpt lat="44.190098" lon="8.36567">
        <ele>263.0</ele>
      </trkpt>
      <trkpt lat="44.190083" lon="8.365609">
        <ele>262.4</ele>
      </trkpt>
      <trkpt lat="44.190086" lon="8.365551">
        <ele>261.4</ele>
      </trkpt>
      <trkpt lat="44.19011" lon="8.365493">
        <ele>259.9</ele>
      </trkpt>
      <trkpt lat="44.190103" lon="8.365392">
        <ele>258.2</ele>
      </trkpt>
      <trkpt lat="44.190089" lon="8.365303">
        <ele>257.0</ele>
      </trkpt>
      <trkpt lat="44.190106" lon="8.36521">
        <ele>254.9</ele>
      </trkpt>
      <trkpt lat="44.190122" lon="8.365101">
        <ele>252.5</ele>
      </trkpt>
      <trkpt lat="44.190154" lon="8.365043">
        <ele>250.4</ele>
      </trkpt>
      <trkpt lat="44.190147" lon="8.364978">
        <ele>249.5</ele>
      </trkpt>
      <trkpt lat="44.190151" lon="8.364908">
        <ele>248.2</ele>
      </trkpt>
      <trkpt lat="44.19015" lon="8.364839">
        <ele>247.0</ele>
      </trkpt>
      <trkpt lat="44.190143" lon="8.364792">
        <ele>246.5</ele>
      </trkpt>
      <trkpt lat="44.190143" lon="8.364752">
        <ele>245.8</ele>
      </trkpt>
      <trkpt lat="44.190149" lon="8.364696">
        <ele>244.6</ele>
      </trkpt>
      <trkpt lat="44.190149" lon="8.364671">
        <ele>244.1</ele>
      </trkpt>
      <trkpt lat="44.190166" lon="8.364638">
        <ele>242.8</ele>
      </trkpt>
      <trkpt lat="44.190167" lon="8.36462">
        <ele>242.5</ele>
      </trkpt>
      <trkpt lat="44.190167" lon="8.36461">
        <ele>242.3</ele>
      </trkpt>
      <trkpt lat="44.19017" lon="8.364562">
        <ele>241.3</ele>
      </trkpt>
      <trkpt lat="44.190162" lon="8.364502">
        <ele>240.6</ele>
      </trkpt>
      <trkpt lat="44.190151" lon="8.36443">
        <ele>239.9</ele>
      </trkpt>
      <trkpt lat="44.190148" lon="8.36435">
        <ele>238.8</ele>
      </trkpt>
      <trkpt lat="44.190145" lon="8.364322">
        <ele>238.5</ele>
      </trkpt>
      <trkpt lat="44.190146" lon="8.364282">
        <ele>237.9</ele>
      </trkpt>
      <trkpt lat="44.190152" lon="8.364241">
        <ele>237.0</ele>
      </trkpt>
      <trkpt lat="44.190165" lon="8.364166">
        <ele>235.3</ele>
      </trkpt>
      <trkpt lat="44.190171" lon="8.364101">
        <ele>234.2</ele>
      </trkpt>
      <trkpt lat="44.190163" lon="8.363985">
        <ele>233.5</ele>
      </trkpt>
      <trkpt lat="44.190151" lon="8.363954">
        <ele>233.9</ele>
      </trkpt>
      <trkpt lat="44.190156" lon="8.363881">
        <ele>233.1</ele>
      </trkpt>
      <trkpt lat="44.190152" lon="8.363835">
        <ele>233.0</ele>
      </trkpt>
      <trkpt lat="44.190148" lon="8.363783">
        <ele>232.9</ele>
      </trkpt>
      <trkpt lat="44.190147" lon="8.363749">
        <ele>232.8</ele>
      </trkpt>
      <trkpt lat="44.190146" lon="8.363682">
        <ele>232.3</ele>
      </trkpt>
      <trkpt lat="44.190153" lon="8.363613">
        <ele>231.4</ele>
      </trkpt>
      <trkpt lat="44.19018" lon="8.363558">
        <ele>229.4</ele>
      </trkpt>
      <trkpt lat="44.190207" lon="8.363495">
        <ele>227.2</ele>
      </trkpt>
      <trkpt lat="44.190223" lon="8.363464">
        <ele>225.9</ele>
      </trkpt>
      <trkpt lat="44.190268" lon="8.363393">
        <ele>222.2</ele>
      </trkpt>
      <trkpt lat="44.190282" lon="8.363341">
        <ele>220.4</ele>
      </trkpt>
      <trkpt lat="44.190283" lon="8.363281">
        <ele>219.2</ele>
      </trkpt>
      <trkpt lat="44.190276" lon="8.363139">
        <ele>216.7</ele>
      </trkpt>
      <trkpt lat="44.190245" lon="8.363062">
        <ele>216.7</ele>
      </trkpt>
      <trkpt lat="44.190231" lon="8.363037">
        <ele>216.8</ele>
      </trkpt>
      <trkpt lat="44.19027" lon="8.362985">
        <ele>213.3</ele>
      </trkpt>
      <trkpt lat="44.190318" lon="8.362892">
        <ele>208.3</ele>
      </trkpt>
      <trkpt lat="44.190332" lon="8.362847">
        <ele>206.3</ele>
      </trkpt>
      <trkpt lat="44.190341" lon="8.362817">
        <ele>205.1</ele>
      </trkpt>
      <trkpt lat="44.190363" lon="8.362758">
        <ele>202.3</ele>
      </trkpt>
      <trkpt lat="44.190349" lon="8.362698">
        <ele>201.5</ele>
      </trkpt>
      <trkpt lat="44.19033" lon="8.36266">
        <ele>201.3</ele>
      </trkpt>
      <trkpt lat="44.190318" lon="8.362625">
        <ele>200.8</ele>
      </trkpt>
      <trkpt lat="44.190314" lon="8.36258">
        <ele>199.7</ele>
      </trkpt>
      <trkpt lat="44.19033" lon="8.362552">
        <ele>198.0</ele>
      </trkpt>
      <trkpt lat="44.190361" lon="8.36255">
        <ele>196.6</ele>
      </trkpt>
      <trkpt lat="44.190382" lon="8.362581">
        <ele>196.4</ele>
      </trkpt>
      <trkpt lat="44.190409" lon="8.362643">
        <ele>196.8</ele>
      </trkpt>
      <trkpt lat="44.190451" lon="8.362683">
        <ele>195.6</ele>
      </trkpt>
      <trkpt lat="44.190494" lon="8.362675">
        <ele>193.0</ele>
      </trkpt>
      <trkpt lat="44.190555" lon="8.362583">
        <ele>187.5</ele>
      </trkpt>
      <trkpt lat="44.190593" lon="8.362436">
        <ele>182.0</ele>
      </trkpt>
      <trkpt lat="44.190619" lon="8.362413">
        <ele>180.1</ele>
      </trkpt>
      <trkpt lat="44.190701" lon="8.36255">
        <ele>178.8</ele>
      </trkpt>
      <trkpt lat="44.190737" lon="8.362567">
        <ele>177.2</ele>
      </trkpt>
      <trkpt lat="44.190779" lon="8.362526">
        <ele>174.2</ele>
      </trkpt>
      <trkpt lat="44.190781" lon="8.362521">
        <ele>174.1</ele>
      </trkpt>
      <trkpt lat="44.190783" lon="8.362517">
        <ele>173.9</ele>
      </trkpt>
      <trkpt lat="44.190811" lon="8.362435">
        <ele>170.9</ele>
      </trkpt>
      <trkpt lat="44.190856" lon="8.362418">
        <ele>168.4</ele>
      </trkpt>
      <trkpt lat="44.190912" lon="8.362305">
        <ele>163.4</ele>
      </trkpt>
      <trkpt lat="44.190904" lon="8.362227">
        <ele>162.3</ele>
      </trkpt>
      <trkpt lat="44.190858" lon="8.362152">
        <ele>162.8</ele>
      </trkpt>
      <trkpt lat="44.190784" lon="8.362088">
        <ele>164.5</ele>
      </trkpt>
      <trkpt lat="44.190712" lon="8.36194">
        <ele>163.5</ele>
      </trkpt>
      <trkpt lat="44.190676" lon="8.361841">
        <ele>162.1</ele>
      </trkpt>
      <trkpt lat="44.190658" lon="8.361798">
        <ele>161.5</ele>
      </trkpt>
      <trkpt lat="44.190668" lon="8.361752">
        <ele>160.0</ele>
      </trkpt>
      <trkpt lat="44.190714" lon="8.361691">
        <ele>157.2</ele>
      </trkpt>
      <trkpt lat="44.190725" lon="8.361638">
        <ele>155.7</ele>
      </trkpt>
      <trkpt lat="44.19071" lon="8.361575">
        <ele>154.7</ele>
      </trkpt>
      <trkpt lat="44.1907" lon="8.361472">
        <ele>152.8</ele>
      </trkpt>
      <trkpt lat="44.19065" lon="8.361368">
        <ele>151.5</ele>
      </trkpt>
      <trkpt lat="44.190616" lon="8.361278">
        <ele>150.1</ele>
      </trkpt>
      <trkpt lat="44.19064" lon="8.36124">
        <ele>148.9</ele>
      </trkpt>
      <trkpt lat="44.190666" lon="8.361245">
        <ele>148.6</ele>
      </trkpt>
      <trkpt lat="44.190689" lon="8.361228">
        <ele>147.9</ele>
      </trkpt>
      <trkpt lat="44.190699" lon="8.361211">
        <ele>147.4</ele>
      </trkpt>
      <trkpt lat="44.190698" lon="8.361185">
        <ele>146.9</ele>
      </trkpt>
      <trkpt lat="44.190682" lon="8.361162">
        <ele>146.6</ele>
      </trkpt>
      <trkpt lat="44.190597" lon="8.361127">
        <ele>146.9</ele>
      </trkpt>
      <trkpt lat="44.190546" lon="8.361118">
        <ele>147.2</ele>
      </trkpt>
      <trkpt lat="44.190503" lon="8.361028">
        <ele>145.3</ele>
      </trkpt>
      <trkpt lat="44.190535" lon="8.36098">
        <ele>143.9</ele>
      </trkpt>
      <trkpt lat="44.190516" lon="8.360839">
        <ele>140.5</ele>
      </trkpt>
      <trkpt lat="44.190511" lon="8.360805">
        <ele>139.7</ele>
      </trkpt>
      <trkpt lat="44.190465" lon="8.360777">
        <ele>139.1</ele>
      </trkpt>
      <trkpt lat="44.19042" lon="8.36077">
        <ele>139.0</ele>
      </trkpt>
      <trkpt lat="44.190373" lon="8.360781">
        <ele>139.3</ele>
      </trkpt>
      <trkpt lat="44.190221" lon="8.360845">
        <ele>140.7</ele>
      </trkpt>
      <trkpt lat="44.190164" lon="8.360846">
        <ele>140.6</ele>
      </trkpt>
      <trkpt lat="44.19015" lon="8.360833">
        <ele>140.3</ele>
      </trkpt>
      <trkpt lat="44.190149" lon="8.360832">
        <ele>140.2</ele>
      </trkpt>
      <trkpt lat="44.190152" lon="8.360824">
        <ele>140.04</ele>
      </trkpt>
    </trkseg>
  </trk>
</gpx>