<?xml version="1.0" encoding="UTF-8" standalone="yes"?>
<gpx version="1.1" creator="outdooractive - http://www.outdooractive.com" xmlns="http://www.topografix.com/GPX/1/1" xmlns:oa="http://www.outdooractive.com/GPX/Extensions/1" xmlns:xsi="http://www.w3.org/2001/XMLSchema-instance" xsi:schemaLocation="http://www.topografix.com/GPX/1/1 http://www.topografix.com/GPX/1/1/gpx.xsd http://www.outdooractive.com/GPX/Extensions/1 https://www.outdooractive.com/schema/gpx_extensions.xsd">
  <metadata>
    <name>65 - Legnino</name>
    <author>
      <name>Redazione Finale Outdoor Region - Finale Outdoor</name>
    </author>
    <link href="https://www.outdooractive.com/r/56927157"/>
    <time>2026-03-16T16:40:57.999Z</time>
    <extensions>
      <oa:oaCategory>cycling</oa:oaCategory>
    </extensions>
  </metadata>
  <trk>
    <name>65 - Legnino</name>
    <desc>Intense uphill challenge on an E-Bike with a fabulous view</desc>
    <type>cycling</type>
    <trkseg>
      <trkpt lat="44.173438" lon="8.345901">
        <ele>114.81667</ele>
        <name>44.173438,8.345901</name>
        <extensions>
          <oa:Extension>
            <oa:mapZoom>15</oa:mapZoom>
          </oa:Extension>
        </extensions>
      </trkpt>
      <trkpt lat="44.173463" lon="8.34588">
        <ele>115.44821</ele>
      </trkpt>
      <trkpt lat="44.17353" lon="8.34585">
        <ele>117.29059</ele>
      </trkpt>
      <trkpt lat="44.173648" lon="8.345802">
        <ele>120.31617</ele>
      </trkpt>
      <trkpt lat="44.173746" lon="8.345786">
        <ele>122.81696</ele>
      </trkpt>
      <trkpt lat="44.173809" lon="8.345716">
        <ele>123.66611</ele>
      </trkpt>
      <trkpt lat="44.173923" lon="8.345668">
        <ele>125.679</ele>
      </trkpt>
      <trkpt lat="44.174006" lon="8.345628">
        <ele>126.83545</ele>
      </trkpt>
      <trkpt lat="44.174086" lon="8.345587">
        <ele>127.76451</ele>
      </trkpt>
      <trkpt lat="44.174152" lon="8.345531">
        <ele>128.02958</ele>
      </trkpt>
      <trkpt lat="44.1742" lon="8.345512">
        <ele>128.52553</ele>
      </trkpt>
      <trkpt lat="44.1743" lon="8.345429">
        <ele>128.86067</ele>
      </trkpt>
      <trkpt lat="44.17434" lon="8.345351">
        <ele>128.46894</ele>
      </trkpt>
      <trkpt lat="44.174385" lon="8.345274">
        <ele>128.33395</ele>
      </trkpt>
      <trkpt lat="44.174446" lon="8.34518">
        <ele>128.7215</ele>
      </trkpt>
      <trkpt lat="44.174486" lon="8.345099">
        <ele>129.15105</ele>
      </trkpt>
      <trkpt lat="44.174556" lon="8.345048">
        <ele>130.77698</ele>
      </trkpt>
      <trkpt lat="44.174625" lon="8.344973">
        <ele>132.66172</ele>
      </trkpt>
      <trkpt lat="44.174715" lon="8.344946">
        <ele>135.25178</ele>
      </trkpt>
      <trkpt lat="44.174777" lon="8.344901">
        <ele>137.10914</ele>
      </trkpt>
      <trkpt lat="44.174837" lon="8.344842">
        <ele>138.98606</ele>
      </trkpt>
      <trkpt lat="44.174887" lon="8.344769">
        <ele>140.65017</ele>
      </trkpt>
      <trkpt lat="44.174971" lon="8.344721">
        <ele>143.2049</ele>
      </trkpt>
      <trkpt lat="44.174998" lon="8.344654">
        <ele>144.21037</ele>
      </trkpt>
      <trkpt lat="44.175052" lon="8.344635">
        <ele>145.82347</ele>
      </trkpt>
      <trkpt lat="44.175133" lon="8.344507">
        <ele>148.84018</ele>
      </trkpt>
      <trkpt lat="44.175125" lon="8.344421">
        <ele>148.89574</ele>
      </trkpt>
      <trkpt lat="44.175104" lon="8.344295">
        <ele>148.45146</ele>
      </trkpt>
      <trkpt lat="44.175077" lon="8.344225">
        <ele>147.59181</ele>
      </trkpt>
      <trkpt lat="44.175056" lon="8.344152">
        <ele>146.90886</ele>
      </trkpt>
      <trkpt lat="44.175025" lon="8.344067">
        <ele>145.92325</ele>
      </trkpt>
      <trkpt lat="44.174998" lon="8.344018">
        <ele>145.07148</ele>
      </trkpt>
      <trkpt lat="44.174983" lon="8.343954">
        <ele>144.64597</ele>
      </trkpt>
      <trkpt lat="44.174964" lon="8.343876">
        <ele>144.1181</ele>
      </trkpt>
      <trkpt lat="44.175002" lon="8.34378">
        <ele>145.37097</ele>
      </trkpt>
      <trkpt lat="44.175044" lon="8.343737">
        <ele>146.64144</ele>
      </trkpt>
      <trkpt lat="44.175091" lon="8.343678">
        <ele>147.92266</ele>
      </trkpt>
      <trkpt lat="44.17511" lon="8.343648">
        <ele>148.39696</ele>
      </trkpt>
      <trkpt lat="44.17516" lon="8.343611">
        <ele>149.71965</ele>
      </trkpt>
      <trkpt lat="44.175204" lon="8.34357">
        <ele>150.76722</ele>
      </trkpt>
      <trkpt lat="44.175244" lon="8.343568">
        <ele>151.94589</ele>
      </trkpt>
      <trkpt lat="44.175298" lon="8.343595">
        <ele>153.79795</ele>
      </trkpt>
      <trkpt lat="44.175275" lon="8.343734">
        <ele>154.10092</ele>
      </trkpt>
      <trkpt lat="44.175271" lon="8.343836">
        <ele>154.46165</ele>
      </trkpt>
      <trkpt lat="44.175285" lon="8.343895">
        <ele>155.14055</ele>
      </trkpt>
      <trkpt lat="44.175339" lon="8.343892">
        <ele>157.06007</ele>
      </trkpt>
      <trkpt lat="44.175419" lon="8.343922">
        <ele>160.06046</ele>
      </trkpt>
      <trkpt lat="44.175485" lon="8.343962">
        <ele>162.53244</ele>
      </trkpt>
      <trkpt lat="44.175545" lon="8.343994">
        <ele>164.70537</ele>
      </trkpt>
      <trkpt lat="44.175606" lon="8.344032">
        <ele>166.85456</ele>
      </trkpt>
      <trkpt lat="44.175664" lon="8.344058">
        <ele>168.71256</ele>
      </trkpt>
      <trkpt lat="44.175714" lon="8.344069">
        <ele>170.18899</ele>
      </trkpt>
      <trkpt lat="44.175762" lon="8.344104">
        <ele>171.48572</ele>
      </trkpt>
      <trkpt lat="44.175823" lon="8.344139">
        <ele>172.89371</ele>
      </trkpt>
      <trkpt lat="44.175866" lon="8.344174">
        <ele>173.62818</ele>
      </trkpt>
      <trkpt lat="44.175931" lon="8.344211">
        <ele>174.59019</ele>
      </trkpt>
      <trkpt lat="44.175983" lon="8.344246">
        <ele>175.089</ele>
      </trkpt>
      <trkpt lat="44.17606" lon="8.344276">
        <ele>175.78052</ele>
      </trkpt>
      <trkpt lat="44.176112" lon="8.344273">
        <ele>176.4374</ele>
      </trkpt>
      <trkpt lat="44.176158" lon="8.344222">
        <ele>177.65615</ele>
      </trkpt>
      <trkpt lat="44.176229" lon="8.344142">
        <ele>179.22022</ele>
      </trkpt>
      <trkpt lat="44.176262" lon="8.344104">
        <ele>179.79352</ele>
      </trkpt>
      <trkpt lat="44.17631" lon="8.344064">
        <ele>180.42503</ele>
      </trkpt>
      <trkpt lat="44.176339" lon="8.344061">
        <ele>180.67948</ele>
      </trkpt>
      <trkpt lat="44.176381" lon="8.344048">
        <ele>181.06134</ele>
      </trkpt>
      <trkpt lat="44.176437" lon="8.344032">
        <ele>181.50838</ele>
      </trkpt>
      <trkpt lat="44.176489" lon="8.344013">
        <ele>181.89119</ele>
      </trkpt>
      <trkpt lat="44.176539" lon="8.343994">
        <ele>182.22274</ele>
      </trkpt>
      <trkpt lat="44.176604" lon="8.343959">
        <ele>182.63118</ele>
      </trkpt>
      <trkpt lat="44.176635" lon="8.343943">
        <ele>182.80238</ele>
      </trkpt>
      <trkpt lat="44.17667" lon="8.343924">
        <ele>182.9832</ele>
      </trkpt>
      <trkpt lat="44.176708" lon="8.343895">
        <ele>183.16859</ele>
      </trkpt>
      <trkpt lat="44.176758" lon="8.34386">
        <ele>183.35634</ele>
      </trkpt>
      <trkpt lat="44.176787" lon="8.343833">
        <ele>183.44837</ele>
      </trkpt>
      <trkpt lat="44.176824" lon="8.343801">
        <ele>183.54962</ele>
      </trkpt>
      <trkpt lat="44.176868" lon="8.343772">
        <ele>183.66484</ele>
        <name>44.176868,8.343772</name>
      </trkpt>
    </trkseg>
  </trk>
</gpx>