<?xml version="1.0" encoding="utf-8"?>
		<gpx xmlns="http://www.topografix.com/GPX/1/1" xmlns:xsd="http://www.w3.org/2001/XMLSchema" xmlns:xsi="http://www.w3.org/2001/XMLSchema-instance" version="1.1" creator="Fugawi 4,5,14,1696 http://www.fugawi.com/" xsi:schemaLocation="http://www.topografix.com/GPX/1/1 http://www.topografix.com/GPX/1/1/gpx.xsd">
			<trk>
				<name>Barbarasteig Trail und Rauhegasse Trail</name>
				<desc></desc>
				<trkseg>
					<trkpt lat="47.35742" lon="10.89755"><ele>1486</ele></trkpt>
<trkpt lat="47.35751" lon="10.89719"><ele>1477</ele></trkpt>
<trkpt lat="47.3576" lon="10.89721"><ele>1480</ele></trkpt>
<trkpt lat="47.35771" lon="10.89715"><ele>1476</ele></trkpt>
<trkpt lat="47.35787" lon="10.89719"><ele>1473</ele></trkpt>
<trkpt lat="47.35797" lon="10.89718"><ele>1474</ele></trkpt>
<trkpt lat="47.35808" lon="10.89701"><ele>1470</ele></trkpt>
<trkpt lat="47.35824" lon="10.89703"><ele>1467</ele></trkpt>
<trkpt lat="47.3584" lon="10.89698"><ele>1465</ele></trkpt>
<trkpt lat="47.3585" lon="10.89695"><ele>1461</ele></trkpt>
<trkpt lat="47.3586" lon="10.89683"><ele>1459</ele></trkpt>
<trkpt lat="47.35877" lon="10.89682"><ele>1452</ele></trkpt>
<trkpt lat="47.35882" lon="10.89654"><ele>1445</ele></trkpt>
<trkpt lat="47.35878" lon="10.89644"><ele>1444</ele></trkpt>
<trkpt lat="47.35879" lon="10.8962"><ele>1439</ele></trkpt>
<trkpt lat="47.35887" lon="10.89609"><ele>1437</ele></trkpt>
<trkpt lat="47.35897" lon="10.89599"><ele>1431</ele></trkpt>
<trkpt lat="47.35895" lon="10.89592"><ele>1431</ele></trkpt>
<trkpt lat="47.3589" lon="10.8958"><ele>1429</ele></trkpt>
<trkpt lat="47.35893" lon="10.89575"><ele>1429</ele></trkpt>
<trkpt lat="47.35912" lon="10.89572"><ele>1426</ele></trkpt>
<trkpt lat="47.35911" lon="10.89543"><ele>1422</ele></trkpt>
<trkpt lat="47.3592" lon="10.89535"><ele>1418</ele></trkpt>
<trkpt lat="47.35925" lon="10.89538"><ele>1416</ele></trkpt>
<trkpt lat="47.3593" lon="10.89532"><ele>1416</ele></trkpt>
<trkpt lat="47.3595" lon="10.89536"><ele>1409</ele></trkpt>
<trkpt lat="47.35949" lon="10.89527"><ele>1407</ele></trkpt>
<trkpt lat="47.35957" lon="10.89481"><ele>1399</ele></trkpt>
<trkpt lat="47.35979" lon="10.89467"><ele>1393</ele></trkpt>
<trkpt lat="47.35983" lon="10.89453"><ele>1388</ele></trkpt>
<trkpt lat="47.35978" lon="10.89437"><ele>1386</ele></trkpt>
<trkpt lat="47.35996" lon="10.89434"><ele>1383</ele></trkpt>
<trkpt lat="47.36001" lon="10.89423"><ele>1378</ele></trkpt>
<trkpt lat="47.35994" lon="10.8941"><ele>1377</ele></trkpt>
<trkpt lat="47.35999" lon="10.89395"><ele>1374</ele></trkpt>
<trkpt lat="47.36007" lon="10.89396"><ele>1373</ele></trkpt>
<trkpt lat="47.3602" lon="10.89391"><ele>1370</ele></trkpt>
<trkpt lat="47.36038" lon="10.8939"><ele>1367</ele></trkpt>
<trkpt lat="47.3604" lon="10.89379"><ele>1365</ele></trkpt>
<trkpt lat="47.36032" lon="10.89365"><ele>1363</ele></trkpt>
<trkpt lat="47.36036" lon="10.89355"><ele>1359</ele></trkpt>
<trkpt lat="47.36054" lon="10.8935"><ele>1355</ele></trkpt>
<trkpt lat="47.36063" lon="10.89332"><ele>1352</ele></trkpt>
<trkpt lat="47.36058" lon="10.89306"><ele>1348</ele></trkpt>
<trkpt lat="47.36075" lon="10.89291"><ele>1343</ele></trkpt>
<trkpt lat="47.36088" lon="10.89275"><ele>1339</ele></trkpt>
<trkpt lat="47.36102" lon="10.89257"><ele>1333</ele></trkpt>
<trkpt lat="47.36137" lon="10.89231"><ele>1323</ele></trkpt>
<trkpt lat="47.36137" lon="10.89223"><ele>1323</ele></trkpt>
<trkpt lat="47.36115" lon="10.89204"><ele>1319</ele></trkpt>
<trkpt lat="47.36104" lon="10.89177"><ele>1316</ele></trkpt>
<trkpt lat="47.36088" lon="10.89134"><ele>1314</ele></trkpt>
<trkpt lat="47.36098" lon="10.89121"><ele>1311</ele></trkpt>
<trkpt lat="47.36087" lon="10.89114"><ele>1309</ele></trkpt>
<trkpt lat="47.36085" lon="10.89092"><ele>1304</ele></trkpt>
<trkpt lat="47.36088" lon="10.89087"><ele>1304</ele></trkpt>
<trkpt lat="47.36097" lon="10.89088"><ele>1303</ele></trkpt>
<trkpt lat="47.36119" lon="10.89108"><ele>1304</ele></trkpt>
<trkpt lat="47.36131" lon="10.89093"><ele>1298</ele></trkpt>
<trkpt lat="47.36134" lon="10.89066"><ele>1294</ele></trkpt>
<trkpt lat="47.36141" lon="10.8905"><ele>1290</ele></trkpt>
<trkpt lat="47.36156" lon="10.89057"><ele>1289</ele></trkpt>
<trkpt lat="47.36155" lon="10.89042"><ele>1287</ele></trkpt>
<trkpt lat="47.3616" lon="10.89033"><ele>1285</ele></trkpt>
<trkpt lat="47.3618" lon="10.89032"><ele>1281</ele></trkpt>
<trkpt lat="47.36203" lon="10.89015"><ele>1272</ele></trkpt>
<trkpt lat="47.36214" lon="10.89004"><ele>1269</ele></trkpt>
<trkpt lat="47.36226" lon="10.88999"><ele>1266</ele></trkpt>
<trkpt lat="47.36239" lon="10.89006"><ele>1266</ele></trkpt>
<trkpt lat="47.36256" lon="10.89009"><ele>1263</ele></trkpt>
<trkpt lat="47.36273" lon="10.89007"><ele>1260</ele></trkpt>
<trkpt lat="47.36277" lon="10.88977"><ele>1253</ele></trkpt>
<trkpt lat="47.36291" lon="10.88968"><ele>1252</ele></trkpt>
<trkpt lat="47.36292" lon="10.88953"><ele>1249</ele></trkpt>
<trkpt lat="47.36301" lon="10.88944"><ele>1247</ele></trkpt>
<trkpt lat="47.36318" lon="10.88924"><ele>1239</ele></trkpt>
<trkpt lat="47.36328" lon="10.88926"><ele>1237</ele></trkpt>
<trkpt lat="47.36338" lon="10.88906"><ele>1232</ele></trkpt>
<trkpt lat="47.36335" lon="10.8888"><ele>1231</ele></trkpt>
<trkpt lat="47.3635" lon="10.88854"><ele>1226</ele></trkpt>
<trkpt lat="47.36367" lon="10.8884"><ele>1221</ele></trkpt>
<trkpt lat="47.3638" lon="10.88815"><ele>1216</ele></trkpt>
<trkpt lat="47.36386" lon="10.88763"><ele>1209</ele></trkpt>
<trkpt lat="47.36408" lon="10.88762"><ele>1203</ele></trkpt>
<trkpt lat="47.36414" lon="10.88742"><ele>1201</ele></trkpt>
<trkpt lat="47.36424" lon="10.88733"><ele>1197</ele></trkpt>
<trkpt lat="47.36434" lon="10.88721"><ele>1194</ele></trkpt>
<trkpt lat="47.36442" lon="10.88702"><ele>1191</ele></trkpt>
<trkpt lat="47.36459" lon="10.88684"><ele>1186</ele></trkpt>
<trkpt lat="47.36474" lon="10.88678"><ele>1184</ele></trkpt>
<trkpt lat="47.36483" lon="10.88667"><ele>1182</ele></trkpt>
<trkpt lat="47.36498" lon="10.88657"><ele>1178</ele></trkpt>
<trkpt lat="47.36508" lon="10.88657"><ele>1176</ele></trkpt>
<trkpt lat="47.36514" lon="10.88639"><ele>1173</ele></trkpt>
<trkpt lat="47.36526" lon="10.88598"><ele>1170</ele></trkpt>
<trkpt lat="47.36534" lon="10.88566"><ele>1164</ele></trkpt>
<trkpt lat="47.36538" lon="10.88541"><ele>1160</ele></trkpt>
<trkpt lat="47.36547" lon="10.88517"><ele>1155</ele></trkpt>
<trkpt lat="47.3655" lon="10.88502"><ele>1154</ele></trkpt>
<trkpt lat="47.36556" lon="10.88485"><ele>1152</ele></trkpt>
<trkpt lat="47.36569" lon="10.88479"><ele>1150</ele></trkpt>
<trkpt lat="47.36587" lon="10.88461"><ele>1146</ele></trkpt>
<trkpt lat="47.36591" lon="10.88451"><ele>1142</ele></trkpt>
<trkpt lat="47.36597" lon="10.88454"><ele>1140</ele></trkpt>
<trkpt lat="47.36629" lon="10.8858"><ele>1146</ele></trkpt>
<trkpt lat="47.36628" lon="10.88601"><ele>1148</ele></trkpt>
<trkpt lat="47.3662" lon="10.88628"><ele>1149</ele></trkpt>
<trkpt lat="47.36624" lon="10.88653"><ele>1149</ele></trkpt>
<trkpt lat="47.36632" lon="10.88674"><ele>1149</ele></trkpt>
<trkpt lat="47.36638" lon="10.88675"><ele>1149</ele></trkpt>
<trkpt lat="47.3664" lon="10.88655"><ele>1149</ele></trkpt>
<trkpt lat="47.3664" lon="10.88655"><ele>1146</ele></trkpt>
<trkpt lat="47.36641" lon="10.88655"><ele>1146</ele></trkpt>
<trkpt lat="47.36662" lon="10.88647"><ele>1141</ele></trkpt>
<trkpt lat="47.36685" lon="10.88632"><ele>1136</ele></trkpt>
<trkpt lat="47.36713" lon="10.88621"><ele>1130</ele></trkpt>
<trkpt lat="47.36742" lon="10.88615"><ele>1124</ele></trkpt>
<trkpt lat="47.36797" lon="10.88625"><ele>1112</ele></trkpt>
<trkpt lat="47.36843" lon="10.88621"><ele>1101</ele></trkpt>
<trkpt lat="47.36904" lon="10.88612"><ele>1090</ele></trkpt>
<trkpt lat="47.36952" lon="10.88614"><ele>1080</ele></trkpt>
<trkpt lat="47.36978" lon="10.8862"><ele>1074</ele></trkpt>
<trkpt lat="47.37003" lon="10.88629"><ele>1072</ele></trkpt>
<trkpt lat="47.3703" lon="10.88643"><ele>1064</ele></trkpt>
<trkpt lat="47.37067" lon="10.88649"><ele>1056</ele></trkpt>

				</trkseg>
		  </trk>
		</gpx>
		