<?xml version="1.0" encoding="utf-8"?>
		<gpx xmlns="http://www.topografix.com/GPX/1/1" xmlns:xsd="http://www.w3.org/2001/XMLSchema" xmlns:xsi="http://www.w3.org/2001/XMLSchema-instance" version="1.1" creator="Fugawi 4,5,14,1696 http://www.fugawi.com/" xsi:schemaLocation="http://www.topografix.com/GPX/1/1 http://www.topografix.com/GPX/1/1/gpx.xsd">
			<trk>
				<name>Blindsee Trail</name>
				<desc></desc>
				<trkseg>
					<trkpt lat="47.38368" lon="10.86105"><ele>1704</ele></trkpt>
<trkpt lat="47.38344" lon="10.86113"><ele>1704</ele></trkpt>
<trkpt lat="47.38338" lon="10.86112"><ele>1704</ele></trkpt>
<trkpt lat="47.38326" lon="10.86104"><ele>1704</ele></trkpt>
<trkpt lat="47.38317" lon="10.86109"><ele>1703</ele></trkpt>
<trkpt lat="47.38306" lon="10.86111"><ele>1703</ele></trkpt>
<trkpt lat="47.38288" lon="10.86099"><ele>1703</ele></trkpt>
<trkpt lat="47.38278" lon="10.8608"><ele>1703</ele></trkpt>
<trkpt lat="47.38272" lon="10.86069"><ele>1705</ele></trkpt>
<trkpt lat="47.38268" lon="10.86066"><ele>1705</ele></trkpt>
<trkpt lat="47.38252" lon="10.8606"><ele>1705</ele></trkpt>
<trkpt lat="47.38243" lon="10.86044"><ele>1705</ele></trkpt>
<trkpt lat="47.38235" lon="10.86035"><ele>1706</ele></trkpt>
<trkpt lat="47.38225" lon="10.8603"><ele>1706</ele></trkpt>
<trkpt lat="47.38208" lon="10.86028"><ele>1706</ele></trkpt>
<trkpt lat="47.38193" lon="10.86009"><ele>1706</ele></trkpt>
<trkpt lat="47.38176" lon="10.86011"><ele>1707</ele></trkpt>
<trkpt lat="47.3816" lon="10.86019"><ele>1707</ele></trkpt>
<trkpt lat="47.38147" lon="10.86007"><ele>1707</ele></trkpt>
<trkpt lat="47.38148" lon="10.8599"><ele>1707</ele></trkpt>
<trkpt lat="47.3815" lon="10.85955"><ele>1710</ele></trkpt>
<trkpt lat="47.38131" lon="10.85906"><ele>1710</ele></trkpt>
<trkpt lat="47.38147" lon="10.85905"><ele>1710</ele></trkpt>
<trkpt lat="47.38143" lon="10.85892"><ele>1710</ele></trkpt>
<trkpt lat="47.3813" lon="10.8588"><ele>1721</ele></trkpt>
<trkpt lat="47.38109" lon="10.85867"><ele>1721</ele></trkpt>
<trkpt lat="47.3809" lon="10.85861"><ele>1721</ele></trkpt>
<trkpt lat="47.38073" lon="10.85851"><ele>1721</ele></trkpt>
<trkpt lat="47.38059" lon="10.85833"><ele>1732</ele></trkpt>
<trkpt lat="47.38038" lon="10.8584"><ele>1732</ele></trkpt>
<trkpt lat="47.38015" lon="10.85863"><ele>1732</ele></trkpt>
<trkpt lat="47.38011" lon="10.85876"><ele>1732</ele></trkpt>
<trkpt lat="47.3801" lon="10.85903"><ele>1736</ele></trkpt>
<trkpt lat="47.38006" lon="10.85927"><ele>1736</ele></trkpt>
<trkpt lat="47.38" lon="10.85936"><ele>1736</ele></trkpt>
<trkpt lat="47.37995" lon="10.85938"><ele>1736</ele></trkpt>
<trkpt lat="47.37995" lon="10.85908"><ele>1742</ele></trkpt>
<trkpt lat="47.3799" lon="10.8588"><ele>1742</ele></trkpt>
<trkpt lat="47.37985" lon="10.85859"><ele>1742</ele></trkpt>
<trkpt lat="47.37982" lon="10.85817"><ele>1742</ele></trkpt>
<trkpt lat="47.37983" lon="10.85799"><ele>1748</ele></trkpt>
<trkpt lat="47.37977" lon="10.8578"><ele>1748</ele></trkpt>
<trkpt lat="47.37961" lon="10.85776"><ele>1748</ele></trkpt>
<trkpt lat="47.37948" lon="10.85769"><ele>1748</ele></trkpt>
<trkpt lat="47.37939" lon="10.85758"><ele>1744</ele></trkpt>
<trkpt lat="47.37914" lon="10.85727"><ele>1744</ele></trkpt>
<trkpt lat="47.379" lon="10.85697"><ele>1744</ele></trkpt>
<trkpt lat="47.37886" lon="10.85674"><ele>1744</ele></trkpt>
<trkpt lat="47.37888" lon="10.8569"><ele>1729</ele></trkpt>
<trkpt lat="47.37886" lon="10.85709"><ele>1729</ele></trkpt>
<trkpt lat="47.37881" lon="10.85719"><ele>1729</ele></trkpt>
<trkpt lat="47.37864" lon="10.85695"><ele>1729</ele></trkpt>
<trkpt lat="47.37855" lon="10.85682"><ele>1713</ele></trkpt>
<trkpt lat="47.37853" lon="10.85659"><ele>1713</ele></trkpt>
<trkpt lat="47.37849" lon="10.85624"><ele>1713</ele></trkpt>
<trkpt lat="47.37842" lon="10.85593"><ele>1713</ele></trkpt>
<trkpt lat="47.37837" lon="10.85581"><ele>1715</ele></trkpt>
<trkpt lat="47.37817" lon="10.85576"><ele>1715</ele></trkpt>
<trkpt lat="47.37793" lon="10.85543"><ele>1715</ele></trkpt>
<trkpt lat="47.37776" lon="10.85521"><ele>1715</ele></trkpt>
<trkpt lat="47.37768" lon="10.85494"><ele>1702</ele></trkpt>
<trkpt lat="47.37734" lon="10.85443"><ele>1702</ele></trkpt>
<trkpt lat="47.37722" lon="10.85421"><ele>1702</ele></trkpt>
<trkpt lat="47.37714" lon="10.85408"><ele>1702</ele></trkpt>
<trkpt lat="47.37717" lon="10.85389"><ele>1694</ele></trkpt>
<trkpt lat="47.37706" lon="10.85357"><ele>1694</ele></trkpt>
<trkpt lat="47.37696" lon="10.85323"><ele>1694</ele></trkpt>
<trkpt lat="47.37693" lon="10.85251"><ele>1694</ele></trkpt>
<trkpt lat="47.37685" lon="10.85207"><ele>1673</ele></trkpt>
<trkpt lat="47.37678" lon="10.8519"><ele>1673</ele></trkpt>
<trkpt lat="47.37675" lon="10.85171"><ele>1673</ele></trkpt>
<trkpt lat="47.3767" lon="10.85137"><ele>1673</ele></trkpt>
<trkpt lat="47.37662" lon="10.85099"><ele>1661</ele></trkpt>
<trkpt lat="47.37648" lon="10.85069"><ele>1661</ele></trkpt>
<trkpt lat="47.37596" lon="10.85013"><ele>1661</ele></trkpt>
<trkpt lat="47.37587" lon="10.84967"><ele>1661</ele></trkpt>
<trkpt lat="47.3758" lon="10.84965"><ele>1635</ele></trkpt>
<trkpt lat="47.37572" lon="10.84961"><ele>1635</ele></trkpt>
<trkpt lat="47.37567" lon="10.8495"><ele>1635</ele></trkpt>
<trkpt lat="47.37543" lon="10.84933"><ele>1635</ele></trkpt>
<trkpt lat="47.37535" lon="10.84937"><ele>1623</ele></trkpt>
<trkpt lat="47.37523" lon="10.84934"><ele>1623</ele></trkpt>
<trkpt lat="47.37514" lon="10.84928"><ele>1623</ele></trkpt>
<trkpt lat="47.37499" lon="10.84923"><ele>1623</ele></trkpt>
<trkpt lat="47.37488" lon="10.84924"><ele>1612</ele></trkpt>
<trkpt lat="47.37467" lon="10.84919"><ele>1612</ele></trkpt>
<trkpt lat="47.37465" lon="10.84909"><ele>1612</ele></trkpt>
<trkpt lat="47.37459" lon="10.84902"><ele>1612</ele></trkpt>
<trkpt lat="47.37453" lon="10.84902"><ele>1598</ele></trkpt>
<trkpt lat="47.37446" lon="10.84904"><ele>1598</ele></trkpt>
<trkpt lat="47.37443" lon="10.84891"><ele>1598</ele></trkpt>
<trkpt lat="47.37445" lon="10.84878"><ele>1598</ele></trkpt>
<trkpt lat="47.37439" lon="10.84875"><ele>1593</ele></trkpt>
<trkpt lat="47.37425" lon="10.84874"><ele>1593</ele></trkpt>
<trkpt lat="47.37404" lon="10.84866"><ele>1593</ele></trkpt>
<trkpt lat="47.37388" lon="10.84839"><ele>1593</ele></trkpt>
<trkpt lat="47.37353" lon="10.84823"><ele>1568</ele></trkpt>
<trkpt lat="47.3735" lon="10.84818"><ele>1568</ele></trkpt>
<trkpt lat="47.37343" lon="10.84783"><ele>1568</ele></trkpt>
<trkpt lat="47.37333" lon="10.84749"><ele>1568</ele></trkpt>
<trkpt lat="47.37311" lon="10.84712"><ele>1549</ele></trkpt>
<trkpt lat="47.37305" lon="10.8471"><ele>1549</ele></trkpt>
<trkpt lat="47.37303" lon="10.84704"><ele>1549</ele></trkpt>
<trkpt lat="47.37299" lon="10.84692"><ele>1549</ele></trkpt>
<trkpt lat="47.37289" lon="10.84672"><ele>1544</ele></trkpt>
<trkpt lat="47.37266" lon="10.84662"><ele>1544</ele></trkpt>
<trkpt lat="47.37257" lon="10.84629"><ele>1544</ele></trkpt>
<trkpt lat="47.37239" lon="10.84595"><ele>1544</ele></trkpt>
<trkpt lat="47.37223" lon="10.84558"><ele>1513</ele></trkpt>
<trkpt lat="47.37209" lon="10.84552"><ele>1513</ele></trkpt>
<trkpt lat="47.37202" lon="10.84549"><ele>1513</ele></trkpt>
<trkpt lat="47.37198" lon="10.84558"><ele>1513</ele></trkpt>
<trkpt lat="47.37186" lon="10.84539"><ele>1497</ele></trkpt>
<trkpt lat="47.37146" lon="10.84477"><ele>1497</ele></trkpt>
<trkpt lat="47.37123" lon="10.84469"><ele>1497</ele></trkpt>
<trkpt lat="47.37108" lon="10.84449"><ele>1497</ele></trkpt>
<trkpt lat="47.37095" lon="10.84452"><ele>1462</ele></trkpt>
<trkpt lat="47.37088" lon="10.84455"><ele>1462</ele></trkpt>
<trkpt lat="47.37089" lon="10.84475"><ele>1462</ele></trkpt>
<trkpt lat="47.37084" lon="10.84491"><ele>1462</ele></trkpt>
<trkpt lat="47.37081" lon="10.84499"><ele>1453</ele></trkpt>
<trkpt lat="47.37056" lon="10.8451"><ele>1453</ele></trkpt>
<trkpt lat="47.37051" lon="10.8451"><ele>1453</ele></trkpt>
<trkpt lat="47.37047" lon="10.8451"><ele>1453</ele></trkpt>
<trkpt lat="47.37044" lon="10.84483"><ele>1433</ele></trkpt>
<trkpt lat="47.37039" lon="10.84478"><ele>1433</ele></trkpt>
<trkpt lat="47.37035" lon="10.84478"><ele>1433</ele></trkpt>
<trkpt lat="47.37036" lon="10.8447"><ele>1433</ele></trkpt>
<trkpt lat="47.37038" lon="10.84461"><ele>1432</ele></trkpt>
<trkpt lat="47.37024" lon="10.84411"><ele>1432</ele></trkpt>
<trkpt lat="47.37017" lon="10.84399"><ele>1432</ele></trkpt>
<trkpt lat="47.37014" lon="10.84397"><ele>1432</ele></trkpt>
<trkpt lat="47.37007" lon="10.84397"><ele>1412</ele></trkpt>
<trkpt lat="47.37" lon="10.84403"><ele>1412</ele></trkpt>
<trkpt lat="47.36993" lon="10.84407"><ele>1412</ele></trkpt>
<trkpt lat="47.3699" lon="10.84403"><ele>1412</ele></trkpt>
<trkpt lat="47.36986" lon="10.844"><ele>1407</ele></trkpt>
<trkpt lat="47.36986" lon="10.84395"><ele>1407</ele></trkpt>
<trkpt lat="47.36988" lon="10.8439"><ele>1407</ele></trkpt>
<trkpt lat="47.36994" lon="10.8438"><ele>1407</ele></trkpt>
<trkpt lat="47.36998" lon="10.84368"><ele>1402</ele></trkpt>
<trkpt lat="47.36999" lon="10.84363"><ele>1402</ele></trkpt>
<trkpt lat="47.36999" lon="10.84354"><ele>1402</ele></trkpt>
<trkpt lat="47.36999" lon="10.84346"><ele>1402</ele></trkpt>
<trkpt lat="47.36996" lon="10.84345"><ele>1399</ele></trkpt>
<trkpt lat="47.36992" lon="10.84347"><ele>1399</ele></trkpt>
<trkpt lat="47.36985" lon="10.84344"><ele>1399</ele></trkpt>
<trkpt lat="47.36983" lon="10.84331"><ele>1399</ele></trkpt>
<trkpt lat="47.36987" lon="10.843"><ele>1383</ele></trkpt>
<trkpt lat="47.36993" lon="10.8428"><ele>1383</ele></trkpt>
<trkpt lat="47.36994" lon="10.84276"><ele>1383</ele></trkpt>
<trkpt lat="47.36993" lon="10.84269"><ele>1383</ele></trkpt>
<trkpt lat="47.36991" lon="10.84264"><ele>1377</ele></trkpt>
<trkpt lat="47.36983" lon="10.8425"><ele>1377</ele></trkpt>
<trkpt lat="47.36979" lon="10.84226"><ele>1377</ele></trkpt>
<trkpt lat="47.36976" lon="10.84215"><ele>1377</ele></trkpt>
<trkpt lat="47.36976" lon="10.842"><ele>1363</ele></trkpt>
<trkpt lat="47.36965" lon="10.84154"><ele>1363</ele></trkpt>
<trkpt lat="47.36959" lon="10.84088"><ele>1363</ele></trkpt>
<trkpt lat="47.36963" lon="10.84034"><ele>1363</ele></trkpt>
<trkpt lat="47.36967" lon="10.84004"><ele>1336</ele></trkpt>
<trkpt lat="47.36975" lon="10.83989"><ele>1336</ele></trkpt>
<trkpt lat="47.36982" lon="10.83965"><ele>1336</ele></trkpt>
<trkpt lat="47.36984" lon="10.83956"><ele>1336</ele></trkpt>
<trkpt lat="47.36988" lon="10.83942"><ele>1327</ele></trkpt>
<trkpt lat="47.36988" lon="10.8393"><ele>1327</ele></trkpt>
<trkpt lat="47.36991" lon="10.83916"><ele>1327</ele></trkpt>
<trkpt lat="47.36989" lon="10.83901"><ele>1327</ele></trkpt>
<trkpt lat="47.3698" lon="10.83893"><ele>1321</ele></trkpt>
<trkpt lat="47.36947" lon="10.83906"><ele>1321</ele></trkpt>
<trkpt lat="47.36941" lon="10.83919"><ele>1321</ele></trkpt>
<trkpt lat="47.36938" lon="10.83923"><ele>1321</ele></trkpt>
<trkpt lat="47.36925" lon="10.83928"><ele>1316</ele></trkpt>
<trkpt lat="47.36913" lon="10.83928"><ele>1316</ele></trkpt>
<trkpt lat="47.36901" lon="10.83938"><ele>1316</ele></trkpt>
<trkpt lat="47.36898" lon="10.83935"><ele>1316</ele></trkpt>
<trkpt lat="47.36899" lon="10.83923"><ele>1308</ele></trkpt>
<trkpt lat="47.369" lon="10.83909"><ele>1308</ele></trkpt>
<trkpt lat="47.36895" lon="10.83867"><ele>1308</ele></trkpt>
<trkpt lat="47.36892" lon="10.83852"><ele>1308</ele></trkpt>
<trkpt lat="47.36883" lon="10.83849"><ele>1302</ele></trkpt>
<trkpt lat="47.36871" lon="10.8385"><ele>1302</ele></trkpt>
<trkpt lat="47.36848" lon="10.83861"><ele>1302</ele></trkpt>
<trkpt lat="47.36817" lon="10.83882"><ele>1302</ele></trkpt>
<trkpt lat="47.36802" lon="10.83907"><ele>1295</ele></trkpt>
<trkpt lat="47.36752" lon="10.83959"><ele>1295</ele></trkpt>
<trkpt lat="47.36714" lon="10.83974"><ele>1295</ele></trkpt>
<trkpt lat="47.36646" lon="10.83977"><ele>1295</ele></trkpt>
<trkpt lat="47.36612" lon="10.84003"><ele>1255</ele></trkpt>
<trkpt lat="47.36548" lon="10.84012"><ele>1255</ele></trkpt>
<trkpt lat="47.36487" lon="10.84041"><ele>1255</ele></trkpt>
<trkpt lat="47.36439" lon="10.84032"><ele>1255</ele></trkpt>
<trkpt lat="47.36428" lon="10.84041"><ele>1223</ele></trkpt>
<trkpt lat="47.3641" lon="10.84031"><ele>1223</ele></trkpt>
<trkpt lat="47.36391" lon="10.83998"><ele>1223</ele></trkpt>
<trkpt lat="47.36362" lon="10.83977"><ele>1223</ele></trkpt>
<trkpt lat="47.36362" lon="10.83977"><ele>1215</ele></trkpt>
<trkpt lat="47.36363" lon="10.84033"><ele>1215</ele></trkpt>
<trkpt lat="47.36362" lon="10.8406"><ele>1215</ele></trkpt>
<trkpt lat="47.36362" lon="10.8406"><ele>1215</ele></trkpt>
<trkpt lat="47.36362" lon="10.8406"><ele>1204</ele></trkpt>
<trkpt lat="47.36362" lon="10.8406"><ele>1204</ele></trkpt>
<trkpt lat="47.36361" lon="10.8407"><ele>1204</ele></trkpt>
<trkpt lat="47.36354" lon="10.84105"><ele>1204</ele></trkpt>
<trkpt lat="47.36364" lon="10.84148"><ele>1195</ele></trkpt>
<trkpt lat="47.36368" lon="10.84171"><ele>1195</ele></trkpt>
<trkpt lat="47.36365" lon="10.84197"><ele>1195</ele></trkpt>
<trkpt lat="47.36358" lon="10.84223"><ele>1195</ele></trkpt>
<trkpt lat="47.36351" lon="10.84247"><ele>1185</ele></trkpt>
<trkpt lat="47.36333" lon="10.84275"><ele>1185</ele></trkpt>
<trkpt lat="47.36312" lon="10.84295"><ele>1185</ele></trkpt>
<trkpt lat="47.36302" lon="10.84321"><ele>1185</ele></trkpt>
<trkpt lat="47.36302" lon="10.84325"><ele>1182</ele></trkpt>
<trkpt lat="47.36302" lon="10.84325"><ele>1182</ele></trkpt>
<trkpt lat="47.3632" lon="10.84322"><ele>1182</ele></trkpt>
<trkpt lat="47.36333" lon="10.84325"><ele>1182</ele></trkpt>
<trkpt lat="47.36347" lon="10.84357"><ele>1169</ele></trkpt>
<trkpt lat="47.36344" lon="10.84391"><ele>1169</ele></trkpt>
<trkpt lat="47.36319" lon="10.84432"><ele>1169</ele></trkpt>
<trkpt lat="47.36309" lon="10.84494"><ele>1169</ele></trkpt>
<trkpt lat="47.36316" lon="10.845"><ele>1143</ele></trkpt>
<trkpt lat="47.36328" lon="10.84488"><ele>1143</ele></trkpt>
<trkpt lat="47.36341" lon="10.84489"><ele>1143</ele></trkpt>
<trkpt lat="47.36366" lon="10.84475"><ele>1143</ele></trkpt>
<trkpt lat="47.36382" lon="10.84475"><ele>1129</ele></trkpt>
<trkpt lat="47.364" lon="10.84459"><ele>1129</ele></trkpt>
<trkpt lat="47.36414" lon="10.84409"><ele>1129</ele></trkpt>
<trkpt lat="47.36431" lon="10.84365"><ele>1129</ele></trkpt>
<trkpt lat="47.36431" lon="10.84365"><ele>1117</ele></trkpt>
<trkpt lat="47.36431" lon="10.84374"><ele>1117</ele></trkpt>
<trkpt lat="47.36425" lon="10.84416"><ele>1117</ele></trkpt>
<trkpt lat="47.36423" lon="10.84462"><ele>1117</ele></trkpt>
<trkpt lat="47.36421" lon="10.84493"><ele>1109</ele></trkpt>
<trkpt lat="47.36417" lon="10.84513"><ele>1109</ele></trkpt>
<trkpt lat="47.3641" lon="10.84551"><ele>1109</ele></trkpt>
<trkpt lat="47.36401" lon="10.84587"><ele>1109</ele></trkpt>
<trkpt lat="47.36381" lon="10.84609"><ele>1099</ele></trkpt>
<trkpt lat="47.36351" lon="10.84624"><ele>1099</ele></trkpt>
<trkpt lat="47.36344" lon="10.84628"><ele>1099</ele></trkpt>
<trkpt lat="47.36332" lon="10.8463"><ele>1099</ele></trkpt>
<trkpt lat="47.36323" lon="10.84619"><ele>1097</ele></trkpt>
<trkpt lat="47.36283" lon="10.84601"><ele>1097</ele></trkpt>
<trkpt lat="47.36214" lon="10.84632"><ele>1097</ele></trkpt>
<trkpt lat="47.36194" lon="10.84634"><ele>1097</ele></trkpt>
<trkpt lat="47.36169" lon="10.8464"><ele>1096</ele></trkpt>
<trkpt lat="47.36144" lon="10.8464"><ele>1096</ele></trkpt>
<trkpt lat="47.361" lon="10.84653"><ele>1096</ele></trkpt>
<trkpt lat="47.36069" lon="10.84662"><ele>1096</ele></trkpt>
<trkpt lat="47.36046" lon="10.84672"><ele>1097</ele></trkpt>
<trkpt lat="47.36001" lon="10.8471"><ele>1097</ele></trkpt>
<trkpt lat="47.35977" lon="10.84757"><ele>1097</ele></trkpt>
<trkpt lat="47.35948" lon="10.84786"><ele>1097</ele></trkpt>
<trkpt lat="47.35931" lon="10.84836"><ele>1097</ele></trkpt>
<trkpt lat="47.35927" lon="10.84894"><ele>1097</ele></trkpt>
<trkpt lat="47.35934" lon="10.84932"><ele>1097</ele></trkpt>
<trkpt lat="47.35952" lon="10.84954"><ele>1097</ele></trkpt>
<trkpt lat="47.3596" lon="10.84968"><ele>1104</ele></trkpt>
<trkpt lat="47.35957" lon="10.85007"><ele>1104</ele></trkpt>
<trkpt lat="47.3594" lon="10.85023"><ele>1104</ele></trkpt>
<trkpt lat="47.35925" lon="10.85024"><ele>1104</ele></trkpt>
<trkpt lat="47.35898" lon="10.85017"><ele>1099</ele></trkpt>
<trkpt lat="47.35881" lon="10.85029"><ele>1099</ele></trkpt>
<trkpt lat="47.35847" lon="10.85072"><ele>1099</ele></trkpt>
<trkpt lat="47.35813" lon="10.85133"><ele>1099</ele></trkpt>
<trkpt lat="47.35787" lon="10.85169"><ele>1105</ele></trkpt>
<trkpt lat="47.35735" lon="10.85225"><ele>1105</ele></trkpt>
<trkpt lat="47.35715" lon="10.85266"><ele>1105</ele></trkpt>
<trkpt lat="47.35718" lon="10.85305"><ele>1105</ele></trkpt>
<trkpt lat="47.3574" lon="10.85339"><ele>1108</ele></trkpt>
<trkpt lat="47.35754" lon="10.85364"><ele>1108</ele></trkpt>
<trkpt lat="47.35772" lon="10.85381"><ele>1108</ele></trkpt>
<trkpt lat="47.35781" lon="10.85393"><ele>1108</ele></trkpt>
<trkpt lat="47.35802" lon="10.85389"><ele>1100</ele></trkpt>
<trkpt lat="47.35815" lon="10.8537"><ele>1100</ele></trkpt>
<trkpt lat="47.35831" lon="10.85353"><ele>1100</ele></trkpt>
<trkpt lat="47.35847" lon="10.85326"><ele>1100</ele></trkpt>
<trkpt lat="47.35866" lon="10.85283"><ele>1106</ele></trkpt>
<trkpt lat="47.35898" lon="10.8526"><ele>1106</ele></trkpt>
<trkpt lat="47.35909" lon="10.85278"><ele>1106</ele></trkpt>
<trkpt lat="47.35916" lon="10.853"><ele>1106</ele></trkpt>
<trkpt lat="47.35936" lon="10.85327"><ele>1110</ele></trkpt>
<trkpt lat="47.35967" lon="10.85339"><ele>1110</ele></trkpt>
<trkpt lat="47.35993" lon="10.85341"><ele>1110</ele></trkpt>
<trkpt lat="47.36011" lon="10.85339"><ele>1110</ele></trkpt>
<trkpt lat="47.36036" lon="10.85326"><ele>1103</ele></trkpt>
<trkpt lat="47.3605" lon="10.85301"><ele>1103</ele></trkpt>
<trkpt lat="47.36066" lon="10.85288"><ele>1103</ele></trkpt>
<trkpt lat="47.36087" lon="10.85286"><ele>1103</ele></trkpt>
<trkpt lat="47.36093" lon="10.85272"><ele>1101</ele></trkpt>
<trkpt lat="47.36104" lon="10.85253"><ele>1101</ele></trkpt>
<trkpt lat="47.36106" lon="10.85224"><ele>1101</ele></trkpt>
<trkpt lat="47.36108" lon="10.85193"><ele>1101</ele></trkpt>
<trkpt lat="47.36116" lon="10.85123"><ele>1109</ele></trkpt>
<trkpt lat="47.36119" lon="10.85091"><ele>1109</ele></trkpt>
<trkpt lat="47.3612" lon="10.85084"><ele>1109</ele></trkpt>
<trkpt lat="47.36132" lon="10.85048"><ele>1109</ele></trkpt>
<trkpt lat="47.36144" lon="10.85028"><ele>1105</ele></trkpt>
<trkpt lat="47.36163" lon="10.85008"><ele>1105</ele></trkpt>
<trkpt lat="47.3618" lon="10.8498"><ele>1105</ele></trkpt>
<trkpt lat="47.36198" lon="10.8496"><ele>1105</ele></trkpt>
<trkpt lat="47.36214" lon="10.84947"><ele>1105</ele></trkpt>
<trkpt lat="47.36236" lon="10.84946"><ele>1105</ele></trkpt>
<trkpt lat="47.3625" lon="10.84941"><ele>1105</ele></trkpt>
<trkpt lat="47.3625" lon="10.84941"><ele>1105</ele></trkpt>
<trkpt lat="47.3625" lon="10.84941"><ele>1104</ele></trkpt>
<trkpt lat="47.3625" lon="10.84941"><ele>1104</ele></trkpt>
<trkpt lat="47.36288" lon="10.84929"><ele>1104</ele></trkpt>
<trkpt lat="47.3632" lon="10.84909"><ele>1104</ele></trkpt>
<trkpt lat="47.36355" lon="10.84887"><ele>1104</ele></trkpt>
<trkpt lat="47.36385" lon="10.84885"><ele>1104</ele></trkpt>
<trkpt lat="47.36415" lon="10.84885"><ele>1104</ele></trkpt>
<trkpt lat="47.36454" lon="10.84898"><ele>1104</ele></trkpt>
<trkpt lat="47.36484" lon="10.84926"><ele>1098</ele></trkpt>
<trkpt lat="47.36502" lon="10.84951"><ele>1098</ele></trkpt>
<trkpt lat="47.36515" lon="10.84978"><ele>1098</ele></trkpt>
<trkpt lat="47.36531" lon="10.85022"><ele>1098</ele></trkpt>
<trkpt lat="47.36534" lon="10.85053"><ele>1105</ele></trkpt>
<trkpt lat="47.36536" lon="10.85069"><ele>1105</ele></trkpt>
<trkpt lat="47.36537" lon="10.85076"><ele>1105</ele></trkpt>
<trkpt lat="47.36541" lon="10.85083"><ele>1105</ele></trkpt>
<trkpt lat="47.36541" lon="10.85083"><ele>1105</ele></trkpt>
<trkpt lat="47.36569" lon="10.8512"><ele>1105</ele></trkpt>
<trkpt lat="47.36571" lon="10.85122"><ele>1105</ele></trkpt>
<trkpt lat="47.36604" lon="10.85144"><ele>1105</ele></trkpt>
<trkpt lat="47.36619" lon="10.8515"><ele>1107</ele></trkpt>
<trkpt lat="47.36631" lon="10.85171"><ele>1107</ele></trkpt>
<trkpt lat="47.36639" lon="10.85181"><ele>1107</ele></trkpt>
<trkpt lat="47.36643" lon="10.85191"><ele>1107</ele></trkpt>
<trkpt lat="47.36643" lon="10.85191"><ele>1106</ele></trkpt>
<trkpt lat="47.36647" lon="10.85179"><ele>1106</ele></trkpt>
<trkpt lat="47.36653" lon="10.85159"><ele>1106</ele></trkpt>
<trkpt lat="47.36653" lon="10.85159"><ele>1106</ele></trkpt>
<trkpt lat="47.36673" lon="10.85151"><ele>1100</ele></trkpt>
<trkpt lat="47.36673" lon="10.85151"><ele>1100</ele></trkpt>
<trkpt lat="47.36679" lon="10.8514"><ele>1099</ele></trkpt>
<trkpt lat="47.36693" lon="10.85134"><ele>1101</ele></trkpt>
<trkpt lat="47.36693" lon="10.85134"><ele>1101</ele></trkpt>
<trkpt lat="47.36686" lon="10.8515"><ele>1107</ele></trkpt>
<trkpt lat="47.3669" lon="10.85147"><ele>1102</ele></trkpt>
<trkpt lat="47.36711" lon="10.85134"><ele>1107</ele></trkpt>
<trkpt lat="47.36724" lon="10.85138"><ele>1114</ele></trkpt>
<trkpt lat="47.36708" lon="10.85151"><ele>1114</ele></trkpt>
<trkpt lat="47.36682" lon="10.85208"><ele>1120</ele></trkpt>
<trkpt lat="47.36703" lon="10.85191"><ele>1126</ele></trkpt>
<trkpt lat="47.36724" lon="10.85197"><ele>1130</ele></trkpt>
<trkpt lat="47.36736" lon="10.8521"><ele>1138</ele></trkpt>
<trkpt lat="47.36761" lon="10.85252"><ele>1148</ele></trkpt>
<trkpt lat="47.36783" lon="10.85298"><ele>1151</ele></trkpt>
<trkpt lat="47.36793" lon="10.8533"><ele>1157</ele></trkpt>
<trkpt lat="47.36809" lon="10.85359"><ele>1160</ele></trkpt>
<trkpt lat="47.36818" lon="10.85381"><ele>1161</ele></trkpt>
<trkpt lat="47.36821" lon="10.85404"><ele>1157</ele></trkpt>
<trkpt lat="47.36811" lon="10.85433"><ele>1153</ele></trkpt>
<trkpt lat="47.36804" lon="10.85452"><ele>1152</ele></trkpt>
<trkpt lat="47.36801" lon="10.85475"><ele>1143</ele></trkpt>
<trkpt lat="47.36801" lon="10.85483"><ele>1139</ele></trkpt>
<trkpt lat="47.36806" lon="10.85484"><ele>1135</ele></trkpt>
<trkpt lat="47.36819" lon="10.85478"><ele>1136</ele></trkpt>
<trkpt lat="47.3683" lon="10.85472"><ele>1135</ele></trkpt>
<trkpt lat="47.3684" lon="10.85474"><ele>1136</ele></trkpt>
<trkpt lat="47.36844" lon="10.85482"><ele>1132</ele></trkpt>
<trkpt lat="47.36838" lon="10.8549"><ele>1132</ele></trkpt>
<trkpt lat="47.36818" lon="10.85507"><ele>1127</ele></trkpt>
<trkpt lat="47.36814" lon="10.85513"><ele>1127</ele></trkpt>
<trkpt lat="47.3682" lon="10.85523"><ele>1125</ele></trkpt>
<trkpt lat="47.36838" lon="10.8555"><ele>1119</ele></trkpt>
<trkpt lat="47.36849" lon="10.85556"><ele>1118</ele></trkpt>
<trkpt lat="47.36851" lon="10.85563"><ele>1116</ele></trkpt>
<trkpt lat="47.36864" lon="10.8561"><ele>1111</ele></trkpt>
<trkpt lat="47.36864" lon="10.8561"><ele>1111</ele></trkpt>
<trkpt lat="47.36864" lon="10.8561"><ele>1111</ele></trkpt>
<trkpt lat="47.3689" lon="10.85616"><ele>1112</ele></trkpt>
<trkpt lat="47.36919" lon="10.85632"><ele>1114</ele></trkpt>
<trkpt lat="47.36942" lon="10.85656"><ele>1113</ele></trkpt>
<trkpt lat="47.36952" lon="10.85679"><ele>1112</ele></trkpt>
<trkpt lat="47.36957" lon="10.85705"><ele>1109</ele></trkpt>
<trkpt lat="47.3697" lon="10.85733"><ele>1107</ele></trkpt>
<trkpt lat="47.36981" lon="10.8577"><ele>1105</ele></trkpt>
<trkpt lat="47.36986" lon="10.85779"><ele>1105</ele></trkpt>
<trkpt lat="47.37008" lon="10.85801"><ele>1103</ele></trkpt>
<trkpt lat="47.37026" lon="10.85832"><ele>1104</ele></trkpt>
<trkpt lat="47.37033" lon="10.85863"><ele>1104</ele></trkpt>
<trkpt lat="47.37042" lon="10.85886"><ele>1105</ele></trkpt>
<trkpt lat="47.37049" lon="10.85903"><ele>1104</ele></trkpt>
<trkpt lat="47.37051" lon="10.85916"><ele>1104</ele></trkpt>
<trkpt lat="47.37047" lon="10.85935"><ele>1105</ele></trkpt>
<trkpt lat="47.37049" lon="10.85945"><ele>1105</ele></trkpt>
<trkpt lat="47.37049" lon="10.85945"><ele>1105</ele></trkpt>
<trkpt lat="47.37049" lon="10.85945"><ele>1105</ele></trkpt>

				</trkseg>
		  </trk>
		</gpx>
		