<?xml version="1.0" encoding="utf-8"?>
		<gpx xmlns="http://www.topografix.com/GPX/1/1" xmlns:xsd="http://www.w3.org/2001/XMLSchema" xmlns:xsi="http://www.w3.org/2001/XMLSchema-instance" version="1.1" creator="Fugawi 4,5,14,1696 http://www.fugawi.com/" xsi:schemaLocation="http://www.topografix.com/GPX/1/1 http://www.topografix.com/GPX/1/1/gpx.xsd">
			<trk>
				<name>Singletrail Forest Aisle</name>
				<desc></desc>
				<trkseg>
					<trkpt lat="47.38467" lon="10.86202"><ele>1695</ele></trkpt>
<trkpt lat="47.3849" lon="10.86207"><ele>1695</ele></trkpt>
<trkpt lat="47.38524" lon="10.86211"><ele>1695</ele></trkpt>
<trkpt lat="47.38535" lon="10.86216"><ele>1695</ele></trkpt>
<trkpt lat="47.38542" lon="10.86222"><ele>1694</ele></trkpt>
<trkpt lat="47.38549" lon="10.86233"><ele>1694</ele></trkpt>
<trkpt lat="47.38556" lon="10.86245"><ele>1694</ele></trkpt>
<trkpt lat="47.38559" lon="10.86252"><ele>1694</ele></trkpt>
<trkpt lat="47.38559" lon="10.86259"><ele>1692</ele></trkpt>
<trkpt lat="47.38558" lon="10.86267"><ele>1692</ele></trkpt>
<trkpt lat="47.38557" lon="10.86278"><ele>1692</ele></trkpt>
<trkpt lat="47.38557" lon="10.8629"><ele>1692</ele></trkpt>
<trkpt lat="47.38556" lon="10.86301"><ele>1686</ele></trkpt>
<trkpt lat="47.38555" lon="10.86312"><ele>1686</ele></trkpt>
<trkpt lat="47.38556" lon="10.86319"><ele>1686</ele></trkpt>
<trkpt lat="47.38553" lon="10.8635"><ele>1686</ele></trkpt>
<trkpt lat="47.38549" lon="10.86376"><ele>1680</ele></trkpt>
<trkpt lat="47.38552" lon="10.86388"><ele>1680</ele></trkpt>
<trkpt lat="47.38548" lon="10.86402"><ele>1680</ele></trkpt>
<trkpt lat="47.38544" lon="10.8642"><ele>1680</ele></trkpt>
<trkpt lat="47.38544" lon="10.86426"><ele>1672</ele></trkpt>
<trkpt lat="47.38544" lon="10.86437"><ele>1672</ele></trkpt>
<trkpt lat="47.3854" lon="10.86449"><ele>1672</ele></trkpt>
<trkpt lat="47.38528" lon="10.86458"><ele>1672</ele></trkpt>
<trkpt lat="47.38528" lon="10.86487"><ele>1664</ele></trkpt>
<trkpt lat="47.38519" lon="10.86498"><ele>1664</ele></trkpt>
<trkpt lat="47.38515" lon="10.86504"><ele>1664</ele></trkpt>
<trkpt lat="47.38512" lon="10.86518"><ele>1664</ele></trkpt>
<trkpt lat="47.38515" lon="10.86545"><ele>1656</ele></trkpt>
<trkpt lat="47.38508" lon="10.86571"><ele>1656</ele></trkpt>
<trkpt lat="47.38507" lon="10.8658"><ele>1656</ele></trkpt>
<trkpt lat="47.38507" lon="10.86591"><ele>1656</ele></trkpt>
<trkpt lat="47.38514" lon="10.86609"><ele>1645</ele></trkpt>
<trkpt lat="47.38521" lon="10.86621"><ele>1645</ele></trkpt>
<trkpt lat="47.38527" lon="10.86626"><ele>1645</ele></trkpt>
<trkpt lat="47.3853" lon="10.86639"><ele>1645</ele></trkpt>
<trkpt lat="47.38531" lon="10.8665"><ele>1642</ele></trkpt>
<trkpt lat="47.38531" lon="10.86666"><ele>1642</ele></trkpt>
<trkpt lat="47.38534" lon="10.86685"><ele>1642</ele></trkpt>
<trkpt lat="47.38538" lon="10.867"><ele>1642</ele></trkpt>
<trkpt lat="47.38543" lon="10.86711"><ele>1635</ele></trkpt>
<trkpt lat="47.38548" lon="10.86716"><ele>1635</ele></trkpt>
<trkpt lat="47.38557" lon="10.86718"><ele>1635</ele></trkpt>
<trkpt lat="47.38557" lon="10.86732"><ele>1635</ele></trkpt>
<trkpt lat="47.38566" lon="10.86748"><ele>1629</ele></trkpt>
<trkpt lat="47.38568" lon="10.86759"><ele>1629</ele></trkpt>
<trkpt lat="47.38569" lon="10.86771"><ele>1629</ele></trkpt>
<trkpt lat="47.38568" lon="10.86778"><ele>1629</ele></trkpt>
<trkpt lat="47.38572" lon="10.86796"><ele>1628</ele></trkpt>
<trkpt lat="47.38568" lon="10.86818"><ele>1628</ele></trkpt>
<trkpt lat="47.38574" lon="10.86828"><ele>1628</ele></trkpt>
<trkpt lat="47.38579" lon="10.86822"><ele>1628</ele></trkpt>
<trkpt lat="47.38582" lon="10.86829"><ele>1623</ele></trkpt>
<trkpt lat="47.3858" lon="10.86848"><ele>1623</ele></trkpt>
<trkpt lat="47.38584" lon="10.86853"><ele>1623</ele></trkpt>
<trkpt lat="47.38588" lon="10.8685"><ele>1623</ele></trkpt>
<trkpt lat="47.38595" lon="10.8684"><ele>1612</ele></trkpt>
<trkpt lat="47.38605" lon="10.86823"><ele>1612</ele></trkpt>
<trkpt lat="47.38609" lon="10.8681"><ele>1612</ele></trkpt>
<trkpt lat="47.38613" lon="10.86806"><ele>1612</ele></trkpt>
<trkpt lat="47.38616" lon="10.86792"><ele>1610</ele></trkpt>
<trkpt lat="47.38621" lon="10.86784"><ele>1610</ele></trkpt>
<trkpt lat="47.38626" lon="10.86779"><ele>1610</ele></trkpt>
<trkpt lat="47.38632" lon="10.8678"><ele>1610</ele></trkpt>
<trkpt lat="47.38638" lon="10.86779"><ele>1600</ele></trkpt>
<trkpt lat="47.38641" lon="10.86777"><ele>1600</ele></trkpt>
<trkpt lat="47.38647" lon="10.86775"><ele>1600</ele></trkpt>
<trkpt lat="47.38649" lon="10.86772"><ele>1600</ele></trkpt>
<trkpt lat="47.38652" lon="10.86763"><ele>1597</ele></trkpt>
<trkpt lat="47.38658" lon="10.86757"><ele>1597</ele></trkpt>
<trkpt lat="47.38664" lon="10.86739"><ele>1597</ele></trkpt>
<trkpt lat="47.38677" lon="10.86725"><ele>1597</ele></trkpt>
<trkpt lat="47.38685" lon="10.86719"><ele>1588</ele></trkpt>
<trkpt lat="47.387" lon="10.86702"><ele>1588</ele></trkpt>
<trkpt lat="47.38712" lon="10.86695"><ele>1588</ele></trkpt>
<trkpt lat="47.38719" lon="10.86687"><ele>1588</ele></trkpt>
<trkpt lat="47.38723" lon="10.86677"><ele>1585</ele></trkpt>
<trkpt lat="47.38733" lon="10.86671"><ele>1585</ele></trkpt>
<trkpt lat="47.38737" lon="10.86667"><ele>1585</ele></trkpt>
<trkpt lat="47.38739" lon="10.86658"><ele>1585</ele></trkpt>
<trkpt lat="47.38744" lon="10.86652"><ele>1579</ele></trkpt>
<trkpt lat="47.3875" lon="10.86652"><ele>1579</ele></trkpt>
<trkpt lat="47.38758" lon="10.86643"><ele>1579</ele></trkpt>
<trkpt lat="47.38752" lon="10.86632"><ele>1579</ele></trkpt>
<trkpt lat="47.38754" lon="10.86626"><ele>1574</ele></trkpt>
<trkpt lat="47.38764" lon="10.86615"><ele>1574</ele></trkpt>
<trkpt lat="47.38773" lon="10.86605"><ele>1574</ele></trkpt>
<trkpt lat="47.38778" lon="10.8661"><ele>1574</ele></trkpt>
<trkpt lat="47.3878" lon="10.86622"><ele>1566</ele></trkpt>
<trkpt lat="47.38783" lon="10.86626"><ele>1566</ele></trkpt>
<trkpt lat="47.38791" lon="10.86632"><ele>1566</ele></trkpt>
<trkpt lat="47.38804" lon="10.86637"><ele>1566</ele></trkpt>
<trkpt lat="47.38814" lon="10.8665"><ele>1559</ele></trkpt>
<trkpt lat="47.38822" lon="10.86646"><ele>1559</ele></trkpt>
<trkpt lat="47.38833" lon="10.86656"><ele>1559</ele></trkpt>
<trkpt lat="47.38853" lon="10.86645"><ele>1559</ele></trkpt>
<trkpt lat="47.38858" lon="10.86648"><ele>1551</ele></trkpt>
<trkpt lat="47.38862" lon="10.86653"><ele>1551</ele></trkpt>
<trkpt lat="47.38863" lon="10.86661"><ele>1551</ele></trkpt>
<trkpt lat="47.38863" lon="10.86671"><ele>1551</ele></trkpt>
<trkpt lat="47.38855" lon="10.86684"><ele>1545</ele></trkpt>
<trkpt lat="47.3885" lon="10.86691"><ele>1545</ele></trkpt>
<trkpt lat="47.38856" lon="10.86709"><ele>1545</ele></trkpt>
<trkpt lat="47.38857" lon="10.86715"><ele>1545</ele></trkpt>
<trkpt lat="47.38859" lon="10.86719"><ele>1541</ele></trkpt>
<trkpt lat="47.38858" lon="10.86729"><ele>1541</ele></trkpt>
<trkpt lat="47.38862" lon="10.86742"><ele>1541</ele></trkpt>
<trkpt lat="47.38863" lon="10.86753"><ele>1541</ele></trkpt>
<trkpt lat="47.38866" lon="10.86765"><ele>1535</ele></trkpt>
<trkpt lat="47.38867" lon="10.86776"><ele>1535</ele></trkpt>
<trkpt lat="47.38863" lon="10.86789"><ele>1535</ele></trkpt>
<trkpt lat="47.38861" lon="10.86802"><ele>1535</ele></trkpt>
<trkpt lat="47.38859" lon="10.86824"><ele>1533</ele></trkpt>
<trkpt lat="47.38858" lon="10.8684"><ele>1533</ele></trkpt>
<trkpt lat="47.3885" lon="10.86856"><ele>1533</ele></trkpt>
<trkpt lat="47.38846" lon="10.86876"><ele>1533</ele></trkpt>
<trkpt lat="47.38841" lon="10.86898"><ele>1528</ele></trkpt>
<trkpt lat="47.38846" lon="10.86905"><ele>1528</ele></trkpt>
<trkpt lat="47.38861" lon="10.86895"><ele>1528</ele></trkpt>
<trkpt lat="47.38863" lon="10.86903"><ele>1528</ele></trkpt>
<trkpt lat="47.38864" lon="10.86909"><ele>1515</ele></trkpt>
<trkpt lat="47.38856" lon="10.86928"><ele>1515</ele></trkpt>
<trkpt lat="47.38853" lon="10.86938"><ele>1515</ele></trkpt>
<trkpt lat="47.38849" lon="10.8695"><ele>1515</ele></trkpt>
<trkpt lat="47.38847" lon="10.86957"><ele>1511</ele></trkpt>
<trkpt lat="47.38838" lon="10.86971"><ele>1511</ele></trkpt>
<trkpt lat="47.38833" lon="10.86975"><ele>1511</ele></trkpt>
<trkpt lat="47.38828" lon="10.86987"><ele>1511</ele></trkpt>
<trkpt lat="47.38824" lon="10.87003"><ele>1509</ele></trkpt>
<trkpt lat="47.38821" lon="10.87018"><ele>1509</ele></trkpt>
<trkpt lat="47.38815" lon="10.87029"><ele>1509</ele></trkpt>
<trkpt lat="47.38808" lon="10.87043"><ele>1509</ele></trkpt>
<trkpt lat="47.38796" lon="10.87061"><ele>1502</ele></trkpt>
<trkpt lat="47.38791" lon="10.87076"><ele>1502</ele></trkpt>
<trkpt lat="47.38782" lon="10.87092"><ele>1502</ele></trkpt>
<trkpt lat="47.38776" lon="10.87105"><ele>1502</ele></trkpt>
<trkpt lat="47.38776" lon="10.87108"><ele>1491</ele></trkpt>
<trkpt lat="47.38779" lon="10.8711"><ele>1491</ele></trkpt>
<trkpt lat="47.3879" lon="10.87105"><ele>1491</ele></trkpt>
<trkpt lat="47.38792" lon="10.87109"><ele>1491</ele></trkpt>
<trkpt lat="47.38792" lon="10.87117"><ele>1483</ele></trkpt>
<trkpt lat="47.38788" lon="10.87128"><ele>1483</ele></trkpt>
<trkpt lat="47.38785" lon="10.87136"><ele>1483</ele></trkpt>
<trkpt lat="47.38788" lon="10.8715"><ele>1483</ele></trkpt>
<trkpt lat="47.38785" lon="10.87159"><ele>1475</ele></trkpt>
<trkpt lat="47.38781" lon="10.87171"><ele>1475</ele></trkpt>
<trkpt lat="47.38774" lon="10.87184"><ele>1475</ele></trkpt>
<trkpt lat="47.38768" lon="10.87194"><ele>1475</ele></trkpt>
<trkpt lat="47.38765" lon="10.87202"><ele>1480</ele></trkpt>
<trkpt lat="47.38765" lon="10.87209"><ele>1480</ele></trkpt>
<trkpt lat="47.38763" lon="10.87216"><ele>1480</ele></trkpt>
<trkpt lat="47.38758" lon="10.8722"><ele>1480</ele></trkpt>
<trkpt lat="47.38756" lon="10.8723"><ele>1477</ele></trkpt>
<trkpt lat="47.38752" lon="10.87239"><ele>1477</ele></trkpt>
<trkpt lat="47.38745" lon="10.87245"><ele>1477</ele></trkpt>
<trkpt lat="47.38742" lon="10.87253"><ele>1477</ele></trkpt>
<trkpt lat="47.3874" lon="10.87266"><ele>1472</ele></trkpt>
<trkpt lat="47.38735" lon="10.87273"><ele>1472</ele></trkpt>
<trkpt lat="47.38731" lon="10.87278"><ele>1472</ele></trkpt>
<trkpt lat="47.38729" lon="10.87285"><ele>1472</ele></trkpt>
<trkpt lat="47.38726" lon="10.87294"><ele>1467</ele></trkpt>
<trkpt lat="47.38718" lon="10.87313"><ele>1467</ele></trkpt>
<trkpt lat="47.38717" lon="10.87319"><ele>1467</ele></trkpt>
<trkpt lat="47.38716" lon="10.87329"><ele>1467</ele></trkpt>
<trkpt lat="47.38712" lon="10.87341"><ele>1457</ele></trkpt>
<trkpt lat="47.38706" lon="10.87357"><ele>1457</ele></trkpt>
<trkpt lat="47.38703" lon="10.87362"><ele>1457</ele></trkpt>
<trkpt lat="47.38699" lon="10.87371"><ele>1457</ele></trkpt>
<trkpt lat="47.38693" lon="10.87377"><ele>1448</ele></trkpt>
<trkpt lat="47.38682" lon="10.87387"><ele>1448</ele></trkpt>
<trkpt lat="47.38678" lon="10.87392"><ele>1448</ele></trkpt>
<trkpt lat="47.38674" lon="10.87397"><ele>1448</ele></trkpt>
<trkpt lat="47.38669" lon="10.87411"><ele>1446</ele></trkpt>
<trkpt lat="47.38668" lon="10.87414"><ele>1446</ele></trkpt>
<trkpt lat="47.3867" lon="10.87416"><ele>1446</ele></trkpt>
<trkpt lat="47.38671" lon="10.87415"><ele>1446</ele></trkpt>
<trkpt lat="47.38673" lon="10.87411"><ele>1446</ele></trkpt>
<trkpt lat="47.38673" lon="10.87411"><ele>1445</ele></trkpt>
<trkpt lat="47.38678" lon="10.87407"><ele>1445</ele></trkpt>
<trkpt lat="47.38688" lon="10.87395"><ele>1445</ele></trkpt>
<trkpt lat="47.38694" lon="10.87391"><ele>1445</ele></trkpt>
<trkpt lat="47.38697" lon="10.87394"><ele>1445</ele></trkpt>
<trkpt lat="47.38696" lon="10.87398"><ele>1438</ele></trkpt>
<trkpt lat="47.3869" lon="10.87404"><ele>1438</ele></trkpt>
<trkpt lat="47.38688" lon="10.87409"><ele>1438</ele></trkpt>
<trkpt lat="47.38689" lon="10.87413"><ele>1438</ele></trkpt>
<trkpt lat="47.38691" lon="10.87413"><ele>1435</ele></trkpt>
<trkpt lat="47.38695" lon="10.87412"><ele>1435</ele></trkpt>
<trkpt lat="47.38702" lon="10.87405"><ele>1435</ele></trkpt>
<trkpt lat="47.38707" lon="10.87401"><ele>1435</ele></trkpt>
<trkpt lat="47.3871" lon="10.874"><ele>1432</ele></trkpt>
<trkpt lat="47.3871" lon="10.87403"><ele>1432</ele></trkpt>
<trkpt lat="47.38706" lon="10.87409"><ele>1432</ele></trkpt>
<trkpt lat="47.38701" lon="10.87417"><ele>1432</ele></trkpt>
<trkpt lat="47.38698" lon="10.87423"><ele>1431</ele></trkpt>
<trkpt lat="47.38697" lon="10.87427"><ele>1431</ele></trkpt>
<trkpt lat="47.38698" lon="10.87431"><ele>1431</ele></trkpt>
<trkpt lat="47.38701" lon="10.87431"><ele>1431</ele></trkpt>
<trkpt lat="47.38717" lon="10.87414"><ele>1424</ele></trkpt>
<trkpt lat="47.38721" lon="10.87412"><ele>1424</ele></trkpt>
<trkpt lat="47.38724" lon="10.87416"><ele>1424</ele></trkpt>
<trkpt lat="47.38722" lon="10.8742"><ele>1424</ele></trkpt>
<trkpt lat="47.38709" lon="10.87444"><ele>1417</ele></trkpt>
<trkpt lat="47.38706" lon="10.87455"><ele>1417</ele></trkpt>
<trkpt lat="47.38705" lon="10.87462"><ele>1417</ele></trkpt>
<trkpt lat="47.38706" lon="10.87467"><ele>1417</ele></trkpt>
<trkpt lat="47.38706" lon="10.8747"><ele>1420</ele></trkpt>
<trkpt lat="47.38708" lon="10.8747"><ele>1420</ele></trkpt>
<trkpt lat="47.38722" lon="10.8746"><ele>1420</ele></trkpt>
<trkpt lat="47.38727" lon="10.87457"><ele>1420</ele></trkpt>
<trkpt lat="47.3873" lon="10.87451"><ele>1404</ele></trkpt>
<trkpt lat="47.38737" lon="10.87438"><ele>1404</ele></trkpt>
<trkpt lat="47.3874" lon="10.87437"><ele>1404</ele></trkpt>
<trkpt lat="47.3874" lon="10.87442"><ele>1404</ele></trkpt>
<trkpt lat="47.38735" lon="10.87459"><ele>1401</ele></trkpt>
<trkpt lat="47.38728" lon="10.87475"><ele>1401</ele></trkpt>
<trkpt lat="47.38727" lon="10.87483"><ele>1401</ele></trkpt>
<trkpt lat="47.38727" lon="10.87487"><ele>1401</ele></trkpt>
<trkpt lat="47.38729" lon="10.8749"><ele>1396</ele></trkpt>
<trkpt lat="47.38737" lon="10.87487"><ele>1396</ele></trkpt>
<trkpt lat="47.38744" lon="10.87482"><ele>1396</ele></trkpt>
<trkpt lat="47.38669" lon="10.87417"><ele>1446</ele></trkpt>
<trkpt lat="47.38668" lon="10.87459"><ele>1444</ele></trkpt>
<trkpt lat="47.38664" lon="10.87472"><ele>1442</ele></trkpt>
<trkpt lat="47.38659" lon="10.87483"><ele>1440</ele></trkpt>
<trkpt lat="47.38656" lon="10.87519"><ele>1435</ele></trkpt>
<trkpt lat="47.38652" lon="10.87541"><ele>1434</ele></trkpt>
<trkpt lat="47.38644" lon="10.8755"><ele>1436</ele></trkpt>
<trkpt lat="47.38633" lon="10.87554"><ele>1438</ele></trkpt>
<trkpt lat="47.38625" lon="10.87556"><ele>1439</ele></trkpt>
<trkpt lat="47.38623" lon="10.8756"><ele>1439</ele></trkpt>
<trkpt lat="47.38607" lon="10.87631"><ele>1432</ele></trkpt>
<trkpt lat="47.38598" lon="10.87652"><ele>1427</ele></trkpt>
<trkpt lat="47.38557" lon="10.87717"><ele>1421</ele></trkpt>
<trkpt lat="47.38554" lon="10.87727"><ele>1421</ele></trkpt>
<trkpt lat="47.38556" lon="10.87733"><ele>1418</ele></trkpt>
<trkpt lat="47.38562" lon="10.87734"><ele>1416</ele></trkpt>
<trkpt lat="47.38582" lon="10.87719"><ele>1413</ele></trkpt>
<trkpt lat="47.3862" lon="10.87705"><ele>1409</ele></trkpt>
<trkpt lat="47.38641" lon="10.87691"><ele>1405</ele></trkpt>
<trkpt lat="47.38671" lon="10.8765"><ele>1406</ele></trkpt>
<trkpt lat="47.38691" lon="10.87612"><ele>1397</ele></trkpt>
<trkpt lat="47.38698" lon="10.87582"><ele>1401</ele></trkpt>
<trkpt lat="47.38701" lon="10.87567"><ele>1395</ele></trkpt>
<trkpt lat="47.38733" lon="10.87502"><ele>1387</ele></trkpt>
<trkpt lat="47.38745" lon="10.87482"><ele>1390</ele></trkpt>

				</trkseg>
		  </trk>
		</gpx>
		