<?xml version='1.0' encoding='UTF-8'?>
<gpx version="1.1" creator="https://www.komoot.de" xmlns="http://www.topografix.com/GPX/1/1" xmlns:xsi="http://www.w3.org/2001/XMLSchema-instance" xsi:schemaLocation="http://www.topografix.com/GPX/1/1 http://www.topografix.com/GPX/1/1/gpx.xsd">
  <metadata>
    <name>53 - Cucco</name>
    <author>
      <link href="https://www.komoot.de">
        <text>komoot</text>
        <type>text/html</type>
      </link>
    </author>
  </metadata>
  <trk>
    <name>53 - Cucco</name>
    <type>mtb</type>
    <trkseg>
      <trkpt lat="44.213899" lon="8.331566">
        <ele>307.080416</ele>
        <time>2021-08-13T12:00:10.651Z</time>
      </trkpt>
      <trkpt lat="44.213899" lon="8.331566">
        <ele>307.080416</ele>
        <time>2021-08-13T12:00:10.688Z</time>
      </trkpt>
      <trkpt lat="44.213817" lon="8.331498">
        <ele>307.080416</ele>
        <time>2021-08-13T12:00:13.100Z</time>
      </trkpt>
      <trkpt lat="44.213238" lon="8.331230">
        <ele>304.111314</ele>
        <time>2021-08-13T12:00:27.848Z</time>
      </trkpt>
      <trkpt lat="44.212878" lon="8.331311">
        <ele>301.685483</ele>
        <time>2021-08-13T12:00:36.251Z</time>
      </trkpt>
      <trkpt lat="44.212764" lon="8.331316">
        <ele>300.727537</ele>
        <time>2021-08-13T12:00:38.774Z</time>
      </trkpt>
      <trkpt lat="44.212668" lon="8.331304">
        <ele>300.026785</ele>
        <time>2021-08-13T12:00:40.797Z</time>
      </trkpt>
      <trkpt lat="44.212121" lon="8.331098">
        <ele>296.605880</ele>
        <time>2021-08-13T12:00:54.353Z</time>
      </trkpt>
      <trkpt lat="44.212024" lon="8.331076">
        <ele>296.003019</ele>
        <time>2021-08-13T12:00:56.532Z</time>
      </trkpt>
      <trkpt lat="44.211964" lon="8.331062">
        <ele>295.651466</ele>
        <time>2021-08-13T12:00:57.792Z</time>
      </trkpt>
      <trkpt lat="44.211481" lon="8.330962">
        <ele>292.906882</ele>
        <time>2021-08-13T12:01:09.744Z</time>
      </trkpt>
      <trkpt lat="44.211253" lon="8.330850">
        <ele>291.696837</ele>
        <time>2021-08-13T12:01:15.390Z</time>
      </trkpt>
      <trkpt lat="44.210867" lon="8.330407">
        <ele>290.310450</ele>
        <time>2021-08-13T12:01:28.771Z</time>
      </trkpt>
      <trkpt lat="44.210395" lon="8.330414">
        <ele>289.371293</ele>
        <time>2021-08-13T12:01:41.578Z</time>
      </trkpt>
      <trkpt lat="44.210132" lon="8.330301">
        <ele>289.423854</ele>
        <time>2021-08-13T12:01:50.945Z</time>
      </trkpt>
      <trkpt lat="44.209805" lon="8.330188">
        <ele>289.747265</ele>
        <time>2021-08-13T12:02:03.300Z</time>
      </trkpt>
      <trkpt lat="44.209321" lon="8.330102">
        <ele>290.650469</ele>
        <time>2021-08-13T12:02:23.287Z</time>
      </trkpt>
      <trkpt lat="44.208957" lon="8.329967">
        <ele>291.848982</ele>
        <time>2021-08-13T12:02:41.007Z</time>
      </trkpt>
      <trkpt lat="44.208297" lon="8.329866">
        <ele>294.498465</ele>
        <time>2021-08-13T12:03:15.433Z</time>
      </trkpt>
      <trkpt lat="44.208000" lon="8.329855">
        <ele>295.870361</ele>
        <time>2021-08-13T12:03:31.257Z</time>
      </trkpt>
      <trkpt lat="44.207630" lon="8.329980">
        <ele>298.707586</ele>
        <time>2021-08-13T12:03:58.937Z</time>
      </trkpt>
      <trkpt lat="44.207479" lon="8.330104">
        <ele>300.159124</ele>
        <time>2021-08-13T12:04:09.647Z</time>
      </trkpt>
      <trkpt lat="44.207389" lon="8.330290">
        <ele>301.717120</ele>
        <time>2021-08-13T12:04:24.675Z</time>
      </trkpt>
      <trkpt lat="44.207322" lon="8.330946">
        <ele>306.071754</ele>
        <time>2021-08-13T12:05:01.195Z</time>
      </trkpt>
      <trkpt lat="44.207361" lon="8.331647">
        <ele>310.586924</ele>
        <time>2021-08-13T12:05:38.294Z</time>
      </trkpt>
      <trkpt lat="44.207371" lon="8.331739">
        <ele>311.355465</ele>
        <time>2021-08-13T12:05:46.192Z</time>
      </trkpt>
      <trkpt lat="44.207387" lon="8.331820">
        <ele>312.049405</ele>
        <time>2021-08-13T12:05:52.034Z</time>
      </trkpt>
      <trkpt lat="44.207358" lon="8.332224">
        <ele>314.556261</ele>
        <time>2021-08-13T12:06:12.748Z</time>
      </trkpt>
      <trkpt lat="44.207140" lon="8.332702">
        <ele>318.087723</ele>
        <time>2021-08-13T12:06:44.085Z</time>
      </trkpt>
      <trkpt lat="44.206956" lon="8.332981">
        <ele>319.871559</ele>
        <time>2021-08-13T12:07:00.295Z</time>
      </trkpt>
      <trkpt lat="44.206831" lon="8.333066">
        <ele>320.971046</ele>
        <time>2021-08-13T12:07:12.345Z</time>
      </trkpt>
      <trkpt lat="44.206682" lon="8.333277">
        <ele>322.107324</ele>
        <time>2021-08-13T12:07:23.014Z</time>
      </trkpt>
      <trkpt lat="44.206447" lon="8.333328">
        <ele>323.426809</ele>
        <time>2021-08-13T12:07:38.600Z</time>
      </trkpt>
      <trkpt lat="44.206392" lon="8.333411">
        <ele>323.664568</ele>
        <time>2021-08-13T12:07:41.868Z</time>
      </trkpt>
      <trkpt lat="44.206090" lon="8.333517">
        <ele>323.994200</ele>
        <time>2021-08-13T12:07:53.050Z</time>
      </trkpt>
      <trkpt lat="44.205960" lon="8.333659">
        <ele>323.966582</ele>
        <time>2021-08-13T12:07:58.547Z</time>
      </trkpt>
      <trkpt lat="44.205713" lon="8.334216">
        <ele>323.176049</ele>
        <time>2021-08-13T12:08:11.585Z</time>
      </trkpt>
      <trkpt lat="44.205655" lon="8.334624">
        <ele>322.467326</ele>
        <time>2021-08-13T12:08:19.553Z</time>
      </trkpt>
      <trkpt lat="44.205492" lon="8.335123">
        <ele>321.329377</ele>
        <time>2021-08-13T12:08:29.861Z</time>
      </trkpt>
      <trkpt lat="44.205383" lon="8.335936">
        <ele>319.694288</ele>
        <time>2021-08-13T12:08:45.642Z</time>
      </trkpt>
      <trkpt lat="44.205356" lon="8.336068">
        <ele>319.320615</ele>
        <time>2021-08-13T12:08:47.916Z</time>
      </trkpt>
      <trkpt lat="44.205335" lon="8.336153">
        <ele>319.075870</ele>
        <time>2021-08-13T12:08:49.631Z</time>
      </trkpt>
      <trkpt lat="44.205225" lon="8.337167">
        <ele>318.064895</ele>
        <time>2021-08-13T12:09:10.767Z</time>
      </trkpt>
      <trkpt lat="44.205003" lon="8.337608">
        <ele>318.089847</ele>
        <time>2021-08-13T12:09:23.655Z</time>
      </trkpt>
      <trkpt lat="44.204704" lon="8.337780">
        <ele>318.289641</ele>
        <time>2021-08-13T12:09:33.877Z</time>
      </trkpt>
      <trkpt lat="44.204653" lon="8.337845">
        <ele>318.456375</ele>
        <time>2021-08-13T12:09:38.019Z</time>
      </trkpt>
      <trkpt lat="44.204552" lon="8.337856">
        <ele>318.695257</ele>
        <time>2021-08-13T12:09:42.254Z</time>
      </trkpt>
      <trkpt lat="44.204097" lon="8.337859">
        <ele>319.615491</ele>
        <time>2021-08-13T12:10:01.335Z</time>
      </trkpt>
      <trkpt lat="44.204005" lon="8.337902">
        <ele>319.878269</ele>
        <time>2021-08-13T12:10:05.353Z</time>
      </trkpt>
      <trkpt lat="44.203943" lon="8.337974">
        <ele>320.096754</ele>
        <time>2021-08-13T12:10:09.886Z</time>
      </trkpt>
      <trkpt lat="44.203777" lon="8.338035">
        <ele>320.446875</ele>
        <time>2021-08-13T12:10:16.078Z</time>
      </trkpt>
      <trkpt lat="44.203592" lon="8.337915">
        <ele>320.799268</ele>
        <time>2021-08-13T12:10:25.188Z</time>
      </trkpt>
      <trkpt lat="44.203256" lon="8.336902">
        <ele>321.362225</ele>
        <time>2021-08-13T12:10:53.198Z</time>
      </trkpt>
      <trkpt lat="44.203070" lon="8.336631">
        <ele>321.180229</ele>
        <time>2021-08-13T12:11:01.530Z</time>
      </trkpt>
      <trkpt lat="44.202722" lon="8.336355">
        <ele>320.155739</ele>
        <time>2021-08-13T12:11:12.042Z</time>
      </trkpt>
      <trkpt lat="44.202488" lon="8.336241">
        <ele>319.230355</ele>
        <time>2021-08-13T12:11:18.221Z</time>
      </trkpt>
      <trkpt lat="44.202128" lon="8.336271">
        <ele>318.023055</ele>
        <time>2021-08-13T12:11:27.448Z</time>
      </trkpt>
      <trkpt lat="44.201586" lon="8.336643">
        <ele>316.372012</ele>
        <time>2021-08-13T12:11:43.376Z</time>
      </trkpt>
      <trkpt lat="44.201498" lon="8.336686">
        <ele>316.172528</ele>
        <time>2021-08-13T12:11:45.761Z</time>
      </trkpt>
      <trkpt lat="44.201375" lon="8.336741">
        <ele>316.092101</ele>
        <time>2021-08-13T12:11:50.651Z</time>
      </trkpt>
      <trkpt lat="44.201225" lon="8.336776">
        <ele>316.052123</ele>
        <time>2021-08-13T12:11:54.981Z</time>
      </trkpt>
      <trkpt lat="44.201035" lon="8.336804">
        <ele>316.000610</ele>
        <time>2021-08-13T12:12:01.274Z</time>
      </trkpt>
      <trkpt lat="44.200708" lon="8.336743">
        <ele>316.004917</ele>
        <time>2021-08-13T12:12:11.917Z</time>
      </trkpt>
      <trkpt lat="44.200533" lon="8.336791">
        <ele>316.072909</ele>
        <time>2021-08-13T12:12:17.468Z</time>
      </trkpt>
      <trkpt lat="44.200265" lon="8.336533">
        <ele>316.424375</ele>
        <time>2021-08-13T12:12:30.136Z</time>
      </trkpt>
      <trkpt lat="44.200199" lon="8.336426">
        <ele>316.568168</ele>
        <time>2021-08-13T12:12:33.361Z</time>
      </trkpt>
      <trkpt lat="44.200164" lon="8.336345">
        <ele>316.714647</ele>
        <time>2021-08-13T12:12:35.560Z</time>
      </trkpt>
      <trkpt lat="44.200138" lon="8.336297">
        <ele>316.807824</ele>
        <time>2021-08-13T12:12:39.047Z</time>
      </trkpt>
      <trkpt lat="44.200163" lon="8.336067">
        <ele>317.223873</ele>
        <time>2021-08-13T12:12:45.545Z</time>
      </trkpt>
      <trkpt lat="44.200081" lon="8.335906">
        <ele>317.625833</ele>
        <time>2021-08-13T12:12:52.396Z</time>
      </trkpt>
      <trkpt lat="44.199817" lon="8.335815">
        <ele>318.799013</ele>
        <time>2021-08-13T12:13:06.925Z</time>
      </trkpt>
      <trkpt lat="44.199632" lon="8.335993">
        <ele>319.738546</ele>
        <time>2021-08-13T12:13:19.182Z</time>
      </trkpt>
      <trkpt lat="44.199377" lon="8.335911">
        <ele>320.687337</ele>
        <time>2021-08-13T12:13:31.641Z</time>
      </trkpt>
      <trkpt lat="44.199343" lon="8.335879">
        <ele>320.849357</ele>
        <time>2021-08-13T12:13:35.026Z</time>
      </trkpt>
      <trkpt lat="44.199334" lon="8.335826">
        <ele>321.003603</ele>
        <time>2021-08-13T12:13:36.392Z</time>
      </trkpt>
      <trkpt lat="44.199031" lon="8.335260">
        <ele>322.255983</ele>
        <time>2021-08-13T12:13:58.777Z</time>
      </trkpt>
      <trkpt lat="44.198824" lon="8.335082">
        <ele>322.414371</ele>
        <time>2021-08-13T12:14:07.279Z</time>
      </trkpt>
      <trkpt lat="44.198453" lon="8.334010">
        <ele>321.141498</ele>
        <time>2021-08-13T12:14:31.417Z</time>
      </trkpt>
      <trkpt lat="44.198026" lon="8.333581">
        <ele>319.545511</ele>
        <time>2021-08-13T12:14:45.174Z</time>
      </trkpt>
      <trkpt lat="44.197992" lon="8.333538">
        <ele>319.352474</ele>
        <time>2021-08-13T12:14:46.376Z</time>
      </trkpt>
      <trkpt lat="44.197973" lon="8.333509">
        <ele>319.234012</ele>
        <time>2021-08-13T12:14:46.986Z</time>
      </trkpt>
      <trkpt lat="44.197748" lon="8.333072">
        <ele>317.601705</ele>
        <time>2021-08-13T12:14:56.629Z</time>
      </trkpt>
      <trkpt lat="44.197704" lon="8.333019">
        <ele>317.319432</ele>
        <time>2021-08-13T12:14:57.871Z</time>
      </trkpt>
      <trkpt lat="44.197634" lon="8.332864">
        <ele>316.687524</ele>
        <time>2021-08-13T12:15:01.338Z</time>
      </trkpt>
      <trkpt lat="44.197608" lon="8.332778">
        <ele>316.379547</ele>
        <time>2021-08-13T12:15:03.152Z</time>
      </trkpt>
      <trkpt lat="44.197585" lon="8.332713">
        <ele>316.140363</ele>
        <time>2021-08-13T12:15:04.440Z</time>
      </trkpt>
      <trkpt lat="44.197560" lon="8.332662">
        <ele>315.936501</ele>
        <time>2021-08-13T12:15:05.465Z</time>
      </trkpt>
      <trkpt lat="44.197544" lon="8.332634">
        <ele>315.818351</ele>
        <time>2021-08-13T12:15:06.080Z</time>
      </trkpt>
      <trkpt lat="44.197525" lon="8.332604">
        <ele>315.678802</ele>
        <time>2021-08-13T12:15:06.752Z</time>
      </trkpt>
      <trkpt lat="44.197515" lon="8.332596">
        <ele>315.620206</ele>
        <time>2021-08-13T12:15:06.996Z</time>
      </trkpt>
      <trkpt lat="44.197200" lon="8.332471">
        <ele>314.012821</ele>
        <time>2021-08-13T12:15:15.188Z</time>
      </trkpt>
      <trkpt lat="44.196383" lon="8.333112">
        <ele>308.922377</ele>
        <time>2021-08-13T12:15:37.407Z</time>
      </trkpt>
      <trkpt lat="44.196209" lon="8.333159">
        <ele>307.912268</ele>
        <time>2021-08-13T12:15:41.631Z</time>
      </trkpt>
      <trkpt lat="44.196165" lon="8.333124">
        <ele>307.616726</ele>
        <time>2021-08-13T12:15:42.751Z</time>
      </trkpt>
      <trkpt lat="44.196126" lon="8.332718">
        <ele>306.138233</ele>
        <time>2021-08-13T12:15:49.976Z</time>
      </trkpt>
      <trkpt lat="44.196055" lon="8.332527">
        <ele>305.266019</ele>
        <time>2021-08-13T12:15:53.530Z</time>
      </trkpt>
      <trkpt lat="44.195547" lon="8.332221">
        <ele>302.496492</ele>
        <time>2021-08-13T12:16:06.948Z</time>
      </trkpt>
      <trkpt lat="44.195494" lon="8.332155">
        <ele>302.041340</ele>
        <time>2021-08-13T12:16:08.616Z</time>
      </trkpt>
      <trkpt lat="44.195483" lon="8.332148">
        <ele>301.963886</ele>
        <time>2021-08-13T12:16:08.853Z</time>
      </trkpt>
      <trkpt lat="44.195422" lon="8.332124">
        <ele>301.557868</ele>
        <time>2021-08-13T12:16:10.419Z</time>
      </trkpt>
      <trkpt lat="44.195058" lon="8.332386">
        <ele>299.525512</ele>
        <time>2021-08-13T12:16:20.254Z</time>
      </trkpt>
      <trkpt lat="44.194935" lon="8.332386">
        <ele>298.843815</ele>
        <time>2021-08-13T12:16:23.338Z</time>
      </trkpt>
      <trkpt lat="44.194291" lon="8.332699">
        <ele>294.159510</ele>
        <time>2021-08-13T12:16:38.861Z</time>
      </trkpt>
      <trkpt lat="44.194041" lon="8.332756">
        <ele>292.425992</ele>
        <time>2021-08-13T12:16:44.506Z</time>
      </trkpt>
      <trkpt lat="44.193601" lon="8.333155">
        <ele>289.446843</ele>
        <time>2021-08-13T12:16:57.234Z</time>
      </trkpt>
      <trkpt lat="44.193565" lon="8.333183">
        <ele>289.186775</ele>
        <time>2021-08-13T12:16:58.078Z</time>
      </trkpt>
      <trkpt lat="44.193520" lon="8.333215">
        <ele>288.911099</ele>
        <time>2021-08-13T12:16:59.174Z</time>
      </trkpt>
      <trkpt lat="44.192793" lon="8.333707">
        <ele>285.032085</ele>
        <time>2021-08-13T12:17:18.909Z</time>
      </trkpt>
      <trkpt lat="44.192350" lon="8.333876">
        <ele>283.182624</ele>
        <time>2021-08-13T12:17:30.465Z</time>
      </trkpt>
      <trkpt lat="44.192127" lon="8.334161">
        <ele>282.014514</ele>
        <time>2021-08-13T12:17:37.960Z</time>
      </trkpt>
      <trkpt lat="44.192117" lon="8.334402">
        <ele>281.680281</ele>
        <time>2021-08-13T12:17:42.831Z</time>
      </trkpt>
      <trkpt lat="44.192007" lon="8.334531">
        <ele>281.412767</ele>
        <time>2021-08-13T12:17:46.723Z</time>
      </trkpt>
      <trkpt lat="44.191958" lon="8.334929">
        <ele>280.887012</ele>
        <time>2021-08-13T12:17:54.902Z</time>
      </trkpt>
      <trkpt lat="44.191779" lon="8.335044">
        <ele>280.545544</ele>
        <time>2021-08-13T12:18:00.381Z</time>
      </trkpt>
      <trkpt lat="44.191600" lon="8.335067">
        <ele>280.252646</ele>
        <time>2021-08-13T12:18:05.447Z</time>
      </trkpt>
      <trkpt lat="44.191581" lon="8.335079">
        <ele>280.219783</ele>
        <time>2021-08-13T12:18:06.114Z</time>
      </trkpt>
      <trkpt lat="44.191577" lon="8.335087">
        <ele>280.208764</ele>
        <time>2021-08-13T12:18:06.254Z</time>
      </trkpt>
      <trkpt lat="44.191483" lon="8.335419">
        <ele>279.793874</ele>
        <time>2021-08-13T12:18:13.511Z</time>
      </trkpt>
      <trkpt lat="44.191496" lon="8.335821">
        <ele>279.294714</ele>
        <time>2021-08-13T12:18:21.517Z</time>
      </trkpt>
      <trkpt lat="44.191441" lon="8.336180">
        <ele>278.786804</ele>
        <time>2021-08-13T12:18:28.807Z</time>
      </trkpt>
      <trkpt lat="44.191061" lon="8.336990">
        <ele>277.275975</ele>
        <time>2021-08-13T12:18:47.752Z</time>
      </trkpt>
      <trkpt lat="44.190629" lon="8.337319">
        <ele>275.949690</ele>
        <time>2021-08-13T12:19:00.803Z</time>
      </trkpt>
      <trkpt lat="44.190046" lon="8.337593">
        <ele>273.958632</ele>
        <time>2021-08-13T12:19:16.662Z</time>
      </trkpt>
      <trkpt lat="44.189391" lon="8.338341">
        <ele>270.601784</ele>
        <time>2021-08-13T12:19:37.790Z</time>
      </trkpt>
      <trkpt lat="44.189140" lon="8.338383">
        <ele>269.588786</ele>
        <time>2021-08-13T12:19:44.050Z</time>
      </trkpt>
      <trkpt lat="44.188829" lon="8.338614">
        <ele>268.123416</ele>
        <time>2021-08-13T12:19:52.784Z</time>
      </trkpt>
      <trkpt lat="44.188199" lon="8.338876">
        <ele>265.685382</ele>
        <time>2021-08-13T12:20:09.336Z</time>
      </trkpt>
      <trkpt lat="44.188100" lon="8.339009">
        <ele>265.285491</ele>
        <time>2021-08-13T12:20:12.996Z</time>
      </trkpt>
      <trkpt lat="44.187964" lon="8.339084">
        <ele>264.931863</ele>
        <time>2021-08-13T12:20:16.823Z</time>
      </trkpt>
      <trkpt lat="44.187334" lon="8.339823">
        <ele>263.467993</ele>
        <time>2021-08-13T12:20:39.690Z</time>
      </trkpt>
      <trkpt lat="44.187288" lon="8.339886">
        <ele>263.387646</ele>
        <time>2021-08-13T12:20:41.389Z</time>
      </trkpt>
      <trkpt lat="44.187254" lon="8.339924">
        <ele>263.334671</ele>
        <time>2021-08-13T12:20:43.547Z</time>
      </trkpt>
      <trkpt lat="44.187120" lon="8.340046">
        <ele>263.303824</ele>
        <time>2021-08-13T12:20:48.358Z</time>
      </trkpt>
      <trkpt lat="44.186712" lon="8.340632">
        <ele>263.193011</ele>
        <time>2021-08-13T12:21:06.665Z</time>
      </trkpt>
      <trkpt lat="44.186429" lon="8.340858">
        <ele>263.136106</ele>
        <time>2021-08-13T12:21:16.965Z</time>
      </trkpt>
      <trkpt lat="44.185803" lon="8.340877">
        <ele>263.339917</ele>
        <time>2021-08-13T12:21:37.935Z</time>
      </trkpt>
      <trkpt lat="44.185663" lon="8.340825">
        <ele>263.339917</ele>
        <time>2021-08-13T12:21:43.032Z</time>
      </trkpt>
      <trkpt lat="44.185653" lon="8.340815">
        <ele>263.339917</ele>
        <time>2021-08-13T12:21:43.708Z</time>
      </trkpt>
      <trkpt lat="44.185631" lon="8.340790">
        <ele>263.339917</ele>
        <time>2021-08-13T12:21:44.710Z</time>
      </trkpt>
      <trkpt lat="44.185631" lon="8.340790">
        <ele>263.339917</ele>
        <time>2021-08-13T12:21:44.734Z</time>
      </trkpt>
    </trkseg>
  </trk>
</gpx>