<?xml version="1.0" encoding="UTF-8" standalone="no"?>
<gpx version="1.1" creator="Trailforks.com" xmlns="http://www.topografix.com/GPX/1/1" xmlns:xsi="http://www.w3.org/2001/XMLSchema-instance" xmlns:gpxtpx="http://www.garmin.com/xmlschemas/TrackPointExtension/v1" xsi:schemaLocation="http://www.topografix.com/GPX/1/1 http://www.topografix.com/GPX/1/1/gpx.xsd http://www.garmin.com/xmlschemas/TrackPointExtension/v1 http://www.garmin.com/xmlschemas/TrackPointExtensionv1.xsd">
<metadata>
<name>Roller Coaster Trailforks Trail</name>
<link href="https://www.trailforks.com/">
<text>Trailforks</text>
</link>
</metadata>
<trk>
<name>
Roller Coaster
</name>
<link href="https://www.trailforks.com/trails/roller-coaster-54111/">
</link>
<trkseg>
<trkpt lat="44.22533" lon="8.22252">
<ele>980</ele>
<time>2026-07-22T11:22:23-07:00</time>
</trkpt>
<trkpt lat="44.22527" lon="8.22262">
<ele>980</ele>
<time>2026-07-22T11:22:24-07:00</time>
</trkpt>
<trkpt lat="44.2252" lon="8.22271">
<ele>979</ele>
<time>2026-07-22T11:22:25-07:00</time>
</trkpt>
<trkpt lat="44.22508" lon="8.2228">
<ele>979</ele>
<time>2026-07-22T11:22:26-07:00</time>
</trkpt>
<trkpt lat="44.22493" lon="8.22285">
<ele>979</ele>
<time>2026-07-22T11:22:27-07:00</time>
</trkpt>
<trkpt lat="44.22474" lon="8.22294">
<ele>978</ele>
<time>2026-07-22T11:22:28-07:00</time>
</trkpt>
<trkpt lat="44.2246" lon="8.22306">
<ele>978</ele>
<time>2026-07-22T11:22:29-07:00</time>
</trkpt>
<trkpt lat="44.22449" lon="8.22313">
<ele>974</ele>
<time>2026-07-22T11:22:30-07:00</time>
</trkpt>
<trkpt lat="44.22438" lon="8.22331">
<ele>977</ele>
<time>2026-07-22T11:22:31-07:00</time>
</trkpt>
<trkpt lat="44.22431" lon="8.22346">
<ele>977</ele>
<time>2026-07-22T11:22:32-07:00</time>
</trkpt>
<trkpt lat="44.22424" lon="8.22361">
<ele>975</ele>
<time>2026-07-22T11:22:33-07:00</time>
</trkpt>
<trkpt lat="44.22409" lon="8.22375">
<ele>975</ele>
<time>2026-07-22T11:22:34-07:00</time>
</trkpt>
<trkpt lat="44.22402" lon="8.22391">
<ele>972</ele>
<time>2026-07-22T11:22:35-07:00</time>
</trkpt>
<trkpt lat="44.22395" lon="8.22408">
<ele>976</ele>
<time>2026-07-22T11:22:36-07:00</time>
</trkpt>
<trkpt lat="44.22388" lon="8.22424">
<ele>976</ele>
<time>2026-07-22T11:22:37-07:00</time>
</trkpt>
<trkpt lat="44.22381" lon="8.2244">
<ele>978</ele>
<time>2026-07-22T11:22:38-07:00</time>
</trkpt>
<trkpt lat="44.2236" lon="8.22469">
<ele>977</ele>
<time>2026-07-22T11:22:39-07:00</time>
</trkpt>
<trkpt lat="44.22346" lon="8.2249">
<ele>977</ele>
<time>2026-07-22T11:22:40-07:00</time>
</trkpt>
<trkpt lat="44.22337" lon="8.2251">
<ele>977</ele>
<time>2026-07-22T11:22:41-07:00</time>
</trkpt>
<trkpt lat="44.22323" lon="8.22535">
<ele>980</ele>
<time>2026-07-22T11:22:42-07:00</time>
</trkpt>
<trkpt lat="44.22318" lon="8.2255">
<ele>977</ele>
<time>2026-07-22T11:22:43-07:00</time>
</trkpt>
<trkpt lat="44.22311" lon="8.22569">
<ele>977</ele>
<time>2026-07-22T11:22:44-07:00</time>
</trkpt>
<trkpt lat="44.22303" lon="8.22588">
<ele>980</ele>
<time>2026-07-22T11:22:45-07:00</time>
</trkpt>
<trkpt lat="44.22296" lon="8.2262">
<ele>983</ele>
<time>2026-07-22T11:22:46-07:00</time>
</trkpt>
<trkpt lat="44.22284" lon="8.22643">
<ele>978</ele>
<time>2026-07-22T11:22:47-07:00</time>
</trkpt>
<trkpt lat="44.22275" lon="8.2266">
<ele>980</ele>
<time>2026-07-22T11:22:48-07:00</time>
</trkpt>
<trkpt lat="44.22265" lon="8.22677">
<ele>980</ele>
<time>2026-07-22T11:22:49-07:00</time>
</trkpt>
<trkpt lat="44.22255" lon="8.22691">
<ele>971</ele>
<time>2026-07-22T11:22:50-07:00</time>
</trkpt>
<trkpt lat="44.22245" lon="8.22704">
<ele>971</ele>
<time>2026-07-22T11:22:51-07:00</time>
</trkpt>
<trkpt lat="44.22234" lon="8.22717">
<ele>962</ele>
<time>2026-07-22T11:22:52-07:00</time>
</trkpt>
<trkpt lat="44.22222" lon="8.2273">
<ele>962</ele>
<time>2026-07-22T11:22:53-07:00</time>
</trkpt>
<trkpt lat="44.22211" lon="8.22756">
<ele>967</ele>
<time>2026-07-22T11:22:54-07:00</time>
</trkpt>
<trkpt lat="44.22199" lon="8.22771">
<ele>960</ele>
<time>2026-07-22T11:22:55-07:00</time>
</trkpt>
<trkpt lat="44.22192" lon="8.22786">
<ele>960</ele>
<time>2026-07-22T11:22:56-07:00</time>
</trkpt>
<trkpt lat="44.22179" lon="8.22796">
<ele>953</ele>
<time>2026-07-22T11:22:57-07:00</time>
</trkpt>
<trkpt lat="44.22165" lon="8.22805">
<ele>953</ele>
<time>2026-07-22T11:22:58-07:00</time>
</trkpt>
<trkpt lat="44.22157" lon="8.22818">
<ele>953</ele>
<time>2026-07-22T11:22:59-07:00</time>
</trkpt>
<trkpt lat="44.2215" lon="8.22833">
<ele>943</ele>
<time>2026-07-22T11:23:00-07:00</time>
</trkpt>
<trkpt lat="44.22138" lon="8.22847">
<ele>943</ele>
<time>2026-07-22T11:23:01-07:00</time>
</trkpt>
<trkpt lat="44.22128" lon="8.22859">
<ele>945</ele>
<time>2026-07-22T11:23:02-07:00</time>
</trkpt>
<trkpt lat="44.22121" lon="8.22875">
<ele>938</ele>
<time>2026-07-22T11:23:03-07:00</time>
</trkpt>
<trkpt lat="44.22116" lon="8.22895">
<ele>940</ele>
<time>2026-07-22T11:23:04-07:00</time>
</trkpt>
<trkpt lat="44.22107" lon="8.229">
<ele>940</ele>
<time>2026-07-22T11:23:05-07:00</time>
</trkpt>
<trkpt lat="44.22097" lon="8.22904">
<ele>937</ele>
<time>2026-07-22T11:23:06-07:00</time>
</trkpt>
<trkpt lat="44.22093" lon="8.22917">
<ele>937</ele>
<time>2026-07-22T11:23:07-07:00</time>
</trkpt>
<trkpt lat="44.22088" lon="8.22929">
<ele>937</ele>
<time>2026-07-22T11:23:08-07:00</time>
</trkpt>
<trkpt lat="44.22078" lon="8.22936">
<ele>934</ele>
<time>2026-07-22T11:23:09-07:00</time>
</trkpt>
<trkpt lat="44.22068" lon="8.22928">
<ele>931</ele>
<time>2026-07-22T11:23:10-07:00</time>
</trkpt>
<trkpt lat="44.22059" lon="8.22926">
<ele>931</ele>
<time>2026-07-22T11:23:11-07:00</time>
</trkpt>
<trkpt lat="44.22052" lon="8.22929">
<ele>931</ele>
<time>2026-07-22T11:23:12-07:00</time>
</trkpt>
<trkpt lat="44.22044" lon="8.22938">
<ele>934</ele>
<time>2026-07-22T11:23:13-07:00</time>
</trkpt>
<trkpt lat="44.22037" lon="8.2295">
<ele>925</ele>
<time>2026-07-22T11:23:14-07:00</time>
</trkpt>
<trkpt lat="44.22022" lon="8.22957">
<ele>925</ele>
<time>2026-07-22T11:23:15-07:00</time>
</trkpt>
<trkpt lat="44.22012" lon="8.22954">
<ele>923</ele>
<time>2026-07-22T11:23:16-07:00</time>
</trkpt>
<trkpt lat="44.22002" lon="8.2295">
<ele>923</ele>
<time>2026-07-22T11:23:17-07:00</time>
</trkpt>
<trkpt lat="44.21988" lon="8.22946">
<ele>923</ele>
<time>2026-07-22T11:23:18-07:00</time>
</trkpt>
<trkpt lat="44.21973" lon="8.22957">
<ele>924</ele>
<time>2026-07-22T11:23:19-07:00</time>
</trkpt>
<trkpt lat="44.21954" lon="8.22963">
<ele>923</ele>
<time>2026-07-22T11:23:20-07:00</time>
</trkpt>
<trkpt lat="44.21937" lon="8.22963">
<ele>923</ele>
<time>2026-07-22T11:23:21-07:00</time>
</trkpt>
<trkpt lat="44.21918" lon="8.22968">
<ele>917</ele>
<time>2026-07-22T11:23:22-07:00</time>
</trkpt>
<trkpt lat="44.219" lon="8.2298">
<ele>910</ele>
<time>2026-07-22T11:23:23-07:00</time>
</trkpt>
<trkpt lat="44.21889" lon="8.2299">
<ele>915</ele>
<time>2026-07-22T11:23:24-07:00</time>
</trkpt>
<trkpt lat="44.21873" lon="8.23007">
<ele>909</ele>
<time>2026-07-22T11:23:25-07:00</time>
</trkpt>
<trkpt lat="44.21865" lon="8.23023">
<ele>912</ele>
<time>2026-07-22T11:23:26-07:00</time>
</trkpt>
<trkpt lat="44.21857" lon="8.2304">
<ele>912</ele>
<time>2026-07-22T11:23:27-07:00</time>
</trkpt>
<trkpt lat="44.21846" lon="8.23041">
<ele>906</ele>
<time>2026-07-22T11:23:28-07:00</time>
</trkpt>
<trkpt lat="44.21835" lon="8.23041">
<ele>906</ele>
<time>2026-07-22T11:23:29-07:00</time>
</trkpt>
<trkpt lat="44.21817" lon="8.23053">
<ele>905</ele>
<time>2026-07-22T11:23:30-07:00</time>
</trkpt>
<trkpt lat="44.21796" lon="8.23058">
<ele>905</ele>
<time>2026-07-22T11:23:31-07:00</time>
</trkpt>
<trkpt lat="44.21781" lon="8.23069">
<ele>900</ele>
<time>2026-07-22T11:23:32-07:00</time>
</trkpt>
<trkpt lat="44.21764" lon="8.23085">
<ele>905</ele>
<time>2026-07-22T11:23:33-07:00</time>
</trkpt>
<trkpt lat="44.2175" lon="8.23103">
<ele>903</ele>
<time>2026-07-22T11:23:34-07:00</time>
</trkpt>
<trkpt lat="44.21736" lon="8.2312">
<ele>895</ele>
<time>2026-07-22T11:23:35-07:00</time>
</trkpt>
<trkpt lat="44.21718" lon="8.2314">
<ele>901</ele>
<time>2026-07-22T11:23:36-07:00</time>
</trkpt>
<trkpt lat="44.21709" lon="8.2316">
<ele>906</ele>
<time>2026-07-22T11:23:37-07:00</time>
</trkpt>
<trkpt lat="44.21702" lon="8.2317">
<ele>894</ele>
<time>2026-07-22T11:23:38-07:00</time>
</trkpt>
<trkpt lat="44.21693" lon="8.23184">
<ele>900</ele>
<time>2026-07-22T11:23:39-07:00</time>
</trkpt>
<trkpt lat="44.21689" lon="8.23199">
<ele>900</ele>
<time>2026-07-22T11:23:40-07:00</time>
</trkpt>
<trkpt lat="44.21681" lon="8.23217">
<ele>905</ele>
<time>2026-07-22T11:23:41-07:00</time>
</trkpt>
<trkpt lat="44.2167" lon="8.23229">
<ele>891</ele>
<time>2026-07-22T11:23:42-07:00</time>
</trkpt>
<trkpt lat="44.21656" lon="8.23242">
<ele>898</ele>
<time>2026-07-22T11:23:43-07:00</time>
</trkpt>
<trkpt lat="44.21643" lon="8.23263">
<ele>889</ele>
<time>2026-07-22T11:23:44-07:00</time>
</trkpt>
<trkpt lat="44.21632" lon="8.23276">
<ele>896</ele>
<time>2026-07-22T11:23:45-07:00</time>
</trkpt>
<trkpt lat="44.21615" lon="8.2329">
<ele>885</ele>
<time>2026-07-22T11:23:46-07:00</time>
</trkpt>
<trkpt lat="44.21597" lon="8.23302">
<ele>881</ele>
<time>2026-07-22T11:23:47-07:00</time>
</trkpt>
<trkpt lat="44.21587" lon="8.23319">
<ele>881</ele>
<time>2026-07-22T11:23:48-07:00</time>
</trkpt>
<trkpt lat="44.2158" lon="8.23334">
<ele>887</ele>
<time>2026-07-22T11:23:49-07:00</time>
</trkpt>
<trkpt lat="44.21572" lon="8.23349">
<ele>894</ele>
<time>2026-07-22T11:23:50-07:00</time>
</trkpt>
<trkpt lat="44.21565" lon="8.2336">
<ele>886</ele>
<time>2026-07-22T11:23:51-07:00</time>
</trkpt>
<trkpt lat="44.21555" lon="8.23367">
<ele>886</ele>
<time>2026-07-22T11:23:52-07:00</time>
</trkpt>
<trkpt lat="44.21544" lon="8.23376">
<ele>891</ele>
<time>2026-07-22T11:23:53-07:00</time>
</trkpt>
<trkpt lat="44.21536" lon="8.23387">
<ele>883</ele>
<time>2026-07-22T11:23:54-07:00</time>
</trkpt>
<trkpt lat="44.21531" lon="8.23399">
<ele>883</ele>
<time>2026-07-22T11:23:55-07:00</time>
</trkpt>
<trkpt lat="44.21527" lon="8.23411">
<ele>885</ele>
<time>2026-07-22T11:23:56-07:00</time>
</trkpt>
<trkpt lat="44.21522" lon="8.23423">
<ele>885</ele>
<time>2026-07-22T11:23:57-07:00</time>
</trkpt>
<trkpt lat="44.21517" lon="8.23435">
<ele>884</ele>
<time>2026-07-22T11:23:58-07:00</time>
</trkpt>
<trkpt lat="44.21509" lon="8.23448">
<ele>872</ele>
<time>2026-07-22T11:23:59-07:00</time>
</trkpt>
<trkpt lat="44.215" lon="8.23469">
<ele>872</ele>
<time>2026-07-22T11:24:00-07:00</time>
</trkpt>
<trkpt lat="44.21494" lon="8.23494">
<ele>873</ele>
<time>2026-07-22T11:24:01-07:00</time>
</trkpt>
<trkpt lat="44.21485" lon="8.23512">
<ele>865</ele>
<time>2026-07-22T11:24:02-07:00</time>
</trkpt>
<trkpt lat="44.21475" lon="8.23529">
<ele>867</ele>
<time>2026-07-22T11:24:03-07:00</time>
</trkpt>
<trkpt lat="44.21472" lon="8.23545">
<ele>869</ele>
<time>2026-07-22T11:24:04-07:00</time>
</trkpt>
<trkpt lat="44.21465" lon="8.23557">
<ele>869</ele>
<time>2026-07-22T11:24:05-07:00</time>
</trkpt>
<trkpt lat="44.21456" lon="8.2357">
<ele>861</ele>
<time>2026-07-22T11:24:06-07:00</time>
</trkpt>
<trkpt lat="44.2145" lon="8.23583">
<ele>861</ele>
<time>2026-07-22T11:24:07-07:00</time>
</trkpt>
<trkpt lat="44.21443" lon="8.23595">
<ele>861</ele>
<time>2026-07-22T11:24:08-07:00</time>
</trkpt>
<trkpt lat="44.21436" lon="8.23615">
<ele>864</ele>
<time>2026-07-22T11:24:09-07:00</time>
</trkpt>
<trkpt lat="44.2143" lon="8.2363">
<ele>860</ele>
<time>2026-07-22T11:24:10-07:00</time>
</trkpt>
<trkpt lat="44.2142" lon="8.23639">
<ele>860</ele>
<time>2026-07-22T11:24:11-07:00</time>
</trkpt>
<trkpt lat="44.21405" lon="8.23649">
<ele>860</ele>
<time>2026-07-22T11:24:12-07:00</time>
</trkpt>
<trkpt lat="44.21391" lon="8.23662">
<ele>856</ele>
<time>2026-07-22T11:24:13-07:00</time>
</trkpt>
<trkpt lat="44.21375" lon="8.23677">
<ele>856</ele>
<time>2026-07-22T11:24:14-07:00</time>
</trkpt>
<trkpt lat="44.21358" lon="8.23682">
<ele>855</ele>
<time>2026-07-22T11:24:15-07:00</time>
</trkpt>
<trkpt lat="44.2134" lon="8.2369">
<ele>847</ele>
<time>2026-07-22T11:24:16-07:00</time>
</trkpt>
<trkpt lat="44.21326" lon="8.237">
<ele>847</ele>
<time>2026-07-22T11:24:17-07:00</time>
</trkpt>
<trkpt lat="44.21315" lon="8.23719">
<ele>841</ele>
<time>2026-07-22T11:24:18-07:00</time>
</trkpt>
<trkpt lat="44.21303" lon="8.23733">
<ele>841</ele>
<time>2026-07-22T11:24:19-07:00</time>
</trkpt>
<trkpt lat="44.21293" lon="8.23747">
<ele>846</ele>
<time>2026-07-22T11:24:20-07:00</time>
</trkpt>
<trkpt lat="44.21282" lon="8.2376">
<ele>838</ele>
<time>2026-07-22T11:24:21-07:00</time>
</trkpt>
<trkpt lat="44.21269" lon="8.23773">
<ele>843</ele>
<time>2026-07-22T11:24:22-07:00</time>
</trkpt>
<trkpt lat="44.21261" lon="8.23781">
<ele>831</ele>
<time>2026-07-22T11:24:23-07:00</time>
</trkpt>
<trkpt lat="44.21253" lon="8.23788">
<ele>831</ele>
<time>2026-07-22T11:24:24-07:00</time>
</trkpt>
<trkpt lat="44.21244" lon="8.23798">
<ele>836</ele>
<time>2026-07-22T11:24:25-07:00</time>
</trkpt>
<trkpt lat="44.21235" lon="8.23807">
<ele>819</ele>
<time>2026-07-22T11:24:26-07:00</time>
</trkpt>
<trkpt lat="44.21223" lon="8.23824">
<ele>825</ele>
<time>2026-07-22T11:24:27-07:00</time>
</trkpt>
<trkpt lat="44.21217" lon="8.23839">
<ele>825</ele>
<time>2026-07-22T11:24:28-07:00</time>
</trkpt>
<trkpt lat="44.21211" lon="8.23853">
<ele>827</ele>
<time>2026-07-22T11:24:29-07:00</time>
</trkpt>
<trkpt lat="44.21204" lon="8.23869">
<ele>817</ele>
<time>2026-07-22T11:24:30-07:00</time>
</trkpt>
<trkpt lat="44.21197" lon="8.23884">
<ele>821</ele>
<time>2026-07-22T11:24:31-07:00</time>
</trkpt>
<trkpt lat="44.21192" lon="8.23899">
<ele>821</ele>
<time>2026-07-22T11:24:32-07:00</time>
</trkpt>
<trkpt lat="44.21186" lon="8.23922">
<ele>825</ele>
<time>2026-07-22T11:24:33-07:00</time>
</trkpt>
<trkpt lat="44.21179" lon="8.23935">
<ele>809</ele>
<time>2026-07-22T11:24:34-07:00</time>
</trkpt>
<trkpt lat="44.21171" lon="8.23947">
<ele>809</ele>
<time>2026-07-22T11:24:35-07:00</time>
</trkpt>
<trkpt lat="44.21166" lon="8.23959">
<ele>811</ele>
<time>2026-07-22T11:24:36-07:00</time>
</trkpt>
<trkpt lat="44.21162" lon="8.23971">
<ele>811</ele>
<time>2026-07-22T11:24:37-07:00</time>
</trkpt>
<trkpt lat="44.21158" lon="8.23983">
<ele>811</ele>
<time>2026-07-22T11:24:38-07:00</time>
</trkpt>
<trkpt lat="44.21153" lon="8.24005">
<ele>813</ele>
<time>2026-07-22T11:24:39-07:00</time>
</trkpt>
<trkpt lat="44.2115" lon="8.24017">
<ele>799</ele>
<time>2026-07-22T11:24:40-07:00</time>
</trkpt>
<trkpt lat="44.21147" lon="8.24029">
<ele>799</ele>
<time>2026-07-22T11:24:41-07:00</time>
</trkpt>
<trkpt lat="44.21144" lon="8.24047">
<ele>797</ele>
<time>2026-07-22T11:24:42-07:00</time>
</trkpt>
<trkpt lat="44.21145" lon="8.24061">
<ele>797</ele>
<time>2026-07-22T11:24:43-07:00</time>
</trkpt>
<trkpt lat="44.21146" lon="8.24075">
<ele>797</ele>
<time>2026-07-22T11:24:44-07:00</time>
</trkpt>
<trkpt lat="44.21143" lon="8.24095">
<ele>797</ele>
<time>2026-07-22T11:24:45-07:00</time>
</trkpt>
<trkpt lat="44.21142" lon="8.24108">
<ele>797</ele>
<time>2026-07-22T11:24:46-07:00</time>
</trkpt>
<trkpt lat="44.21144" lon="8.24119">
<ele>797</ele>
<time>2026-07-22T11:24:47-07:00</time>
</trkpt>
<trkpt lat="44.21142" lon="8.24127">
<ele>794</ele>
<time>2026-07-22T11:24:48-07:00</time>
</trkpt>
<trkpt lat="44.21138" lon="8.24128">
<ele>794</ele>
<time>2026-07-22T11:24:49-07:00</time>
</trkpt>
<trkpt lat="44.21134" lon="8.2412">
<ele>797</ele>
<time>2026-07-22T11:24:50-07:00</time>
</trkpt>
<trkpt lat="44.21132" lon="8.24114">
<ele>797</ele>
<time>2026-07-22T11:24:51-07:00</time>
</trkpt>
<trkpt lat="44.21128" lon="8.24103">
<ele>797</ele>
<time>2026-07-22T11:24:52-07:00</time>
</trkpt>
<trkpt lat="44.21123" lon="8.24092">
<ele>783</ele>
<time>2026-07-22T11:24:53-07:00</time>
</trkpt>
<trkpt lat="44.21119" lon="8.24089">
<ele>783</ele>
<time>2026-07-22T11:24:54-07:00</time>
</trkpt>
<trkpt lat="44.21117" lon="8.24095">
<ele>783</ele>
<time>2026-07-22T11:24:55-07:00</time>
</trkpt>
<trkpt lat="44.21117" lon="8.2411">
<ele>783</ele>
<time>2026-07-22T11:24:56-07:00</time>
</trkpt>
<trkpt lat="44.21118" lon="8.24125">
<ele>779</ele>
<time>2026-07-22T11:24:57-07:00</time>
</trkpt>
<trkpt lat="44.21118" lon="8.2414">
<ele>779</ele>
<time>2026-07-22T11:24:58-07:00</time>
</trkpt>
<trkpt lat="44.21118" lon="8.24155">
<ele>776</ele>
<time>2026-07-22T11:24:59-07:00</time>
</trkpt>
<trkpt lat="44.21116" lon="8.2417">
<ele>776</ele>
<time>2026-07-22T11:25:00-07:00</time>
</trkpt>
<trkpt lat="44.21113" lon="8.24187">
<ele>776</ele>
<time>2026-07-22T11:25:01-07:00</time>
</trkpt>
<trkpt lat="44.21111" lon="8.24208">
<ele>776</ele>
<time>2026-07-22T11:25:02-07:00</time>
</trkpt>
<trkpt lat="44.21108" lon="8.24229">
<ele>775</ele>
<time>2026-07-22T11:25:03-07:00</time>
</trkpt>
<trkpt lat="44.21108" lon="8.2425">
<ele>775</ele>
<time>2026-07-22T11:25:04-07:00</time>
</trkpt>
<trkpt lat="44.21109" lon="8.24272">
<ele>774</ele>
<time>2026-07-22T11:25:05-07:00</time>
</trkpt>
<trkpt lat="44.21111" lon="8.24296">
<ele>773</ele>
<time>2026-07-22T11:25:06-07:00</time>
</trkpt>
<trkpt lat="44.21112" lon="8.24317">
<ele>773</ele>
<time>2026-07-22T11:25:07-07:00</time>
</trkpt>
<trkpt lat="44.21112" lon="8.24335">
<ele>773</ele>
<time>2026-07-22T11:25:08-07:00</time>
</trkpt>
<trkpt lat="44.2111" lon="8.24349">
<ele>773</ele>
<time>2026-07-22T11:25:09-07:00</time>
</trkpt>
<trkpt lat="44.21106" lon="8.24362">
<ele>773</ele>
<time>2026-07-22T11:25:10-07:00</time>
</trkpt>
<trkpt lat="44.211" lon="8.24385">
<ele>772</ele>
<time>2026-07-22T11:25:11-07:00</time>
</trkpt>
<trkpt lat="44.21097" lon="8.24397">
<ele>758</ele>
<time>2026-07-22T11:25:12-07:00</time>
</trkpt>
<trkpt lat="44.21094" lon="8.24409">
<ele>760</ele>
<time>2026-07-22T11:25:13-07:00</time>
</trkpt>
<trkpt lat="44.2109" lon="8.24425">
<ele>760</ele>
<time>2026-07-22T11:25:14-07:00</time>
</trkpt>
<trkpt lat="44.21088" lon="8.24441">
<ele>760</ele>
<time>2026-07-22T11:25:15-07:00</time>
</trkpt>
<trkpt lat="44.21088" lon="8.24454">
<ele>760</ele>
<time>2026-07-22T11:25:16-07:00</time>
</trkpt>
<trkpt lat="44.21087" lon="8.24467">
<ele>760</ele>
<time>2026-07-22T11:25:17-07:00</time>
</trkpt>
<trkpt lat="44.21088" lon="8.24479">
<ele>760</ele>
<time>2026-07-22T11:25:18-07:00</time>
</trkpt>
<trkpt lat="44.21088" lon="8.24491">
<ele>759</ele>
<time>2026-07-22T11:25:19-07:00</time>
</trkpt>
<trkpt lat="44.21089" lon="8.24503">
<ele>759</ele>
<time>2026-07-22T11:25:20-07:00</time>
</trkpt>
<trkpt lat="44.21089" lon="8.24515">
<ele>758</ele>
<time>2026-07-22T11:25:21-07:00</time>
</trkpt>
<trkpt lat="44.21086" lon="8.24529">
<ele>758</ele>
<time>2026-07-22T11:25:22-07:00</time>
</trkpt>
<trkpt lat="44.2108" lon="8.24541">
<ele>758</ele>
<time>2026-07-22T11:25:23-07:00</time>
</trkpt>
<trkpt lat="44.2107" lon="8.24553">
<ele>758</ele>
<time>2026-07-22T11:25:24-07:00</time>
</trkpt>
<trkpt lat="44.21062" lon="8.24565">
<ele>749</ele>
<time>2026-07-22T11:25:25-07:00</time>
</trkpt>
<trkpt lat="44.21056" lon="8.24578">
<ele>753</ele>
<time>2026-07-22T11:25:26-07:00</time>
</trkpt>
<trkpt lat="44.21052" lon="8.24592">
<ele>753</ele>
<time>2026-07-22T11:25:27-07:00</time>
</trkpt>
<trkpt lat="44.21051" lon="8.24609">
<ele>756</ele>
<time>2026-07-22T11:25:28-07:00</time>
</trkpt>
<trkpt lat="44.21053" lon="8.24622">
<ele>756</ele>
<time>2026-07-22T11:25:29-07:00</time>
</trkpt>
<trkpt lat="44.21054" lon="8.24638">
<ele>759</ele>
<time>2026-07-22T11:25:30-07:00</time>
</trkpt>
<trkpt lat="44.21052" lon="8.24656">
<ele>759</ele>
<time>2026-07-22T11:25:31-07:00</time>
</trkpt>
<trkpt lat="44.21049" lon="8.24677">
<ele>759</ele>
<time>2026-07-22T11:25:32-07:00</time>
</trkpt>
<trkpt lat="44.21047" lon="8.24694">
<ele>758</ele>
<time>2026-07-22T11:25:33-07:00</time>
</trkpt>
<trkpt lat="44.21045" lon="8.24711">
<ele>759</ele>
<time>2026-07-22T11:25:34-07:00</time>
</trkpt>
<trkpt lat="44.21042" lon="8.24727">
<ele>759</ele>
<time>2026-07-22T11:25:35-07:00</time>
</trkpt>
<trkpt lat="44.21039" lon="8.24743">
<ele>752</ele>
<time>2026-07-22T11:25:36-07:00</time>
</trkpt>
<trkpt lat="44.21033" lon="8.24754">
<ele>752</ele>
<time>2026-07-22T11:25:37-07:00</time>
</trkpt>
<trkpt lat="44.21027" lon="8.2476">
<ele>752</ele>
<time>2026-07-22T11:25:38-07:00</time>
</trkpt>
<trkpt lat="44.21019" lon="8.24766">
<ele>750</ele>
<time>2026-07-22T11:25:39-07:00</time>
</trkpt>
<trkpt lat="44.21012" lon="8.24773">
<ele>752</ele>
<time>2026-07-22T11:25:40-07:00</time>
</trkpt>
<trkpt lat="44.21005" lon="8.24779">
<ele>752</ele>
<time>2026-07-22T11:25:41-07:00</time>
</trkpt>
<trkpt lat="44.21002" lon="8.24784">
<ele>752</ele>
<time>2026-07-22T11:25:42-07:00</time>
</trkpt>
<trkpt lat="44.21" lon="8.24789">
<ele>752</ele>
<time>2026-07-22T11:25:43-07:00</time>
</trkpt>
<trkpt lat="44.20997" lon="8.24793">
<ele>750</ele>
<time>2026-07-22T11:25:44-07:00</time>
</trkpt>
<trkpt lat="44.20994" lon="8.24798">
<ele>750</ele>
<time>2026-07-22T11:25:45-07:00</time>
</trkpt>
<trkpt lat="44.20989" lon="8.24803">
<ele>750</ele>
<time>2026-07-22T11:25:46-07:00</time>
</trkpt>
<trkpt lat="44.20985" lon="8.24807">
<ele>751</ele>
<time>2026-07-22T11:25:47-07:00</time>
</trkpt>
<trkpt lat="44.2098" lon="8.24812">
<ele>751</ele>
<time>2026-07-22T11:25:48-07:00</time>
</trkpt>
<trkpt lat="44.20975" lon="8.24816">
<ele>751</ele>
<time>2026-07-22T11:25:49-07:00</time>
</trkpt>
<trkpt lat="44.20969" lon="8.24822">
<ele>752</ele>
<time>2026-07-22T11:25:50-07:00</time>
</trkpt>
<trkpt lat="44.20965" lon="8.24826">
<ele>752</ele>
<time>2026-07-22T11:25:51-07:00</time>
</trkpt>
<trkpt lat="44.2096" lon="8.2483">
<ele>752</ele>
<time>2026-07-22T11:25:52-07:00</time>
</trkpt>
<trkpt lat="44.20956" lon="8.24834">
<ele>754</ele>
<time>2026-07-22T11:25:53-07:00</time>
</trkpt>
<trkpt lat="44.20953" lon="8.24838">
<ele>754</ele>
<time>2026-07-22T11:25:54-07:00</time>
</trkpt>
<trkpt lat="44.2095" lon="8.24846">
<ele>754</ele>
<time>2026-07-22T11:25:55-07:00</time>
</trkpt>
<trkpt lat="44.2095" lon="8.24854">
<ele>757</ele>
<time>2026-07-22T11:25:56-07:00</time>
</trkpt>
<trkpt lat="44.20949" lon="8.24862">
<ele>757</ele>
<time>2026-07-22T11:25:57-07:00</time>
</trkpt>
<trkpt lat="44.20944" lon="8.24868">
<ele>757</ele>
<time>2026-07-22T11:25:58-07:00</time>
</trkpt>
<trkpt lat="44.20939" lon="8.24873">
<ele>757</ele>
<time>2026-07-22T11:25:59-07:00</time>
</trkpt>
<trkpt lat="44.20934" lon="8.24885">
<ele>758</ele>
<time>2026-07-22T11:26:00-07:00</time>
</trkpt>
<trkpt lat="44.20929" lon="8.249">
<ele>756</ele>
<time>2026-07-22T11:26:01-07:00</time>
</trkpt>
<trkpt lat="44.20924" lon="8.24911">
<ele>755</ele>
<time>2026-07-22T11:26:02-07:00</time>
</trkpt>
<trkpt lat="44.2092" lon="8.24921">
<ele>755</ele>
<time>2026-07-22T11:26:03-07:00</time>
</trkpt>
<trkpt lat="44.20916" lon="8.2493">
<ele>755</ele>
<time>2026-07-22T11:26:04-07:00</time>
</trkpt>
<trkpt lat="44.20909" lon="8.24936">
<ele>754</ele>
<time>2026-07-22T11:26:05-07:00</time>
</trkpt>
<trkpt lat="44.20902" lon="8.24941">
<ele>750</ele>
<time>2026-07-22T11:26:06-07:00</time>
</trkpt>
<trkpt lat="44.20892" lon="8.24946">
<ele>750</ele>
<time>2026-07-22T11:26:07-07:00</time>
</trkpt>
<trkpt lat="44.20882" lon="8.24956">
<ele>750</ele>
<time>2026-07-22T11:26:08-07:00</time>
</trkpt>
<trkpt lat="44.20872" lon="8.24969">
<ele>745</ele>
<time>2026-07-22T11:26:09-07:00</time>
</trkpt>
<trkpt lat="44.20864" lon="8.24978">
<ele>745</ele>
<time>2026-07-22T11:26:10-07:00</time>
</trkpt>
<trkpt lat="44.20857" lon="8.24985">
<ele>745</ele>
<time>2026-07-22T11:26:11-07:00</time>
</trkpt>
<trkpt lat="44.2085" lon="8.24993">
<ele>748</ele>
<time>2026-07-22T11:26:12-07:00</time>
</trkpt>
<trkpt lat="44.20845" lon="8.25003">
<ele>738</ele>
<time>2026-07-22T11:26:13-07:00</time>
</trkpt>
<trkpt lat="44.20839" lon="8.2501">
<ele>738</ele>
<time>2026-07-22T11:26:14-07:00</time>
</trkpt>
<trkpt lat="44.20834" lon="8.25019">
<ele>742</ele>
<time>2026-07-22T11:26:15-07:00</time>
</trkpt>
<trkpt lat="44.20833" lon="8.25027">
<ele>742</ele>
<time>2026-07-22T11:26:16-07:00</time>
</trkpt>
<trkpt lat="44.2083" lon="8.25035">
<ele>742</ele>
<time>2026-07-22T11:26:17-07:00</time>
</trkpt>
<trkpt lat="44.20823" lon="8.25042">
<ele>745</ele>
<time>2026-07-22T11:26:18-07:00</time>
</trkpt>
<trkpt lat="44.20818" lon="8.25047">
<ele>731</ele>
<time>2026-07-22T11:26:19-07:00</time>
</trkpt>
<trkpt lat="44.20812" lon="8.25052">
<ele>731</ele>
<time>2026-07-22T11:26:20-07:00</time>
</trkpt>
<trkpt lat="44.20807" lon="8.25056">
<ele>731</ele>
<time>2026-07-22T11:26:21-07:00</time>
</trkpt>
<trkpt lat="44.20802" lon="8.25061">
<ele>731</ele>
<time>2026-07-22T11:26:22-07:00</time>
</trkpt>
<trkpt lat="44.20796" lon="8.2507">
<ele>735</ele>
<time>2026-07-22T11:26:23-07:00</time>
</trkpt>
<trkpt lat="44.2079" lon="8.25078">
<ele>728</ele>
<time>2026-07-22T11:26:24-07:00</time>
</trkpt>
<trkpt lat="44.20785" lon="8.25086">
<ele>728</ele>
<time>2026-07-22T11:26:25-07:00</time>
</trkpt>
<trkpt lat="44.20779" lon="8.25093">
<ele>728</ele>
<time>2026-07-22T11:26:26-07:00</time>
</trkpt>
<trkpt lat="44.20776" lon="8.25099">
<ele>730</ele>
<time>2026-07-22T11:26:27-07:00</time>
</trkpt>
<trkpt lat="44.20773" lon="8.25105">
<ele>730</ele>
<time>2026-07-22T11:26:28-07:00</time>
</trkpt>
<trkpt lat="44.20772" lon="8.25114">
<ele>730</ele>
<time>2026-07-22T11:26:29-07:00</time>
</trkpt>
<trkpt lat="44.20773" lon="8.25121">
<ele>730</ele>
<time>2026-07-22T11:26:30-07:00</time>
</trkpt>
<trkpt lat="44.20774" lon="8.25132">
<ele>728</ele>
<time>2026-07-22T11:26:31-07:00</time>
</trkpt>
<trkpt lat="44.20774" lon="8.25141">
<ele>728</ele>
<time>2026-07-22T11:26:32-07:00</time>
</trkpt>
<trkpt lat="44.20768" lon="8.25146">
<ele>728</ele>
<time>2026-07-22T11:26:33-07:00</time>
</trkpt>
<trkpt lat="44.20763" lon="8.25149">
<ele>718</ele>
<time>2026-07-22T11:26:34-07:00</time>
</trkpt>
<trkpt lat="44.20759" lon="8.25157">
<ele>717</ele>
<time>2026-07-22T11:26:35-07:00</time>
</trkpt>
<trkpt lat="44.20755" lon="8.25163">
<ele>717</ele>
<time>2026-07-22T11:26:36-07:00</time>
</trkpt>
<trkpt lat="44.2075" lon="8.25171">
<ele>717</ele>
<time>2026-07-22T11:26:37-07:00</time>
</trkpt>
<trkpt lat="44.20748" lon="8.2518">
<ele>717</ele>
<time>2026-07-22T11:26:38-07:00</time>
</trkpt>
<trkpt lat="44.20748" lon="8.25191">
<ele>716</ele>
<time>2026-07-22T11:26:39-07:00</time>
</trkpt>
<trkpt lat="44.20748" lon="8.25201">
<ele>716</ele>
<time>2026-07-22T11:26:40-07:00</time>
</trkpt>
<trkpt lat="44.20747" lon="8.25212">
<ele>714</ele>
<time>2026-07-22T11:26:41-07:00</time>
</trkpt>
<trkpt lat="44.20747" lon="8.25222">
<ele>714</ele>
<time>2026-07-22T11:26:42-07:00</time>
</trkpt>
<trkpt lat="44.20746" lon="8.25232">
<ele>714</ele>
<time>2026-07-22T11:26:43-07:00</time>
</trkpt>
<trkpt lat="44.20745" lon="8.25241">
<ele>709</ele>
<time>2026-07-22T11:26:44-07:00</time>
</trkpt>
<trkpt lat="44.20747" lon="8.25251">
<ele>709</ele>
<time>2026-07-22T11:26:45-07:00</time>
</trkpt>
<trkpt lat="44.20748" lon="8.25261">
<ele>709</ele>
<time>2026-07-22T11:26:46-07:00</time>
</trkpt>
<trkpt lat="44.20749" lon="8.2527">
<ele>704</ele>
<time>2026-07-22T11:26:47-07:00</time>
</trkpt>
<trkpt lat="44.20749" lon="8.25279">
<ele>704</ele>
<time>2026-07-22T11:26:48-07:00</time>
</trkpt>
<trkpt lat="44.20749" lon="8.25288">
<ele>704</ele>
<time>2026-07-22T11:26:49-07:00</time>
</trkpt>
<trkpt lat="44.20749" lon="8.25297">
<ele>700</ele>
<time>2026-07-22T11:26:50-07:00</time>
</trkpt>
<trkpt lat="44.20749" lon="8.25312">
<ele>700</ele>
<time>2026-07-22T11:26:51-07:00</time>
</trkpt>
<trkpt lat="44.20749" lon="8.25324">
<ele>698</ele>
<time>2026-07-22T11:26:52-07:00</time>
</trkpt>
<trkpt lat="44.20749" lon="8.25335">
<ele>698</ele>
<time>2026-07-22T11:26:53-07:00</time>
</trkpt>
<trkpt lat="44.20748" lon="8.25344">
<ele>698</ele>
<time>2026-07-22T11:26:54-07:00</time>
</trkpt>
<trkpt lat="44.20741" lon="8.25346">
<ele>698</ele>
<time>2026-07-22T11:26:55-07:00</time>
</trkpt>
<trkpt lat="44.20735" lon="8.25348">
<ele>691</ele>
<time>2026-07-22T11:26:56-07:00</time>
</trkpt>
<trkpt lat="44.20728" lon="8.25355">
<ele>691</ele>
<time>2026-07-22T11:26:57-07:00</time>
</trkpt>
<trkpt lat="44.20721" lon="8.25364">
<ele>691</ele>
<time>2026-07-22T11:26:58-07:00</time>
</trkpt>
<trkpt lat="44.20718" lon="8.25372">
<ele>691</ele>
<time>2026-07-22T11:26:59-07:00</time>
</trkpt>
<trkpt lat="44.20715" lon="8.25379">
<ele>689</ele>
<time>2026-07-22T11:27:00-07:00</time>
</trkpt>
<trkpt lat="44.20718" lon="8.25386">
<ele>689</ele>
<time>2026-07-22T11:27:01-07:00</time>
</trkpt>
<trkpt lat="44.20721" lon="8.25394">
<ele>689</ele>
<time>2026-07-22T11:27:02-07:00</time>
</trkpt>
<trkpt lat="44.20723" lon="8.25401">
<ele>689</ele>
<time>2026-07-22T11:27:03-07:00</time>
</trkpt>
<trkpt lat="44.20726" lon="8.25408">
<ele>686</ele>
<time>2026-07-22T11:27:04-07:00</time>
</trkpt>
<trkpt lat="44.20723" lon="8.25416">
<ele>686</ele>
<time>2026-07-22T11:27:05-07:00</time>
</trkpt>
<trkpt lat="44.20719" lon="8.25424">
<ele>686</ele>
<time>2026-07-22T11:27:06-07:00</time>
</trkpt>
<trkpt lat="44.20716" lon="8.25432">
<ele>682</ele>
<time>2026-07-22T11:27:07-07:00</time>
</trkpt>
<trkpt lat="44.20712" lon="8.2544">
<ele>682</ele>
<time>2026-07-22T11:27:08-07:00</time>
</trkpt>
<trkpt lat="44.20707" lon="8.25454">
<ele>680</ele>
<time>2026-07-22T11:27:09-07:00</time>
</trkpt>
<trkpt lat="44.20702" lon="8.25468">
<ele>679</ele>
<time>2026-07-22T11:27:10-07:00</time>
</trkpt>
<trkpt lat="44.207" lon="8.25477">
<ele>679</ele>
<time>2026-07-22T11:27:11-07:00</time>
</trkpt>
<trkpt lat="44.207" lon="8.25487">
<ele>678</ele>
<time>2026-07-22T11:27:12-07:00</time>
</trkpt>
<trkpt lat="44.20701" lon="8.25501">
<ele>678</ele>
<time>2026-07-22T11:27:13-07:00</time>
</trkpt>
<trkpt lat="44.20702" lon="8.25515">
<ele>679</ele>
<time>2026-07-22T11:27:14-07:00</time>
</trkpt>
<trkpt lat="44.20706" lon="8.25528">
<ele>679</ele>
<time>2026-07-22T11:27:15-07:00</time>
</trkpt>
<trkpt lat="44.20711" lon="8.25541">
<ele>682</ele>
<time>2026-07-22T11:27:16-07:00</time>
</trkpt>
<trkpt lat="44.20715" lon="8.25553">
<ele>685</ele>
<time>2026-07-22T11:27:17-07:00</time>
</trkpt>
<trkpt lat="44.20717" lon="8.25565">
<ele>685</ele>
<time>2026-07-22T11:27:18-07:00</time>
</trkpt>
<trkpt lat="44.20716" lon="8.25573">
<ele>684</ele>
<time>2026-07-22T11:27:19-07:00</time>
</trkpt>
<trkpt lat="44.20714" lon="8.25579">
<ele>684</ele>
<time>2026-07-22T11:27:20-07:00</time>
</trkpt>
<trkpt lat="44.20711" lon="8.25582">
<ele>684</ele>
<time>2026-07-22T11:27:21-07:00</time>
</trkpt>
<trkpt lat="44.20705" lon="8.25587">
<ele>681</ele>
<time>2026-07-22T11:27:22-07:00</time>
</trkpt>
<trkpt lat="44.207" lon="8.25595">
<ele>681</ele>
<time>2026-07-22T11:27:23-07:00</time>
</trkpt>
<trkpt lat="44.20699" lon="8.25604">
<ele>678</ele>
<time>2026-07-22T11:27:24-07:00</time>
</trkpt>
<trkpt lat="44.20698" lon="8.25613">
<ele>678</ele>
<time>2026-07-22T11:27:25-07:00</time>
</trkpt>
<trkpt lat="44.20698" lon="8.25622">
<ele>678</ele>
<time>2026-07-22T11:27:26-07:00</time>
</trkpt>
<trkpt lat="44.20698" lon="8.25631">
<ele>676</ele>
<time>2026-07-22T11:27:27-07:00</time>
</trkpt>
<trkpt lat="44.20699" lon="8.25646">
<ele>676</ele>
<time>2026-07-22T11:27:28-07:00</time>
</trkpt>
<trkpt lat="44.207" lon="8.25664">
<ele>672</ele>
<time>2026-07-22T11:27:29-07:00</time>
</trkpt>
<trkpt lat="44.20701" lon="8.25682">
<ele>674</ele>
<time>2026-07-22T11:27:30-07:00</time>
</trkpt>
<trkpt lat="44.20702" lon="8.257">
<ele>674</ele>
<time>2026-07-22T11:27:31-07:00</time>
</trkpt>
<trkpt lat="44.20697" lon="8.25708">
<ele>674</ele>
<time>2026-07-22T11:27:32-07:00</time>
</trkpt>
<trkpt lat="44.20692" lon="8.25715">
<ele>676</ele>
<time>2026-07-22T11:27:33-07:00</time>
</trkpt>
<trkpt lat="44.20687" lon="8.25722">
<ele>676</ele>
<time>2026-07-22T11:27:34-07:00</time>
</trkpt>
<trkpt lat="44.20682" lon="8.25732">
<ele>676</ele>
<time>2026-07-22T11:27:35-07:00</time>
</trkpt>
<trkpt lat="44.20677" lon="8.25742">
<ele>674</ele>
<time>2026-07-22T11:27:36-07:00</time>
</trkpt>
<trkpt lat="44.20673" lon="8.25748">
<ele>674</ele>
<time>2026-07-22T11:27:37-07:00</time>
</trkpt>
<trkpt lat="44.20669" lon="8.25755">
<ele>674</ele>
<time>2026-07-22T11:27:38-07:00</time>
</trkpt>
<trkpt lat="44.20664" lon="8.25761">
<ele>674</ele>
<time>2026-07-22T11:27:39-07:00</time>
</trkpt>
<trkpt lat="44.2066" lon="8.25767">
<ele>675</ele>
<time>2026-07-22T11:27:40-07:00</time>
</trkpt>
<trkpt lat="44.20656" lon="8.25769">
<ele>675</ele>
<time>2026-07-22T11:27:41-07:00</time>
</trkpt>
<trkpt lat="44.20652" lon="8.2577">
<ele>669</ele>
<time>2026-07-22T11:27:42-07:00</time>
</trkpt>
<trkpt lat="44.20647" lon="8.25775">
<ele>669</ele>
<time>2026-07-22T11:27:43-07:00</time>
</trkpt>
<trkpt lat="44.20643" lon="8.25787">
<ele>669</ele>
<time>2026-07-22T11:27:44-07:00</time>
</trkpt>
<trkpt lat="44.2064" lon="8.25802">
<ele>668</ele>
<time>2026-07-22T11:27:45-07:00</time>
</trkpt>
<trkpt lat="44.20641" lon="8.25816">
<ele>668</ele>
<time>2026-07-22T11:27:46-07:00</time>
</trkpt>
<trkpt lat="44.20641" lon="8.25829">
<ele>665</ele>
<time>2026-07-22T11:27:47-07:00</time>
</trkpt>
<trkpt lat="44.20647" lon="8.25838">
<ele>665</ele>
<time>2026-07-22T11:27:48-07:00</time>
</trkpt>
<trkpt lat="44.20653" lon="8.25847">
<ele>669</ele>
<time>2026-07-22T11:27:49-07:00</time>
</trkpt>
<trkpt lat="44.20652" lon="8.2586">
<ele>661</ele>
<time>2026-07-22T11:27:50-07:00</time>
</trkpt>
<trkpt lat="44.20648" lon="8.25871">
<ele>661</ele>
<time>2026-07-22T11:27:51-07:00</time>
</trkpt>
<trkpt lat="44.20647" lon="8.25882">
<ele>659</ele>
<time>2026-07-22T11:27:52-07:00</time>
</trkpt>
<trkpt lat="44.20646" lon="8.25892">
<ele>659</ele>
<time>2026-07-22T11:27:53-07:00</time>
</trkpt>
<trkpt lat="44.20644" lon="8.25897">
<ele>659</ele>
<time>2026-07-22T11:27:54-07:00</time>
</trkpt>
<trkpt lat="44.20641" lon="8.25902">
<ele>659</ele>
<time>2026-07-22T11:27:55-07:00</time>
</trkpt>
<trkpt lat="44.2064" lon="8.25911">
<ele>658</ele>
<time>2026-07-22T11:27:56-07:00</time>
</trkpt>
<trkpt lat="44.20645" lon="8.25917">
<ele>658</ele>
<time>2026-07-22T11:27:57-07:00</time>
</trkpt>
<trkpt lat="44.2065" lon="8.25923">
<ele>658</ele>
<time>2026-07-22T11:27:58-07:00</time>
</trkpt>
<trkpt lat="44.20651" lon="8.25932">
<ele>656</ele>
<time>2026-07-22T11:27:59-07:00</time>
</trkpt>
<trkpt lat="44.20651" lon="8.25939">
<ele>656</ele>
<time>2026-07-22T11:28:00-07:00</time>
</trkpt>
<trkpt lat="44.2065" lon="8.25952">
<ele>656</ele>
<time>2026-07-22T11:28:01-07:00</time>
</trkpt>
<trkpt lat="44.20645" lon="8.25963">
<ele>653</ele>
<time>2026-07-22T11:28:02-07:00</time>
</trkpt>
<trkpt lat="44.20638" lon="8.2597">
<ele>653</ele>
<time>2026-07-22T11:28:03-07:00</time>
</trkpt>
<trkpt lat="44.20635" lon="8.25976">
<ele>653</ele>
<time>2026-07-22T11:28:04-07:00</time>
</trkpt>
<trkpt lat="44.20635" lon="8.25983">
<ele>653</ele>
<time>2026-07-22T11:28:05-07:00</time>
</trkpt>
<trkpt lat="44.2064" lon="8.25991">
<ele>652</ele>
<time>2026-07-22T11:28:06-07:00</time>
</trkpt>
<trkpt lat="44.20644" lon="8.25998">
<ele>652</ele>
<time>2026-07-22T11:28:07-07:00</time>
</trkpt>
<trkpt lat="44.20647" lon="8.26008">
<ele>652</ele>
<time>2026-07-22T11:28:08-07:00</time>
</trkpt>
<trkpt lat="44.20647" lon="8.26017">
<ele>650</ele>
<time>2026-07-22T11:28:09-07:00</time>
</trkpt>
<trkpt lat="44.20642" lon="8.26023">
<ele>650</ele>
<time>2026-07-22T11:28:10-07:00</time>
</trkpt>
<trkpt lat="44.20637" lon="8.26026">
<ele>650</ele>
<time>2026-07-22T11:28:11-07:00</time>
</trkpt>
<trkpt lat="44.20631" lon="8.2603">
<ele>650</ele>
<time>2026-07-22T11:28:12-07:00</time>
</trkpt>
<trkpt lat="44.20628" lon="8.26036">
<ele>650</ele>
<time>2026-07-22T11:28:13-07:00</time>
</trkpt>
<trkpt lat="44.20628" lon="8.26043">
<ele>647</ele>
<time>2026-07-22T11:28:14-07:00</time>
</trkpt>
<trkpt lat="44.20632" lon="8.2605">
<ele>647</ele>
<time>2026-07-22T11:28:15-07:00</time>
</trkpt>
<trkpt lat="44.20635" lon="8.26056">
<ele>647</ele>
<time>2026-07-22T11:28:16-07:00</time>
</trkpt>
<trkpt lat="44.20636" lon="8.26064">
<ele>647</ele>
<time>2026-07-22T11:28:17-07:00</time>
</trkpt>
<trkpt lat="44.20634" lon="8.26072">
<ele>646</ele>
<time>2026-07-22T11:28:18-07:00</time>
</trkpt>
<trkpt lat="44.20628" lon="8.26081">
<ele>646</ele>
<time>2026-07-22T11:28:19-07:00</time>
</trkpt>
<trkpt lat="44.20621" lon="8.26088">
<ele>641</ele>
<time>2026-07-22T11:28:20-07:00</time>
</trkpt>
<trkpt lat="44.20621" lon="8.261">
<ele>639</ele>
<time>2026-07-22T11:28:21-07:00</time>
</trkpt>
<trkpt lat="44.2062" lon="8.26108">
<ele>639</ele>
<time>2026-07-22T11:28:22-07:00</time>
</trkpt>
<trkpt lat="44.20619" lon="8.26115">
<ele>639</ele>
<time>2026-07-22T11:28:23-07:00</time>
</trkpt>
<trkpt lat="44.20617" lon="8.26128">
<ele>636</ele>
<time>2026-07-22T11:28:24-07:00</time>
</trkpt>
<trkpt lat="44.20617" lon="8.26138">
<ele>636</ele>
<time>2026-07-22T11:28:25-07:00</time>
</trkpt>
<trkpt lat="44.20617" lon="8.26148">
<ele>636</ele>
<time>2026-07-22T11:28:26-07:00</time>
</trkpt>
<trkpt lat="44.20615" lon="8.26158">
<ele>633</ele>
<time>2026-07-22T11:28:27-07:00</time>
</trkpt>
<trkpt lat="44.20611" lon="8.26166">
<ele>633</ele>
<time>2026-07-22T11:28:28-07:00</time>
</trkpt>
<trkpt lat="44.20605" lon="8.26171">
<ele>633</ele>
<time>2026-07-22T11:28:29-07:00</time>
</trkpt>
<trkpt lat="44.20598" lon="8.26177">
<ele>633</ele>
<time>2026-07-22T11:28:30-07:00</time>
</trkpt>
<trkpt lat="44.20594" lon="8.26188">
<ele>626</ele>
<time>2026-07-22T11:28:31-07:00</time>
</trkpt>
<trkpt lat="44.20592" lon="8.26193">
<ele>626</ele>
<time>2026-07-22T11:28:32-07:00</time>
</trkpt>
<trkpt lat="44.20584" lon="8.262">
<ele>626</ele>
<time>2026-07-22T11:28:33-07:00</time>
</trkpt>
<trkpt lat="44.20578" lon="8.26205">
<ele>626</ele>
<time>2026-07-22T11:28:34-07:00</time>
</trkpt>
<trkpt lat="44.20573" lon="8.26211">
<ele>625</ele>
<time>2026-07-22T11:28:35-07:00</time>
</trkpt>
<trkpt lat="44.20567" lon="8.26216">
<ele>618</ele>
<time>2026-07-22T11:28:36-07:00</time>
</trkpt>
<trkpt lat="44.20561" lon="8.26221">
<ele>618</ele>
<time>2026-07-22T11:28:37-07:00</time>
</trkpt>
<trkpt lat="44.20556" lon="8.26223">
<ele>618</ele>
<time>2026-07-22T11:28:38-07:00</time>
</trkpt>
<trkpt lat="44.2055" lon="8.26225">
<ele>618</ele>
<time>2026-07-22T11:28:39-07:00</time>
</trkpt>
<trkpt lat="44.20545" lon="8.26227">
<ele>618</ele>
<time>2026-07-22T11:28:40-07:00</time>
</trkpt>
<trkpt lat="44.20538" lon="8.26234">
<ele>610</ele>
<time>2026-07-22T11:28:41-07:00</time>
</trkpt>
<trkpt lat="44.20534" lon="8.2624">
<ele>612</ele>
<time>2026-07-22T11:28:42-07:00</time>
</trkpt>
<trkpt lat="44.2053" lon="8.26248">
<ele>612</ele>
<time>2026-07-22T11:28:43-07:00</time>
</trkpt>
<trkpt lat="44.20529" lon="8.26261">
<ele>612</ele>
<time>2026-07-22T11:28:44-07:00</time>
</trkpt>
<trkpt lat="44.2053" lon="8.26274">
<ele>614</ele>
<time>2026-07-22T11:28:45-07:00</time>
</trkpt>
<trkpt lat="44.20532" lon="8.26288">
<ele>614</ele>
<time>2026-07-22T11:28:46-07:00</time>
</trkpt>
<trkpt lat="44.20531" lon="8.26302">
<ele>613</ele>
<time>2026-07-22T11:28:47-07:00</time>
</trkpt>
<trkpt lat="44.2053" lon="8.26315">
<ele>613</ele>
<time>2026-07-22T11:28:48-07:00</time>
</trkpt>
<trkpt lat="44.20526" lon="8.26328">
<ele>611</ele>
<time>2026-07-22T11:28:49-07:00</time>
</trkpt>
<trkpt lat="44.20522" lon="8.26338">
<ele>611</ele>
<time>2026-07-22T11:28:50-07:00</time>
</trkpt>
<trkpt lat="44.20519" lon="8.2635">
<ele>607</ele>
<time>2026-07-22T11:28:51-07:00</time>
</trkpt>
<trkpt lat="44.20519" lon="8.26359">
<ele>607</ele>
<time>2026-07-22T11:28:52-07:00</time>
</trkpt>
<trkpt lat="44.20521" lon="8.26367">
<ele>607</ele>
<time>2026-07-22T11:28:53-07:00</time>
</trkpt>
<trkpt lat="44.20524" lon="8.26375">
<ele>607</ele>
<time>2026-07-22T11:28:54-07:00</time>
</trkpt>
<trkpt lat="44.20526" lon="8.26383">
<ele>606</ele>
<time>2026-07-22T11:28:55-07:00</time>
</trkpt>
<trkpt lat="44.20525" lon="8.26391">
<ele>606</ele>
<time>2026-07-22T11:28:56-07:00</time>
</trkpt>
<trkpt lat="44.20519" lon="8.26398">
<ele>606</ele>
<time>2026-07-22T11:28:57-07:00</time>
</trkpt>
<trkpt lat="44.20512" lon="8.26404">
<ele>598</ele>
<time>2026-07-22T11:28:58-07:00</time>
</trkpt>
<trkpt lat="44.20507" lon="8.2641">
<ele>598</ele>
<time>2026-07-22T11:28:59-07:00</time>
</trkpt>
<trkpt lat="44.20505" lon="8.2642">
<ele>598</ele>
<time>2026-07-22T11:29:00-07:00</time>
</trkpt>
<trkpt lat="44.205" lon="8.26427">
<ele>598</ele>
<time>2026-07-22T11:29:01-07:00</time>
</trkpt>
<trkpt lat="44.20495" lon="8.26436">
<ele>599</ele>
<time>2026-07-22T11:29:02-07:00</time>
</trkpt>
<trkpt lat="44.20493" lon="8.26444">
<ele>599</ele>
<time>2026-07-22T11:29:03-07:00</time>
</trkpt>
<trkpt lat="44.20489" lon="8.26454">
<ele>599</ele>
<time>2026-07-22T11:29:04-07:00</time>
</trkpt>
<trkpt lat="44.20483" lon="8.26461">
<ele>598</ele>
<time>2026-07-22T11:29:05-07:00</time>
</trkpt>
<trkpt lat="44.20477" lon="8.26464">
<ele>598</ele>
<time>2026-07-22T11:29:06-07:00</time>
</trkpt>
<trkpt lat="44.20472" lon="8.26467">
<ele>598</ele>
<time>2026-07-22T11:29:07-07:00</time>
</trkpt>
<trkpt lat="44.20468" lon="8.26471">
<ele>598</ele>
<time>2026-07-22T11:29:08-07:00</time>
</trkpt>
<trkpt lat="44.20464" lon="8.26479">
<ele>598</ele>
<time>2026-07-22T11:29:09-07:00</time>
</trkpt>
<trkpt lat="44.20463" lon="8.26488">
<ele>604</ele>
<time>2026-07-22T11:29:10-07:00</time>
</trkpt>
<trkpt lat="44.20462" lon="8.26494">
<ele>604</ele>
<time>2026-07-22T11:29:11-07:00</time>
</trkpt>
<trkpt lat="44.20458" lon="8.26498">
<ele>596</ele>
<time>2026-07-22T11:29:12-07:00</time>
</trkpt>
<trkpt lat="44.20454" lon="8.26502">
<ele>596</ele>
<time>2026-07-22T11:29:13-07:00</time>
</trkpt>
<trkpt lat="44.20449" lon="8.26504">
<ele>596</ele>
<time>2026-07-22T11:29:14-07:00</time>
</trkpt>
<trkpt lat="44.20444" lon="8.26503">
<ele>596</ele>
<time>2026-07-22T11:29:15-07:00</time>
</trkpt>
<trkpt lat="44.20439" lon="8.265">
<ele>596</ele>
<time>2026-07-22T11:29:16-07:00</time>
</trkpt>
<trkpt lat="44.20434" lon="8.26497">
<ele>596</ele>
<time>2026-07-22T11:29:17-07:00</time>
</trkpt>
<trkpt lat="44.20425" lon="8.26497">
<ele>587</ele>
<time>2026-07-22T11:29:18-07:00</time>
</trkpt>
<trkpt lat="44.20418" lon="8.26496">
<ele>587</ele>
<time>2026-07-22T11:29:19-07:00</time>
</trkpt>
<trkpt lat="44.20408" lon="8.26494">
<ele>587</ele>
<time>2026-07-22T11:29:20-07:00</time>
</trkpt>
<trkpt lat="44.20402" lon="8.26499">
<ele>581</ele>
<time>2026-07-22T11:29:21-07:00</time>
</trkpt>
<trkpt lat="44.20397" lon="8.26502">
<ele>581</ele>
<time>2026-07-22T11:29:22-07:00</time>
</trkpt>
<trkpt lat="44.20389" lon="8.26506">
<ele>581</ele>
<time>2026-07-22T11:29:23-07:00</time>
</trkpt>
<trkpt lat="44.20382" lon="8.26508">
<ele>581</ele>
<time>2026-07-22T11:29:24-07:00</time>
</trkpt>
<trkpt lat="44.20375" lon="8.2651">
<ele>581</ele>
<time>2026-07-22T11:29:25-07:00</time>
</trkpt>
<trkpt lat="44.20366" lon="8.26514">
<ele>578</ele>
<time>2026-07-22T11:29:26-07:00</time>
</trkpt>
<trkpt lat="44.20358" lon="8.26518">
<ele>578</ele>
<time>2026-07-22T11:29:27-07:00</time>
</trkpt>
<trkpt lat="44.2035" lon="8.26524">
<ele>578</ele>
<time>2026-07-22T11:29:28-07:00</time>
</trkpt>
<trkpt lat="44.20345" lon="8.26529">
<ele>573</ele>
<time>2026-07-22T11:29:29-07:00</time>
</trkpt>
<trkpt lat="44.2034" lon="8.26533">
<ele>573</ele>
<time>2026-07-22T11:29:30-07:00</time>
</trkpt>
<trkpt lat="44.20335" lon="8.26538">
<ele>573</ele>
<time>2026-07-22T11:29:31-07:00</time>
</trkpt>
<trkpt lat="44.2033" lon="8.26542">
<ele>573</ele>
<time>2026-07-22T11:29:32-07:00</time>
</trkpt>
<trkpt lat="44.20326" lon="8.26549">
<ele>573</ele>
<time>2026-07-22T11:29:33-07:00</time>
</trkpt>
<trkpt lat="44.20321" lon="8.26555">
<ele>573</ele>
<time>2026-07-22T11:29:34-07:00</time>
</trkpt>
<trkpt lat="44.20316" lon="8.26564">
<ele>567</ele>
<time>2026-07-22T11:29:35-07:00</time>
</trkpt>
<trkpt lat="44.20309" lon="8.26572">
<ele>566</ele>
<time>2026-07-22T11:29:36-07:00</time>
</trkpt>
<trkpt lat="44.20304" lon="8.2658">
<ele>566</ele>
<time>2026-07-22T11:29:37-07:00</time>
</trkpt>
<trkpt lat="44.20299" lon="8.2659">
<ele>566</ele>
<time>2026-07-22T11:29:38-07:00</time>
</trkpt>
<trkpt lat="44.20295" lon="8.266">
<ele>568</ele>
<time>2026-07-22T11:29:39-07:00</time>
</trkpt>
<trkpt lat="44.20295" lon="8.26611">
<ele>568</ele>
<time>2026-07-22T11:29:40-07:00</time>
</trkpt>
<trkpt lat="44.20297" lon="8.2662">
<ele>568</ele>
<time>2026-07-22T11:29:41-07:00</time>
</trkpt>
<trkpt lat="44.20298" lon="8.26628">
<ele>569</ele>
<time>2026-07-22T11:29:42-07:00</time>
</trkpt>
<trkpt lat="44.20296" lon="8.26636">
<ele>569</ele>
<time>2026-07-22T11:29:43-07:00</time>
</trkpt>
<trkpt lat="44.20294" lon="8.26643">
<ele>569</ele>
<time>2026-07-22T11:29:44-07:00</time>
</trkpt>
<trkpt lat="44.20291" lon="8.26651">
<ele>561</ele>
<time>2026-07-22T11:29:45-07:00</time>
</trkpt>
<trkpt lat="44.20288" lon="8.26659">
<ele>561</ele>
<time>2026-07-22T11:29:46-07:00</time>
</trkpt>
<trkpt lat="44.20281" lon="8.26678">
<ele>561</ele>
<time>2026-07-22T11:29:47-07:00</time>
</trkpt>
<trkpt lat="44.20276" lon="8.26686">
<ele>563</ele>
<time>2026-07-22T11:29:48-07:00</time>
</trkpt>
<trkpt lat="44.2027" lon="8.26687">
<ele>563</ele>
<time>2026-07-22T11:29:49-07:00</time>
</trkpt>
<trkpt lat="44.20263" lon="8.26687">
<ele>558</ele>
<time>2026-07-22T11:29:50-07:00</time>
</trkpt>
<trkpt lat="44.20256" lon="8.26692">
<ele>558</ele>
<time>2026-07-22T11:29:51-07:00</time>
</trkpt>
<trkpt lat="44.20247" lon="8.26698">
<ele>558</ele>
<time>2026-07-22T11:29:52-07:00</time>
</trkpt>
<trkpt lat="44.20237" lon="8.26705">
<ele>558</ele>
<time>2026-07-22T11:29:53-07:00</time>
</trkpt>
<trkpt lat="44.2023" lon="8.26715">
<ele>555</ele>
<time>2026-07-22T11:29:54-07:00</time>
</trkpt>
<trkpt lat="44.20226" lon="8.26725">
<ele>555</ele>
<time>2026-07-22T11:29:55-07:00</time>
</trkpt>
<trkpt lat="44.20226" lon="8.26735">
<ele>555</ele>
<time>2026-07-22T11:29:56-07:00</time>
</trkpt>
<trkpt lat="44.20226" lon="8.26744">
<ele>553</ele>
<time>2026-07-22T11:29:57-07:00</time>
</trkpt>
<trkpt lat="44.20226" lon="8.26753">
<ele>553</ele>
<time>2026-07-22T11:29:58-07:00</time>
</trkpt>
<trkpt lat="44.20226" lon="8.26765">
<ele>550</ele>
<time>2026-07-22T11:29:59-07:00</time>
</trkpt>
<trkpt lat="44.20224" lon="8.26773">
<ele>550</ele>
<time>2026-07-22T11:30:00-07:00</time>
</trkpt>
<trkpt lat="44.20219" lon="8.26775">
<ele>550</ele>
<time>2026-07-22T11:30:01-07:00</time>
</trkpt>
<trkpt lat="44.20215" lon="8.26772">
<ele>550</ele>
<time>2026-07-22T11:30:02-07:00</time>
</trkpt>
<trkpt lat="44.20209" lon="8.26768">
<ele>550</ele>
<time>2026-07-22T11:30:03-07:00</time>
</trkpt>
<trkpt lat="44.20204" lon="8.26765">
<ele>544</ele>
<time>2026-07-22T11:30:04-07:00</time>
</trkpt>
<trkpt lat="44.20199" lon="8.26767">
<ele>544</ele>
<time>2026-07-22T11:30:05-07:00</time>
</trkpt>
<trkpt lat="44.20196" lon="8.26773">
<ele>544</ele>
<time>2026-07-22T11:30:06-07:00</time>
</trkpt>
<trkpt lat="44.20194" lon="8.26778">
<ele>544</ele>
<time>2026-07-22T11:30:07-07:00</time>
</trkpt>
<trkpt lat="44.2019" lon="8.26783">
<ele>544</ele>
<time>2026-07-22T11:30:08-07:00</time>
</trkpt>
<trkpt lat="44.20184" lon="8.26783">
<ele>544</ele>
<time>2026-07-22T11:30:09-07:00</time>
</trkpt>
<trkpt lat="44.20179" lon="8.26778">
<ele>538</ele>
<time>2026-07-22T11:30:10-07:00</time>
</trkpt>
<trkpt lat="44.20175" lon="8.26771">
<ele>538</ele>
<time>2026-07-22T11:30:11-07:00</time>
</trkpt>
<trkpt lat="44.20171" lon="8.26763">
<ele>539</ele>
<time>2026-07-22T11:30:12-07:00</time>
</trkpt>
<trkpt lat="44.20167" lon="8.26753">
<ele>539</ele>
<time>2026-07-22T11:30:13-07:00</time>
</trkpt>
<trkpt lat="44.20162" lon="8.2675">
<ele>539</ele>
<time>2026-07-22T11:30:14-07:00</time>
</trkpt>
<trkpt lat="44.20156" lon="8.26752">
<ele>539</ele>
<time>2026-07-22T11:30:15-07:00</time>
</trkpt>
<trkpt lat="44.20152" lon="8.26755">
<ele>530</ele>
<time>2026-07-22T11:30:16-07:00</time>
</trkpt>
<trkpt lat="44.20151" lon="8.26762">
<ele>530</ele>
<time>2026-07-22T11:30:17-07:00</time>
</trkpt>
<trkpt lat="44.20153" lon="8.26767">
<ele>538</ele>
<time>2026-07-22T11:30:18-07:00</time>
</trkpt>
<trkpt lat="44.20153" lon="8.26773">
<ele>538</ele>
<time>2026-07-22T11:30:19-07:00</time>
</trkpt>
<trkpt lat="44.20147" lon="8.2677">
<ele>531</ele>
<time>2026-07-22T11:30:20-07:00</time>
</trkpt>
<trkpt lat="44.20141" lon="8.26768">
<ele>531</ele>
<time>2026-07-22T11:30:21-07:00</time>
</trkpt>
<trkpt lat="44.20135" lon="8.2677">
<ele>531</ele>
<time>2026-07-22T11:30:22-07:00</time>
</trkpt>
<trkpt lat="44.20129" lon="8.26775">
<ele>531</ele>
<time>2026-07-22T11:30:23-07:00</time>
</trkpt>
<trkpt lat="44.20124" lon="8.26781">
<ele>524</ele>
<time>2026-07-22T11:30:24-07:00</time>
</trkpt>
<trkpt lat="44.20118" lon="8.26786">
<ele>524</ele>
<time>2026-07-22T11:30:25-07:00</time>
</trkpt>
<trkpt lat="44.20112" lon="8.26789">
<ele>524</ele>
<time>2026-07-22T11:30:26-07:00</time>
</trkpt>
<trkpt lat="44.20105" lon="8.26795">
<ele>524</ele>
<time>2026-07-22T11:30:27-07:00</time>
</trkpt>
<trkpt lat="44.20096" lon="8.268">
<ele>516</ele>
<time>2026-07-22T11:30:28-07:00</time>
</trkpt>
<trkpt lat="44.20089" lon="8.26806">
<ele>516</ele>
<time>2026-07-22T11:30:29-07:00</time>
</trkpt>
<trkpt lat="44.20087" lon="8.26814">
<ele>516</ele>
<time>2026-07-22T11:30:30-07:00</time>
</trkpt>
<trkpt lat="44.20089" lon="8.26824">
<ele>513</ele>
<time>2026-07-22T11:30:31-07:00</time>
</trkpt>
<trkpt lat="44.20087" lon="8.26837">
<ele>513</ele>
<time>2026-07-22T11:30:32-07:00</time>
</trkpt>
<trkpt lat="44.20084" lon="8.26848">
<ele>510</ele>
<time>2026-07-22T11:30:33-07:00</time>
</trkpt>
<trkpt lat="44.20082" lon="8.26858">
<ele>510</ele>
<time>2026-07-22T11:30:34-07:00</time>
</trkpt>
<trkpt lat="44.20082" lon="8.2687">
<ele>510</ele>
<time>2026-07-22T11:30:35-07:00</time>
</trkpt>
<trkpt lat="44.20078" lon="8.26882">
<ele>506</ele>
<time>2026-07-22T11:30:36-07:00</time>
</trkpt>
<trkpt lat="44.20073" lon="8.26893">
<ele>506</ele>
<time>2026-07-22T11:30:37-07:00</time>
</trkpt>
<trkpt lat="44.2007" lon="8.26904">
<ele>502</ele>
<time>2026-07-22T11:30:38-07:00</time>
</trkpt>
<trkpt lat="44.20071" lon="8.26909">
<ele>502</ele>
<time>2026-07-22T11:30:39-07:00</time>
</trkpt>
<trkpt lat="44.20071" lon="8.26914">
<ele>502</ele>
<time>2026-07-22T11:30:40-07:00</time>
</trkpt>
<trkpt lat="44.20074" lon="8.26918">
<ele>502</ele>
<time>2026-07-22T11:30:41-07:00</time>
</trkpt>
<trkpt lat="44.20077" lon="8.26921">
<ele>502</ele>
<time>2026-07-22T11:30:42-07:00</time>
</trkpt>
<trkpt lat="44.20079" lon="8.26926">
<ele>502</ele>
<time>2026-07-22T11:30:43-07:00</time>
</trkpt>
<trkpt lat="44.2008" lon="8.26931">
<ele>497</ele>
<time>2026-07-22T11:30:44-07:00</time>
</trkpt>
<trkpt lat="44.20081" lon="8.26939">
<ele>497</ele>
<time>2026-07-22T11:30:45-07:00</time>
</trkpt>
<trkpt lat="44.20079" lon="8.26945">
<ele>497</ele>
<time>2026-07-22T11:30:46-07:00</time>
</trkpt>
<trkpt lat="44.20076" lon="8.26953">
<ele>497</ele>
<time>2026-07-22T11:30:47-07:00</time>
</trkpt>
<trkpt lat="44.20077" lon="8.2696">
<ele>490</ele>
<time>2026-07-22T11:30:48-07:00</time>
</trkpt>
<trkpt lat="44.2008" lon="8.2697">
<ele>490</ele>
<time>2026-07-22T11:30:49-07:00</time>
</trkpt>
<trkpt lat="44.20083" lon="8.26977">
<ele>490</ele>
<time>2026-07-22T11:30:50-07:00</time>
</trkpt>
<trkpt lat="44.20086" lon="8.26983">
<ele>490</ele>
<time>2026-07-22T11:30:51-07:00</time>
</trkpt>
<trkpt lat="44.20087" lon="8.26989">
<ele>487</ele>
<time>2026-07-22T11:30:52-07:00</time>
</trkpt>
<trkpt lat="44.20083" lon="8.2699">
<ele>487</ele>
<time>2026-07-22T11:30:53-07:00</time>
</trkpt>
<trkpt lat="44.20079" lon="8.26987">
<ele>487</ele>
<time>2026-07-22T11:30:54-07:00</time>
</trkpt>
<trkpt lat="44.20074" lon="8.26982">
<ele>490</ele>
<time>2026-07-22T11:30:55-07:00</time>
</trkpt>
<trkpt lat="44.20069" lon="8.2698">
<ele>485</ele>
<time>2026-07-22T11:30:56-07:00</time>
</trkpt>
<trkpt lat="44.20064" lon="8.26981">
<ele>485</ele>
<time>2026-07-22T11:30:57-07:00</time>
</trkpt>
<trkpt lat="44.2006" lon="8.26987">
<ele>481</ele>
<time>2026-07-22T11:30:58-07:00</time>
</trkpt>
<trkpt lat="44.20058" lon="8.26996">
<ele>481</ele>
<time>2026-07-22T11:30:59-07:00</time>
</trkpt>
<trkpt lat="44.20059" lon="8.27007">
<ele>481</ele>
<time>2026-07-22T11:31:00-07:00</time>
</trkpt>
<trkpt lat="44.20062" lon="8.27013">
<ele>481</ele>
<time>2026-07-22T11:31:01-07:00</time>
</trkpt>
<trkpt lat="44.20064" lon="8.27018">
<ele>478</ele>
<time>2026-07-22T11:31:02-07:00</time>
</trkpt>
<trkpt lat="44.20067" lon="8.27025">
<ele>478</ele>
<time>2026-07-22T11:31:03-07:00</time>
</trkpt>
<trkpt lat="44.20068" lon="8.27033">
<ele>478</ele>
<time>2026-07-22T11:31:04-07:00</time>
</trkpt>
<trkpt lat="44.20064" lon="8.2704">
<ele>478</ele>
<time>2026-07-22T11:31:05-07:00</time>
</trkpt>
<trkpt lat="44.20058" lon="8.27046">
<ele>474</ele>
<time>2026-07-22T11:31:06-07:00</time>
</trkpt>
<trkpt lat="44.20053" lon="8.2705">
<ele>474</ele>
<time>2026-07-22T11:31:07-07:00</time>
</trkpt>
<trkpt lat="44.20046" lon="8.27052">
<ele>474</ele>
<time>2026-07-22T11:31:08-07:00</time>
</trkpt>
<trkpt lat="44.20037" lon="8.27051">
<ele>468</ele>
<time>2026-07-22T11:31:09-07:00</time>
</trkpt>
<trkpt lat="44.20029" lon="8.2705">
<ele>468</ele>
<time>2026-07-22T11:31:10-07:00</time>
</trkpt>
<trkpt lat="44.20023" lon="8.27052">
<ele>468</ele>
<time>2026-07-22T11:31:11-07:00</time>
</trkpt>
<trkpt lat="44.20019" lon="8.27061">
<ele>468</ele>
<time>2026-07-22T11:31:12-07:00</time>
</trkpt>
<trkpt lat="44.20019" lon="8.27068">
<ele>468</ele>
<time>2026-07-22T11:31:13-07:00</time>
</trkpt>
<trkpt lat="44.20019" lon="8.27074">
<ele>467</ele>
<time>2026-07-22T11:31:14-07:00</time>
</trkpt>
<trkpt lat="44.20019" lon="8.27081">
<ele>467</ele>
<time>2026-07-22T11:31:15-07:00</time>
</trkpt>
<trkpt lat="44.20019" lon="8.27087">
<ele>467</ele>
<time>2026-07-22T11:31:16-07:00</time>
</trkpt>
<trkpt lat="44.20017" lon="8.27092">
<ele>467</ele>
<time>2026-07-22T11:31:17-07:00</time>
</trkpt>
<trkpt lat="44.20013" lon="8.27092">
<ele>463</ele>
<time>2026-07-22T11:31:18-07:00</time>
</trkpt>
<trkpt lat="44.20009" lon="8.27098">
<ele>462</ele>
<time>2026-07-22T11:31:19-07:00</time>
</trkpt>
<trkpt lat="44.20006" lon="8.27103">
<ele>462</ele>
<time>2026-07-22T11:31:20-07:00</time>
</trkpt>
<trkpt lat="44.20008" lon="8.2711">
<ele>462</ele>
<time>2026-07-22T11:31:21-07:00</time>
</trkpt>
<trkpt lat="44.20011" lon="8.27116">
<ele>462</ele>
<time>2026-07-22T11:31:22-07:00</time>
</trkpt>
<trkpt lat="44.20013" lon="8.27121">
<ele>462</ele>
<time>2026-07-22T11:31:23-07:00</time>
</trkpt>
<trkpt lat="44.20018" lon="8.27127">
<ele>461</ele>
<time>2026-07-22T11:31:24-07:00</time>
</trkpt>
<trkpt lat="44.20022" lon="8.27133">
<ele>461</ele>
<time>2026-07-22T11:31:25-07:00</time>
</trkpt>
<trkpt lat="44.20024" lon="8.27138">
<ele>461</ele>
<time>2026-07-22T11:31:26-07:00</time>
</trkpt>
<trkpt lat="44.20024" lon="8.27146">
<ele>461</ele>
<time>2026-07-22T11:31:27-07:00</time>
</trkpt>
<trkpt lat="44.20021" lon="8.27151">
<ele>461</ele>
<time>2026-07-22T11:31:28-07:00</time>
</trkpt>
<trkpt lat="44.20015" lon="8.27152">
<ele>461</ele>
<time>2026-07-22T11:31:29-07:00</time>
</trkpt>
<trkpt lat="44.2001" lon="8.27154">
<ele>454</ele>
<time>2026-07-22T11:31:30-07:00</time>
</trkpt>
<trkpt lat="44.20006" lon="8.27157">
<ele>454</ele>
<time>2026-07-22T11:31:31-07:00</time>
</trkpt>
<trkpt lat="44.20002" lon="8.27162">
<ele>454</ele>
<time>2026-07-22T11:31:32-07:00</time>
</trkpt>
<trkpt lat="44.19997" lon="8.27168">
<ele>454</ele>
<time>2026-07-22T11:31:33-07:00</time>
</trkpt>
<trkpt lat="44.19993" lon="8.27168">
<ele>454</ele>
<time>2026-07-22T11:31:34-07:00</time>
</trkpt>
<trkpt lat="44.19989" lon="8.27168">
<ele>454</ele>
<time>2026-07-22T11:31:35-07:00</time>
</trkpt>
<trkpt lat="44.19984" lon="8.27169">
<ele>451</ele>
<time>2026-07-22T11:31:36-07:00</time>
</trkpt>
<trkpt lat="44.1998" lon="8.27175">
<ele>451</ele>
<time>2026-07-22T11:31:37-07:00</time>
</trkpt>
<trkpt lat="44.19977" lon="8.27181">
<ele>446</ele>
<time>2026-07-22T11:31:38-07:00</time>
</trkpt>
<trkpt lat="44.19974" lon="8.27187">
<ele>446</ele>
<time>2026-07-22T11:31:39-07:00</time>
</trkpt>
<trkpt lat="44.19968" lon="8.27192">
<ele>446</ele>
<time>2026-07-22T11:31:40-07:00</time>
</trkpt>
<trkpt lat="44.19962" lon="8.27197">
<ele>446</ele>
<time>2026-07-22T11:31:41-07:00</time>
</trkpt>
<trkpt lat="44.19955" lon="8.27201">
<ele>445</ele>
<time>2026-07-22T11:31:42-07:00</time>
</trkpt>
<trkpt lat="44.1995" lon="8.27206">
<ele>445</ele>
<time>2026-07-22T11:31:43-07:00</time>
</trkpt>
<trkpt lat="44.19945" lon="8.27215">
<ele>442</ele>
<time>2026-07-22T11:31:44-07:00</time>
</trkpt>
<trkpt lat="44.19943" lon="8.27229">
<ele>442</ele>
<time>2026-07-22T11:31:45-07:00</time>
</trkpt>
<trkpt lat="44.19941" lon="8.27241">
<ele>440</ele>
<time>2026-07-22T11:31:46-07:00</time>
</trkpt>
<trkpt lat="44.19939" lon="8.27257">
<ele>440</ele>
<time>2026-07-22T11:31:47-07:00</time>
</trkpt>
<trkpt lat="44.19939" lon="8.27272">
<ele>436</ele>
<time>2026-07-22T11:31:48-07:00</time>
</trkpt>
<trkpt lat="44.19942" lon="8.2728">
<ele>436</ele>
<time>2026-07-22T11:31:49-07:00</time>
</trkpt>
<trkpt lat="44.19945" lon="8.27289">
<ele>436</ele>
<time>2026-07-22T11:31:50-07:00</time>
</trkpt>
<trkpt lat="44.19946" lon="8.273">
<ele>431</ele>
<time>2026-07-22T11:31:51-07:00</time>
</trkpt>
<trkpt lat="44.19946" lon="8.2731">
<ele>431</ele>
<time>2026-07-22T11:31:52-07:00</time>
</trkpt>
<trkpt lat="44.19944" lon="8.2732">
<ele>427</ele>
<time>2026-07-22T11:31:53-07:00</time>
</trkpt>
<trkpt lat="44.19942" lon="8.2733">
<ele>427</ele>
<time>2026-07-22T11:31:54-07:00</time>
</trkpt>
<trkpt lat="44.19939" lon="8.27339">
<ele>427</ele>
<time>2026-07-22T11:31:55-07:00</time>
</trkpt>
<trkpt lat="44.19935" lon="8.27348">
<ele>423</ele>
<time>2026-07-22T11:31:56-07:00</time>
</trkpt>
<trkpt lat="44.19931" lon="8.27353">
<ele>423</ele>
<time>2026-07-22T11:31:57-07:00</time>
</trkpt>
<trkpt lat="44.19926" lon="8.27354">
<ele>421</ele>
<time>2026-07-22T11:31:58-07:00</time>
</trkpt>
<trkpt lat="44.19921" lon="8.27356">
<ele>421</ele>
<time>2026-07-22T11:31:59-07:00</time>
</trkpt>
<trkpt lat="44.19919" lon="8.27362">
<ele>421</ele>
<time>2026-07-22T11:32:00-07:00</time>
</trkpt>
<trkpt lat="44.19917" lon="8.27367">
<ele>421</ele>
<time>2026-07-22T11:32:01-07:00</time>
</trkpt>
<trkpt lat="44.19915" lon="8.27373">
<ele>421</ele>
<time>2026-07-22T11:32:02-07:00</time>
</trkpt>
<trkpt lat="44.19913" lon="8.27378">
<ele>416</ele>
<time>2026-07-22T11:32:03-07:00</time>
</trkpt>
<trkpt lat="44.19906" lon="8.27383">
<ele>416</ele>
<time>2026-07-22T11:32:04-07:00</time>
</trkpt>
<trkpt lat="44.19898" lon="8.27388">
<ele>415</ele>
<time>2026-07-22T11:32:05-07:00</time>
</trkpt>
<trkpt lat="44.19889" lon="8.27393">
<ele>415</ele>
<time>2026-07-22T11:32:06-07:00</time>
</trkpt>
<trkpt lat="44.19883" lon="8.27397">
<ele>415</ele>
<time>2026-07-22T11:32:07-07:00</time>
</trkpt>
<trkpt lat="44.1987" lon="8.27404">
<ele>410</ele>
<time>2026-07-22T11:32:08-07:00</time>
</trkpt>
<trkpt lat="44.19865" lon="8.27402">
<ele>413</ele>
<time>2026-07-22T11:32:09-07:00</time>
</trkpt>
<trkpt lat="44.19859" lon="8.27397">
<ele>413</ele>
<time>2026-07-22T11:32:10-07:00</time>
</trkpt>
<trkpt lat="44.19854" lon="8.27397">
<ele>413</ele>
<time>2026-07-22T11:32:11-07:00</time>
</trkpt>
<trkpt lat="44.19847" lon="8.274">
<ele>410</ele>
<time>2026-07-22T11:32:12-07:00</time>
</trkpt>
<trkpt lat="44.19842" lon="8.27397">
<ele>410</ele>
<time>2026-07-22T11:32:13-07:00</time>
</trkpt>
<trkpt lat="44.19835" lon="8.27393">
<ele>410</ele>
<time>2026-07-22T11:32:14-07:00</time>
</trkpt>
<trkpt lat="44.19827" lon="8.27394">
<ele>410</ele>
<time>2026-07-22T11:32:15-07:00</time>
</trkpt>
<trkpt lat="44.19819" lon="8.27397">
<ele>404</ele>
<time>2026-07-22T11:32:16-07:00</time>
</trkpt>
<trkpt lat="44.19813" lon="8.27401">
<ele>404</ele>
<time>2026-07-22T11:32:17-07:00</time>
</trkpt>
<trkpt lat="44.19809" lon="8.27406">
<ele>403</ele>
<time>2026-07-22T11:32:18-07:00</time>
</trkpt>
<trkpt lat="44.19804" lon="8.27414">
<ele>403</ele>
<time>2026-07-22T11:32:19-07:00</time>
</trkpt>
<trkpt lat="44.19798" lon="8.27422">
<ele>403</ele>
<time>2026-07-22T11:32:20-07:00</time>
</trkpt>
<trkpt lat="44.19792" lon="8.27423">
<ele>403</ele>
<time>2026-07-22T11:32:21-07:00</time>
</trkpt>
<trkpt lat="44.19787" lon="8.27422">
<ele>396</ele>
<time>2026-07-22T11:32:22-07:00</time>
</trkpt>
<trkpt lat="44.19783" lon="8.2742">
<ele>396</ele>
<time>2026-07-22T11:32:23-07:00</time>
</trkpt>
<trkpt lat="44.19782" lon="8.27416">
<ele>396</ele>
<time>2026-07-22T11:32:24-07:00</time>
</trkpt>
<trkpt lat="44.19782" lon="8.27411">
<ele>396</ele>
<time>2026-07-22T11:32:25-07:00</time>
</trkpt>
<trkpt lat="44.19784" lon="8.27405">
<ele>396</ele>
<time>2026-07-22T11:32:26-07:00</time>
</trkpt>
<trkpt lat="44.19786" lon="8.27398">
<ele>397</ele>
<time>2026-07-22T11:32:27-07:00</time>
</trkpt>
<trkpt lat="44.19784" lon="8.27393">
<ele>397</ele>
<time>2026-07-22T11:32:28-07:00</time>
</trkpt>
<trkpt lat="44.19778" lon="8.27397">
<ele>397</ele>
<time>2026-07-22T11:32:29-07:00</time>
</trkpt>
<trkpt lat="44.19775" lon="8.274">
<ele>397</ele>
<time>2026-07-22T11:32:30-07:00</time>
</trkpt>
<trkpt lat="44.19772" lon="8.27404">
<ele>396</ele>
<time>2026-07-22T11:32:31-07:00</time>
</trkpt>
<trkpt lat="44.19768" lon="8.27407">
<ele>396</ele>
<time>2026-07-22T11:32:32-07:00</time>
</trkpt>
<trkpt lat="44.19765" lon="8.2741">
<ele>396</ele>
<time>2026-07-22T11:32:33-07:00</time>
</trkpt>
<trkpt lat="44.19757" lon="8.27418">
<ele>391</ele>
<time>2026-07-22T11:32:34-07:00</time>
</trkpt>
<trkpt lat="44.19754" lon="8.27427">
<ele>391</ele>
<time>2026-07-22T11:32:35-07:00</time>
</trkpt>
<trkpt lat="44.1975" lon="8.27435">
<ele>391</ele>
<time>2026-07-22T11:32:36-07:00</time>
</trkpt>
<trkpt lat="44.19744" lon="8.2744">
<ele>391</ele>
<time>2026-07-22T11:32:37-07:00</time>
</trkpt>
<trkpt lat="44.19738" lon="8.27443">
<ele>391</ele>
<time>2026-07-22T11:32:38-07:00</time>
</trkpt>
<trkpt lat="44.19732" lon="8.27444">
<ele>386</ele>
<time>2026-07-22T11:32:39-07:00</time>
</trkpt>
<trkpt lat="44.19728" lon="8.2745">
<ele>386</ele>
<time>2026-07-22T11:32:40-07:00</time>
</trkpt>
<trkpt lat="44.19728" lon="8.27457">
<ele>386</ele>
<time>2026-07-22T11:32:41-07:00</time>
</trkpt>
<trkpt lat="44.1973" lon="8.27468">
<ele>386</ele>
<time>2026-07-22T11:32:42-07:00</time>
</trkpt>
<trkpt lat="44.19728" lon="8.27477">
<ele>386</ele>
<time>2026-07-22T11:32:43-07:00</time>
</trkpt>
<trkpt lat="44.19725" lon="8.27483">
<ele>386</ele>
<time>2026-07-22T11:32:44-07:00</time>
</trkpt>
<trkpt lat="44.19718" lon="8.27488">
<ele>385</ele>
<time>2026-07-22T11:32:45-07:00</time>
</trkpt>
<trkpt lat="44.19717" lon="8.27496">
<ele>385</ele>
<time>2026-07-22T11:32:46-07:00</time>
</trkpt>
<trkpt lat="44.19713" lon="8.27505">
<ele>385</ele>
<time>2026-07-22T11:32:47-07:00</time>
</trkpt>
<trkpt lat="44.19709" lon="8.27513">
<ele>385</ele>
<time>2026-07-22T11:32:48-07:00</time>
</trkpt>
<trkpt lat="44.19704" lon="8.2752">
<ele>380</ele>
<time>2026-07-22T11:32:49-07:00</time>
</trkpt>
<trkpt lat="44.19701" lon="8.27528">
<ele>380</ele>
<time>2026-07-22T11:32:50-07:00</time>
</trkpt>
<trkpt lat="44.19698" lon="8.27538">
<ele>380</ele>
<time>2026-07-22T11:32:51-07:00</time>
</trkpt>
<trkpt lat="44.19693" lon="8.27541">
<ele>380</ele>
<time>2026-07-22T11:32:52-07:00</time>
</trkpt>
<trkpt lat="44.19687" lon="8.2754">
<ele>380</ele>
<time>2026-07-22T11:32:53-07:00</time>
</trkpt>
<trkpt lat="44.1968" lon="8.27537">
<ele>373</ele>
<time>2026-07-22T11:32:54-07:00</time>
</trkpt>
<trkpt lat="44.19672" lon="8.27533">
<ele>373</ele>
<time>2026-07-22T11:32:55-07:00</time>
</trkpt>
<trkpt lat="44.19666" lon="8.27531">
<ele>373</ele>
<time>2026-07-22T11:32:56-07:00</time>
</trkpt>
<trkpt lat="44.1966" lon="8.27531">
<ele>373</ele>
<time>2026-07-22T11:32:57-07:00</time>
</trkpt>
<trkpt lat="44.19655" lon="8.27535">
<ele>373</ele>
<time>2026-07-22T11:32:58-07:00</time>
</trkpt>
<trkpt lat="44.19651" lon="8.2754">
<ele>364</ele>
<time>2026-07-22T11:32:59-07:00</time>
</trkpt>
<trkpt lat="44.19649" lon="8.27551">
<ele>366</ele>
<time>2026-07-22T11:33:00-07:00</time>
</trkpt>
<trkpt lat="44.19644" lon="8.27553">
<ele>366</ele>
<time>2026-07-22T11:33:01-07:00</time>
</trkpt>
<trkpt lat="44.1964" lon="8.27554">
<ele>366</ele>
<time>2026-07-22T11:33:02-07:00</time>
</trkpt>
<trkpt lat="44.19637" lon="8.27558">
<ele>366</ele>
<time>2026-07-22T11:33:03-07:00</time>
</trkpt>
<trkpt lat="44.19633" lon="8.27564">
<ele>366</ele>
<time>2026-07-22T11:33:04-07:00</time>
</trkpt>
<trkpt lat="44.19633" lon="8.27571">
<ele>363</ele>
<time>2026-07-22T11:33:05-07:00</time>
</trkpt>
<trkpt lat="44.19634" lon="8.27579">
<ele>363</ele>
<time>2026-07-22T11:33:06-07:00</time>
</trkpt>
<trkpt lat="44.19631" lon="8.27584">
<ele>363</ele>
<time>2026-07-22T11:33:07-07:00</time>
</trkpt>
<trkpt lat="44.19629" lon="8.27591">
<ele>363</ele>
<time>2026-07-22T11:33:08-07:00</time>
</trkpt>
<trkpt lat="44.19627" lon="8.27599">
<ele>360</ele>
<time>2026-07-22T11:33:09-07:00</time>
</trkpt>
<trkpt lat="44.19624" lon="8.27607">
<ele>354</ele>
<time>2026-07-22T11:33:10-07:00</time>
</trkpt>
<trkpt lat="44.19622" lon="8.27615">
<ele>354</ele>
<time>2026-07-22T11:33:11-07:00</time>
</trkpt>
<trkpt lat="44.19619" lon="8.27623">
<ele>354</ele>
<time>2026-07-22T11:33:12-07:00</time>
</trkpt>
<trkpt lat="44.19616" lon="8.27625">
<ele>354</ele>
<time>2026-07-22T11:33:13-07:00</time>
</trkpt>
<trkpt lat="44.19612" lon="8.27627">
<ele>351</ele>
<time>2026-07-22T11:33:14-07:00</time>
</trkpt>
<trkpt lat="44.19609" lon="8.27626">
<ele>351</ele>
<time>2026-07-22T11:33:15-07:00</time>
</trkpt>
<trkpt lat="44.19605" lon="8.27625">
<ele>354</ele>
<time>2026-07-22T11:33:16-07:00</time>
</trkpt>
<trkpt lat="44.19601" lon="8.27627">
<ele>351</ele>
<time>2026-07-22T11:33:17-07:00</time>
</trkpt>
<trkpt lat="44.196" lon="8.27635">
<ele>351</ele>
<time>2026-07-22T11:33:18-07:00</time>
</trkpt>
<trkpt lat="44.19598" lon="8.27642">
<ele>351</ele>
<time>2026-07-22T11:33:19-07:00</time>
</trkpt>
<trkpt lat="44.19597" lon="8.2765">
<ele>343</ele>
<time>2026-07-22T11:33:20-07:00</time>
</trkpt>
<trkpt lat="44.19595" lon="8.27658">
<ele>341</ele>
<time>2026-07-22T11:33:21-07:00</time>
</trkpt>
<trkpt lat="44.19594" lon="8.27665">
<ele>341</ele>
<time>2026-07-22T11:33:22-07:00</time>
</trkpt>
<trkpt lat="44.19592" lon="8.27673">
<ele>341</ele>
<time>2026-07-22T11:33:23-07:00</time>
</trkpt>
<trkpt lat="44.19591" lon="8.2768">
<ele>341</ele>
<time>2026-07-22T11:33:24-07:00</time>
</trkpt>
<trkpt lat="44.19589" lon="8.27688">
<ele>338</ele>
<time>2026-07-22T11:33:25-07:00</time>
</trkpt>
<trkpt lat="44.19592" lon="8.27691">
<ele>338</ele>
<time>2026-07-22T11:33:26-07:00</time>
</trkpt>
<trkpt lat="44.19594" lon="8.27694">
<ele>338</ele>
<time>2026-07-22T11:33:27-07:00</time>
</trkpt>
<trkpt lat="44.19597" lon="8.27697">
<ele>338</ele>
<time>2026-07-22T11:33:28-07:00</time>
</trkpt>
<trkpt lat="44.19599" lon="8.277">
<ele>343</ele>
<time>2026-07-22T11:33:29-07:00</time>
</trkpt>
<trkpt lat="44.196" lon="8.27707">
<ele>343</ele>
<time>2026-07-22T11:33:30-07:00</time>
</trkpt>
<trkpt lat="44.19601" lon="8.27713">
<ele>339</ele>
<time>2026-07-22T11:33:31-07:00</time>
</trkpt>
</trkseg>
</trk>
</gpx>
