<?xml version="1.0" encoding="UTF-8" standalone="yes"?>
<gpx version="1.1" creator="outdooractive - http://www.outdooractive.com" xmlns="http://www.topografix.com/GPX/1/1" xmlns:oa="http://www.outdooractive.com/GPX/Extensions/1" xmlns:xsi="http://www.w3.org/2001/XMLSchema-instance" xsi:schemaLocation="http://www.topografix.com/GPX/1/1 http://www.topografix.com/GPX/1/1/gpx.xsd http://www.outdooractive.com/GPX/Extensions/1 https://www.outdooractive.com/schema/gpx_extensions.xsd">
  <metadata>
    <name>6 - Dh Uomini</name>
    <author>
      <name>Redazione Finale Outdoor Region - Finale Outdoor</name>
    </author>
    <link href="https://www.outdooractive.com/r/44649980"/>
    <time>2026-04-19T17:14:47.258Z</time>
    <extensions>
      <oa:oaCategory>mountainbiking</oa:oaCategory>
    </extensions>
  </metadata>
  <trk>
    <name>6 - Dh Uomini</name>
    <type>mountainbiking</type>
    <trkseg>
      <trkpt lat="44.191985" lon="8.403533">
        <ele>289.6</ele>
        <name>44.191980,8.403550</name>
      </trkpt>
      <trkpt lat="44.192008" lon="8.403548">
        <ele>289.8</ele>
      </trkpt>
      <trkpt lat="44.191936" lon="8.403683">
        <ele>288.9</ele>
      </trkpt>
      <trkpt lat="44.191888" lon="8.403756">
        <ele>288.5</ele>
      </trkpt>
      <trkpt lat="44.191787" lon="8.403866">
        <ele>288.0</ele>
      </trkpt>
      <trkpt lat="44.19166" lon="8.403936">
        <ele>287.2</ele>
      </trkpt>
      <trkpt lat="44.191534" lon="8.404038">
        <ele>285.7</ele>
      </trkpt>
      <trkpt lat="44.191466" lon="8.404085">
        <ele>284.7</ele>
      </trkpt>
      <trkpt lat="44.191339" lon="8.404211">
        <ele>281.8</ele>
      </trkpt>
      <trkpt lat="44.191267" lon="8.404224">
        <ele>280.4</ele>
      </trkpt>
      <trkpt lat="44.191208" lon="8.404209">
        <ele>279.4</ele>
      </trkpt>
      <trkpt lat="44.19115" lon="8.404214">
        <ele>278.1</ele>
      </trkpt>
      <trkpt lat="44.19112" lon="8.404231">
        <ele>277.3</ele>
      </trkpt>
      <trkpt lat="44.191088" lon="8.404267">
        <ele>276.3</ele>
      </trkpt>
      <trkpt lat="44.191067" lon="8.404327">
        <ele>275.1</ele>
      </trkpt>
      <trkpt lat="44.191059" lon="8.404376">
        <ele>274.3</ele>
      </trkpt>
      <trkpt lat="44.191039" lon="8.40445">
        <ele>272.8</ele>
      </trkpt>
      <trkpt lat="44.191008" lon="8.404481">
        <ele>271.7</ele>
      </trkpt>
      <trkpt lat="44.190972" lon="8.404487">
        <ele>270.7</ele>
      </trkpt>
      <trkpt lat="44.190931" lon="8.404495">
        <ele>269.6</ele>
      </trkpt>
      <trkpt lat="44.190903" lon="8.404489">
        <ele>269.0</ele>
      </trkpt>
      <trkpt lat="44.190869" lon="8.404467">
        <ele>268.4</ele>
      </trkpt>
      <trkpt lat="44.190837" lon="8.404421">
        <ele>268.3</ele>
      </trkpt>
      <trkpt lat="44.190754" lon="8.404392">
        <ele>266.3</ele>
      </trkpt>
      <trkpt lat="44.19071" lon="8.404379">
        <ele>265.2</ele>
      </trkpt>
      <trkpt lat="44.190675" lon="8.404361">
        <ele>264.3</ele>
      </trkpt>
      <trkpt lat="44.190662" lon="8.404356">
        <ele>264.0</ele>
      </trkpt>
      <trkpt lat="44.190641" lon="8.404363">
        <ele>263.2</ele>
      </trkpt>
      <trkpt lat="44.190622" lon="8.404372">
        <ele>262.5</ele>
      </trkpt>
      <trkpt lat="44.190596" lon="8.404369">
        <ele>261.6</ele>
      </trkpt>
      <trkpt lat="44.190558" lon="8.404347">
        <ele>260.6</ele>
      </trkpt>
      <trkpt lat="44.190533" lon="8.404313">
        <ele>260.1</ele>
      </trkpt>
      <trkpt lat="44.190489" lon="8.404272">
        <ele>259.0</ele>
      </trkpt>
      <trkpt lat="44.190474" lon="8.404252">
        <ele>258.7</ele>
      </trkpt>
      <trkpt lat="44.190458" lon="8.404235">
        <ele>258.3</ele>
      </trkpt>
      <trkpt lat="44.190454" lon="8.40423">
        <ele>258.2</ele>
      </trkpt>
      <trkpt lat="44.190446" lon="8.404209">
        <ele>258.2</ele>
      </trkpt>
      <trkpt lat="44.190431" lon="8.404172">
        <ele>258.0</ele>
      </trkpt>
      <trkpt lat="44.190439" lon="8.404141">
        <ele>258.5</ele>
      </trkpt>
      <trkpt lat="44.19045" lon="8.404121">
        <ele>259.1</ele>
      </trkpt>
      <trkpt lat="44.190458" lon="8.404097">
        <ele>259.6</ele>
      </trkpt>
      <trkpt lat="44.190447" lon="8.404072">
        <ele>259.4</ele>
      </trkpt>
      <trkpt lat="44.190436" lon="8.404055">
        <ele>259.1</ele>
      </trkpt>
      <trkpt lat="44.190414" lon="8.404054">
        <ele>258.3</ele>
      </trkpt>
      <trkpt lat="44.190406" lon="8.404037">
        <ele>258.1</ele>
      </trkpt>
      <trkpt lat="44.190371" lon="8.404017">
        <ele>257.0</ele>
      </trkpt>
      <trkpt lat="44.190344" lon="8.404002">
        <ele>256.2</ele>
      </trkpt>
      <trkpt lat="44.190316" lon="8.40398">
        <ele>255.3</ele>
      </trkpt>
      <trkpt lat="44.190279" lon="8.403974">
        <ele>254.0</ele>
      </trkpt>
      <trkpt lat="44.190246" lon="8.403966">
        <ele>252.9</ele>
      </trkpt>
      <trkpt lat="44.190199" lon="8.403968">
        <ele>251.3</ele>
      </trkpt>
      <trkpt lat="44.19014" lon="8.403979">
        <ele>249.2</ele>
      </trkpt>
      <trkpt lat="44.190105" lon="8.403981">
        <ele>248.0</ele>
      </trkpt>
      <trkpt lat="44.190077" lon="8.403957">
        <ele>247.3</ele>
      </trkpt>
      <trkpt lat="44.190044" lon="8.403921">
        <ele>246.6</ele>
      </trkpt>
      <trkpt lat="44.190013" lon="8.403899">
        <ele>245.8</ele>
      </trkpt>
      <trkpt lat="44.189975" lon="8.403887">
        <ele>244.8</ele>
      </trkpt>
      <trkpt lat="44.189918" lon="8.403881">
        <ele>243.3</ele>
      </trkpt>
      <trkpt lat="44.189864" lon="8.403854">
        <ele>242.0</ele>
      </trkpt>
      <trkpt lat="44.189826" lon="8.403824">
        <ele>241.2</ele>
      </trkpt>
      <trkpt lat="44.189773" lon="8.403796">
        <ele>240.1</ele>
      </trkpt>
      <trkpt lat="44.189676" lon="8.403761">
        <ele>237.9</ele>
      </trkpt>
      <trkpt lat="44.189545" lon="8.403742">
        <ele>234.9</ele>
      </trkpt>
      <trkpt lat="44.189488" lon="8.40373">
        <ele>233.7</ele>
      </trkpt>
      <trkpt lat="44.18943" lon="8.403711">
        <ele>232.6</ele>
      </trkpt>
      <trkpt lat="44.189379" lon="8.403702">
        <ele>231.6</ele>
      </trkpt>
      <trkpt lat="44.189355" lon="8.403704">
        <ele>231.0</ele>
      </trkpt>
      <trkpt lat="44.189333" lon="8.403703">
        <ele>230.6</ele>
      </trkpt>
      <trkpt lat="44.189329" lon="8.4037">
        <ele>230.5</ele>
      </trkpt>
      <trkpt lat="44.189304" lon="8.403686">
        <ele>230.1</ele>
      </trkpt>
      <trkpt lat="44.189288" lon="8.403648">
        <ele>230.1</ele>
      </trkpt>
      <trkpt lat="44.189284" lon="8.403601">
        <ele>230.4</ele>
      </trkpt>
      <trkpt lat="44.189268" lon="8.403568">
        <ele>230.4</ele>
      </trkpt>
      <trkpt lat="44.189245" lon="8.403539">
        <ele>230.1</ele>
      </trkpt>
      <trkpt lat="44.189231" lon="8.403524">
        <ele>230.0</ele>
      </trkpt>
      <trkpt lat="44.189208" lon="8.403514">
        <ele>229.6</ele>
      </trkpt>
      <trkpt lat="44.189169" lon="8.403504">
        <ele>229.0</ele>
      </trkpt>
      <trkpt lat="44.189112" lon="8.403499">
        <ele>228.1</ele>
      </trkpt>
      <trkpt lat="44.188995" lon="8.403434">
        <ele>226.9</ele>
      </trkpt>
      <trkpt lat="44.188892" lon="8.403346">
        <ele>226.3</ele>
      </trkpt>
      <trkpt lat="44.188841" lon="8.40332">
        <ele>225.9</ele>
      </trkpt>
      <trkpt lat="44.188749" lon="8.403317">
        <ele>225.1</ele>
      </trkpt>
      <trkpt lat="44.188569" lon="8.403304">
        <ele>223.6</ele>
      </trkpt>
      <trkpt lat="44.188446" lon="8.403265">
        <ele>222.5</ele>
      </trkpt>
      <trkpt lat="44.188354" lon="8.403232">
        <ele>221.5</ele>
      </trkpt>
      <trkpt lat="44.188295" lon="8.403199">
        <ele>220.7</ele>
      </trkpt>
      <trkpt lat="44.188215" lon="8.403185">
        <ele>219.8</ele>
      </trkpt>
      <trkpt lat="44.188061" lon="8.40319">
        <ele>218.4</ele>
      </trkpt>
      <trkpt lat="44.187963" lon="8.403174">
        <ele>217.4</ele>
      </trkpt>
      <trkpt lat="44.187836" lon="8.403168">
        <ele>216.0</ele>
      </trkpt>
      <trkpt lat="44.187665" lon="8.403185">
        <ele>213.7</ele>
      </trkpt>
      <trkpt lat="44.187614" lon="8.403185">
        <ele>212.8</ele>
      </trkpt>
      <trkpt lat="44.187555" lon="8.403176">
        <ele>211.5</ele>
      </trkpt>
      <trkpt lat="44.187504" lon="8.403145">
        <ele>210.2</ele>
      </trkpt>
      <trkpt lat="44.187458" lon="8.403124">
        <ele>208.9</ele>
      </trkpt>
      <trkpt lat="44.187429" lon="8.403132">
        <ele>208.2</ele>
      </trkpt>
      <trkpt lat="44.187383" lon="8.403176">
        <ele>207.2</ele>
      </trkpt>
      <trkpt lat="44.18732" lon="8.403213">
        <ele>205.4</ele>
      </trkpt>
      <trkpt lat="44.187233" lon="8.403278">
        <ele>202.6</ele>
      </trkpt>
      <trkpt lat="44.187209" lon="8.403313">
        <ele>201.7</ele>
      </trkpt>
      <trkpt lat="44.187161" lon="8.403374">
        <ele>199.6</ele>
      </trkpt>
      <trkpt lat="44.187133" lon="8.403416">
        <ele>198.3</ele>
      </trkpt>
      <trkpt lat="44.18711" lon="8.403442">
        <ele>197.2</ele>
      </trkpt>
      <trkpt lat="44.187091" lon="8.403449">
        <ele>196.5</ele>
      </trkpt>
      <trkpt lat="44.187058" lon="8.403441">
        <ele>195.4</ele>
      </trkpt>
      <trkpt lat="44.187019" lon="8.403422">
        <ele>194.2</ele>
      </trkpt>
      <trkpt lat="44.187004" lon="8.403418">
        <ele>193.7</ele>
      </trkpt>
      <trkpt lat="44.186984" lon="8.403424">
        <ele>192.9</ele>
      </trkpt>
      <trkpt lat="44.186957" lon="8.403444">
        <ele>191.7</ele>
      </trkpt>
      <trkpt lat="44.186928" lon="8.403527">
        <ele>189.8</ele>
      </trkpt>
      <trkpt lat="44.186907" lon="8.403579">
        <ele>188.3</ele>
      </trkpt>
      <trkpt lat="44.186872" lon="8.403632">
        <ele>186.3</ele>
      </trkpt>
      <trkpt lat="44.186829" lon="8.403668">
        <ele>184.2</ele>
      </trkpt>
      <trkpt lat="44.186787" lon="8.403697">
        <ele>182.3</ele>
      </trkpt>
      <trkpt lat="44.18676" lon="8.403705">
        <ele>181.2</ele>
      </trkpt>
      <trkpt lat="44.186731" lon="8.403712">
        <ele>180.1</ele>
      </trkpt>
      <trkpt lat="44.186711" lon="8.403714">
        <ele>179.3</ele>
      </trkpt>
      <trkpt lat="44.18669" lon="8.403704">
        <ele>178.7</ele>
      </trkpt>
      <trkpt lat="44.186672" lon="8.403698">
        <ele>178.1</ele>
      </trkpt>
      <trkpt lat="44.186646" lon="8.403682">
        <ele>177.4</ele>
      </trkpt>
      <trkpt lat="44.186616" lon="8.403679">
        <ele>176.2</ele>
      </trkpt>
      <trkpt lat="44.186588" lon="8.403672">
        <ele>175.2</ele>
      </trkpt>
      <trkpt lat="44.186536" lon="8.403668">
        <ele>173.1</ele>
      </trkpt>
      <trkpt lat="44.186509" lon="8.403661">
        <ele>172.0</ele>
      </trkpt>
      <trkpt lat="44.186483" lon="8.403658">
        <ele>171.0</ele>
      </trkpt>
      <trkpt lat="44.186441" lon="8.403665">
        <ele>169.0</ele>
      </trkpt>
      <trkpt lat="44.186408" lon="8.403682">
        <ele>167.3</ele>
      </trkpt>
      <trkpt lat="44.186317" lon="8.403744">
        <ele>162.4</ele>
      </trkpt>
      <trkpt lat="44.186296" lon="8.403755">
        <ele>161.4</ele>
      </trkpt>
      <trkpt lat="44.186279" lon="8.403762">
        <ele>160.5</ele>
      </trkpt>
      <trkpt lat="44.186259" lon="8.403756">
        <ele>159.6</ele>
      </trkpt>
      <trkpt lat="44.186243" lon="8.403746">
        <ele>159.0</ele>
      </trkpt>
      <trkpt lat="44.186219" lon="8.403716">
        <ele>158.1</ele>
      </trkpt>
      <trkpt lat="44.18618" lon="8.403662">
        <ele>156.7</ele>
      </trkpt>
      <trkpt lat="44.186148" lon="8.403639">
        <ele>155.4</ele>
      </trkpt>
      <trkpt lat="44.186102" lon="8.403626">
        <ele>153.3</ele>
      </trkpt>
      <trkpt lat="44.186065" lon="8.40362">
        <ele>151.5</ele>
      </trkpt>
      <trkpt lat="44.186034" lon="8.403625">
        <ele>150.0</ele>
      </trkpt>
      <trkpt lat="44.186" lon="8.403635">
        <ele>148.3</ele>
      </trkpt>
      <trkpt lat="44.185987" lon="8.403646">
        <ele>147.6</ele>
      </trkpt>
      <trkpt lat="44.185967" lon="8.403671">
        <ele>146.5</ele>
      </trkpt>
      <trkpt lat="44.185932" lon="8.403694">
        <ele>144.7</ele>
      </trkpt>
      <trkpt lat="44.185914" lon="8.403695">
        <ele>143.9</ele>
      </trkpt>
      <trkpt lat="44.18589" lon="8.403694">
        <ele>142.8</ele>
      </trkpt>
      <trkpt lat="44.185859" lon="8.403698">
        <ele>141.4</ele>
      </trkpt>
      <trkpt lat="44.18582" lon="8.403711">
        <ele>139.6</ele>
      </trkpt>
      <trkpt lat="44.185788" lon="8.403726">
        <ele>138.2</ele>
      </trkpt>
      <trkpt lat="44.185767" lon="8.403753">
        <ele>137.1</ele>
      </trkpt>
      <trkpt lat="44.185751" lon="8.403756">
        <ele>136.3</ele>
      </trkpt>
      <trkpt lat="44.185726" lon="8.403747">
        <ele>135.4</ele>
      </trkpt>
      <trkpt lat="44.185708" lon="8.40374">
        <ele>134.7</ele>
      </trkpt>
      <trkpt lat="44.185678" lon="8.40373">
        <ele>133.5</ele>
      </trkpt>
      <trkpt lat="44.185637" lon="8.403704">
        <ele>131.9</ele>
      </trkpt>
      <trkpt lat="44.18562" lon="8.403691">
        <ele>131.3</ele>
      </trkpt>
      <trkpt lat="44.18559" lon="8.403674">
        <ele>130.1</ele>
      </trkpt>
      <trkpt lat="44.18555" lon="8.403662">
        <ele>128.6</ele>
      </trkpt>
      <trkpt lat="44.185509" lon="8.403626">
        <ele>127.1</ele>
      </trkpt>
      <trkpt lat="44.185468" lon="8.403599">
        <ele>125.5</ele>
      </trkpt>
      <trkpt lat="44.185435" lon="8.403582">
        <ele>124.3</ele>
      </trkpt>
      <trkpt lat="44.185411" lon="8.403559">
        <ele>123.4</ele>
      </trkpt>
      <trkpt lat="44.185387" lon="8.403559">
        <ele>122.4</ele>
      </trkpt>
      <trkpt lat="44.185353" lon="8.403539">
        <ele>121.0</ele>
      </trkpt>
      <trkpt lat="44.185336" lon="8.403506">
        <ele>120.5</ele>
      </trkpt>
      <trkpt lat="44.185333" lon="8.403469">
        <ele>120.5</ele>
      </trkpt>
      <trkpt lat="44.185341" lon="8.40342">
        <ele>121.0</ele>
      </trkpt>
      <trkpt lat="44.185368" lon="8.403348">
        <ele>122.5</ele>
      </trkpt>
      <trkpt lat="44.185437" lon="8.403279">
        <ele>125.5</ele>
      </trkpt>
      <trkpt lat="44.18546" lon="8.403232">
        <ele>126.5</ele>
      </trkpt>
      <trkpt lat="44.185492" lon="8.403194">
        <ele>127.7</ele>
      </trkpt>
      <trkpt lat="44.185532" lon="8.403143">
        <ele>129.1</ele>
      </trkpt>
      <trkpt lat="44.185551" lon="8.403083">
        <ele>129.6</ele>
      </trkpt>
      <trkpt lat="44.185553" lon="8.403059">
        <ele>129.5</ele>
      </trkpt>
      <trkpt lat="44.185548" lon="8.403031">
        <ele>129.2</ele>
      </trkpt>
      <trkpt lat="44.185501" lon="8.403041">
        <ele>127.4</ele>
      </trkpt>
      <trkpt lat="44.185428" lon="8.403062">
        <ele>124.7</ele>
      </trkpt>
      <trkpt lat="44.185387" lon="8.403071">
        <ele>123.2</ele>
      </trkpt>
      <trkpt lat="44.185304" lon="8.403098">
        <ele>120.0</ele>
      </trkpt>
      <trkpt lat="44.185214" lon="8.403135">
        <ele>116.5</ele>
      </trkpt>
      <trkpt lat="44.185154" lon="8.403167">
        <ele>114.0</ele>
      </trkpt>
      <trkpt lat="44.185078" lon="8.403203">
        <ele>110.8</ele>
      </trkpt>
      <trkpt lat="44.185021" lon="8.403231">
        <ele>108.3</ele>
      </trkpt>
      <trkpt lat="44.184927" lon="8.40325">
        <ele>104.0</ele>
      </trkpt>
      <trkpt lat="44.184899" lon="8.403292">
        <ele>102.6</ele>
      </trkpt>
      <trkpt lat="44.184862" lon="8.403335">
        <ele>100.6</ele>
      </trkpt>
      <trkpt lat="44.184831" lon="8.403387">
        <ele>98.9</ele>
      </trkpt>
      <trkpt lat="44.184805" lon="8.403476">
        <ele>97.2</ele>
      </trkpt>
      <trkpt lat="44.18479" lon="8.403541">
        <ele>96.3</ele>
      </trkpt>
      <trkpt lat="44.184772" lon="8.403655">
        <ele>95.0</ele>
      </trkpt>
      <trkpt lat="44.184761" lon="8.403752">
        <ele>94.1</ele>
      </trkpt>
      <trkpt lat="44.18475" lon="8.403798">
        <ele>93.3</ele>
      </trkpt>
      <trkpt lat="44.184737" lon="8.403948">
        <ele>91.4</ele>
      </trkpt>
      <trkpt lat="44.184734" lon="8.404009">
        <ele>90.5</ele>
      </trkpt>
      <trkpt lat="44.184739" lon="8.404026">
        <ele>90.5</ele>
      </trkpt>
      <trkpt lat="44.184746" lon="8.404038">
        <ele>90.7</ele>
      </trkpt>
      <trkpt lat="44.184769" lon="8.404066">
        <ele>91.3</ele>
      </trkpt>
      <trkpt lat="44.1848" lon="8.404103">
        <ele>92.2</ele>
      </trkpt>
      <trkpt lat="44.184843" lon="8.404145">
        <ele>93.3</ele>
      </trkpt>
      <trkpt lat="44.184869" lon="8.404193">
        <ele>93.5</ele>
      </trkpt>
      <trkpt lat="44.184882" lon="8.404215">
        <ele>93.6</ele>
      </trkpt>
      <trkpt lat="44.184891" lon="8.404232">
        <ele>93.5</ele>
      </trkpt>
      <trkpt lat="44.184899" lon="8.404261">
        <ele>93.1</ele>
      </trkpt>
      <trkpt lat="44.184904" lon="8.404294">
        <ele>92.4</ele>
      </trkpt>
      <trkpt lat="44.184918" lon="8.404325">
        <ele>92.2</ele>
      </trkpt>
      <trkpt lat="44.18492" lon="8.404344">
        <ele>91.7</ele>
      </trkpt>
      <trkpt lat="44.184918" lon="8.404351">
        <ele>91.4</ele>
      </trkpt>
      <trkpt lat="44.184904" lon="8.404356">
        <ele>90.6</ele>
      </trkpt>
      <trkpt lat="44.184894" lon="8.404368">
        <ele>89.7</ele>
      </trkpt>
      <trkpt lat="44.184898" lon="8.404395">
        <ele>89.0</ele>
      </trkpt>
      <trkpt lat="44.184908" lon="8.404434">
        <ele>88.2</ele>
      </trkpt>
      <trkpt lat="44.18492" lon="8.40446">
        <ele>87.8</ele>
      </trkpt>
      <trkpt lat="44.184929" lon="8.404496">
        <ele>87.0</ele>
      </trkpt>
      <trkpt lat="44.184929" lon="8.404513">
        <ele>86.3</ele>
      </trkpt>
      <trkpt lat="44.184928" lon="8.404532">
        <ele>85.6</ele>
      </trkpt>
      <trkpt lat="44.184923" lon="8.404545">
        <ele>84.9</ele>
      </trkpt>
      <trkpt lat="44.184911" lon="8.404555">
        <ele>83.9</ele>
      </trkpt>
      <trkpt lat="44.184899" lon="8.404559">
        <ele>83.2</ele>
      </trkpt>
      <trkpt lat="44.18487" lon="8.404563">
        <ele>81.7</ele>
      </trkpt>
      <trkpt lat="44.184789" lon="8.404557">
        <ele>78.1</ele>
      </trkpt>
      <trkpt lat="44.184723" lon="8.404544">
        <ele>75.5</ele>
      </trkpt>
      <trkpt lat="44.184645" lon="8.404506">
        <ele>73.2</ele>
      </trkpt>
      <trkpt lat="44.184563" lon="8.404461">
        <ele>71.0</ele>
      </trkpt>
      <trkpt lat="44.184457" lon="8.404297">
        <ele>71.4</ele>
      </trkpt>
      <trkpt lat="44.184399" lon="8.404237">
        <ele>70.4</ele>
      </trkpt>
      <trkpt lat="44.184342" lon="8.404209">
        <ele>68.5</ele>
      </trkpt>
      <trkpt lat="44.184273" lon="8.404194">
        <ele>65.8</ele>
      </trkpt>
      <trkpt lat="44.184209" lon="8.404222">
        <ele>62.5</ele>
      </trkpt>
      <trkpt lat="44.184107" lon="8.404252">
        <ele>57.8</ele>
      </trkpt>
      <trkpt lat="44.18403" lon="8.404321">
        <ele>53.3</ele>
      </trkpt>
      <trkpt lat="44.183949" lon="8.404354">
        <ele>49.5</ele>
      </trkpt>
      <trkpt lat="44.183865" lon="8.404354">
        <ele>46.7</ele>
      </trkpt>
      <trkpt lat="44.183784" lon="8.404313">
        <ele>45.0</ele>
      </trkpt>
      <trkpt lat="44.18372" lon="8.404292">
        <ele>43.3</ele>
      </trkpt>
      <trkpt lat="44.183652" lon="8.404241">
        <ele>41.9</ele>
      </trkpt>
      <trkpt lat="44.183553" lon="8.404181">
        <ele>39.4</ele>
      </trkpt>
      <trkpt lat="44.183506" lon="8.404148">
        <ele>38.2</ele>
      </trkpt>
      <trkpt lat="44.183461" lon="8.404085">
        <ele>37.0</ele>
      </trkpt>
      <trkpt lat="44.18345" lon="8.404069">
        <ele>36.6</ele>
      </trkpt>
      <trkpt lat="44.183435" lon="8.404011">
        <ele>36.1</ele>
      </trkpt>
      <trkpt lat="44.183429" lon="8.40393">
        <ele>35.6</ele>
      </trkpt>
      <trkpt lat="44.183428" lon="8.403827">
        <ele>35.0</ele>
      </trkpt>
      <trkpt lat="44.183429" lon="8.403802">
        <ele>34.8</ele>
      </trkpt>
      <trkpt lat="44.183431" lon="8.403755">
        <ele>34.5</ele>
      </trkpt>
      <trkpt lat="44.183426" lon="8.403735">
        <ele>34.2</ele>
      </trkpt>
      <trkpt lat="44.183409" lon="8.403717">
        <ele>33.4</ele>
      </trkpt>
      <trkpt lat="44.1834" lon="8.40371">
        <ele>33.0</ele>
      </trkpt>
      <trkpt lat="44.183386" lon="8.403709">
        <ele>32.6</ele>
      </trkpt>
      <trkpt lat="44.183367" lon="8.403712">
        <ele>32.0</ele>
      </trkpt>
      <trkpt lat="44.183359" lon="8.403709">
        <ele>31.7</ele>
      </trkpt>
      <trkpt lat="44.18335" lon="8.403708">
        <ele>31.4</ele>
      </trkpt>
      <trkpt lat="44.183337" lon="8.403694">
        <ele>30.8</ele>
      </trkpt>
      <trkpt lat="44.183324" lon="8.403662">
        <ele>30.1</ele>
      </trkpt>
      <trkpt lat="44.183317" lon="8.403635">
        <ele>29.7</ele>
      </trkpt>
      <trkpt lat="44.183322" lon="8.403611">
        <ele>29.6</ele>
      </trkpt>
      <trkpt lat="44.18332" lon="8.403588">
        <ele>29.3</ele>
      </trkpt>
      <trkpt lat="44.183313" lon="8.403473">
        <ele>28.1</ele>
      </trkpt>
      <trkpt lat="44.183312" lon="8.403429">
        <ele>27.8</ele>
      </trkpt>
      <trkpt lat="44.183306" lon="8.4034">
        <ele>27.4</ele>
      </trkpt>
      <trkpt lat="44.1833" lon="8.403382">
        <ele>27.1</ele>
      </trkpt>
      <trkpt lat="44.183291" lon="8.403366">
        <ele>26.8</ele>
      </trkpt>
      <trkpt lat="44.183281" lon="8.40335">
        <ele>26.4</ele>
      </trkpt>
      <trkpt lat="44.18328" lon="8.403348">
        <ele>26.4</ele>
        <name>44.183280,8.403340</name>
      </trkpt>
    </trkseg>
  </trk>
</gpx>