<?xml version="1.0" encoding="UTF-8" standalone="yes"?>
<gpx version="1.1" creator="outdooractive - http://www.outdooractive.com" xmlns="http://www.topografix.com/GPX/1/1" xmlns:oa="http://www.outdooractive.com/GPX/Extensions/1" xmlns:xsi="http://www.w3.org/2001/XMLSchema-instance" xsi:schemaLocation="http://www.topografix.com/GPX/1/1 http://www.topografix.com/GPX/1/1/gpx.xsd http://www.outdooractive.com/GPX/Extensions/1 https://www.outdooractive.com/schema/gpx_extensions.xsd">
  <metadata>
    <name>5 - DH Women</name>
    <author>
      <name>Redazione Finale Outdoor Region - Finale Outdoor</name>
    </author>
    <link href="https://www.outdooractive.com/r/45230040"/>
    <time>2026-04-19T17:14:40.712Z</time>
    <extensions>
      <oa:oaCategory>mountainbiking</oa:oaCategory>
    </extensions>
  </metadata>
  <trk>
    <name>5 - DH Women</name>
    <type>mountainbiking</type>
    <trkseg>
      <trkpt lat="44.192696" lon="8.402667">
        <ele>304.5</ele>
        <name>44.192670,8.402670</name>
        <extensions>
          <oa:Extension>
            <oa:mapZoom>16</oa:mapZoom>
          </oa:Extension>
        </extensions>
      </trkpt>
      <trkpt lat="44.192696" lon="8.402651">
        <ele>304.6</ele>
      </trkpt>
      <trkpt lat="44.192612" lon="8.402833">
        <ele>302.2</ele>
      </trkpt>
      <trkpt lat="44.192566" lon="8.40295">
        <ele>300.9</ele>
      </trkpt>
      <trkpt lat="44.192508" lon="8.403011">
        <ele>299.6</ele>
      </trkpt>
      <trkpt lat="44.192468" lon="8.403078">
        <ele>298.7</ele>
      </trkpt>
      <trkpt lat="44.192408" lon="8.403089">
        <ele>297.6</ele>
      </trkpt>
      <trkpt lat="44.19234" lon="8.403128">
        <ele>296.2</ele>
      </trkpt>
      <trkpt lat="44.192296" lon="8.403157">
        <ele>295.3</ele>
      </trkpt>
      <trkpt lat="44.192255" lon="8.403221">
        <ele>294.4</ele>
      </trkpt>
      <trkpt lat="44.192157" lon="8.403276">
        <ele>292.6</ele>
      </trkpt>
      <trkpt lat="44.192109" lon="8.403314">
        <ele>291.7</ele>
      </trkpt>
      <trkpt lat="44.192068" lon="8.403357">
        <ele>291.0</ele>
      </trkpt>
      <trkpt lat="44.192031" lon="8.40344">
        <ele>290.4</ele>
      </trkpt>
      <trkpt lat="44.192016" lon="8.403513">
        <ele>290.0</ele>
        <name>44.191959,8.403490</name>
        <extensions>
          <oa:Extension>
            <oa:mapZoom>16</oa:mapZoom>
          </oa:Extension>
        </extensions>
      </trkpt>
      <trkpt lat="44.192008" lon="8.403548">
        <ele>289.8</ele>
      </trkpt>
      <trkpt lat="44.191864" lon="8.403455">
        <ele>288.4</ele>
      </trkpt>
      <trkpt lat="44.191489" lon="8.403327">
        <ele>282.6</ele>
      </trkpt>
      <trkpt lat="44.191411" lon="8.403266">
        <ele>281.2</ele>
      </trkpt>
      <trkpt lat="44.191257" lon="8.403042">
        <ele>277.6</ele>
      </trkpt>
      <trkpt lat="44.190992" lon="8.402707">
        <ele>273.2</ele>
      </trkpt>
      <trkpt lat="44.190736" lon="8.40231">
        <ele>266.4</ele>
      </trkpt>
      <trkpt lat="44.1906" lon="8.402064">
        <ele>261.7</ele>
      </trkpt>
      <trkpt lat="44.190521" lon="8.401964">
        <ele>260.1</ele>
      </trkpt>
      <trkpt lat="44.190395" lon="8.401845">
        <ele>258.8</ele>
      </trkpt>
      <trkpt lat="44.190315" lon="8.401789">
        <ele>258.3</ele>
        <name>44.190313,8.401794</name>
        <extensions>
          <oa:Extension>
            <oa:mapZoom>16</oa:mapZoom>
          </oa:Extension>
        </extensions>
      </trkpt>
      <trkpt lat="44.190148" lon="8.401674">
        <ele>257.3</ele>
      </trkpt>
      <trkpt lat="44.190126" lon="8.401606">
        <ele>256.8</ele>
      </trkpt>
      <trkpt lat="44.190094" lon="8.401556">
        <ele>256.2</ele>
      </trkpt>
      <trkpt lat="44.190037" lon="8.401451">
        <ele>254.7</ele>
      </trkpt>
      <trkpt lat="44.189999" lon="8.401393">
        <ele>253.7</ele>
      </trkpt>
      <trkpt lat="44.18996" lon="8.401346">
        <ele>252.8</ele>
      </trkpt>
      <trkpt lat="44.189904" lon="8.401282">
        <ele>251.6</ele>
      </trkpt>
      <trkpt lat="44.189848" lon="8.401245">
        <ele>250.7</ele>
      </trkpt>
      <trkpt lat="44.189828" lon="8.401228">
        <ele>250.4</ele>
      </trkpt>
      <trkpt lat="44.189783" lon="8.401187">
        <ele>249.7</ele>
      </trkpt>
      <trkpt lat="44.18973" lon="8.401142">
        <ele>249.1</ele>
      </trkpt>
      <trkpt lat="44.189687" lon="8.401075">
        <ele>248.6</ele>
      </trkpt>
      <trkpt lat="44.189667" lon="8.401037">
        <ele>248.3</ele>
      </trkpt>
      <trkpt lat="44.189645" lon="8.40099">
        <ele>248.1</ele>
      </trkpt>
      <trkpt lat="44.189621" lon="8.400946">
        <ele>247.9</ele>
      </trkpt>
      <trkpt lat="44.189603" lon="8.400911">
        <ele>247.8</ele>
      </trkpt>
      <trkpt lat="44.189568" lon="8.400858">
        <ele>247.7</ele>
      </trkpt>
      <trkpt lat="44.189522" lon="8.400795">
        <ele>247.6</ele>
      </trkpt>
      <trkpt lat="44.189491" lon="8.400722">
        <ele>247.2</ele>
      </trkpt>
      <trkpt lat="44.189474" lon="8.400664">
        <ele>246.8</ele>
      </trkpt>
      <trkpt lat="44.189454" lon="8.400611">
        <ele>246.4</ele>
      </trkpt>
      <trkpt lat="44.189434" lon="8.400567">
        <ele>246.1</ele>
      </trkpt>
      <trkpt lat="44.18941" lon="8.400552">
        <ele>246.1</ele>
      </trkpt>
      <trkpt lat="44.189387" lon="8.40054">
        <ele>246.2</ele>
      </trkpt>
      <trkpt lat="44.189353" lon="8.40053">
        <ele>246.3</ele>
      </trkpt>
      <trkpt lat="44.189306" lon="8.40051">
        <ele>246.2</ele>
      </trkpt>
      <trkpt lat="44.189269" lon="8.400491">
        <ele>246.1</ele>
      </trkpt>
      <trkpt lat="44.18924" lon="8.400471">
        <ele>245.9</ele>
      </trkpt>
      <trkpt lat="44.189176" lon="8.400402">
        <ele>245.0</ele>
      </trkpt>
      <trkpt lat="44.189149" lon="8.400348">
        <ele>244.2</ele>
        <name>44.189205,8.400292</name>
        <extensions>
          <oa:Extension>
            <oa:mapZoom>16</oa:mapZoom>
          </oa:Extension>
        </extensions>
      </trkpt>
      <trkpt lat="44.189142" lon="8.400336">
        <ele>244.1</ele>
      </trkpt>
      <trkpt lat="44.189114" lon="8.400269">
        <ele>243.1</ele>
      </trkpt>
      <trkpt lat="44.189092" lon="8.400209">
        <ele>242.4</ele>
      </trkpt>
      <trkpt lat="44.189054" lon="8.400096">
        <ele>241.2</ele>
      </trkpt>
      <trkpt lat="44.189026" lon="8.399985">
        <ele>240.4</ele>
      </trkpt>
      <trkpt lat="44.188994" lon="8.399882">
        <ele>240.0</ele>
      </trkpt>
      <trkpt lat="44.188951" lon="8.399798">
        <ele>239.8</ele>
      </trkpt>
      <trkpt lat="44.188934" lon="8.3998">
        <ele>239.7</ele>
      </trkpt>
      <trkpt lat="44.188911" lon="8.399812">
        <ele>239.7</ele>
      </trkpt>
      <trkpt lat="44.188908" lon="8.399851">
        <ele>239.6</ele>
      </trkpt>
      <trkpt lat="44.188906" lon="8.399968">
        <ele>239.6</ele>
      </trkpt>
      <trkpt lat="44.188892" lon="8.40001">
        <ele>239.5</ele>
      </trkpt>
      <trkpt lat="44.188871" lon="8.400013">
        <ele>239.3</ele>
      </trkpt>
      <trkpt lat="44.188843" lon="8.400007">
        <ele>239.0</ele>
      </trkpt>
      <trkpt lat="44.188811" lon="8.400003">
        <ele>238.6</ele>
      </trkpt>
      <trkpt lat="44.188777" lon="8.400005">
        <ele>238.2</ele>
      </trkpt>
      <trkpt lat="44.188731" lon="8.400051">
        <ele>237.5</ele>
      </trkpt>
      <trkpt lat="44.188691" lon="8.400026">
        <ele>237.0</ele>
      </trkpt>
      <trkpt lat="44.188653" lon="8.400052">
        <ele>236.4</ele>
      </trkpt>
      <trkpt lat="44.188612" lon="8.400162">
        <ele>235.2</ele>
      </trkpt>
      <trkpt lat="44.188549" lon="8.400239">
        <ele>233.6</ele>
      </trkpt>
      <trkpt lat="44.188532" lon="8.400242">
        <ele>233.2</ele>
        <name>44.188528,8.400207</name>
        <extensions>
          <oa:Extension>
            <oa:mapZoom>16</oa:mapZoom>
          </oa:Extension>
        </extensions>
      </trkpt>
      <trkpt lat="44.188449" lon="8.400259">
        <ele>231.4</ele>
      </trkpt>
      <trkpt lat="44.188371" lon="8.400235">
        <ele>230.0</ele>
      </trkpt>
      <trkpt lat="44.188287" lon="8.400173">
        <ele>229.1</ele>
      </trkpt>
      <trkpt lat="44.188218" lon="8.400122">
        <ele>228.4</ele>
      </trkpt>
      <trkpt lat="44.188125" lon="8.400028">
        <ele>228.0</ele>
      </trkpt>
      <trkpt lat="44.188066" lon="8.400023">
        <ele>227.0</ele>
      </trkpt>
      <trkpt lat="44.187915" lon="8.40006">
        <ele>223.4</ele>
      </trkpt>
      <trkpt lat="44.187841" lon="8.400055">
        <ele>221.9</ele>
      </trkpt>
      <trkpt lat="44.187783" lon="8.400033">
        <ele>221.1</ele>
        <name>44.187774,8.400078</name>
        <extensions>
          <oa:Extension>
            <oa:mapZoom>16</oa:mapZoom>
          </oa:Extension>
        </extensions>
      </trkpt>
      <trkpt lat="44.187741" lon="8.400018">
        <ele>220.5</ele>
      </trkpt>
      <trkpt lat="44.187705" lon="8.400035">
        <ele>219.5</ele>
      </trkpt>
      <trkpt lat="44.187666" lon="8.400118">
        <ele>217.3</ele>
      </trkpt>
      <trkpt lat="44.187629" lon="8.400186">
        <ele>215.4</ele>
      </trkpt>
      <trkpt lat="44.187613" lon="8.400229">
        <ele>214.4</ele>
      </trkpt>
      <trkpt lat="44.187596" lon="8.400259">
        <ele>213.6</ele>
      </trkpt>
      <trkpt lat="44.187568" lon="8.400284">
        <ele>212.7</ele>
      </trkpt>
      <trkpt lat="44.187539" lon="8.400276">
        <ele>212.3</ele>
      </trkpt>
      <trkpt lat="44.187497" lon="8.400219">
        <ele>212.4</ele>
      </trkpt>
      <trkpt lat="44.187455" lon="8.40018">
        <ele>212.3</ele>
      </trkpt>
      <trkpt lat="44.187407" lon="8.400153">
        <ele>211.8</ele>
      </trkpt>
      <trkpt lat="44.187381" lon="8.400172">
        <ele>211.1</ele>
      </trkpt>
      <trkpt lat="44.187356" lon="8.400235">
        <ele>209.7</ele>
      </trkpt>
      <trkpt lat="44.187327" lon="8.400295">
        <ele>208.5</ele>
      </trkpt>
      <trkpt lat="44.187282" lon="8.400342">
        <ele>207.2</ele>
      </trkpt>
      <trkpt lat="44.187175" lon="8.400389">
        <ele>205.3</ele>
      </trkpt>
      <trkpt lat="44.187024" lon="8.400505">
        <ele>202.6</ele>
      </trkpt>
      <trkpt lat="44.186951" lon="8.400552">
        <ele>201.6</ele>
      </trkpt>
      <trkpt lat="44.186934" lon="8.400557">
        <ele>201.5</ele>
      </trkpt>
      <trkpt lat="44.186891" lon="8.400581">
        <ele>201.0</ele>
      </trkpt>
      <trkpt lat="44.186885" lon="8.400613">
        <ele>200.7</ele>
      </trkpt>
      <trkpt lat="44.186885" lon="8.400632">
        <ele>200.6</ele>
      </trkpt>
      <trkpt lat="44.186895" lon="8.400667">
        <ele>200.3</ele>
      </trkpt>
      <trkpt lat="44.186895" lon="8.400682">
        <ele>200.2</ele>
        <name>44.186974,8.400679</name>
        <extensions>
          <oa:Extension>
            <oa:mapZoom>16</oa:mapZoom>
          </oa:Extension>
        </extensions>
      </trkpt>
      <trkpt lat="44.186896" lon="8.400706">
        <ele>200.0</ele>
      </trkpt>
      <trkpt lat="44.186895" lon="8.400739">
        <ele>199.6</ele>
      </trkpt>
      <trkpt lat="44.186901" lon="8.400796">
        <ele>198.9</ele>
      </trkpt>
      <trkpt lat="44.186909" lon="8.400811">
        <ele>198.8</ele>
      </trkpt>
      <trkpt lat="44.186924" lon="8.400818">
        <ele>198.7</ele>
      </trkpt>
      <trkpt lat="44.186939" lon="8.400828">
        <ele>198.6</ele>
      </trkpt>
      <trkpt lat="44.186956" lon="8.400841">
        <ele>198.5</ele>
      </trkpt>
      <trkpt lat="44.186972" lon="8.400852">
        <ele>198.4</ele>
      </trkpt>
      <trkpt lat="44.187004" lon="8.400871">
        <ele>198.2</ele>
      </trkpt>
      <trkpt lat="44.187035" lon="8.400881">
        <ele>198.2</ele>
      </trkpt>
      <trkpt lat="44.187059" lon="8.400888">
        <ele>198.2</ele>
      </trkpt>
      <trkpt lat="44.187082" lon="8.400892">
        <ele>198.2</ele>
      </trkpt>
      <trkpt lat="44.187108" lon="8.400893">
        <ele>198.3</ele>
      </trkpt>
      <trkpt lat="44.187143" lon="8.400893">
        <ele>198.5</ele>
      </trkpt>
      <trkpt lat="44.187173" lon="8.400894">
        <ele>198.6</ele>
      </trkpt>
      <trkpt lat="44.187204" lon="8.400894">
        <ele>198.8</ele>
      </trkpt>
      <trkpt lat="44.187227" lon="8.40089">
        <ele>199.0</ele>
      </trkpt>
      <trkpt lat="44.187247" lon="8.400882">
        <ele>199.3</ele>
      </trkpt>
      <trkpt lat="44.187277" lon="8.400882">
        <ele>199.5</ele>
      </trkpt>
      <trkpt lat="44.18731" lon="8.400884">
        <ele>199.8</ele>
      </trkpt>
      <trkpt lat="44.187338" lon="8.400886">
        <ele>200.0</ele>
      </trkpt>
      <trkpt lat="44.18736" lon="8.40089">
        <ele>200.2</ele>
      </trkpt>
      <trkpt lat="44.18739" lon="8.400901">
        <ele>200.3</ele>
      </trkpt>
      <trkpt lat="44.187407" lon="8.400913">
        <ele>200.3</ele>
      </trkpt>
      <trkpt lat="44.187408" lon="8.400959">
        <ele>199.4</ele>
      </trkpt>
      <trkpt lat="44.187399" lon="8.401003">
        <ele>198.4</ele>
      </trkpt>
      <trkpt lat="44.187392" lon="8.401031">
        <ele>197.7</ele>
      </trkpt>
      <trkpt lat="44.187383" lon="8.401064">
        <ele>196.8</ele>
      </trkpt>
      <trkpt lat="44.187377" lon="8.40109">
        <ele>196.2</ele>
      </trkpt>
      <trkpt lat="44.187376" lon="8.401126">
        <ele>195.3</ele>
      </trkpt>
      <trkpt lat="44.187381" lon="8.401174">
        <ele>194.3</ele>
      </trkpt>
      <trkpt lat="44.187383" lon="8.401224">
        <ele>193.2</ele>
      </trkpt>
      <trkpt lat="44.187383" lon="8.401263">
        <ele>192.4</ele>
      </trkpt>
      <trkpt lat="44.187381" lon="8.401329">
        <ele>191.0</ele>
      </trkpt>
      <trkpt lat="44.187384" lon="8.401427">
        <ele>189.3</ele>
      </trkpt>
      <trkpt lat="44.187391" lon="8.401494">
        <ele>188.4</ele>
      </trkpt>
      <trkpt lat="44.187401" lon="8.401545">
        <ele>187.9</ele>
      </trkpt>
      <trkpt lat="44.187413" lon="8.401592">
        <ele>187.7</ele>
      </trkpt>
      <trkpt lat="44.187424" lon="8.40163">
        <ele>187.6</ele>
      </trkpt>
      <trkpt lat="44.187451" lon="8.401691">
        <ele>188.0</ele>
      </trkpt>
      <trkpt lat="44.187471" lon="8.40172">
        <ele>188.4</ele>
      </trkpt>
      <trkpt lat="44.187488" lon="8.401754">
        <ele>188.9</ele>
      </trkpt>
      <trkpt lat="44.187489" lon="8.401778">
        <ele>189.0</ele>
      </trkpt>
      <trkpt lat="44.187484" lon="8.40179">
        <ele>189.0</ele>
      </trkpt>
      <trkpt lat="44.187457" lon="8.401809">
        <ele>188.5</ele>
      </trkpt>
      <trkpt lat="44.187437" lon="8.401814">
        <ele>188.2</ele>
      </trkpt>
      <trkpt lat="44.187415" lon="8.40181">
        <ele>187.7</ele>
      </trkpt>
      <trkpt lat="44.187393" lon="8.401809">
        <ele>187.2</ele>
      </trkpt>
      <trkpt lat="44.187378" lon="8.401809">
        <ele>186.9</ele>
      </trkpt>
      <trkpt lat="44.187349" lon="8.40181">
        <ele>186.4</ele>
      </trkpt>
      <trkpt lat="44.187303" lon="8.401825">
        <ele>185.6</ele>
      </trkpt>
      <trkpt lat="44.18728" lon="8.401832">
        <ele>185.2</ele>
      </trkpt>
      <trkpt lat="44.187254" lon="8.40183">
        <ele>184.7</ele>
      </trkpt>
      <trkpt lat="44.187233" lon="8.401828">
        <ele>184.4</ele>
      </trkpt>
      <trkpt lat="44.187206" lon="8.401838">
        <ele>183.9</ele>
      </trkpt>
      <trkpt lat="44.187189" lon="8.401845">
        <ele>183.6</ele>
      </trkpt>
      <trkpt lat="44.18717" lon="8.401846">
        <ele>183.3</ele>
      </trkpt>
      <trkpt lat="44.187148" lon="8.401845">
        <ele>182.9</ele>
      </trkpt>
      <trkpt lat="44.187126" lon="8.401846">
        <ele>182.5</ele>
      </trkpt>
      <trkpt lat="44.187099" lon="8.401852">
        <ele>182.1</ele>
      </trkpt>
      <trkpt lat="44.187078" lon="8.401861">
        <ele>181.7</ele>
      </trkpt>
      <trkpt lat="44.187056" lon="8.401868">
        <ele>181.3</ele>
      </trkpt>
      <trkpt lat="44.187034" lon="8.401883">
        <ele>180.9</ele>
      </trkpt>
      <trkpt lat="44.187014" lon="8.401892">
        <ele>180.6</ele>
      </trkpt>
      <trkpt lat="44.18698" lon="8.401889">
        <ele>179.9</ele>
      </trkpt>
      <trkpt lat="44.18695" lon="8.401892">
        <ele>179.4</ele>
      </trkpt>
      <trkpt lat="44.186916" lon="8.401907">
        <ele>178.7</ele>
      </trkpt>
      <trkpt lat="44.186881" lon="8.40193">
        <ele>178.0</ele>
      </trkpt>
      <trkpt lat="44.186865" lon="8.401935">
        <ele>177.7</ele>
      </trkpt>
      <trkpt lat="44.18682" lon="8.401943">
        <ele>176.8</ele>
      </trkpt>
      <trkpt lat="44.186798" lon="8.401955">
        <ele>176.3</ele>
      </trkpt>
      <trkpt lat="44.186783" lon="8.40197">
        <ele>175.9</ele>
      </trkpt>
      <trkpt lat="44.186773" lon="8.401982">
        <ele>175.6</ele>
      </trkpt>
      <trkpt lat="44.186755" lon="8.401995">
        <ele>175.2</ele>
      </trkpt>
      <trkpt lat="44.186741" lon="8.402003">
        <ele>174.8</ele>
      </trkpt>
      <trkpt lat="44.186729" lon="8.402009">
        <ele>174.6</ele>
      </trkpt>
      <trkpt lat="44.186713" lon="8.402017">
        <ele>174.2</ele>
      </trkpt>
      <trkpt lat="44.186691" lon="8.402029">
        <ele>173.6</ele>
      </trkpt>
      <trkpt lat="44.186677" lon="8.402041">
        <ele>173.2</ele>
      </trkpt>
      <trkpt lat="44.186662" lon="8.40205">
        <ele>172.8</ele>
      </trkpt>
      <trkpt lat="44.186637" lon="8.402065">
        <ele>172.1</ele>
      </trkpt>
      <trkpt lat="44.186613" lon="8.402085">
        <ele>171.4</ele>
      </trkpt>
      <trkpt lat="44.186603" lon="8.402109">
        <ele>170.9</ele>
      </trkpt>
      <trkpt lat="44.186601" lon="8.402116">
        <ele>170.8</ele>
        <name>44.186636,8.402138</name>
        <extensions>
          <oa:Extension>
            <oa:mapZoom>16</oa:mapZoom>
          </oa:Extension>
        </extensions>
      </trkpt>
      <trkpt lat="44.186595" lon="8.402136">
        <ele>170.5</ele>
      </trkpt>
      <trkpt lat="44.186589" lon="8.402167">
        <ele>170.2</ele>
      </trkpt>
      <trkpt lat="44.186586" lon="8.402202">
        <ele>169.8</ele>
      </trkpt>
      <trkpt lat="44.186581" lon="8.402227">
        <ele>169.6</ele>
      </trkpt>
      <trkpt lat="44.186576" lon="8.402249">
        <ele>169.3</ele>
      </trkpt>
      <trkpt lat="44.186559" lon="8.402269">
        <ele>168.7</ele>
      </trkpt>
      <trkpt lat="44.186544" lon="8.402277">
        <ele>168.1</ele>
      </trkpt>
      <trkpt lat="44.18652" lon="8.402296">
        <ele>167.3</ele>
      </trkpt>
      <trkpt lat="44.186463" lon="8.402344">
        <ele>165.1</ele>
      </trkpt>
      <trkpt lat="44.186442" lon="8.40236">
        <ele>164.3</ele>
      </trkpt>
      <trkpt lat="44.186422" lon="8.402378">
        <ele>163.4</ele>
      </trkpt>
      <trkpt lat="44.186401" lon="8.402394">
        <ele>162.6</ele>
      </trkpt>
      <trkpt lat="44.186372" lon="8.402414">
        <ele>161.4</ele>
      </trkpt>
      <trkpt lat="44.186356" lon="8.402436">
        <ele>160.6</ele>
      </trkpt>
      <trkpt lat="44.186342" lon="8.402467">
        <ele>159.9</ele>
      </trkpt>
      <trkpt lat="44.186332" lon="8.402486">
        <ele>159.4</ele>
      </trkpt>
      <trkpt lat="44.18632" lon="8.402504">
        <ele>158.8</ele>
      </trkpt>
      <trkpt lat="44.186305" lon="8.402521">
        <ele>158.2</ele>
      </trkpt>
      <trkpt lat="44.186284" lon="8.402537">
        <ele>157.3</ele>
      </trkpt>
      <trkpt lat="44.186263" lon="8.402558">
        <ele>156.4</ele>
      </trkpt>
      <trkpt lat="44.18625" lon="8.402577">
        <ele>155.8</ele>
      </trkpt>
      <trkpt lat="44.186219" lon="8.402643">
        <ele>154.6</ele>
      </trkpt>
      <trkpt lat="44.186202" lon="8.40267">
        <ele>154.0</ele>
      </trkpt>
      <trkpt lat="44.186183" lon="8.40269">
        <ele>153.3</ele>
      </trkpt>
      <trkpt lat="44.186168" lon="8.402717">
        <ele>152.8</ele>
      </trkpt>
      <trkpt lat="44.186151" lon="8.402738">
        <ele>152.2</ele>
      </trkpt>
      <trkpt lat="44.186134" lon="8.402753">
        <ele>151.5</ele>
      </trkpt>
      <trkpt lat="44.18612" lon="8.40276">
        <ele>150.9</ele>
      </trkpt>
      <trkpt lat="44.186104" lon="8.402769">
        <ele>150.3</ele>
      </trkpt>
      <trkpt lat="44.186087" lon="8.40278">
        <ele>149.6</ele>
      </trkpt>
      <trkpt lat="44.186059" lon="8.402805">
        <ele>148.6</ele>
      </trkpt>
      <trkpt lat="44.186036" lon="8.402828">
        <ele>147.8</ele>
      </trkpt>
      <trkpt lat="44.186012" lon="8.402862">
        <ele>147.0</ele>
      </trkpt>
      <trkpt lat="44.185993" lon="8.402878">
        <ele>146.3</ele>
      </trkpt>
      <trkpt lat="44.185963" lon="8.402891">
        <ele>145.1</ele>
      </trkpt>
      <trkpt lat="44.185945" lon="8.402899">
        <ele>144.4</ele>
      </trkpt>
      <trkpt lat="44.185918" lon="8.402904">
        <ele>143.2</ele>
      </trkpt>
      <trkpt lat="44.185892" lon="8.402911">
        <ele>142.2</ele>
      </trkpt>
      <trkpt lat="44.185878" lon="8.402917">
        <ele>141.6</ele>
      </trkpt>
      <trkpt lat="44.185844" lon="8.40293">
        <ele>140.3</ele>
      </trkpt>
      <trkpt lat="44.185813" lon="8.40293">
        <ele>139.0</ele>
      </trkpt>
      <trkpt lat="44.185789" lon="8.402947">
        <ele>138.1</ele>
      </trkpt>
      <trkpt lat="44.185768" lon="8.402957">
        <ele>137.3</ele>
      </trkpt>
      <trkpt lat="44.185749" lon="8.402966">
        <ele>136.6</ele>
      </trkpt>
      <trkpt lat="44.185736" lon="8.402969">
        <ele>136.1</ele>
      </trkpt>
      <trkpt lat="44.185711" lon="8.402977">
        <ele>135.2</ele>
      </trkpt>
      <trkpt lat="44.185684" lon="8.402972">
        <ele>134.1</ele>
      </trkpt>
      <trkpt lat="44.185603" lon="8.403006">
        <ele>131.2</ele>
      </trkpt>
      <trkpt lat="44.185548" lon="8.403031">
        <ele>129.2</ele>
      </trkpt>
      <trkpt lat="44.185501" lon="8.403041">
        <ele>127.4</ele>
      </trkpt>
      <trkpt lat="44.185428" lon="8.403062">
        <ele>124.7</ele>
      </trkpt>
      <trkpt lat="44.185387" lon="8.403071">
        <ele>123.2</ele>
      </trkpt>
      <trkpt lat="44.185344" lon="8.403085">
        <ele>121.5</ele>
        <name>44.185343,8.403082</name>
      </trkpt>
    </trkseg>
  </trk>
</gpx>