<?xml version="1.0" encoding="UTF-8" standalone="yes"?>
<gpx version="1.1" creator="outdooractive - http://www.outdooractive.com" xmlns="http://www.topografix.com/GPX/1/1" xmlns:oa="http://www.outdooractive.com/GPX/Extensions/1" xmlns:xsi="http://www.w3.org/2001/XMLSchema-instance" xsi:schemaLocation="http://www.topografix.com/GPX/1/1 http://www.topografix.com/GPX/1/1/gpx.xsd http://www.outdooractive.com/GPX/Extensions/1 https://www.outdooractive.com/schema/gpx_extensions.xsd">
  <metadata>
    <name>64 - Cornei Climb</name>
    <author>
      <name>Redazione Finale Outdoor Region - Finale Outdoor</name>
    </author>
    <link href="https://www.outdooractive.com/r/45252252"/>
    <time>2026-03-16T16:40:43.779Z</time>
    <extensions>
      <oa:oaCategory>mountainbiking</oa:oaCategory>
    </extensions>
  </metadata>
  <trk>
    <name>64 - Cornei Climb</name>
    <desc>Steep trail to Orco from Val Cornei</desc>
    <type>mountainbiking</type>
    <trkseg>
      <trkpt lat="44.20903" lon="8.34425">
        <ele>182.3505</ele>
        <name>44.209030,8.344250</name>
      </trkpt>
      <trkpt lat="44.20918" lon="8.34408">
        <ele>182.23566</ele>
      </trkpt>
      <trkpt lat="44.2093" lon="8.34402">
        <ele>182.19304</ele>
      </trkpt>
      <trkpt lat="44.20981" lon="8.344">
        <ele>186.18536</ele>
      </trkpt>
      <trkpt lat="44.21007" lon="8.34386">
        <ele>190.35105</ele>
      </trkpt>
      <trkpt lat="44.21013" lon="8.34388">
        <ele>190.23772</ele>
      </trkpt>
      <trkpt lat="44.21021" lon="8.34388">
        <ele>190.52469</ele>
      </trkpt>
      <trkpt lat="44.21084" lon="8.34352">
        <ele>199.66785</ele>
      </trkpt>
      <trkpt lat="44.21104" lon="8.34345">
        <ele>201.17665</ele>
      </trkpt>
      <trkpt lat="44.21134" lon="8.34338">
        <ele>200.74986</ele>
      </trkpt>
      <trkpt lat="44.21167" lon="8.34318">
        <ele>201.34041</ele>
      </trkpt>
      <trkpt lat="44.21192" lon="8.343">
        <ele>204.79576</ele>
      </trkpt>
      <trkpt lat="44.21199" lon="8.34293">
        <ele>206.69963</ele>
      </trkpt>
      <trkpt lat="44.2121" lon="8.34287">
        <ele>208.63885</ele>
      </trkpt>
      <trkpt lat="44.21243" lon="8.34273">
        <ele>214.15119</ele>
      </trkpt>
      <trkpt lat="44.21249" lon="8.34274">
        <ele>214.02826</ele>
      </trkpt>
      <trkpt lat="44.21268" lon="8.34272">
        <ele>215.12385</ele>
      </trkpt>
      <trkpt lat="44.21278" lon="8.34273">
        <ele>215.38238</ele>
      </trkpt>
      <trkpt lat="44.21291" lon="8.3427">
        <ele>216.68509</ele>
      </trkpt>
      <trkpt lat="44.21322" lon="8.34247">
        <ele>222.23307</ele>
      </trkpt>
      <trkpt lat="44.21344" lon="8.3424">
        <ele>224.20514</ele>
      </trkpt>
      <trkpt lat="44.21361" lon="8.34228">
        <ele>227.01321</ele>
      </trkpt>
      <trkpt lat="44.21371" lon="8.34222">
        <ele>228.22137</ele>
      </trkpt>
      <trkpt lat="44.21385" lon="8.34218">
        <ele>228.61304</ele>
      </trkpt>
      <trkpt lat="44.21415" lon="8.34205">
        <ele>229.62707</ele>
      </trkpt>
      <trkpt lat="44.21436" lon="8.34191">
        <ele>230.47809</ele>
      </trkpt>
      <trkpt lat="44.2148" lon="8.34139">
        <ele>231.19641</ele>
      </trkpt>
      <trkpt lat="44.21483" lon="8.34139">
        <ele>230.86204</ele>
      </trkpt>
      <trkpt lat="44.21488" lon="8.34148">
        <ele>229.63725</ele>
      </trkpt>
      <trkpt lat="44.21501" lon="8.34162">
        <ele>228.92855</ele>
      </trkpt>
      <trkpt lat="44.21515" lon="8.34173">
        <ele>229.94648</ele>
      </trkpt>
      <trkpt lat="44.21543" lon="8.34173">
        <ele>232.92489</ele>
      </trkpt>
      <trkpt lat="44.21566" lon="8.3418">
        <ele>236.86836</ele>
      </trkpt>
      <trkpt lat="44.21583" lon="8.34193">
        <ele>240.71871</ele>
      </trkpt>
      <trkpt lat="44.21588" lon="8.34201">
        <ele>242.4438</ele>
      </trkpt>
      <trkpt lat="44.21608" lon="8.34208">
        <ele>247.05734</ele>
      </trkpt>
      <trkpt lat="44.21622" lon="8.34217">
        <ele>250.80659</ele>
      </trkpt>
      <trkpt lat="44.21652" lon="8.34227">
        <ele>256.81261</ele>
      </trkpt>
      <trkpt lat="44.21683" lon="8.34227">
        <ele>260.35087</ele>
      </trkpt>
      <trkpt lat="44.21713" lon="8.34224">
        <ele>262.67708</ele>
      </trkpt>
      <trkpt lat="44.21735" lon="8.34213">
        <ele>264.78866</ele>
      </trkpt>
      <trkpt lat="44.2177" lon="8.34217">
        <ele>268.00817</ele>
      </trkpt>
      <trkpt lat="44.21813" lon="8.34212">
        <ele>271.90352</ele>
      </trkpt>
      <trkpt lat="44.21842" lon="8.34199">
        <ele>275.05664</ele>
      </trkpt>
      <trkpt lat="44.21886" lon="8.34186">
        <ele>284.33403</ele>
      </trkpt>
      <trkpt lat="44.21902" lon="8.34177">
        <ele>287.08909</ele>
      </trkpt>
      <trkpt lat="44.21949" lon="8.34166">
        <ele>294.60711</ele>
      </trkpt>
      <trkpt lat="44.2197" lon="8.34153">
        <ele>296.47321</ele>
      </trkpt>
      <trkpt lat="44.22001" lon="8.34149">
        <ele>300.74422</ele>
      </trkpt>
      <trkpt lat="44.22023" lon="8.34132">
        <ele>303.61022</ele>
      </trkpt>
      <trkpt lat="44.22048" lon="8.34125">
        <ele>308.80701</ele>
      </trkpt>
      <trkpt lat="44.2205" lon="8.34122">
        <ele>309.45844</ele>
      </trkpt>
      <trkpt lat="44.22049" lon="8.34115">
        <ele>309.83698</ele>
      </trkpt>
      <trkpt lat="44.22045" lon="8.34107">
        <ele>309.61774</ele>
      </trkpt>
      <trkpt lat="44.22028" lon="8.34093">
        <ele>306.46959</ele>
      </trkpt>
      <trkpt lat="44.22003" lon="8.3408">
        <ele>301.66376</ele>
      </trkpt>
      <trkpt lat="44.21997" lon="8.34071">
        <ele>301.33755</ele>
      </trkpt>
      <trkpt lat="44.21994" lon="8.34055">
        <ele>302.64301</ele>
      </trkpt>
      <trkpt lat="44.21994" lon="8.34054">
        <ele>302.76925</ele>
      </trkpt>
      <trkpt lat="44.21995" lon="8.34003">
        <ele>309.02265</ele>
      </trkpt>
      <trkpt lat="44.21999" lon="8.33975">
        <ele>311.01934</ele>
      </trkpt>
      <trkpt lat="44.21997" lon="8.33968">
        <ele>310.89</ele>
      </trkpt>
      <trkpt lat="44.21984" lon="8.33942">
        <ele>308.83997</ele>
      </trkpt>
      <trkpt lat="44.21973" lon="8.33915">
        <ele>305.43555</ele>
      </trkpt>
    </trkseg>
  </trk>
</gpx>