<?xml version="1.0" encoding="UTF-8" standalone="yes"?>
<gpx version="1.1" creator="outdooractive - http://www.outdooractive.com" xmlns="http://www.topografix.com/GPX/1/1" xmlns:oa="http://www.outdooractive.com/GPX/Extensions/1" xmlns:xsi="http://www.w3.org/2001/XMLSchema-instance" xsi:schemaLocation="http://www.topografix.com/GPX/1/1 http://www.topografix.com/GPX/1/1/gpx.xsd http://www.outdooractive.com/GPX/Extensions/1 https://www.outdooractive.com/schema/gpx_extensions.xsd">
  <metadata>
    <name>13 - Radici</name>
    <author>
      <name>Redazione Finale Outdoor Region - Finale Outdoor</name>
    </author>
    <link href="https://www.outdooractive.com/r/45230199"/>
    <time>2026-04-19T17:15:18.010Z</time>
    <extensions>
      <oa:oaCategory>cycling</oa:oaCategory>
    </extensions>
  </metadata>
  <trk>
    <name>13 - Radici</name>
    <desc>Gravel, steep and roots for this E-Bike climb</desc>
    <type>cycling</type>
    <trkseg>
      <trkpt lat="44.18718" lon="8.3923">
        <ele>219.07016</ele>
        <name>44.187180,8.392300</name>
        <extensions>
          <oa:Extension>
            <oa:mapZoom>15</oa:mapZoom>
          </oa:Extension>
        </extensions>
      </trkpt>
      <trkpt lat="44.18736" lon="8.39233">
        <ele>222.09115</ele>
      </trkpt>
      <trkpt lat="44.18751" lon="8.39239">
        <ele>223.66488</ele>
      </trkpt>
      <trkpt lat="44.18762" lon="8.39237">
        <ele>226.87103</ele>
      </trkpt>
      <trkpt lat="44.18772" lon="8.39241">
        <ele>227.9576</ele>
      </trkpt>
      <trkpt lat="44.18776" lon="8.39241">
        <ele>228.89306</ele>
      </trkpt>
      <trkpt lat="44.18777" lon="8.39239">
        <ele>229.75782</ele>
      </trkpt>
      <trkpt lat="44.18776" lon="8.39237">
        <ele>230.1533</ele>
      </trkpt>
      <trkpt lat="44.18753" lon="8.39223">
        <ele>229.00241</ele>
      </trkpt>
      <trkpt lat="44.18718" lon="8.39193">
        <ele>228.6252</ele>
      </trkpt>
      <trkpt lat="44.18712" lon="8.39186">
        <ele>228.55093</ele>
      </trkpt>
      <trkpt lat="44.18696" lon="8.39181">
        <ele>225.32356</ele>
      </trkpt>
      <trkpt lat="44.18686" lon="8.39172">
        <ele>223.46339</ele>
      </trkpt>
      <trkpt lat="44.18683" lon="8.39167">
        <ele>222.86443</ele>
      </trkpt>
      <trkpt lat="44.18683" lon="8.39162">
        <ele>223.04172</ele>
      </trkpt>
      <trkpt lat="44.18686" lon="8.39158">
        <ele>224.03136</ele>
      </trkpt>
      <trkpt lat="44.18694" lon="8.39158">
        <ele>226.48153</ele>
      </trkpt>
      <trkpt lat="44.18702" lon="8.39164">
        <ele>228.57383</ele>
      </trkpt>
      <trkpt lat="44.18709" lon="8.39165">
        <ele>230.3243</ele>
      </trkpt>
      <trkpt lat="44.18716" lon="8.39162">
        <ele>232.1938</ele>
      </trkpt>
      <trkpt lat="44.18727" lon="8.39151">
        <ele>234.94034</ele>
      </trkpt>
      <trkpt lat="44.18732" lon="8.39157">
        <ele>236.13282</ele>
      </trkpt>
      <trkpt lat="44.18752" lon="8.39164">
        <ele>240.69183</ele>
      </trkpt>
      <trkpt lat="44.1876" lon="8.39159">
        <ele>242.97055</ele>
      </trkpt>
      <trkpt lat="44.18768" lon="8.39164">
        <ele>244.74106</ele>
      </trkpt>
      <trkpt lat="44.18771" lon="8.39161">
        <ele>245.66528</ele>
      </trkpt>
      <trkpt lat="44.18778" lon="8.39163">
        <ele>247.30347</ele>
      </trkpt>
      <trkpt lat="44.18786" lon="8.39163">
        <ele>249.25943</ele>
      </trkpt>
      <trkpt lat="44.18794" lon="8.39157">
        <ele>251.3708</ele>
      </trkpt>
      <trkpt lat="44.18819" lon="8.39153">
        <ele>256.63675</ele>
      </trkpt>
      <trkpt lat="44.18826" lon="8.39154">
        <ele>257.91995</ele>
      </trkpt>
      <trkpt lat="44.18836" lon="8.39156">
        <ele>259.58681</ele>
      </trkpt>
      <trkpt lat="44.18858" lon="8.39166">
        <ele>262.92477</ele>
      </trkpt>
      <trkpt lat="44.1889" lon="8.39177">
        <ele>266.84588</ele>
      </trkpt>
      <trkpt lat="44.18916" lon="8.39178">
        <ele>268.64693</ele>
      </trkpt>
      <trkpt lat="44.18952" lon="8.39204">
        <ele>268.77911</ele>
      </trkpt>
      <trkpt lat="44.18992" lon="8.39224">
        <ele>268.71072</ele>
      </trkpt>
      <trkpt lat="44.19022" lon="8.39229">
        <ele>268.30601</ele>
      </trkpt>
      <trkpt lat="44.19037" lon="8.3924">
        <ele>269.15381</ele>
      </trkpt>
      <trkpt lat="44.19042" lon="8.39247">
        <ele>269.92431</ele>
      </trkpt>
      <trkpt lat="44.19058" lon="8.39249">
        <ele>269.17887</ele>
      </trkpt>
      <trkpt lat="44.19066" lon="8.39252">
        <ele>269.01608</ele>
      </trkpt>
      <trkpt lat="44.1908" lon="8.39276">
        <ele>271.76964</ele>
      </trkpt>
      <trkpt lat="44.19098" lon="8.39345">
        <ele>279.39766</ele>
      </trkpt>
      <trkpt lat="44.19099" lon="8.39361">
        <ele>280.93236</ele>
      </trkpt>
      <trkpt lat="44.1911" lon="8.39378">
        <ele>280.19187</ele>
      </trkpt>
      <trkpt lat="44.19109" lon="8.39377">
        <ele>280.33972</ele>
      </trkpt>
      <trkpt lat="44.1912" lon="8.39392">
        <ele>278.8914</ele>
      </trkpt>
      <trkpt lat="44.19135" lon="8.39427">
        <ele>277.92989</ele>
      </trkpt>
      <trkpt lat="44.19163" lon="8.39455">
        <ele>274.92724</ele>
      </trkpt>
      <trkpt lat="44.19183" lon="8.39518">
        <ele>275.97024</ele>
      </trkpt>
      <trkpt lat="44.1919" lon="8.39557">
        <ele>275.263</ele>
      </trkpt>
      <trkpt lat="44.19217" lon="8.39608">
        <ele>273.55109</ele>
      </trkpt>
      <trkpt lat="44.1923" lon="8.39664">
        <ele>275.00603</ele>
      </trkpt>
      <trkpt lat="44.19229" lon="8.39714">
        <ele>275.33732</ele>
      </trkpt>
      <trkpt lat="44.19231" lon="8.39737">
        <ele>276.41875</ele>
      </trkpt>
      <trkpt lat="44.19241" lon="8.39757">
        <ele>279.8629</ele>
      </trkpt>
      <trkpt lat="44.19249" lon="8.39778">
        <ele>284.29479</ele>
      </trkpt>
      <trkpt lat="44.19255" lon="8.39785">
        <ele>286.21528</ele>
      </trkpt>
      <trkpt lat="44.19261" lon="8.39798">
        <ele>289.29828</ele>
      </trkpt>
      <trkpt lat="44.19277" lon="8.3982">
        <ele>294.57257</ele>
      </trkpt>
      <trkpt lat="44.19277" lon="8.39825">
        <ele>295.60598</ele>
      </trkpt>
      <trkpt lat="44.19266" lon="8.39836">
        <ele>297.49406</ele>
      </trkpt>
      <trkpt lat="44.19258" lon="8.39847">
        <ele>299.51235</ele>
      </trkpt>
      <trkpt lat="44.1929" lon="8.39916">
        <ele>312.78042</ele>
      </trkpt>
      <trkpt lat="44.19296" lon="8.39934">
        <ele>314.47483</ele>
      </trkpt>
      <trkpt lat="44.193" lon="8.39962">
        <ele>316.77502</ele>
      </trkpt>
      <trkpt lat="44.19299" lon="8.39986">
        <ele>318.02598</ele>
      </trkpt>
      <trkpt lat="44.193" lon="8.40011">
        <ele>317.91283</ele>
      </trkpt>
      <trkpt lat="44.19304" lon="8.40022">
        <ele>317.38386</ele>
        <name>44.193040,8.400220</name>
        <extensions>
          <oa:Extension>
            <oa:mapZoom>15</oa:mapZoom>
          </oa:Extension>
        </extensions>
      </trkpt>
    </trkseg>
  </trk>
</gpx>