<?xml version="1.0" encoding="UTF-8" standalone="yes"?>
<gpx version="1.1" creator="outdooractive - http://www.outdooractive.com" xmlns="http://www.topografix.com/GPX/1/1" xmlns:oa="http://www.outdooractive.com/GPX/Extensions/1" xmlns:xsi="http://www.w3.org/2001/XMLSchema-instance" xsi:schemaLocation="http://www.topografix.com/GPX/1/1 http://www.topografix.com/GPX/1/1/gpx.xsd http://www.outdooractive.com/GPX/Extensions/1 https://www.outdooractive.com/schema/gpx_extensions.xsd">
  <metadata>
    <name>17 - Anello dell&apos;Arma</name>
    <author>
      <name>Redazione Finale Outdoor Region - Finale Outdoor</name>
    </author>
    <link href="https://www.outdooractive.com/r/45230275"/>
    <time>2026-04-19T17:15:44.476Z</time>
    <extensions>
      <oa:oaCategory>mountainbiking</oa:oaCategory>
    </extensions>
  </metadata>
  <trk>
    <name>17 - Anello dell&apos;Arma</name>
    <desc>A classic XC Finale loop.</desc>
    <type>mountainbiking</type>
    <trkseg>
      <trkpt lat="44.1989" lon="8.37618">
        <ele>266.65216</ele>
      </trkpt>
      <trkpt lat="44.19899" lon="8.37626">
        <ele>269.26114</ele>
      </trkpt>
      <trkpt lat="44.19907" lon="8.3763">
        <ele>270.61645</ele>
      </trkpt>
      <trkpt lat="44.19931" lon="8.37633">
        <ele>270.58912</ele>
      </trkpt>
      <trkpt lat="44.19935" lon="8.37635">
        <ele>270.47892</ele>
      </trkpt>
      <trkpt lat="44.1994" lon="8.37644">
        <ele>270.95737</ele>
      </trkpt>
      <trkpt lat="44.19937" lon="8.37677">
        <ele>275.38305</ele>
      </trkpt>
      <trkpt lat="44.19939" lon="8.377">
        <ele>277.86365</ele>
      </trkpt>
      <trkpt lat="44.19949" lon="8.37735">
        <ele>279.66035</ele>
      </trkpt>
      <trkpt lat="44.19956" lon="8.37781">
        <ele>281.94055</ele>
      </trkpt>
      <trkpt lat="44.19959" lon="8.37803">
        <ele>282.75233</ele>
      </trkpt>
      <trkpt lat="44.19958" lon="8.37826">
        <ele>284.50622</ele>
      </trkpt>
      <trkpt lat="44.19962" lon="8.37871">
        <ele>285.48362</ele>
      </trkpt>
      <trkpt lat="44.19965" lon="8.37895">
        <ele>285.71345</ele>
      </trkpt>
      <trkpt lat="44.19971" lon="8.37912">
        <ele>285.49892</ele>
      </trkpt>
      <trkpt lat="44.19994" lon="8.37958">
        <ele>286.26665</ele>
      </trkpt>
      <trkpt lat="44.20017" lon="8.3798">
        <ele>287.13343</ele>
      </trkpt>
      <trkpt lat="44.20025" lon="8.37995">
        <ele>288.23371</ele>
      </trkpt>
      <trkpt lat="44.20035" lon="8.38006">
        <ele>288.97423</ele>
      </trkpt>
      <trkpt lat="44.20037" lon="8.38013">
        <ele>289.48201</ele>
      </trkpt>
      <trkpt lat="44.20038" lon="8.3803">
        <ele>290.45386</ele>
      </trkpt>
      <trkpt lat="44.20045" lon="8.38036">
        <ele>291.00825</ele>
      </trkpt>
      <trkpt lat="44.20053" lon="8.38038">
        <ele>291.5288</ele>
      </trkpt>
      <trkpt lat="44.20067" lon="8.38021">
        <ele>290.89013</ele>
      </trkpt>
      <trkpt lat="44.20082" lon="8.38015">
        <ele>291.05626</ele>
      </trkpt>
      <trkpt lat="44.20085" lon="8.38018">
        <ele>291.6674</ele>
      </trkpt>
      <trkpt lat="44.20088" lon="8.38024">
        <ele>292.70044</ele>
      </trkpt>
      <trkpt lat="44.20087" lon="8.38059">
        <ele>296.37463</ele>
      </trkpt>
      <trkpt lat="44.20087" lon="8.38074">
        <ele>297.73184</ele>
      </trkpt>
      <trkpt lat="44.20082" lon="8.38101">
        <ele>299.06042</ele>
      </trkpt>
      <trkpt lat="44.20084" lon="8.38134">
        <ele>301.09694</ele>
      </trkpt>
      <trkpt lat="44.20069" lon="8.38163">
        <ele>300.69366</ele>
      </trkpt>
      <trkpt lat="44.20058" lon="8.38197">
        <ele>302.55053</ele>
      </trkpt>
      <trkpt lat="44.20051" lon="8.38208">
        <ele>302.85671</ele>
      </trkpt>
      <trkpt lat="44.20048" lon="8.3823">
        <ele>304.78601</ele>
      </trkpt>
      <trkpt lat="44.2003" lon="8.38285">
        <ele>304.7913</ele>
      </trkpt>
      <trkpt lat="44.20032" lon="8.38304">
        <ele>304.96719</ele>
      </trkpt>
      <trkpt lat="44.20038" lon="8.38315">
        <ele>305.34338</ele>
      </trkpt>
      <trkpt lat="44.20043" lon="8.38334">
        <ele>304.8522</ele>
      </trkpt>
      <trkpt lat="44.20062" lon="8.38368">
        <ele>303.00739</ele>
      </trkpt>
      <trkpt lat="44.20092" lon="8.38444">
        <ele>299.57329</ele>
      </trkpt>
      <trkpt lat="44.20102" lon="8.38457">
        <ele>300.94181</ele>
      </trkpt>
      <trkpt lat="44.20122" lon="8.38527">
        <ele>301.84365</ele>
      </trkpt>
      <trkpt lat="44.20131" lon="8.3854">
        <ele>303.87386</ele>
      </trkpt>
      <trkpt lat="44.2014" lon="8.38559">
        <ele>305.96449</ele>
      </trkpt>
      <trkpt lat="44.20155" lon="8.38564">
        <ele>309.83667</ele>
      </trkpt>
      <trkpt lat="44.20165" lon="8.38571">
        <ele>311.93997</ele>
      </trkpt>
      <trkpt lat="44.20171" lon="8.38586">
        <ele>312.73773</ele>
      </trkpt>
      <trkpt lat="44.20178" lon="8.38594">
        <ele>313.77741</ele>
      </trkpt>
      <trkpt lat="44.20183" lon="8.38619">
        <ele>313.35776</ele>
      </trkpt>
      <trkpt lat="44.20182" lon="8.38705">
        <ele>312.07377</ele>
      </trkpt>
      <trkpt lat="44.20167" lon="8.38749">
        <ele>311.99365</ele>
      </trkpt>
      <trkpt lat="44.20162" lon="8.38774">
        <ele>312.47097</ele>
      </trkpt>
      <trkpt lat="44.20162" lon="8.38779">
        <ele>312.71756</ele>
      </trkpt>
      <trkpt lat="44.20162" lon="8.38778">
        <ele>312.66852</ele>
      </trkpt>
      <trkpt lat="44.20165" lon="8.38801">
        <ele>314.10077</ele>
      </trkpt>
      <trkpt lat="44.20165" lon="8.38839">
        <ele>314.76949</ele>
      </trkpt>
      <trkpt lat="44.20158" lon="8.38869">
        <ele>312.98116</ele>
      </trkpt>
      <trkpt lat="44.2016" lon="8.38905">
        <ele>311.65702</ele>
      </trkpt>
      <trkpt lat="44.20157" lon="8.38939">
        <ele>310.5896</ele>
      </trkpt>
      <trkpt lat="44.20158" lon="8.38957">
        <ele>310.44464</ele>
      </trkpt>
      <trkpt lat="44.20161" lon="8.38972">
        <ele>310.56266</ele>
      </trkpt>
      <trkpt lat="44.20172" lon="8.38987">
        <ele>311.03489</ele>
      </trkpt>
      <trkpt lat="44.20185" lon="8.39029">
        <ele>311.6394</ele>
      </trkpt>
      <trkpt lat="44.20207" lon="8.39027">
        <ele>311.03496</ele>
      </trkpt>
      <trkpt lat="44.20219" lon="8.39023">
        <ele>310.70058</ele>
      </trkpt>
      <trkpt lat="44.20239" lon="8.38996">
        <ele>310.83505</ele>
      </trkpt>
      <trkpt lat="44.20254" lon="8.38987">
        <ele>311.53686</ele>
      </trkpt>
      <trkpt lat="44.20271" lon="8.38956">
        <ele>313.35751</ele>
      </trkpt>
      <trkpt lat="44.20285" lon="8.3894">
        <ele>313.34415</ele>
      </trkpt>
      <trkpt lat="44.20291" lon="8.3892">
        <ele>312.71439</ele>
      </trkpt>
      <trkpt lat="44.20306" lon="8.38903">
        <ele>309.98587</ele>
      </trkpt>
      <trkpt lat="44.20312" lon="8.3889">
        <ele>307.8108</ele>
      </trkpt>
      <trkpt lat="44.20325" lon="8.38845">
        <ele>300.81751</ele>
      </trkpt>
      <trkpt lat="44.20325" lon="8.38835">
        <ele>300.50453</ele>
      </trkpt>
      <trkpt lat="44.20332" lon="8.38824">
        <ele>299.36453</ele>
      </trkpt>
      <trkpt lat="44.20349" lon="8.38811">
        <ele>297.81429</ele>
      </trkpt>
      <trkpt lat="44.20363" lon="8.38797">
        <ele>297.0622</ele>
      </trkpt>
      <trkpt lat="44.20389" lon="8.38791">
        <ele>294.00477</ele>
      </trkpt>
      <trkpt lat="44.20418" lon="8.38779">
        <ele>289.08248</ele>
      </trkpt>
      <trkpt lat="44.20431" lon="8.38765">
        <ele>285.72234</ele>
      </trkpt>
      <trkpt lat="44.20454" lon="8.38752">
        <ele>280.52138</ele>
      </trkpt>
      <trkpt lat="44.20482" lon="8.38747">
        <ele>276.00196</ele>
      </trkpt>
      <trkpt lat="44.20491" lon="8.38743">
        <ele>275.0431</ele>
      </trkpt>
      <trkpt lat="44.20481" lon="8.38713">
        <ele>276.15335</ele>
      </trkpt>
      <trkpt lat="44.20481" lon="8.38706">
        <ele>276.41402</ele>
      </trkpt>
      <trkpt lat="44.20477" lon="8.38704">
        <ele>277.16137</ele>
      </trkpt>
      <trkpt lat="44.20463" lon="8.38664">
        <ele>282.05645</ele>
      </trkpt>
      <trkpt lat="44.20459" lon="8.38658">
        <ele>283.3063</ele>
      </trkpt>
      <trkpt lat="44.20457" lon="8.38643">
        <ele>284.1036</ele>
      </trkpt>
      <trkpt lat="44.20451" lon="8.38629">
        <ele>286.12681</ele>
      </trkpt>
      <trkpt lat="44.20451" lon="8.38614">
        <ele>286.14257</ele>
      </trkpt>
      <trkpt lat="44.20441" lon="8.38582">
        <ele>289.28931</ele>
      </trkpt>
      <trkpt lat="44.20437" lon="8.38561">
        <ele>290.13067</ele>
      </trkpt>
      <trkpt lat="44.20425" lon="8.38539">
        <ele>292.95443</ele>
      </trkpt>
      <trkpt lat="44.20418" lon="8.38532">
        <ele>294.50765</ele>
      </trkpt>
      <trkpt lat="44.20415" lon="8.38526">
        <ele>294.92322</ele>
      </trkpt>
      <trkpt lat="44.20414" lon="8.38524">
        <ele>295.05933</ele>
      </trkpt>
      <trkpt lat="44.20406" lon="8.38486">
        <ele>294.51788</ele>
      </trkpt>
      <trkpt lat="44.20394" lon="8.38463">
        <ele>294.73139</ele>
      </trkpt>
      <trkpt lat="44.2038" lon="8.38446">
        <ele>295.41913</ele>
      </trkpt>
      <trkpt lat="44.20363" lon="8.38431">
        <ele>296.44395</ele>
      </trkpt>
      <trkpt lat="44.20342" lon="8.38426">
        <ele>298.76765</ele>
      </trkpt>
      <trkpt lat="44.20321" lon="8.38425">
        <ele>301.372</ele>
      </trkpt>
      <trkpt lat="44.20316" lon="8.38423">
        <ele>301.77011</ele>
      </trkpt>
      <trkpt lat="44.20307" lon="8.38413">
        <ele>301.99198</ele>
      </trkpt>
      <trkpt lat="44.20294" lon="8.38405">
        <ele>303.04819</ele>
      </trkpt>
      <trkpt lat="44.20287" lon="8.38402">
        <ele>303.72818</ele>
      </trkpt>
      <trkpt lat="44.20264" lon="8.38399">
        <ele>306.38577</ele>
      </trkpt>
      <trkpt lat="44.20264" lon="8.3841">
        <ele>306.96315</ele>
      </trkpt>
      <trkpt lat="44.2027" lon="8.38438">
        <ele>308.93035</ele>
      </trkpt>
      <trkpt lat="44.20264" lon="8.3845">
        <ele>311.10838</ele>
      </trkpt>
      <trkpt lat="44.20254" lon="8.38463">
        <ele>313.55965</ele>
      </trkpt>
      <trkpt lat="44.20241" lon="8.38474">
        <ele>315.45921</ele>
      </trkpt>
      <trkpt lat="44.20223" lon="8.385">
        <ele>317.57782</ele>
      </trkpt>
      <trkpt lat="44.20214" lon="8.38504">
        <ele>317.37152</ele>
      </trkpt>
      <trkpt lat="44.20206" lon="8.38505">
        <ele>316.91774</ele>
      </trkpt>
      <trkpt lat="44.20201" lon="8.38527">
        <ele>317.1309</ele>
      </trkpt>
      <trkpt lat="44.20196" lon="8.38534">
        <ele>316.74606</ele>
      </trkpt>
      <trkpt lat="44.20191" lon="8.38556">
        <ele>316.52229</ele>
      </trkpt>
      <trkpt lat="44.2018" lon="8.38586">
        <ele>314.46148</ele>
      </trkpt>
      <trkpt lat="44.20178" lon="8.38594">
        <ele>313.77741</ele>
        <extensions>
          <oa:locType>routingNode</oa:locType>
        </extensions>
      </trkpt>
    </trkseg>
  </trk>
</gpx>