<?xml version="1.0" encoding="UTF-8" standalone="yes"?>
<gpx version="1.1" creator="outdooractive - http://www.outdooractive.com" xmlns="http://www.topografix.com/GPX/1/1" xmlns:oa="http://www.outdooractive.com/GPX/Extensions/1" xmlns:xsi="http://www.w3.org/2001/XMLSchema-instance" xsi:schemaLocation="http://www.topografix.com/GPX/1/1 http://www.topografix.com/GPX/1/1/gpx.xsd http://www.outdooractive.com/GPX/Extensions/1 https://www.outdooractive.com/schema/gpx_extensions.xsd">
  <metadata>
    <name>1 - 24H</name>
    <author>
      <name>Redazione Finale Outdoor Region - Finale Outdoor</name>
    </author>
    <link href="https://www.outdooractive.com/r/45229949"/>
    <time>2026-04-19T17:13:56.944Z</time>
    <extensions>
      <oa:oaCategory>mountainbiking</oa:oaCategory>
    </extensions>
  </metadata>
  <trk>
    <name>1 - 24H</name>
    <desc>The track that hosts the “Most epic 24H race in the world”. (24H Finale)</desc>
    <type>mountainbiking</type>
    <trkseg>
      <trkpt lat="44.196577" lon="8.3894">
        <ele>302.61928</ele>
        <name>44.196577,8.389400</name>
      </trkpt>
      <trkpt lat="44.196547" lon="8.389412">
        <ele>302.96387</ele>
      </trkpt>
      <trkpt lat="44.196443" lon="8.389435">
        <ele>304.23859</ele>
      </trkpt>
      <trkpt lat="44.196409" lon="8.389565">
        <ele>305.19375</ele>
      </trkpt>
      <trkpt lat="44.196348" lon="8.389903">
        <ele>307.34337</ele>
      </trkpt>
      <trkpt lat="44.196287" lon="8.390061">
        <ele>308.62614</ele>
      </trkpt>
      <trkpt lat="44.196372" lon="8.390255">
        <ele>308.4895</ele>
      </trkpt>
      <trkpt lat="44.196402" lon="8.390392">
        <ele>308.85219</ele>
      </trkpt>
      <trkpt lat="44.196486" lon="8.390577">
        <ele>309.62008</ele>
      </trkpt>
      <trkpt lat="44.196572" lon="8.390793">
        <ele>311.4245</ele>
      </trkpt>
      <trkpt lat="44.196637" lon="8.390904">
        <ele>312.71493</ele>
      </trkpt>
      <trkpt lat="44.196588" lon="8.390952">
        <ele>313.13067</ele>
      </trkpt>
      <trkpt lat="44.196423" lon="8.391099">
        <ele>314.08161</ele>
      </trkpt>
      <trkpt lat="44.196224" lon="8.391243">
        <ele>314.13988</ele>
      </trkpt>
      <trkpt lat="44.196083" lon="8.391438">
        <ele>314.59664</ele>
      </trkpt>
      <trkpt lat="44.196041" lon="8.391611">
        <ele>315.74591</ele>
      </trkpt>
      <trkpt lat="44.195936" lon="8.391754">
        <ele>315.86665</ele>
      </trkpt>
      <trkpt lat="44.195728" lon="8.391906">
        <ele>315.08648</ele>
      </trkpt>
      <trkpt lat="44.195516" lon="8.392007">
        <ele>313.81174</ele>
      </trkpt>
      <trkpt lat="44.195489" lon="8.39204">
        <ele>313.78583</ele>
      </trkpt>
      <trkpt lat="44.195296" lon="8.392308">
        <ele>313.33229</ele>
      </trkpt>
      <trkpt lat="44.195205" lon="8.392412">
        <ele>312.68457</ele>
      </trkpt>
      <trkpt lat="44.195118" lon="8.392364">
        <ele>311.12164</ele>
      </trkpt>
      <trkpt lat="44.194911" lon="8.392345">
        <ele>308.01424</ele>
      </trkpt>
      <trkpt lat="44.194826" lon="8.392193">
        <ele>306.61539</ele>
      </trkpt>
      <trkpt lat="44.19489" lon="8.391953">
        <ele>307.01784</ele>
      </trkpt>
      <trkpt lat="44.194883" lon="8.391921">
        <ele>306.87517</ele>
      </trkpt>
      <trkpt lat="44.194865" lon="8.391832">
        <ele>306.4598</ele>
      </trkpt>
      <trkpt lat="44.194947" lon="8.391743">
        <ele>306.89433</ele>
      </trkpt>
      <trkpt lat="44.195029" lon="8.391796">
        <ele>307.93894</ele>
      </trkpt>
      <trkpt lat="44.195039" lon="8.39194">
        <ele>308.58983</ele>
      </trkpt>
      <trkpt lat="44.195056" lon="8.392058">
        <ele>309.15426</ele>
      </trkpt>
      <trkpt lat="44.195182" lon="8.392003">
        <ele>310.35283</ele>
      </trkpt>
      <trkpt lat="44.195198" lon="8.391973">
        <ele>310.38451</ele>
      </trkpt>
      <trkpt lat="44.195324" lon="8.391777">
        <ele>310.48115</ele>
      </trkpt>
      <trkpt lat="44.195486" lon="8.391295">
        <ele>308.22567</ele>
      </trkpt>
      <trkpt lat="44.195571" lon="8.391069">
        <ele>307.53542</ele>
      </trkpt>
      <trkpt lat="44.195627" lon="8.390953">
        <ele>307.55127</ele>
      </trkpt>
      <trkpt lat="44.195786" lon="8.390647">
        <ele>308.71522</ele>
      </trkpt>
      <trkpt lat="44.195752" lon="8.390546">
        <ele>308.73195</ele>
      </trkpt>
      <trkpt lat="44.195582" lon="8.390532">
        <ele>307.01964</ele>
      </trkpt>
      <trkpt lat="44.195393" lon="8.3905">
        <ele>304.53519</ele>
      </trkpt>
      <trkpt lat="44.195321" lon="8.390322">
        <ele>303.65275</ele>
      </trkpt>
      <trkpt lat="44.195217" lon="8.389954">
        <ele>302.45898</ele>
      </trkpt>
      <trkpt lat="44.195201" lon="8.389912">
        <ele>302.31737</ele>
      </trkpt>
      <trkpt lat="44.195146" lon="8.389662">
        <ele>302.79613</ele>
      </trkpt>
      <trkpt lat="44.195099" lon="8.389509">
        <ele>303.24304</ele>
      </trkpt>
      <trkpt lat="44.195013" lon="8.389539">
        <ele>302.10435</ele>
      </trkpt>
      <trkpt lat="44.194907" lon="8.389448">
        <ele>301.90667</ele>
      </trkpt>
      <trkpt lat="44.19477" lon="8.389268">
        <ele>302.24376</ele>
      </trkpt>
      <trkpt lat="44.194742" lon="8.389217">
        <ele>302.33513</ele>
      </trkpt>
      <trkpt lat="44.194669" lon="8.389002">
        <ele>302.26806</ele>
      </trkpt>
      <trkpt lat="44.194495" lon="8.388785">
        <ele>300.97508</ele>
      </trkpt>
      <trkpt lat="44.194287" lon="8.388706">
        <ele>299.42701</ele>
      </trkpt>
      <trkpt lat="44.194213" lon="8.388556">
        <ele>298.49735</ele>
      </trkpt>
      <trkpt lat="44.194316" lon="8.38835">
        <ele>299.09464</ele>
      </trkpt>
      <trkpt lat="44.194321" lon="8.388261">
        <ele>299.20429</ele>
      </trkpt>
      <trkpt lat="44.194118" lon="8.387999">
        <ele>298.35265</ele>
      </trkpt>
      <trkpt lat="44.194025" lon="8.387926">
        <ele>297.75197</ele>
      </trkpt>
      <trkpt lat="44.193928" lon="8.387858">
        <ele>297.04454</ele>
      </trkpt>
      <trkpt lat="44.193729" lon="8.387762">
        <ele>295.25255</ele>
      </trkpt>
      <trkpt lat="44.193541" lon="8.387689">
        <ele>293.2358</ele>
      </trkpt>
      <trkpt lat="44.193355" lon="8.387641">
        <ele>290.8067</ele>
      </trkpt>
      <trkpt lat="44.19323" lon="8.387438">
        <ele>289.3705</ele>
      </trkpt>
      <trkpt lat="44.193206" lon="8.387232">
        <ele>288.82329</ele>
      </trkpt>
      <trkpt lat="44.193194" lon="8.387122">
        <ele>288.3381</ele>
      </trkpt>
      <trkpt lat="44.19315" lon="8.386621">
        <ele>286.22446</ele>
      </trkpt>
      <trkpt lat="44.193136" lon="8.386466">
        <ele>285.86135</ele>
      </trkpt>
      <trkpt lat="44.193149" lon="8.386191">
        <ele>286.26448</ele>
      </trkpt>
      <trkpt lat="44.193204" lon="8.386028">
        <ele>287.56278</ele>
      </trkpt>
      <trkpt lat="44.193287" lon="8.385906">
        <ele>289.22635</ele>
      </trkpt>
      <trkpt lat="44.193305" lon="8.385678">
        <ele>289.206</ele>
      </trkpt>
      <trkpt lat="44.193345" lon="8.38545">
        <ele>289.08152</ele>
      </trkpt>
      <trkpt lat="44.193462" lon="8.385231">
        <ele>289.86975</ele>
      </trkpt>
      <trkpt lat="44.193603" lon="8.384897">
        <ele>290.92898</ele>
      </trkpt>
      <trkpt lat="44.19374" lon="8.38457">
        <ele>291.97282</ele>
      </trkpt>
      <trkpt lat="44.193778" lon="8.384346">
        <ele>292.35379</ele>
      </trkpt>
      <trkpt lat="44.193642" lon="8.384237">
        <ele>291.94226</ele>
      </trkpt>
      <trkpt lat="44.193361" lon="8.384218">
        <ele>290.72268</ele>
      </trkpt>
      <trkpt lat="44.193075" lon="8.38424">
        <ele>289.49679</ele>
      </trkpt>
      <trkpt lat="44.193007" lon="8.384268">
        <ele>289.03065</ele>
      </trkpt>
      <trkpt lat="44.192924" lon="8.384273">
        <ele>288.69368</ele>
      </trkpt>
      <trkpt lat="44.192762" lon="8.384274">
        <ele>288.1469</ele>
      </trkpt>
      <trkpt lat="44.192629" lon="8.38425">
        <ele>287.93282</ele>
      </trkpt>
      <trkpt lat="44.192486" lon="8.384287">
        <ele>287.33326</ele>
      </trkpt>
      <trkpt lat="44.192412" lon="8.384341">
        <ele>286.95472</ele>
      </trkpt>
      <trkpt lat="44.192263" lon="8.384588">
        <ele>286.29062</ele>
      </trkpt>
      <trkpt lat="44.192123" lon="8.38454">
        <ele>287.73515</ele>
      </trkpt>
      <trkpt lat="44.192103" lon="8.384317">
        <ele>287.479</ele>
      </trkpt>
      <trkpt lat="44.192156" lon="8.384144">
        <ele>286.99097</ele>
      </trkpt>
      <trkpt lat="44.192208" lon="8.383929">
        <ele>286.40546</ele>
      </trkpt>
      <trkpt lat="44.192314" lon="8.383727">
        <ele>286.63499</ele>
      </trkpt>
      <trkpt lat="44.19225" lon="8.383776">
        <ele>286.05167</ele>
      </trkpt>
      <trkpt lat="44.192202" lon="8.383845">
        <ele>285.88795</ele>
      </trkpt>
      <trkpt lat="44.192256" lon="8.383576">
        <ele>284.87093</ele>
      </trkpt>
      <trkpt lat="44.192295" lon="8.383448">
        <ele>284.67575</ele>
      </trkpt>
      <trkpt lat="44.192466" lon="8.382977">
        <ele>284.22937</ele>
      </trkpt>
      <trkpt lat="44.192482" lon="8.382937">
        <ele>284.18753</ele>
      </trkpt>
      <trkpt lat="44.19253" lon="8.382663">
        <ele>282.46894</ele>
      </trkpt>
      <trkpt lat="44.192648" lon="8.38226">
        <ele>282.17708</ele>
      </trkpt>
      <trkpt lat="44.192713" lon="8.381783">
        <ele>279.62906</ele>
      </trkpt>
      <trkpt lat="44.19275" lon="8.381549">
        <ele>280.58983</ele>
      </trkpt>
      <trkpt lat="44.192804" lon="8.381415">
        <ele>282.76747</ele>
      </trkpt>
      <trkpt lat="44.192804" lon="8.381374">
        <ele>282.93156</ele>
      </trkpt>
      <trkpt lat="44.192775" lon="8.380957">
        <ele>285.52756</ele>
      </trkpt>
      <trkpt lat="44.192703" lon="8.380761">
        <ele>286.63635</ele>
      </trkpt>
      <trkpt lat="44.192586" lon="8.380852">
        <ele>283.02917</ele>
      </trkpt>
      <trkpt lat="44.192592" lon="8.381055">
        <ele>280.16138</ele>
      </trkpt>
      <trkpt lat="44.192604" lon="8.381328">
        <ele>277.37447</ele>
      </trkpt>
      <trkpt lat="44.19257" lon="8.381467">
        <ele>275.48224</ele>
      </trkpt>
      <trkpt lat="44.19245" lon="8.381724">
        <ele>271.7992</ele>
      </trkpt>
      <trkpt lat="44.192316" lon="8.382101">
        <ele>270.66145</ele>
      </trkpt>
      <trkpt lat="44.192062" lon="8.382663">
        <ele>268.73864</ele>
      </trkpt>
      <trkpt lat="44.191892" lon="8.383059">
        <ele>270.1707</ele>
      </trkpt>
      <trkpt lat="44.191792" lon="8.383218">
        <ele>270.56274</ele>
      </trkpt>
      <trkpt lat="44.191638" lon="8.383305">
        <ele>268.96442</ele>
      </trkpt>
      <trkpt lat="44.191431" lon="8.383347">
        <ele>266.13693</ele>
      </trkpt>
      <trkpt lat="44.191279" lon="8.383406">
        <ele>264.89008</ele>
      </trkpt>
      <trkpt lat="44.191234" lon="8.383536">
        <ele>266.94337</ele>
      </trkpt>
      <trkpt lat="44.191201" lon="8.383739">
        <ele>271.05429</ele>
      </trkpt>
      <trkpt lat="44.191057" lon="8.383901">
        <ele>272.84315</ele>
      </trkpt>
      <trkpt lat="44.190878" lon="8.383988">
        <ele>272.63467</ele>
      </trkpt>
      <trkpt lat="44.190698" lon="8.384038">
        <ele>271.97234</ele>
      </trkpt>
      <trkpt lat="44.190615" lon="8.384093">
        <ele>272.53866</ele>
      </trkpt>
      <trkpt lat="44.190535" lon="8.384146">
        <ele>273.07887</ele>
      </trkpt>
      <trkpt lat="44.190508" lon="8.384129">
        <ele>272.52037</ele>
      </trkpt>
      <trkpt lat="44.190377" lon="8.384169">
        <ele>272.34441</ele>
      </trkpt>
      <trkpt lat="44.190338" lon="8.38419">
        <ele>272.43778</ele>
      </trkpt>
      <trkpt lat="44.190204" lon="8.384237">
        <ele>272.05119</ele>
      </trkpt>
      <trkpt lat="44.190109" lon="8.384299">
        <ele>272.02041</ele>
      </trkpt>
      <trkpt lat="44.190037" lon="8.384372">
        <ele>272.17629</ele>
      </trkpt>
      <trkpt lat="44.189965" lon="8.384416">
        <ele>271.61376</ele>
      </trkpt>
      <trkpt lat="44.189989" lon="8.384489">
        <ele>273.07805</ele>
      </trkpt>
      <trkpt lat="44.190129" lon="8.384491">
        <ele>275.38898</ele>
      </trkpt>
      <trkpt lat="44.190138" lon="8.38449">
        <ele>275.50462</ele>
      </trkpt>
      <trkpt lat="44.190175" lon="8.384531">
        <ele>276.62432</ele>
      </trkpt>
      <trkpt lat="44.190179" lon="8.384639">
        <ele>278.13289</ele>
      </trkpt>
      <trkpt lat="44.190169" lon="8.3847">
        <ele>278.70265</ele>
      </trkpt>
      <trkpt lat="44.190183" lon="8.384811">
        <ele>280.05986</ele>
      </trkpt>
      <trkpt lat="44.190249" lon="8.384856">
        <ele>281.5243</ele>
      </trkpt>
      <trkpt lat="44.190272" lon="8.384904">
        <ele>282.27927</ele>
      </trkpt>
      <trkpt lat="44.190286" lon="8.38498">
        <ele>283.01201</ele>
      </trkpt>
      <trkpt lat="44.190294" lon="8.385011">
        <ele>283.30547</ele>
      </trkpt>
      <trkpt lat="44.190283" lon="8.384986">
        <ele>282.99772</ele>
      </trkpt>
      <trkpt lat="44.190278" lon="8.385035">
        <ele>283.15768</ele>
      </trkpt>
      <trkpt lat="44.190299" lon="8.385198">
        <ele>283.8927</ele>
      </trkpt>
      <trkpt lat="44.190338" lon="8.38539">
        <ele>284.23009</ele>
      </trkpt>
      <trkpt lat="44.190435" lon="8.385443">
        <ele>285.47083</ele>
      </trkpt>
      <trkpt lat="44.190542" lon="8.385467">
        <ele>286.76108</ele>
      </trkpt>
      <trkpt lat="44.190654" lon="8.385519">
        <ele>287.61888</ele>
      </trkpt>
      <trkpt lat="44.190775" lon="8.385447">
        <ele>289.0441</ele>
      </trkpt>
      <trkpt lat="44.190866" lon="8.385407">
        <ele>289.76347</ele>
      </trkpt>
      <trkpt lat="44.190905" lon="8.385526">
        <ele>288.81242</ele>
      </trkpt>
      <trkpt lat="44.190875" lon="8.385585">
        <ele>288.17571</ele>
      </trkpt>
      <trkpt lat="44.190793" lon="8.385766">
        <ele>285.88508</ele>
      </trkpt>
      <trkpt lat="44.19081" lon="8.385897">
        <ele>284.00035</ele>
      </trkpt>
      <trkpt lat="44.190881" lon="8.38594">
        <ele>283.13111</ele>
      </trkpt>
      <trkpt lat="44.190922" lon="8.385878">
        <ele>284.06286</ele>
      </trkpt>
      <trkpt lat="44.190937" lon="8.385848">
        <ele>284.47183</ele>
      </trkpt>
      <trkpt lat="44.19093" lon="8.385823">
        <ele>284.89504</ele>
      </trkpt>
      <trkpt lat="44.190958" lon="8.38584">
        <ele>284.46611</ele>
      </trkpt>
      <trkpt lat="44.190975" lon="8.385855">
        <ele>284.10204</ele>
      </trkpt>
      <trkpt lat="44.191078" lon="8.385763">
        <ele>284.64457</ele>
      </trkpt>
      <trkpt lat="44.19126" lon="8.385615">
        <ele>285.29359</ele>
      </trkpt>
      <trkpt lat="44.191328" lon="8.38556">
        <ele>285.68437</ele>
      </trkpt>
      <trkpt lat="44.191465" lon="8.385598">
        <ele>283.36066</ele>
      </trkpt>
      <trkpt lat="44.191575" lon="8.385603">
        <ele>282.10885</ele>
      </trkpt>
      <trkpt lat="44.191683" lon="8.385545">
        <ele>282.67464</ele>
      </trkpt>
      <trkpt lat="44.191766" lon="8.385538">
        <ele>282.10087</ele>
      </trkpt>
      <trkpt lat="44.191881" lon="8.385546">
        <ele>280.64543</ele>
      </trkpt>
      <trkpt lat="44.191908" lon="8.385571">
        <ele>279.76117</ele>
      </trkpt>
      <trkpt lat="44.191953" lon="8.38563">
        <ele>277.98362</ele>
      </trkpt>
      <trkpt lat="44.192066" lon="8.385614">
        <ele>277.18102</ele>
      </trkpt>
      <trkpt lat="44.192184" lon="8.385408">
        <ele>279.4675</ele>
      </trkpt>
      <trkpt lat="44.192235" lon="8.385266">
        <ele>280.88821</ele>
      </trkpt>
      <trkpt lat="44.192307" lon="8.385145">
        <ele>281.3616</ele>
      </trkpt>
      <trkpt lat="44.192352" lon="8.384909">
        <ele>282.97973</ele>
      </trkpt>
      <trkpt lat="44.192444" lon="8.384708">
        <ele>283.95799</ele>
      </trkpt>
      <trkpt lat="44.192584" lon="8.384633">
        <ele>284.41312</ele>
      </trkpt>
      <trkpt lat="44.192719" lon="8.384618">
        <ele>284.83438</ele>
      </trkpt>
      <trkpt lat="44.192739" lon="8.384585">
        <ele>285.22769</ele>
      </trkpt>
      <trkpt lat="44.192908" lon="8.38439">
        <ele>287.66734</ele>
      </trkpt>
      <trkpt lat="44.192924" lon="8.384387">
        <ele>287.75563</ele>
      </trkpt>
      <trkpt lat="44.193037" lon="8.384343">
        <ele>288.56228</ele>
      </trkpt>
      <trkpt lat="44.193129" lon="8.384403">
        <ele>288.53251</ele>
      </trkpt>
      <trkpt lat="44.193174" lon="8.3845">
        <ele>288.16932</ele>
      </trkpt>
      <trkpt lat="44.19315" lon="8.384757">
        <ele>286.75002</ele>
      </trkpt>
      <trkpt lat="44.19312" lon="8.384929">
        <ele>285.80822</ele>
      </trkpt>
      <trkpt lat="44.193118" lon="8.385007">
        <ele>285.55349</ele>
      </trkpt>
      <trkpt lat="44.19304" lon="8.385144">
        <ele>284.22048</ele>
      </trkpt>
      <trkpt lat="44.193017" lon="8.385498">
        <ele>283.51297</ele>
      </trkpt>
      <trkpt lat="44.193001" lon="8.385728">
        <ele>283.10611</ele>
      </trkpt>
      <trkpt lat="44.192824" lon="8.386139">
        <ele>278.43822</ele>
      </trkpt>
      <trkpt lat="44.192545" lon="8.386887">
        <ele>272.40413</ele>
      </trkpt>
      <trkpt lat="44.192137" lon="8.387519">
        <ele>265.54882</ele>
      </trkpt>
      <trkpt lat="44.192155" lon="8.387782">
        <ele>265.42918</ele>
      </trkpt>
      <trkpt lat="44.192224" lon="8.387913">
        <ele>266.72386</ele>
      </trkpt>
      <trkpt lat="44.192348" lon="8.388056">
        <ele>269.15698</ele>
      </trkpt>
      <trkpt lat="44.192385" lon="8.388023">
        <ele>270.15937</ele>
      </trkpt>
      <trkpt lat="44.192364" lon="8.387839">
        <ele>270.36627</ele>
      </trkpt>
      <trkpt lat="44.192356" lon="8.387792">
        <ele>270.31806</ele>
      </trkpt>
      <trkpt lat="44.192379" lon="8.387755">
        <ele>270.95584</ele>
      </trkpt>
      <trkpt lat="44.192454" lon="8.387812">
        <ele>272.49567</ele>
      </trkpt>
      <trkpt lat="44.192549" lon="8.387917">
        <ele>274.12308</ele>
      </trkpt>
      <trkpt lat="44.19262" lon="8.387989">
        <ele>275.25285</ele>
      </trkpt>
      <trkpt lat="44.192646" lon="8.38804">
        <ele>275.51899</ele>
      </trkpt>
      <trkpt lat="44.192753" lon="8.388071">
        <ele>277.43877</ele>
      </trkpt>
      <trkpt lat="44.192842" lon="8.388107">
        <ele>278.90714</ele>
      </trkpt>
      <trkpt lat="44.192956" lon="8.388051">
        <ele>281.36056</ele>
      </trkpt>
      <trkpt lat="44.193044" lon="8.387992">
        <ele>283.33971</ele>
      </trkpt>
      <trkpt lat="44.193149" lon="8.38793">
        <ele>285.61442</ele>
      </trkpt>
      <trkpt lat="44.193194" lon="8.387915">
        <ele>286.49013</ele>
      </trkpt>
      <trkpt lat="44.193234" lon="8.387896">
        <ele>287.29497</ele>
      </trkpt>
      <trkpt lat="44.193379" lon="8.387847">
        <ele>289.93693</ele>
      </trkpt>
      <trkpt lat="44.193487" lon="8.387808">
        <ele>291.79584</ele>
      </trkpt>
      <trkpt lat="44.19353" lon="8.387792">
        <ele>292.50436</ele>
      </trkpt>
      <trkpt lat="44.193638" lon="8.387798">
        <ele>293.92624</ele>
      </trkpt>
      <trkpt lat="44.193749" lon="8.387835">
        <ele>295.12511</ele>
      </trkpt>
      <trkpt lat="44.19383" lon="8.387877">
        <ele>295.88011</ele>
      </trkpt>
      <trkpt lat="44.193961" lon="8.387956">
        <ele>296.99104</ele>
      </trkpt>
      <trkpt lat="44.194014" lon="8.388002">
        <ele>297.3657</ele>
      </trkpt>
      <trkpt lat="44.194076" lon="8.388096">
        <ele>297.66675</ele>
      </trkpt>
      <trkpt lat="44.194007" lon="8.388261">
        <ele>296.4598</ele>
      </trkpt>
      <trkpt lat="44.193972" lon="8.388299">
        <ele>295.94485</ele>
      </trkpt>
      <trkpt lat="44.193859" lon="8.388488">
        <ele>294.10529</ele>
      </trkpt>
      <trkpt lat="44.193735" lon="8.388719">
        <ele>291.93682</ele>
      </trkpt>
      <trkpt lat="44.193675" lon="8.388848">
        <ele>290.71237</ele>
      </trkpt>
      <trkpt lat="44.193469" lon="8.389261">
        <ele>285.32846</ele>
      </trkpt>
      <trkpt lat="44.193362" lon="8.389567">
        <ele>281.62374</ele>
      </trkpt>
      <trkpt lat="44.193465" lon="8.389855">
        <ele>281.86854</ele>
      </trkpt>
      <trkpt lat="44.193629" lon="8.389925">
        <ele>283.89894</ele>
      </trkpt>
      <trkpt lat="44.193784" lon="8.38986">
        <ele>286.37869</ele>
      </trkpt>
      <trkpt lat="44.193906" lon="8.389842">
        <ele>288.05502</ele>
      </trkpt>
      <trkpt lat="44.194014" lon="8.389842">
        <ele>289.36728</ele>
      </trkpt>
      <trkpt lat="44.194042" lon="8.389833">
        <ele>289.78622</ele>
      </trkpt>
      <trkpt lat="44.194109" lon="8.389818">
        <ele>290.73351</ele>
      </trkpt>
      <trkpt lat="44.194179" lon="8.389778">
        <ele>291.98166</ele>
      </trkpt>
      <trkpt lat="44.194261" lon="8.389748">
        <ele>293.23773</ele>
      </trkpt>
      <trkpt lat="44.194294" lon="8.389731">
        <ele>293.77876</ele>
      </trkpt>
      <trkpt lat="44.194318" lon="8.389725">
        <ele>294.09495</ele>
      </trkpt>
      <trkpt lat="44.194416" lon="8.389608">
        <ele>296.39582</ele>
      </trkpt>
      <trkpt lat="44.194523" lon="8.389587">
        <ele>297.56682</ele>
      </trkpt>
      <trkpt lat="44.194624" lon="8.389484">
        <ele>299.48348</ele>
      </trkpt>
      <trkpt lat="44.194779" lon="8.389588">
        <ele>299.61557</ele>
      </trkpt>
      <trkpt lat="44.194924" lon="8.389725">
        <ele>299.6878</ele>
      </trkpt>
      <trkpt lat="44.195034" lon="8.389873">
        <ele>299.93431</ele>
      </trkpt>
      <trkpt lat="44.195131" lon="8.390012">
        <ele>300.87318</ele>
      </trkpt>
      <trkpt lat="44.195195" lon="8.390186">
        <ele>301.67691</ele>
      </trkpt>
      <trkpt lat="44.195257" lon="8.390268">
        <ele>302.64081</ele>
      </trkpt>
      <trkpt lat="44.195261" lon="8.390545">
        <ele>302.58518</ele>
      </trkpt>
      <trkpt lat="44.195155" lon="8.39073">
        <ele>301.48849</ele>
      </trkpt>
      <trkpt lat="44.195025" lon="8.390892">
        <ele>300.6073</ele>
      </trkpt>
      <trkpt lat="44.194923" lon="8.39112">
        <ele>301.26235</ele>
      </trkpt>
      <trkpt lat="44.194918" lon="8.391206">
        <ele>302.06705</ele>
      </trkpt>
      <trkpt lat="44.194866" lon="8.391358">
        <ele>303.1247</ele>
      </trkpt>
      <trkpt lat="44.194882" lon="8.391376">
        <ele>303.46393</ele>
      </trkpt>
      <trkpt lat="44.194906" lon="8.391382">
        <ele>303.7547</ele>
      </trkpt>
      <trkpt lat="44.194856" lon="8.3916">
        <ele>305.23528</ele>
      </trkpt>
      <trkpt lat="44.194854" lon="8.391654">
        <ele>305.57497</ele>
      </trkpt>
      <trkpt lat="44.194834" lon="8.391796">
        <ele>306.04945</ele>
      </trkpt>
      <trkpt lat="44.194768" lon="8.392012">
        <ele>305.81467</ele>
      </trkpt>
      <trkpt lat="44.194754" lon="8.39225">
        <ele>305.74246</ele>
      </trkpt>
      <trkpt lat="44.194801" lon="8.392427">
        <ele>306.63014</ele>
      </trkpt>
      <trkpt lat="44.194864" lon="8.392642">
        <ele>308.49941</ele>
      </trkpt>
      <trkpt lat="44.194842" lon="8.392822">
        <ele>309.10285</ele>
      </trkpt>
      <trkpt lat="44.19483" lon="8.392844">
        <ele>308.99225</ele>
      </trkpt>
      <trkpt lat="44.194671" lon="8.39311">
        <ele>306.74506</ele>
      </trkpt>
      <trkpt lat="44.19462" lon="8.393352">
        <ele>306.32711</ele>
      </trkpt>
      <trkpt lat="44.19461" lon="8.393706">
        <ele>307.87044</ele>
      </trkpt>
      <trkpt lat="44.19461" lon="8.394023">
        <ele>309.36925</ele>
      </trkpt>
      <trkpt lat="44.194665" lon="8.394464">
        <ele>310.76892</ele>
      </trkpt>
      <trkpt lat="44.19473" lon="8.394732">
        <ele>311.91363</ele>
      </trkpt>
      <trkpt lat="44.194802" lon="8.395057">
        <ele>313.07903</ele>
      </trkpt>
      <trkpt lat="44.194918" lon="8.395487">
        <ele>314.35949</ele>
      </trkpt>
      <trkpt lat="44.195093" lon="8.395757">
        <ele>317.7169</ele>
      </trkpt>
      <trkpt lat="44.19521" lon="8.395935">
        <ele>320.05796</ele>
      </trkpt>
      <trkpt lat="44.195242" lon="8.39597">
        <ele>320.80107</ele>
      </trkpt>
      <trkpt lat="44.195278" lon="8.396061">
        <ele>320.90891</ele>
      </trkpt>
      <trkpt lat="44.195274" lon="8.396077">
        <ele>320.53667</ele>
      </trkpt>
      <trkpt lat="44.195299" lon="8.396191">
        <ele>319.80498</ele>
      </trkpt>
      <trkpt lat="44.195355" lon="8.396284">
        <ele>320.47535</ele>
      </trkpt>
      <trkpt lat="44.195388" lon="8.396318">
        <ele>321.17114</ele>
      </trkpt>
      <trkpt lat="44.195427" lon="8.396359">
        <ele>321.97929</ele>
      </trkpt>
      <trkpt lat="44.195501" lon="8.396397">
        <ele>324.04435</ele>
      </trkpt>
      <trkpt lat="44.195512" lon="8.3965">
        <ele>323.09595</ele>
      </trkpt>
      <trkpt lat="44.195563" lon="8.396791">
        <ele>322.62636</ele>
      </trkpt>
      <trkpt lat="44.195559" lon="8.397011">
        <ele>322.33138</ele>
      </trkpt>
      <trkpt lat="44.195566" lon="8.3973">
        <ele>323.1674</ele>
      </trkpt>
      <trkpt lat="44.195529" lon="8.397623">
        <ele>322.7461</ele>
      </trkpt>
      <trkpt lat="44.195433" lon="8.398048">
        <ele>321.5928</ele>
      </trkpt>
      <trkpt lat="44.195297" lon="8.398402">
        <ele>318.32464</ele>
      </trkpt>
      <trkpt lat="44.195245" lon="8.398696">
        <ele>317.49171</ele>
      </trkpt>
      <trkpt lat="44.195232" lon="8.398962">
        <ele>316.96016</ele>
      </trkpt>
      <trkpt lat="44.195131" lon="8.399188">
        <ele>315.48636</ele>
      </trkpt>
      <trkpt lat="44.194868" lon="8.399518">
        <ele>314.51249</ele>
      </trkpt>
      <trkpt lat="44.194682" lon="8.399638">
        <ele>315.72349</ele>
      </trkpt>
      <trkpt lat="44.194658" lon="8.399594">
        <ele>316.33309</ele>
      </trkpt>
      <trkpt lat="44.194613" lon="8.399494">
        <ele>317.24752</ele>
      </trkpt>
      <trkpt lat="44.19447" lon="8.399256">
        <ele>317.76692</ele>
      </trkpt>
      <trkpt lat="44.194191" lon="8.399079">
        <ele>316.11049</ele>
      </trkpt>
      <trkpt lat="44.193886" lon="8.399115">
        <ele>314.52755</ele>
      </trkpt>
      <trkpt lat="44.193673" lon="8.399277">
        <ele>314.41134</ele>
      </trkpt>
      <trkpt lat="44.193342" lon="8.399486">
        <ele>314.58225</ele>
      </trkpt>
      <trkpt lat="44.193295" lon="8.399565">
        <ele>315.30234</ele>
      </trkpt>
      <trkpt lat="44.193217" lon="8.399959">
        <ele>317.85794</ele>
      </trkpt>
      <trkpt lat="44.193207" lon="8.400024">
        <ele>318.00486</ele>
      </trkpt>
      <trkpt lat="44.193168" lon="8.400137">
        <ele>317.9475</ele>
      </trkpt>
      <trkpt lat="44.193091" lon="8.400357">
        <ele>316.62997</ele>
      </trkpt>
      <trkpt lat="44.193059" lon="8.400749">
        <ele>313.1577</ele>
      </trkpt>
      <trkpt lat="44.192964" lon="8.401217">
        <ele>309.2571</ele>
      </trkpt>
      <trkpt lat="44.192909" lon="8.40143">
        <ele>307.47027</ele>
      </trkpt>
      <trkpt lat="44.192825" lon="8.40176">
        <ele>305.28065</ele>
      </trkpt>
      <trkpt lat="44.192808" lon="8.40181">
        <ele>304.98207</ele>
      </trkpt>
      <trkpt lat="44.192779" lon="8.401906">
        <ele>304.61936</ele>
      </trkpt>
      <trkpt lat="44.192686" lon="8.402052">
        <ele>302.88058</ele>
      </trkpt>
      <trkpt lat="44.192507" lon="8.402255">
        <ele>299.22817</ele>
      </trkpt>
      <trkpt lat="44.192385" lon="8.402585">
        <ele>297.00408</ele>
      </trkpt>
      <trkpt lat="44.192343" lon="8.402838">
        <ele>296.36738</ele>
      </trkpt>
      <trkpt lat="44.192326" lon="8.403078">
        <ele>296.03049</ele>
      </trkpt>
      <trkpt lat="44.1922" lon="8.403327">
        <ele>293.07228</ele>
      </trkpt>
      <trkpt lat="44.192027" lon="8.403485">
        <ele>290.21375</ele>
      </trkpt>
      <trkpt lat="44.192054" lon="8.403646">
        <ele>289.61051</ele>
      </trkpt>
      <trkpt lat="44.192172" lon="8.403711">
        <ele>289.31555</ele>
      </trkpt>
      <trkpt lat="44.192261" lon="8.403761">
        <ele>288.65015</ele>
      </trkpt>
      <trkpt lat="44.192397" lon="8.403765">
        <ele>288.67767</ele>
      </trkpt>
      <trkpt lat="44.192801" lon="8.403901">
        <ele>287.41465</ele>
      </trkpt>
      <trkpt lat="44.193118" lon="8.40408">
        <ele>285.03332</ele>
      </trkpt>
      <trkpt lat="44.193169" lon="8.404104">
        <ele>284.74484</ele>
      </trkpt>
      <trkpt lat="44.193383" lon="8.404147">
        <ele>284.66979</ele>
      </trkpt>
      <trkpt lat="44.193783" lon="8.404276">
        <ele>283.99138</ele>
      </trkpt>
      <trkpt lat="44.194228" lon="8.404348">
        <ele>283.51175</ele>
      </trkpt>
      <trkpt lat="44.19429" lon="8.404352">
        <ele>283.28851</ele>
      </trkpt>
      <trkpt lat="44.194431" lon="8.404402">
        <ele>282.37153</ele>
      </trkpt>
      <trkpt lat="44.194551" lon="8.404539">
        <ele>281.36777</ele>
      </trkpt>
      <trkpt lat="44.194588" lon="8.404676">
        <ele>280.96196</ele>
      </trkpt>
      <trkpt lat="44.194543" lon="8.404806">
        <ele>280.19975</ele>
      </trkpt>
      <trkpt lat="44.194417" lon="8.404854">
        <ele>278.58362</ele>
      </trkpt>
      <trkpt lat="44.194334" lon="8.404816">
        <ele>278.02548</ele>
      </trkpt>
      <trkpt lat="44.194295" lon="8.404849">
        <ele>277.25063</ele>
      </trkpt>
      <trkpt lat="44.194283" lon="8.404869">
        <ele>276.89073</ele>
      </trkpt>
      <trkpt lat="44.194404" lon="8.405143">
        <ele>276.31805</ele>
      </trkpt>
      <trkpt lat="44.194417" lon="8.405207">
        <ele>276.11971</ele>
      </trkpt>
      <trkpt lat="44.194438" lon="8.405747">
        <ele>273.97856</ele>
      </trkpt>
      <trkpt lat="44.194395" lon="8.405855">
        <ele>272.58541</ele>
      </trkpt>
      <trkpt lat="44.194349" lon="8.406213">
        <ele>272.21804</ele>
      </trkpt>
      <trkpt lat="44.194327" lon="8.406358">
        <ele>272.38451</ele>
      </trkpt>
      <trkpt lat="44.194308" lon="8.40649">
        <ele>272.71337</ele>
      </trkpt>
      <trkpt lat="44.19437" lon="8.406782">
        <ele>277.01372</ele>
      </trkpt>
      <trkpt lat="44.194427" lon="8.406966">
        <ele>280.41621</ele>
      </trkpt>
      <trkpt lat="44.194437" lon="8.407152">
        <ele>282.38439</ele>
      </trkpt>
      <trkpt lat="44.19439" lon="8.407284">
        <ele>282.55011</ele>
      </trkpt>
      <trkpt lat="44.194377" lon="8.407303">
        <ele>282.46382</ele>
      </trkpt>
      <trkpt lat="44.194237" lon="8.407399">
        <ele>280.89582</ele>
      </trkpt>
      <trkpt lat="44.194111" lon="8.407537">
        <ele>280.68047</ele>
      </trkpt>
      <trkpt lat="44.193885" lon="8.407687">
        <ele>280.05224</ele>
      </trkpt>
      <trkpt lat="44.193727" lon="8.407729">
        <ele>279.05223</ele>
      </trkpt>
      <trkpt lat="44.193634" lon="8.407728">
        <ele>277.99116</ele>
      </trkpt>
      <trkpt lat="44.193473" lon="8.407756">
        <ele>276.70048</ele>
      </trkpt>
      <trkpt lat="44.193193" lon="8.407934">
        <ele>277.17992</ele>
      </trkpt>
      <trkpt lat="44.193155" lon="8.407957">
        <ele>277.13325</ele>
      </trkpt>
      <trkpt lat="44.19308" lon="8.408033">
        <ele>277.52079</ele>
      </trkpt>
      <trkpt lat="44.192931" lon="8.408229">
        <ele>277.66304</ele>
      </trkpt>
      <trkpt lat="44.192752" lon="8.408345">
        <ele>274.47092</ele>
      </trkpt>
      <trkpt lat="44.192731" lon="8.408368">
        <ele>274.00184</ele>
      </trkpt>
      <trkpt lat="44.19273" lon="8.408482">
        <ele>273.49486</ele>
      </trkpt>
      <trkpt lat="44.192764" lon="8.408459">
        <ele>274.42793</ele>
      </trkpt>
      <trkpt lat="44.192763" lon="8.408459">
        <ele>274.40505</ele>
      </trkpt>
      <trkpt lat="44.1928" lon="8.408449">
        <ele>275.30203</ele>
      </trkpt>
      <trkpt lat="44.192925" lon="8.408401">
        <ele>278.20241</ele>
      </trkpt>
      <trkpt lat="44.193137" lon="8.408407">
        <ele>282.33312</ele>
      </trkpt>
      <trkpt lat="44.193284" lon="8.408437">
        <ele>284.60677</ele>
      </trkpt>
      <trkpt lat="44.19331" lon="8.408436">
        <ele>284.94273</ele>
      </trkpt>
      <trkpt lat="44.193384" lon="8.408428">
        <ele>285.7668</ele>
      </trkpt>
      <trkpt lat="44.193423" lon="8.408429">
        <ele>286.1269</ele>
      </trkpt>
      <trkpt lat="44.193467" lon="8.408434">
        <ele>286.47844</ele>
      </trkpt>
      <trkpt lat="44.193584" lon="8.40844">
        <ele>287.15815</ele>
      </trkpt>
      <trkpt lat="44.193735" lon="8.408466">
        <ele>287.60514</ele>
      </trkpt>
      <trkpt lat="44.193885" lon="8.408447">
        <ele>287.77644</ele>
      </trkpt>
      <trkpt lat="44.194008" lon="8.408248">
        <ele>287.43059</ele>
      </trkpt>
      <trkpt lat="44.194084" lon="8.408208">
        <ele>287.38697</ele>
      </trkpt>
      <trkpt lat="44.194334" lon="8.408065">
        <ele>287.68352</ele>
      </trkpt>
      <trkpt lat="44.194486" lon="8.407942">
        <ele>288.15481</ele>
      </trkpt>
      <trkpt lat="44.194585" lon="8.407883">
        <ele>288.73718</ele>
      </trkpt>
      <trkpt lat="44.194727" lon="8.407949">
        <ele>289.74206</ele>
      </trkpt>
      <trkpt lat="44.194829" lon="8.408074">
        <ele>289.96466</ele>
      </trkpt>
      <trkpt lat="44.194915" lon="8.408302">
        <ele>289.21087</ele>
      </trkpt>
      <trkpt lat="44.19492" lon="8.40858">
        <ele>287.10013</ele>
      </trkpt>
      <trkpt lat="44.194889" lon="8.40892">
        <ele>283.56483</ele>
      </trkpt>
      <trkpt lat="44.194867" lon="8.409184">
        <ele>280.78134</ele>
      </trkpt>
      <trkpt lat="44.194844" lon="8.409476">
        <ele>277.38667</ele>
      </trkpt>
      <trkpt lat="44.194925" lon="8.409788">
        <ele>274.03055</ele>
      </trkpt>
      <trkpt lat="44.195024" lon="8.410017">
        <ele>273.11769</ele>
      </trkpt>
      <trkpt lat="44.194987" lon="8.410128">
        <ele>272.62922</ele>
      </trkpt>
      <trkpt lat="44.194827" lon="8.410423">
        <ele>271.57536</ele>
      </trkpt>
      <trkpt lat="44.194506" lon="8.410581">
        <ele>267.30189</ele>
      </trkpt>
      <trkpt lat="44.194344" lon="8.410644">
        <ele>264.48149</ele>
      </trkpt>
      <trkpt lat="44.194299" lon="8.410679">
        <ele>263.57321</ele>
      </trkpt>
      <trkpt lat="44.194202" lon="8.410764">
        <ele>261.62955</ele>
      </trkpt>
      <trkpt lat="44.19408" lon="8.410853">
        <ele>259.44345</ele>
      </trkpt>
      <trkpt lat="44.193955" lon="8.410953">
        <ele>257.70849</ele>
      </trkpt>
      <trkpt lat="44.193688" lon="8.411024">
        <ele>253.4127</ele>
      </trkpt>
      <trkpt lat="44.193444" lon="8.411013">
        <ele>248.98415</ele>
      </trkpt>
      <trkpt lat="44.193095" lon="8.410926">
        <ele>244.01924</ele>
      </trkpt>
      <trkpt lat="44.192611" lon="8.410882">
        <ele>241.4499</ele>
      </trkpt>
      <trkpt lat="44.192063" lon="8.41091">
        <ele>239.2359</ele>
      </trkpt>
      <trkpt lat="44.19164" lon="8.410966">
        <ele>235.58825</ele>
      </trkpt>
      <trkpt lat="44.191408" lon="8.411064">
        <ele>233.23137</ele>
      </trkpt>
      <trkpt lat="44.191212" lon="8.411209">
        <ele>232.49608</ele>
      </trkpt>
      <trkpt lat="44.191153" lon="8.411394">
        <ele>234.62286</ele>
      </trkpt>
      <trkpt lat="44.191181" lon="8.411433">
        <ele>235.59528</ele>
      </trkpt>
      <trkpt lat="44.191516" lon="8.411751">
        <ele>239.25929</ele>
      </trkpt>
      <trkpt lat="44.191796" lon="8.412056">
        <ele>240.9021</ele>
      </trkpt>
      <trkpt lat="44.191923" lon="8.41231">
        <ele>242.39366</ele>
      </trkpt>
      <trkpt lat="44.192057" lon="8.412621">
        <ele>248.20719</ele>
      </trkpt>
      <trkpt lat="44.192109" lon="8.412801">
        <ele>251.20544</ele>
      </trkpt>
      <trkpt lat="44.192136" lon="8.413089">
        <ele>252.42566</ele>
      </trkpt>
      <trkpt lat="44.192134" lon="8.413354">
        <ele>251.33672</ele>
      </trkpt>
      <trkpt lat="44.192139" lon="8.413655">
        <ele>249.52026</ele>
      </trkpt>
      <trkpt lat="44.192157" lon="8.41385">
        <ele>248.66674</ele>
      </trkpt>
      <trkpt lat="44.192158" lon="8.413868">
        <ele>248.54033</ele>
      </trkpt>
      <trkpt lat="44.192213" lon="8.414066">
        <ele>249.07095</ele>
      </trkpt>
      <trkpt lat="44.192288" lon="8.414179">
        <ele>251.09415</ele>
      </trkpt>
      <trkpt lat="44.192407" lon="8.414252">
        <ele>254.90123</ele>
      </trkpt>
      <trkpt lat="44.192427" lon="8.414264">
        <ele>255.46201</ele>
      </trkpt>
      <trkpt lat="44.19251" lon="8.41435">
        <ele>257.07846</ele>
      </trkpt>
      <trkpt lat="44.192571" lon="8.414449">
        <ele>257.53907</ele>
      </trkpt>
      <trkpt lat="44.19263" lon="8.414578">
        <ele>257.37291</ele>
      </trkpt>
      <trkpt lat="44.192672" lon="8.414883">
        <ele>254.39092</ele>
      </trkpt>
      <trkpt lat="44.192741" lon="8.415189">
        <ele>252.32863</ele>
      </trkpt>
      <trkpt lat="44.192767" lon="8.415316">
        <ele>251.46555</ele>
      </trkpt>
      <trkpt lat="44.192805" lon="8.415444">
        <ele>251.1552</ele>
      </trkpt>
      <trkpt lat="44.192876" lon="8.415761">
        <ele>250.29063</ele>
      </trkpt>
      <trkpt lat="44.192953" lon="8.415996">
        <ele>250.64189</ele>
      </trkpt>
      <trkpt lat="44.193069" lon="8.416086">
        <ele>251.56962</ele>
      </trkpt>
      <trkpt lat="44.193134" lon="8.416133">
        <ele>251.26677</ele>
      </trkpt>
      <trkpt lat="44.193274" lon="8.416183">
        <ele>250.66951</ele>
      </trkpt>
      <trkpt lat="44.193377" lon="8.416177">
        <ele>251.46871</ele>
      </trkpt>
      <trkpt lat="44.193427" lon="8.416203">
        <ele>251.09039</ele>
      </trkpt>
      <trkpt lat="44.193482" lon="8.416208">
        <ele>251.12048</ele>
      </trkpt>
      <trkpt lat="44.193508" lon="8.416235">
        <ele>250.5705</ele>
      </trkpt>
      <trkpt lat="44.193592" lon="8.416292">
        <ele>249.49334</ele>
      </trkpt>
      <trkpt lat="44.193646" lon="8.416257">
        <ele>249.97417</ele>
      </trkpt>
      <trkpt lat="44.193623" lon="8.41614">
        <ele>252.0082</ele>
      </trkpt>
      <trkpt lat="44.19353" lon="8.415958">
        <ele>255.81999</ele>
      </trkpt>
      <trkpt lat="44.19346" lon="8.415707">
        <ele>259.14511</ele>
      </trkpt>
      <trkpt lat="44.193417" lon="8.415408">
        <ele>260.71128</ele>
      </trkpt>
      <trkpt lat="44.193417" lon="8.41513">
        <ele>261.18033</ele>
      </trkpt>
      <trkpt lat="44.193395" lon="8.414804">
        <ele>262.21707</ele>
      </trkpt>
      <trkpt lat="44.193341" lon="8.414413">
        <ele>263.63904</ele>
      </trkpt>
      <trkpt lat="44.193281" lon="8.414107">
        <ele>265.99836</ele>
      </trkpt>
      <trkpt lat="44.193356" lon="8.413792">
        <ele>268.31711</ele>
      </trkpt>
      <trkpt lat="44.193465" lon="8.413585">
        <ele>268.9751</ele>
      </trkpt>
      <trkpt lat="44.193537" lon="8.413422">
        <ele>269.39999</ele>
      </trkpt>
      <trkpt lat="44.193614" lon="8.413253">
        <ele>269.6054</ele>
      </trkpt>
      <trkpt lat="44.193613" lon="8.413257">
        <ele>269.5724</ele>
      </trkpt>
      <trkpt lat="44.193656" lon="8.413184">
        <ele>269.5272</ele>
      </trkpt>
      <trkpt lat="44.193804" lon="8.412881">
        <ele>270.46246</ele>
      </trkpt>
      <trkpt lat="44.193972" lon="8.412559">
        <ele>269.88723</ele>
      </trkpt>
      <trkpt lat="44.194157" lon="8.412249">
        <ele>268.24762</ele>
      </trkpt>
      <trkpt lat="44.194318" lon="8.412022">
        <ele>268.11143</ele>
      </trkpt>
      <trkpt lat="44.194494" lon="8.411721">
        <ele>269.5344</ele>
      </trkpt>
      <trkpt lat="44.194684" lon="8.411503">
        <ele>270.14455</ele>
      </trkpt>
      <trkpt lat="44.194938" lon="8.411289">
        <ele>271.64049</ele>
      </trkpt>
      <trkpt lat="44.195174" lon="8.411019">
        <ele>275.13048</ele>
      </trkpt>
      <trkpt lat="44.195347" lon="8.41072">
        <ele>278.74125</ele>
      </trkpt>
      <trkpt lat="44.195474" lon="8.410411">
        <ele>279.63467</ele>
      </trkpt>
      <trkpt lat="44.195629" lon="8.410002">
        <ele>280.54272</ele>
      </trkpt>
      <trkpt lat="44.195629" lon="8.409777">
        <ele>282.05695</ele>
      </trkpt>
      <trkpt lat="44.195544" lon="8.409498">
        <ele>284.07274</ele>
      </trkpt>
      <trkpt lat="44.195389" lon="8.409279">
        <ele>284.24114</ele>
      </trkpt>
      <trkpt lat="44.195262" lon="8.409093">
        <ele>284.02913</ele>
      </trkpt>
      <trkpt lat="44.19516" lon="8.408832">
        <ele>285.33022</ele>
      </trkpt>
      <trkpt lat="44.195179" lon="8.408573">
        <ele>287.80839</ele>
      </trkpt>
      <trkpt lat="44.195191" lon="8.408511">
        <ele>288.35335</ele>
      </trkpt>
      <trkpt lat="44.195139" lon="8.408258">
        <ele>289.55118</ele>
      </trkpt>
      <trkpt lat="44.195001" lon="8.408072">
        <ele>290.03696</ele>
      </trkpt>
      <trkpt lat="44.194878" lon="8.407981">
        <ele>290.21321</ele>
      </trkpt>
      <trkpt lat="44.194758" lon="8.407818">
        <ele>289.86837</ele>
      </trkpt>
      <trkpt lat="44.194658" lon="8.407657">
        <ele>288.82829</ele>
      </trkpt>
      <trkpt lat="44.194663" lon="8.407538">
        <ele>288.62601</ele>
      </trkpt>
      <trkpt lat="44.194684" lon="8.407221">
        <ele>288.26939</ele>
      </trkpt>
      <trkpt lat="44.194624" lon="8.406717">
        <ele>284.73995</ele>
      </trkpt>
      <trkpt lat="44.194618" lon="8.40654">
        <ele>283.57785</ele>
      </trkpt>
      <trkpt lat="44.1947" lon="8.405939">
        <ele>282.40053</ele>
      </trkpt>
      <trkpt lat="44.194744" lon="8.405225">
        <ele>282.36037</ele>
      </trkpt>
      <trkpt lat="44.194636" lon="8.404751">
        <ele>281.02919</ele>
      </trkpt>
      <trkpt lat="44.194588" lon="8.40458">
        <ele>281.23069</ele>
      </trkpt>
      <trkpt lat="44.194489" lon="8.4043">
        <ele>282.64914</ele>
      </trkpt>
      <trkpt lat="44.194434" lon="8.404041">
        <ele>284.2621</ele>
      </trkpt>
      <trkpt lat="44.194402" lon="8.403753">
        <ele>285.82185</ele>
      </trkpt>
      <trkpt lat="44.19438" lon="8.403607">
        <ele>286.69785</ele>
      </trkpt>
      <trkpt lat="44.194345" lon="8.403521">
        <ele>287.79325</ele>
      </trkpt>
      <trkpt lat="44.194327" lon="8.403468">
        <ele>288.38644</ele>
      </trkpt>
      <trkpt lat="44.194282" lon="8.40342">
        <ele>289.73337</ele>
      </trkpt>
      <trkpt lat="44.194274" lon="8.403408">
        <ele>289.98119</ele>
      </trkpt>
      <trkpt lat="44.194242" lon="8.403354">
        <ele>290.98733</ele>
      </trkpt>
      <trkpt lat="44.19422" lon="8.403315">
        <ele>291.67937</ele>
      </trkpt>
      <trkpt lat="44.194217" lon="8.403298">
        <ele>291.79582</ele>
      </trkpt>
      <trkpt lat="44.194126" lon="8.403101">
        <ele>294.58888</ele>
      </trkpt>
      <trkpt lat="44.194042" lon="8.402942">
        <ele>297.20207</ele>
      </trkpt>
      <trkpt lat="44.193982" lon="8.402827">
        <ele>299.16265</ele>
      </trkpt>
      <trkpt lat="44.193916" lon="8.402714">
        <ele>301.3672</ele>
      </trkpt>
      <trkpt lat="44.19388" lon="8.4026">
        <ele>302.64214</ele>
      </trkpt>
      <trkpt lat="44.193874" lon="8.402588">
        <ele>302.84475</ele>
      </trkpt>
      <trkpt lat="44.193825" lon="8.402497">
        <ele>304.46741</ele>
      </trkpt>
      <trkpt lat="44.193753" lon="8.402375">
        <ele>306.51568</ele>
      </trkpt>
      <trkpt lat="44.193686" lon="8.402272">
        <ele>308.05458</ele>
      </trkpt>
      <trkpt lat="44.193649" lon="8.402189">
        <ele>308.63326</ele>
      </trkpt>
      <trkpt lat="44.193561" lon="8.402027">
        <ele>309.87009</ele>
      </trkpt>
      <trkpt lat="44.19352" lon="8.401835">
        <ele>309.82787</ele>
      </trkpt>
      <trkpt lat="44.193522" lon="8.401582">
        <ele>309.7379</ele>
      </trkpt>
      <trkpt lat="44.19358" lon="8.40137">
        <ele>309.4939</ele>
      </trkpt>
      <trkpt lat="44.193602" lon="8.401311">
        <ele>309.40569</ele>
      </trkpt>
      <trkpt lat="44.19365" lon="8.401197">
        <ele>309.2253</ele>
      </trkpt>
      <trkpt lat="44.193678" lon="8.401124">
        <ele>309.24647</ele>
      </trkpt>
      <trkpt lat="44.193717" lon="8.40104">
        <ele>309.18799</ele>
      </trkpt>
      <trkpt lat="44.193765" lon="8.400895">
        <ele>309.65541</ele>
      </trkpt>
      <trkpt lat="44.19378" lon="8.400805">
        <ele>310.29701</ele>
      </trkpt>
      <trkpt lat="44.193852" lon="8.40056">
        <ele>312.59258</ele>
      </trkpt>
      <trkpt lat="44.193971" lon="8.40036">
        <ele>314.8496</ele>
      </trkpt>
      <trkpt lat="44.194178" lon="8.400208">
        <ele>315.66958</ele>
      </trkpt>
      <trkpt lat="44.194308" lon="8.400158">
        <ele>314.80729</ele>
      </trkpt>
      <trkpt lat="44.194307" lon="8.400139">
        <ele>315.21355</ele>
      </trkpt>
      <trkpt lat="44.194306" lon="8.400139">
        <ele>315.22952</ele>
      </trkpt>
      <trkpt lat="44.194303" lon="8.400135">
        <ele>315.35679</ele>
      </trkpt>
      <trkpt lat="44.194379" lon="8.400089">
        <ele>314.9963</ele>
      </trkpt>
      <trkpt lat="44.194558" lon="8.399951">
        <ele>314.11259</ele>
      </trkpt>
      <trkpt lat="44.194731" lon="8.399701">
        <ele>314.44783</ele>
      </trkpt>
      <trkpt lat="44.194885" lon="8.399534">
        <ele>314.16033</ele>
      </trkpt>
      <trkpt lat="44.195073" lon="8.399367">
        <ele>314.062</ele>
      </trkpt>
      <trkpt lat="44.195217" lon="8.399159">
        <ele>315.59114</ele>
      </trkpt>
      <trkpt lat="44.195332" lon="8.399083">
        <ele>316.32476</ele>
      </trkpt>
      <trkpt lat="44.195378" lon="8.399046">
        <ele>316.76998</ele>
      </trkpt>
      <trkpt lat="44.195455" lon="8.399014">
        <ele>317.23441</ele>
      </trkpt>
      <trkpt lat="44.195466" lon="8.399012">
        <ele>317.26763</ele>
      </trkpt>
      <trkpt lat="44.195572" lon="8.398985">
        <ele>317.61341</ele>
      </trkpt>
      <trkpt lat="44.195745" lon="8.398881">
        <ele>318.7844</ele>
      </trkpt>
      <trkpt lat="44.195923" lon="8.398708">
        <ele>320.12422</ele>
      </trkpt>
      <trkpt lat="44.196024" lon="8.398462">
        <ele>322.82124</ele>
      </trkpt>
      <trkpt lat="44.196058" lon="8.398325">
        <ele>324.32042</ele>
      </trkpt>
      <trkpt lat="44.196203" lon="8.398085">
        <ele>324.444</ele>
      </trkpt>
      <trkpt lat="44.196231" lon="8.398004">
        <ele>324.91712</ele>
      </trkpt>
      <trkpt lat="44.196273" lon="8.397867">
        <ele>325.94662</ele>
      </trkpt>
      <trkpt lat="44.196331" lon="8.39766">
        <ele>328.07239</ele>
      </trkpt>
      <trkpt lat="44.196365" lon="8.39758">
        <ele>328.98615</ele>
      </trkpt>
      <trkpt lat="44.196386" lon="8.397499">
        <ele>330.15878</ele>
      </trkpt>
      <trkpt lat="44.196398" lon="8.397413">
        <ele>331.55161</ele>
      </trkpt>
      <trkpt lat="44.196405" lon="8.39733">
        <ele>332.94876</ele>
      </trkpt>
      <trkpt lat="44.196368" lon="8.39731">
        <ele>333.34893</ele>
      </trkpt>
      <trkpt lat="44.196362" lon="8.397315">
        <ele>333.27431</ele>
      </trkpt>
      <trkpt lat="44.196234" lon="8.397399">
        <ele>332.09898</ele>
      </trkpt>
      <trkpt lat="44.196155" lon="8.397477">
        <ele>331.17078</ele>
      </trkpt>
      <trkpt lat="44.196142" lon="8.397414">
        <ele>331.74695</ele>
      </trkpt>
      <trkpt lat="44.196241" lon="8.397231">
        <ele>334.10974</ele>
      </trkpt>
      <trkpt lat="44.196329" lon="8.397094">
        <ele>336.49868</ele>
      </trkpt>
      <trkpt lat="44.196374" lon="8.396927">
        <ele>339.38396</ele>
      </trkpt>
      <trkpt lat="44.19637" lon="8.396849">
        <ele>340.52393</ele>
      </trkpt>
      <trkpt lat="44.196352" lon="8.396801">
        <ele>340.99769</ele>
      </trkpt>
      <trkpt lat="44.196359" lon="8.39666">
        <ele>343.15702</ele>
      </trkpt>
      <trkpt lat="44.196366" lon="8.396646">
        <ele>343.47272</ele>
      </trkpt>
      <trkpt lat="44.196375" lon="8.396633">
        <ele>343.80451</ele>
      </trkpt>
      <trkpt lat="44.196444" lon="8.396524">
        <ele>346.38501</ele>
      </trkpt>
      <trkpt lat="44.196473" lon="8.396426">
        <ele>348.13572</ele>
      </trkpt>
      <trkpt lat="44.196462" lon="8.396281">
        <ele>350.03006</ele>
      </trkpt>
      <trkpt lat="44.196476" lon="8.396209">
        <ele>351.12502</ele>
      </trkpt>
      <trkpt lat="44.196498" lon="8.396125">
        <ele>352.38236</ele>
      </trkpt>
      <trkpt lat="44.196521" lon="8.396005">
        <ele>354.00307</ele>
      </trkpt>
      <trkpt lat="44.196554" lon="8.395877">
        <ele>355.66422</ele>
      </trkpt>
      <trkpt lat="44.196577" lon="8.395731">
        <ele>357.52391</ele>
      </trkpt>
      <trkpt lat="44.196636" lon="8.39567">
        <ele>358.30804</ele>
      </trkpt>
      <trkpt lat="44.19666" lon="8.395532">
        <ele>360.17418</ele>
      </trkpt>
      <trkpt lat="44.19674" lon="8.395298">
        <ele>363.06031</ele>
      </trkpt>
      <trkpt lat="44.196937" lon="8.395083">
        <ele>363.91878</ele>
      </trkpt>
      <trkpt lat="44.197174" lon="8.394858">
        <ele>363.83032</ele>
      </trkpt>
      <trkpt lat="44.19733" lon="8.394648">
        <ele>365.62045</ele>
      </trkpt>
      <trkpt lat="44.197558" lon="8.394578">
        <ele>365.90436</ele>
      </trkpt>
      <trkpt lat="44.19779" lon="8.39458">
        <ele>365.11226</ele>
      </trkpt>
      <trkpt lat="44.198094" lon="8.394544">
        <ele>364.50291</ele>
      </trkpt>
      <trkpt lat="44.198281" lon="8.394535">
        <ele>364.4182</ele>
      </trkpt>
      <trkpt lat="44.198401" lon="8.394562">
        <ele>364.58623</ele>
      </trkpt>
      <trkpt lat="44.198433" lon="8.394571">
        <ele>364.70482</ele>
      </trkpt>
      <trkpt lat="44.198509" lon="8.394635">
        <ele>364.85731</ele>
      </trkpt>
      <trkpt lat="44.198534" lon="8.394687">
        <ele>364.68346</ele>
      </trkpt>
      <trkpt lat="44.198648" lon="8.394855">
        <ele>364.08971</ele>
      </trkpt>
      <trkpt lat="44.198706" lon="8.394942">
        <ele>363.4686</ele>
      </trkpt>
      <trkpt lat="44.198873" lon="8.395146">
        <ele>361.28331</ele>
      </trkpt>
      <trkpt lat="44.198952" lon="8.395234">
        <ele>359.8839</ele>
      </trkpt>
      <trkpt lat="44.199266" lon="8.395476">
        <ele>354.41953</ele>
      </trkpt>
      <trkpt lat="44.199444" lon="8.395568">
        <ele>350.68865</ele>
      </trkpt>
      <trkpt lat="44.199708" lon="8.39549">
        <ele>350.56298</ele>
      </trkpt>
      <trkpt lat="44.199943" lon="8.395382">
        <ele>349.55349</ele>
      </trkpt>
      <trkpt lat="44.200033" lon="8.395282">
        <ele>350.61812</ele>
      </trkpt>
      <trkpt lat="44.200135" lon="8.395042">
        <ele>354.8357</ele>
      </trkpt>
      <trkpt lat="44.200278" lon="8.394834">
        <ele>356.72014</ele>
      </trkpt>
      <trkpt lat="44.200482" lon="8.394607">
        <ele>359.30129</ele>
      </trkpt>
      <trkpt lat="44.200629" lon="8.394517">
        <ele>359.92968</ele>
      </trkpt>
      <trkpt lat="44.200715" lon="8.394469">
        <ele>360.47256</ele>
      </trkpt>
      <trkpt lat="44.200825" lon="8.394443">
        <ele>360.25257</ele>
      </trkpt>
      <trkpt lat="44.201001" lon="8.394445">
        <ele>358.78811</ele>
      </trkpt>
      <trkpt lat="44.201109" lon="8.394402">
        <ele>359.66288</ele>
      </trkpt>
      <trkpt lat="44.201234" lon="8.394327">
        <ele>361.45992</ele>
      </trkpt>
      <trkpt lat="44.201364" lon="8.394285">
        <ele>361.9923</ele>
      </trkpt>
      <trkpt lat="44.201529" lon="8.394234">
        <ele>362.40035</ele>
      </trkpt>
      <trkpt lat="44.201722" lon="8.394207">
        <ele>361.85629</ele>
      </trkpt>
      <trkpt lat="44.201814" lon="8.394175">
        <ele>361.94844</ele>
      </trkpt>
      <trkpt lat="44.201933" lon="8.394117">
        <ele>362.18674</ele>
      </trkpt>
      <trkpt lat="44.20203" lon="8.394069">
        <ele>362.1865</ele>
      </trkpt>
      <trkpt lat="44.201996" lon="8.394009">
        <ele>362.92629</ele>
      </trkpt>
      <trkpt lat="44.201839" lon="8.393911">
        <ele>364.0495</ele>
      </trkpt>
      <trkpt lat="44.201678" lon="8.393897">
        <ele>364.75706</ele>
      </trkpt>
      <trkpt lat="44.201554" lon="8.393898">
        <ele>365.24957</ele>
      </trkpt>
      <trkpt lat="44.201368" lon="8.393883">
        <ele>365.7501</ele>
      </trkpt>
      <trkpt lat="44.20112" lon="8.393908">
        <ele>366.47505</ele>
      </trkpt>
      <trkpt lat="44.200887" lon="8.393928">
        <ele>367.01543</ele>
      </trkpt>
      <trkpt lat="44.200748" lon="8.393934">
        <ele>367.25071</ele>
      </trkpt>
      <trkpt lat="44.20063" lon="8.394056">
        <ele>368.26699</ele>
      </trkpt>
      <trkpt lat="44.200433" lon="8.394153">
        <ele>368.92073</ele>
      </trkpt>
      <trkpt lat="44.200252" lon="8.394146">
        <ele>369.55781</ele>
      </trkpt>
      <trkpt lat="44.199979" lon="8.394149">
        <ele>369.90061</ele>
      </trkpt>
      <trkpt lat="44.199744" lon="8.394189">
        <ele>369.6551</ele>
      </trkpt>
      <trkpt lat="44.199388" lon="8.394216">
        <ele>368.45974</ele>
      </trkpt>
      <trkpt lat="44.199103" lon="8.394253">
        <ele>367.85211</ele>
      </trkpt>
      <trkpt lat="44.19877" lon="8.394444">
        <ele>367.41708</ele>
      </trkpt>
      <trkpt lat="44.198726" lon="8.394472">
        <ele>367.14153</ele>
      </trkpt>
      <trkpt lat="44.198539" lon="8.39456">
        <ele>365.50287</ele>
      </trkpt>
      <trkpt lat="44.198364" lon="8.394493">
        <ele>364.78192</ele>
      </trkpt>
      <trkpt lat="44.198189" lon="8.394389">
        <ele>365.18429</ele>
      </trkpt>
      <trkpt lat="44.198015" lon="8.394371">
        <ele>366.00403</ele>
      </trkpt>
      <trkpt lat="44.197989" lon="8.394363">
        <ele>366.18813</ele>
      </trkpt>
      <trkpt lat="44.197913" lon="8.39433">
        <ele>366.80544</ele>
      </trkpt>
      <trkpt lat="44.197723" lon="8.394303">
        <ele>368.07656</ele>
      </trkpt>
      <trkpt lat="44.197547" lon="8.394191">
        <ele>368.99056</ele>
      </trkpt>
      <trkpt lat="44.197317" lon="8.394329">
        <ele>368.81791</ele>
      </trkpt>
      <trkpt lat="44.197157" lon="8.394452">
        <ele>368.37523</ele>
      </trkpt>
      <trkpt lat="44.197057" lon="8.394516">
        <ele>368.19427</ele>
      </trkpt>
      <trkpt lat="44.197068" lon="8.394507">
        <ele>368.22361</ele>
      </trkpt>
      <trkpt lat="44.197022" lon="8.394571">
        <ele>367.95211</ele>
      </trkpt>
      <trkpt lat="44.196854" lon="8.394647">
        <ele>367.82301</ele>
      </trkpt>
      <trkpt lat="44.196728" lon="8.394715">
        <ele>367.35066</ele>
      </trkpt>
      <trkpt lat="44.19661" lon="8.394825">
        <ele>366.3052</ele>
      </trkpt>
      <trkpt lat="44.196586" lon="8.394836">
        <ele>366.06492</ele>
      </trkpt>
      <trkpt lat="44.196588" lon="8.39484">
        <ele>366.07506</ele>
      </trkpt>
      <trkpt lat="44.196538" lon="8.394946">
        <ele>365.30862</ele>
      </trkpt>
      <trkpt lat="44.196426" lon="8.395136">
        <ele>363.12203</ele>
      </trkpt>
      <trkpt lat="44.19624" lon="8.395145">
        <ele>360.0862</ele>
      </trkpt>
      <trkpt lat="44.19619" lon="8.395111">
        <ele>359.2998</ele>
      </trkpt>
      <trkpt lat="44.196087" lon="8.394993">
        <ele>357.48614</ele>
      </trkpt>
      <trkpt lat="44.196055" lon="8.394754">
        <ele>356.48234</ele>
      </trkpt>
      <trkpt lat="44.196078" lon="8.394507">
        <ele>355.63712</ele>
      </trkpt>
      <trkpt lat="44.196037" lon="8.394538">
        <ele>354.8184</ele>
      </trkpt>
      <trkpt lat="44.196014" lon="8.394512">
        <ele>354.02524</ele>
      </trkpt>
      <trkpt lat="44.196003" lon="8.394392">
        <ele>352.72783</ele>
      </trkpt>
      <trkpt lat="44.196101" lon="8.3941">
        <ele>352.40149</ele>
      </trkpt>
      <trkpt lat="44.196148" lon="8.393868">
        <ele>350.47415</ele>
      </trkpt>
      <trkpt lat="44.196139" lon="8.393809">
        <ele>349.34859</ele>
      </trkpt>
      <trkpt lat="44.196039" lon="8.393868">
        <ele>347.75074</ele>
      </trkpt>
      <trkpt lat="44.19601" lon="8.393771">
        <ele>345.58486</ele>
      </trkpt>
      <trkpt lat="44.195995" lon="8.393594">
        <ele>342.48338</ele>
      </trkpt>
      <trkpt lat="44.195984" lon="8.393527">
        <ele>341.17894</ele>
      </trkpt>
      <trkpt lat="44.196021" lon="8.393216">
        <ele>337.21139</ele>
      </trkpt>
      <trkpt lat="44.196128" lon="8.393008">
        <ele>335.9525</ele>
      </trkpt>
      <trkpt lat="44.196256" lon="8.392813">
        <ele>334.93432</ele>
      </trkpt>
      <trkpt lat="44.196228" lon="8.392754">
        <ele>333.4243</ele>
      </trkpt>
      <trkpt lat="44.196154" lon="8.392784">
        <ele>332.6246</ele>
      </trkpt>
      <trkpt lat="44.196186" lon="8.392566">
        <ele>329.64488</ele>
      </trkpt>
      <trkpt lat="44.196095" lon="8.392509">
        <ele>327.29368</ele>
      </trkpt>
      <trkpt lat="44.196009" lon="8.392433">
        <ele>324.84437</ele>
      </trkpt>
      <trkpt lat="44.19595" lon="8.392451">
        <ele>324.1509</ele>
      </trkpt>
      <trkpt lat="44.195901" lon="8.392364">
        <ele>322.27935</ele>
      </trkpt>
      <trkpt lat="44.196002" lon="8.392253">
        <ele>322.37323</ele>
      </trkpt>
      <trkpt lat="44.196033" lon="8.392224">
        <ele>322.46647</ele>
      </trkpt>
      <trkpt lat="44.196158" lon="8.392117">
        <ele>322.95973</ele>
      </trkpt>
      <trkpt lat="44.196202" lon="8.392067">
        <ele>322.96621</ele>
      </trkpt>
      <trkpt lat="44.196293" lon="8.392099">
        <ele>324.67946</ele>
      </trkpt>
      <trkpt lat="44.196367" lon="8.392179">
        <ele>326.77178</ele>
      </trkpt>
      <trkpt lat="44.196415" lon="8.392134">
        <ele>326.78886</ele>
      </trkpt>
      <trkpt lat="44.19637" lon="8.391973">
        <ele>324.088</ele>
      </trkpt>
      <trkpt lat="44.196415" lon="8.391807">
        <ele>322.54289</ele>
      </trkpt>
      <trkpt lat="44.196459" lon="8.391593">
        <ele>320.3251</ele>
      </trkpt>
      <trkpt lat="44.19648" lon="8.391427">
        <ele>318.38921</ele>
      </trkpt>
      <trkpt lat="44.196616" lon="8.391291">
        <ele>317.50213</ele>
      </trkpt>
      <trkpt lat="44.196598" lon="8.391182">
        <ele>315.97206</ele>
      </trkpt>
      <trkpt lat="44.196621" lon="8.391134">
        <ele>315.453</ele>
      </trkpt>
      <trkpt lat="44.196755" lon="8.390915">
        <ele>313.07256</ele>
      </trkpt>
      <trkpt lat="44.196902" lon="8.3908">
        <ele>311.82843</ele>
      </trkpt>
      <trkpt lat="44.197007" lon="8.390785">
        <ele>311.64801</ele>
      </trkpt>
      <trkpt lat="44.197096" lon="8.390677">
        <ele>310.40756</ele>
      </trkpt>
      <trkpt lat="44.197135" lon="8.390571">
        <ele>309.27373</ele>
      </trkpt>
      <trkpt lat="44.197199" lon="8.390492">
        <ele>308.4606</ele>
      </trkpt>
      <trkpt lat="44.197308" lon="8.390298">
        <ele>306.63449</ele>
      </trkpt>
      <trkpt lat="44.197458" lon="8.390259">
        <ele>306.23364</ele>
      </trkpt>
      <trkpt lat="44.197593" lon="8.390183">
        <ele>305.45468</ele>
      </trkpt>
      <trkpt lat="44.197623" lon="8.390182">
        <ele>305.41472</ele>
      </trkpt>
      <trkpt lat="44.197743" lon="8.390152">
        <ele>305.01768</ele>
      </trkpt>
      <trkpt lat="44.197782" lon="8.390038">
        <ele>303.96036</ele>
      </trkpt>
      <trkpt lat="44.197774" lon="8.389975">
        <ele>303.40805</ele>
      </trkpt>
      <trkpt lat="44.19776" lon="8.389796">
        <ele>301.77041</ele>
      </trkpt>
      <trkpt lat="44.197538" lon="8.389618">
        <ele>300.63376</ele>
      </trkpt>
      <trkpt lat="44.197463" lon="8.389537">
        <ele>300.15807</ele>
      </trkpt>
      <trkpt lat="44.197471" lon="8.389191">
        <ele>298.16338</ele>
      </trkpt>
      <trkpt lat="44.197469" lon="8.389105">
        <ele>297.94763</ele>
      </trkpt>
      <trkpt lat="44.197292" lon="8.388957">
        <ele>298.32356</ele>
      </trkpt>
      <trkpt lat="44.197044" lon="8.38885">
        <ele>298.89843</ele>
      </trkpt>
      <trkpt lat="44.196766" lon="8.38879">
        <ele>299.6159</ele>
      </trkpt>
      <trkpt lat="44.196736" lon="8.388785">
        <ele>299.71875</ele>
      </trkpt>
      <trkpt lat="44.19669" lon="8.388881">
        <ele>300.08746</ele>
      </trkpt>
      <trkpt lat="44.196686" lon="8.38918">
        <ele>300.92522</ele>
      </trkpt>
      <trkpt lat="44.196661" lon="8.389359">
        <ele>301.76602</ele>
      </trkpt>
    </trkseg>
  </trk>
</gpx>