<?xml version="1.0" encoding="UTF-8" standalone="yes"?>
<gpx version="1.1" creator="outdooractive - http://www.outdooractive.com" xmlns="http://www.topografix.com/GPX/1/1" xmlns:oa="http://www.outdooractive.com/GPX/Extensions/1" xmlns:xsi="http://www.w3.org/2001/XMLSchema-instance" xsi:schemaLocation="http://www.topografix.com/GPX/1/1 http://www.topografix.com/GPX/1/1/gpx.xsd http://www.outdooractive.com/GPX/Extensions/1 https://www.outdooractive.com/schema/gpx_extensions.xsd">
  <metadata>
    <name>4 - Sentiero dei Ciechi</name>
    <author>
      <name>Redazione Finale Outdoor Region - Finale Outdoor</name>
    </author>
    <link href="https://www.outdooractive.com/r/45230028"/>
    <time>2026-03-10T07:12:46.338Z</time>
    <extensions>
      <oa:oaCategory>mountainbiking</oa:oaCategory>
    </extensions>
  </metadata>
  <trk>
    <name>4 - Sentiero dei Ciechi</name>
    <desc>Easy and accessible single track from Magnone to Le Manie.</desc>
    <type>mountainbiking</type>
    <trkseg>
      <trkpt lat="44.21501" lon="8.35935">
        <ele>200.89034</ele>
        <name>44.215010,8.359350</name>
      </trkpt>
      <trkpt lat="44.21489" lon="8.35935">
        <ele>202.37673</ele>
      </trkpt>
      <trkpt lat="44.21479" lon="8.35932">
        <ele>202.92621</ele>
      </trkpt>
      <trkpt lat="44.21468" lon="8.35906">
        <ele>198.15477</ele>
      </trkpt>
      <trkpt lat="44.21445" lon="8.35879">
        <ele>196.19029</ele>
      </trkpt>
      <trkpt lat="44.21434" lon="8.35879">
        <ele>197.84749</ele>
      </trkpt>
      <trkpt lat="44.21429" lon="8.35884">
        <ele>199.46352</ele>
      </trkpt>
      <trkpt lat="44.21428" lon="8.35891">
        <ele>200.90639</ele>
      </trkpt>
      <trkpt lat="44.21443" lon="8.35919">
        <ele>204.78789</ele>
      </trkpt>
      <trkpt lat="44.21444" lon="8.35929">
        <ele>206.90786</ele>
      </trkpt>
      <trkpt lat="44.21442" lon="8.35948">
        <ele>211.39052</ele>
      </trkpt>
      <trkpt lat="44.21445" lon="8.35991">
        <ele>221.08939</ele>
      </trkpt>
      <trkpt lat="44.2142" lon="8.36012">
        <ele>227.72732</ele>
      </trkpt>
      <trkpt lat="44.21408" lon="8.36039">
        <ele>234.8475</ele>
      </trkpt>
      <trkpt lat="44.21392" lon="8.3606">
        <ele>240.16544</ele>
      </trkpt>
      <trkpt lat="44.21331" lon="8.3608">
        <ele>249.63182</ele>
      </trkpt>
      <trkpt lat="44.21313" lon="8.36079">
        <ele>255.3356</ele>
      </trkpt>
      <trkpt lat="44.21269" lon="8.36037">
        <ele>260.38009</ele>
      </trkpt>
      <trkpt lat="44.21265" lon="8.36038">
        <ele>263.10337</ele>
      </trkpt>
      <trkpt lat="44.21263" lon="8.36043">
        <ele>266.50217</ele>
      </trkpt>
      <trkpt lat="44.21273" lon="8.36057">
        <ele>266.67299</ele>
      </trkpt>
      <trkpt lat="44.21279" lon="8.36073">
        <ele>269.45699</ele>
      </trkpt>
      <trkpt lat="44.21284" lon="8.36108">
        <ele>277.38085</ele>
      </trkpt>
      <trkpt lat="44.21292" lon="8.36129">
        <ele>279.2184</ele>
      </trkpt>
      <trkpt lat="44.21302" lon="8.36144">
        <ele>279.0965</ele>
      </trkpt>
      <trkpt lat="44.21317" lon="8.36152">
        <ele>276.41876</ele>
      </trkpt>
      <trkpt lat="44.2135" lon="8.36165">
        <ele>274.86933</ele>
      </trkpt>
      <trkpt lat="44.21377" lon="8.36173">
        <ele>277.6546</ele>
      </trkpt>
      <trkpt lat="44.21383" lon="8.36178">
        <ele>279.60116</ele>
      </trkpt>
      <trkpt lat="44.21384" lon="8.36186">
        <ele>282.38255</ele>
      </trkpt>
      <trkpt lat="44.2138" lon="8.36193">
        <ele>284.55729</ele>
      </trkpt>
      <trkpt lat="44.21344" lon="8.36203">
        <ele>286.448</ele>
      </trkpt>
      <trkpt lat="44.21312" lon="8.3622">
        <ele>291.77103</ele>
      </trkpt>
      <trkpt lat="44.21301" lon="8.36228">
        <ele>293.32227</ele>
      </trkpt>
      <trkpt lat="44.21295" lon="8.36247">
        <ele>294.99257</ele>
      </trkpt>
      <trkpt lat="44.21298" lon="8.36257">
        <ele>295.84352</ele>
      </trkpt>
      <trkpt lat="44.21306" lon="8.3627">
        <ele>297.0472</ele>
      </trkpt>
      <trkpt lat="44.21325" lon="8.36279">
        <ele>299.19282</ele>
      </trkpt>
      <trkpt lat="44.21347" lon="8.36293">
        <ele>302.35355</ele>
      </trkpt>
      <trkpt lat="44.21354" lon="8.36304">
        <ele>304.04807</ele>
      </trkpt>
      <trkpt lat="44.21359" lon="8.3631">
        <ele>305.27701</ele>
      </trkpt>
      <trkpt lat="44.21357" lon="8.36327">
        <ele>307.20684</ele>
      </trkpt>
      <trkpt lat="44.2135" lon="8.36343">
        <ele>309.61928</ele>
      </trkpt>
      <trkpt lat="44.21336" lon="8.36359">
        <ele>312.12144</ele>
      </trkpt>
      <trkpt lat="44.21344" lon="8.3636">
        <ele>313.64347</ele>
      </trkpt>
      <trkpt lat="44.21357" lon="8.36356">
        <ele>314.36703</ele>
      </trkpt>
      <trkpt lat="44.21367" lon="8.36356">
        <ele>315.8787</ele>
      </trkpt>
      <trkpt lat="44.21399" lon="8.36353">
        <ele>319.63696</ele>
      </trkpt>
      <trkpt lat="44.21457" lon="8.36352">
        <ele>325.65247</ele>
      </trkpt>
      <trkpt lat="44.21456" lon="8.36352">
        <ele>325.56498</ele>
      </trkpt>
      <trkpt lat="44.21465" lon="8.36354">
        <ele>326.83749</ele>
      </trkpt>
      <trkpt lat="44.21487" lon="8.36371">
        <ele>332.61268</ele>
      </trkpt>
      <trkpt lat="44.21496" lon="8.36382">
        <ele>335.71439</ele>
      </trkpt>
      <trkpt lat="44.21498" lon="8.36391">
        <ele>337.64707</ele>
      </trkpt>
      <trkpt lat="44.21498" lon="8.3639">
        <ele>337.45635</ele>
      </trkpt>
      <trkpt lat="44.21499" lon="8.36401">
        <ele>339.68098</ele>
      </trkpt>
      <trkpt lat="44.21489" lon="8.36408">
        <ele>340.35203</ele>
      </trkpt>
      <trkpt lat="44.21473" lon="8.36414">
        <ele>341.21938</ele>
      </trkpt>
      <trkpt lat="44.21462" lon="8.36415">
        <ele>341.43765</ele>
      </trkpt>
      <trkpt lat="44.21447" lon="8.36418">
        <ele>342.26194</ele>
      </trkpt>
      <trkpt lat="44.21434" lon="8.36418">
        <ele>342.15801</ele>
      </trkpt>
      <trkpt lat="44.21435" lon="8.36427">
        <ele>344.63541</ele>
      </trkpt>
      <trkpt lat="44.21463" lon="8.36442">
        <ele>348.50133</ele>
      </trkpt>
      <trkpt lat="44.21466" lon="8.36446">
        <ele>349.52417</ele>
      </trkpt>
      <trkpt lat="44.21466" lon="8.36445">
        <ele>349.25196</ele>
      </trkpt>
      <trkpt lat="44.21474" lon="8.36456">
        <ele>352.03317</ele>
      </trkpt>
      <trkpt lat="44.21481" lon="8.36471">
        <ele>355.74244</ele>
      </trkpt>
      <trkpt lat="44.21492" lon="8.36482">
        <ele>358.26445</ele>
      </trkpt>
      <trkpt lat="44.215" lon="8.36494">
        <ele>360.89783</ele>
      </trkpt>
      <trkpt lat="44.21539" lon="8.36517">
        <ele>365.9671</ele>
      </trkpt>
      <trkpt lat="44.21544" lon="8.36527">
        <ele>367.46923</ele>
      </trkpt>
      <trkpt lat="44.21547" lon="8.36529">
        <ele>367.77759</ele>
      </trkpt>
      <trkpt lat="44.21546" lon="8.36529">
        <ele>367.76022</ele>
      </trkpt>
      <trkpt lat="44.21555" lon="8.36537">
        <ele>368.81161</ele>
      </trkpt>
      <trkpt lat="44.21565" lon="8.36536">
        <ele>368.98916</ele>
      </trkpt>
      <trkpt lat="44.21578" lon="8.36553">
        <ele>370.74574</ele>
      </trkpt>
      <trkpt lat="44.21585" lon="8.36571">
        <ele>371.58659</ele>
      </trkpt>
      <trkpt lat="44.21587" lon="8.36586">
        <ele>371.17958</ele>
      </trkpt>
      <trkpt lat="44.21587" lon="8.36585">
        <ele>371.24523</ele>
      </trkpt>
      <trkpt lat="44.21587" lon="8.36602">
        <ele>369.72943</ele>
      </trkpt>
      <trkpt lat="44.2157" lon="8.36615">
        <ele>366.75865</ele>
      </trkpt>
      <trkpt lat="44.21565" lon="8.36622">
        <ele>365.48067</ele>
      </trkpt>
      <trkpt lat="44.21566" lon="8.36627">
        <ele>364.56563</ele>
      </trkpt>
      <trkpt lat="44.21577" lon="8.36635">
        <ele>363.51322</ele>
      </trkpt>
      <trkpt lat="44.21577" lon="8.36634">
        <ele>363.71311</ele>
      </trkpt>
      <trkpt lat="44.21601" lon="8.36651">
        <ele>363.74664</ele>
      </trkpt>
      <trkpt lat="44.21612" lon="8.36664">
        <ele>363.41428</ele>
      </trkpt>
      <trkpt lat="44.21644" lon="8.36727">
        <ele>355.96416</ele>
      </trkpt>
      <trkpt lat="44.21653" lon="8.3675">
        <ele>352.57085</ele>
      </trkpt>
      <trkpt lat="44.21652" lon="8.3675">
        <ele>352.16563</ele>
      </trkpt>
      <trkpt lat="44.21663" lon="8.36777">
        <ele>348.14829</ele>
      </trkpt>
      <trkpt lat="44.21686" lon="8.36815">
        <ele>343.68701</ele>
      </trkpt>
      <trkpt lat="44.21737" lon="8.3687">
        <ele>341.91731</ele>
      </trkpt>
      <trkpt lat="44.21769" lon="8.36916">
        <ele>336.3829</ele>
      </trkpt>
      <trkpt lat="44.21769" lon="8.36915">
        <ele>336.70549</ele>
      </trkpt>
      <trkpt lat="44.21773" lon="8.36921">
        <ele>335.51236</ele>
      </trkpt>
      <trkpt lat="44.21812" lon="8.36946">
        <ele>332.95898</ele>
      </trkpt>
      <trkpt lat="44.21831" lon="8.36952">
        <ele>333.64597</ele>
      </trkpt>
      <trkpt lat="44.21837" lon="8.36951">
        <ele>334.84544</ele>
      </trkpt>
      <trkpt lat="44.21852" lon="8.36951">
        <ele>336.57532</ele>
      </trkpt>
      <trkpt lat="44.21867" lon="8.36948">
        <ele>338.82675</ele>
      </trkpt>
      <trkpt lat="44.21876" lon="8.36943">
        <ele>340.97771</ele>
      </trkpt>
      <trkpt lat="44.21881" lon="8.36942">
        <ele>341.65373</ele>
      </trkpt>
      <trkpt lat="44.21905" lon="8.36956">
        <ele>341.09847</ele>
      </trkpt>
      <trkpt lat="44.21915" lon="8.36994">
        <ele>336.25881</ele>
      </trkpt>
      <trkpt lat="44.21915" lon="8.36993">
        <ele>336.38594</ele>
      </trkpt>
      <trkpt lat="44.21917" lon="8.37001">
        <ele>335.97259</ele>
      </trkpt>
      <trkpt lat="44.21927" lon="8.37018">
        <ele>337.74945</ele>
      </trkpt>
      <trkpt lat="44.21913" lon="8.37041">
        <ele>333.55892</ele>
      </trkpt>
      <trkpt lat="44.21885" lon="8.37079">
        <ele>325.37408</ele>
      </trkpt>
      <trkpt lat="44.21877" lon="8.37085">
        <ele>322.52303</ele>
      </trkpt>
      <trkpt lat="44.2187" lon="8.371">
        <ele>319.62789</ele>
      </trkpt>
      <trkpt lat="44.2186" lon="8.3714">
        <ele>315.16011</ele>
      </trkpt>
      <trkpt lat="44.21863" lon="8.37152">
        <ele>316.07896</ele>
      </trkpt>
      <trkpt lat="44.21893" lon="8.37194">
        <ele>324.60398</ele>
      </trkpt>
      <trkpt lat="44.21893" lon="8.37193">
        <ele>324.7141</ele>
      </trkpt>
      <trkpt lat="44.21909" lon="8.37232">
        <ele>323.79255</ele>
      </trkpt>
      <trkpt lat="44.21917" lon="8.3726">
        <ele>322.2379</ele>
      </trkpt>
      <trkpt lat="44.21942" lon="8.3731">
        <ele>318.75955</ele>
      </trkpt>
    </trkseg>
  </trk>
</gpx>