<?xml version="1.0" encoding="UTF-8" standalone="yes"?>
<gpx version="1.1" creator="outdooractive - http://www.outdooractive.com" xmlns="http://www.topografix.com/GPX/1/1" xmlns:oa="http://www.outdooractive.com/GPX/Extensions/1" xmlns:xsi="http://www.w3.org/2001/XMLSchema-instance" xsi:schemaLocation="http://www.topografix.com/GPX/1/1 http://www.topografix.com/GPX/1/1/gpx.xsd http://www.outdooractive.com/GPX/Extensions/1 https://www.outdooractive.com/schema/gpx_extensions.xsd">
  <metadata>
    <name>9 - Acquaviva</name>
    <author>
      <name>Redazione Finale Outdoor Region - Finale Outdoor</name>
    </author>
    <link href="https://www.outdooractive.com/r/45230129"/>
    <time>2026-05-12T11:35:55.867Z</time>
    <extensions>
      <oa:oaCategory>mountainbiking</oa:oaCategory>
    </extensions>
  </metadata>
  <trk>
    <name>9 - Acquaviva</name>
    <desc>Very steep and direct access to the plateau</desc>
    <type>mountainbiking</type>
    <trkseg>
      <trkpt lat="44.19455" lon="8.40444">
        <ele>281.73466</ele>
      </trkpt>
      <trkpt lat="44.19461" lon="8.40438">
        <ele>281.5203</ele>
      </trkpt>
      <trkpt lat="44.19477" lon="8.40425">
        <ele>279.34864</ele>
      </trkpt>
      <trkpt lat="44.19494" lon="8.40424">
        <ele>276.1772</ele>
      </trkpt>
      <trkpt lat="44.19511" lon="8.40426">
        <ele>272.42204</ele>
      </trkpt>
      <trkpt lat="44.19526" lon="8.40418">
        <ele>266.64698</ele>
      </trkpt>
      <trkpt lat="44.19535" lon="8.40416">
        <ele>263.21629</ele>
      </trkpt>
      <trkpt lat="44.1954" lon="8.40417">
        <ele>261.61527</ele>
      </trkpt>
      <trkpt lat="44.19547" lon="8.40426">
        <ele>260.82737</ele>
      </trkpt>
      <trkpt lat="44.19554" lon="8.40441">
        <ele>261.46998</ele>
      </trkpt>
      <trkpt lat="44.19565" lon="8.40458">
        <ele>261.73373</ele>
      </trkpt>
      <trkpt lat="44.19577" lon="8.40463">
        <ele>259.46039</ele>
      </trkpt>
      <trkpt lat="44.19576" lon="8.40463">
        <ele>259.73846</ele>
      </trkpt>
      <trkpt lat="44.19587" lon="8.40466">
        <ele>257.64005</ele>
      </trkpt>
      <trkpt lat="44.19605" lon="8.40463">
        <ele>252.23245</ele>
      </trkpt>
      <trkpt lat="44.19614" lon="8.40465">
        <ele>250.61077</ele>
      </trkpt>
      <trkpt lat="44.1964" lon="8.40463">
        <ele>243.32558</ele>
      </trkpt>
      <trkpt lat="44.19658" lon="8.40464">
        <ele>238.88871</ele>
      </trkpt>
      <trkpt lat="44.19673" lon="8.40456">
        <ele>231.48923</ele>
      </trkpt>
      <trkpt lat="44.19674" lon="8.40452">
        <ele>229.62393</ele>
      </trkpt>
      <trkpt lat="44.19672" lon="8.40447">
        <ele>228.27888</ele>
      </trkpt>
      <trkpt lat="44.19667" lon="8.40443">
        <ele>228.24675</ele>
      </trkpt>
      <trkpt lat="44.19667" lon="8.40442">
        <ele>227.86895</ele>
      </trkpt>
      <trkpt lat="44.19655" lon="8.40433">
        <ele>228.19931</ele>
      </trkpt>
      <trkpt lat="44.19646" lon="8.40422">
        <ele>227.28353</ele>
      </trkpt>
      <trkpt lat="44.19634" lon="8.40401">
        <ele>224.94951</ele>
      </trkpt>
      <trkpt lat="44.1963" lon="8.40392">
        <ele>223.86147</ele>
      </trkpt>
      <trkpt lat="44.19631" lon="8.40377">
        <ele>219.58254</ele>
      </trkpt>
      <trkpt lat="44.19634" lon="8.40378">
        <ele>218.72079</ele>
      </trkpt>
      <trkpt lat="44.19642" lon="8.40385">
        <ele>217.66509</ele>
      </trkpt>
      <trkpt lat="44.19648" lon="8.40386">
        <ele>215.79762</ele>
      </trkpt>
      <trkpt lat="44.19669" lon="8.40384">
        <ele>207.80843</ele>
      </trkpt>
      <trkpt lat="44.19694" lon="8.40379">
        <ele>197.65079</ele>
      </trkpt>
      <trkpt lat="44.1971" lon="8.4038">
        <ele>192.59102</ele>
      </trkpt>
      <trkpt lat="44.19709" lon="8.4038">
        <ele>192.92546</ele>
      </trkpt>
      <trkpt lat="44.1973" lon="8.40387">
        <ele>188.46355</ele>
      </trkpt>
      <trkpt lat="44.1977" lon="8.40407">
        <ele>183.09613</ele>
      </trkpt>
      <trkpt lat="44.19781" lon="8.40409">
        <ele>180.29305</ele>
      </trkpt>
      <trkpt lat="44.19821" lon="8.40432">
        <ele>176.49085</ele>
      </trkpt>
      <trkpt lat="44.19821" lon="8.40431">
        <ele>176.10517</ele>
      </trkpt>
      <trkpt lat="44.19827" lon="8.40435">
        <ele>175.88085</ele>
      </trkpt>
      <trkpt lat="44.19837" lon="8.40437">
        <ele>173.77963</ele>
      </trkpt>
      <trkpt lat="44.1985" lon="8.40434">
        <ele>168.99752</ele>
      </trkpt>
      <trkpt lat="44.19863" lon="8.40438">
        <ele>167.09122</ele>
      </trkpt>
      <trkpt lat="44.19897" lon="8.4044">
        <ele>159.01861</ele>
      </trkpt>
      <trkpt lat="44.19915" lon="8.40433">
        <ele>151.43624</ele>
      </trkpt>
      <trkpt lat="44.19938" lon="8.40427">
        <ele>143.07708</ele>
      </trkpt>
      <trkpt lat="44.19952" lon="8.40428">
        <ele>139.7508</ele>
      </trkpt>
      <trkpt lat="44.19951" lon="8.40428">
        <ele>140.01389</ele>
      </trkpt>
      <trkpt lat="44.19979" lon="8.40436">
        <ele>135.04413</ele>
      </trkpt>
      <trkpt lat="44.19996" lon="8.40445">
        <ele>133.08517</ele>
      </trkpt>
      <trkpt lat="44.20013" lon="8.40456">
        <ele>131.49635</ele>
      </trkpt>
      <trkpt lat="44.20044" lon="8.40481">
        <ele>130.13267</ele>
      </trkpt>
      <trkpt lat="44.20064" lon="8.4049">
        <ele>127.81964</ele>
      </trkpt>
      <trkpt lat="44.20078" lon="8.40494">
        <ele>126.41434</ele>
      </trkpt>
      <trkpt lat="44.20106" lon="8.40494">
        <ele>124.20847</ele>
      </trkpt>
      <trkpt lat="44.20116" lon="8.40491">
        <ele>123.19781</ele>
      </trkpt>
      <trkpt lat="44.20172" lon="8.40472">
        <ele>116.87639</ele>
      </trkpt>
      <trkpt lat="44.20189" lon="8.40463">
        <ele>112.53259</ele>
      </trkpt>
      <trkpt lat="44.20215" lon="8.40446">
        <ele>103.97523</ele>
      </trkpt>
      <trkpt lat="44.20232" lon="8.40438">
        <ele>99.05788</ele>
      </trkpt>
      <trkpt lat="44.20247" lon="8.40434">
        <ele>95.35485</ele>
      </trkpt>
      <trkpt lat="44.20257" lon="8.40434">
        <ele>93.3405</ele>
      </trkpt>
      <trkpt lat="44.20264" lon="8.40437">
        <ele>92.52872</ele>
      </trkpt>
      <trkpt lat="44.20276" lon="8.40449">
        <ele>92.98787</ele>
      </trkpt>
      <trkpt lat="44.20301" lon="8.40487">
        <ele>96.41784</ele>
      </trkpt>
      <trkpt lat="44.20324" lon="8.40514">
        <ele>93.07111</ele>
      </trkpt>
      <trkpt lat="44.20345" lon="8.40531">
        <ele>88.28689</ele>
      </trkpt>
      <trkpt lat="44.20359" lon="8.40551">
        <ele>86.32262</ele>
      </trkpt>
      <trkpt lat="44.20365" lon="8.40569">
        <ele>87.30861</ele>
      </trkpt>
      <trkpt lat="44.20389" lon="8.40608">
        <ele>83.76841</ele>
      </trkpt>
      <trkpt lat="44.20397" lon="8.40625">
        <ele>84.09533</ele>
      </trkpt>
      <trkpt lat="44.20402" lon="8.40644">
        <ele>86.575</ele>
      </trkpt>
      <trkpt lat="44.20408" lon="8.40651">
        <ele>85.79132</ele>
      </trkpt>
      <trkpt lat="44.20417" lon="8.40656">
        <ele>83.39071</ele>
      </trkpt>
      <trkpt lat="44.20438" lon="8.40681">
        <ele>81.14097</ele>
      </trkpt>
      <trkpt lat="44.20482" lon="8.40724">
        <ele>79.63886</ele>
      </trkpt>
      <trkpt lat="44.2049" lon="8.40729">
        <ele>78.74839</ele>
      </trkpt>
      <trkpt lat="44.20498" lon="8.40731">
        <ele>76.70251</ele>
      </trkpt>
      <trkpt lat="44.20497" lon="8.40731">
        <ele>77.0481</ele>
      </trkpt>
      <trkpt lat="44.20532" lon="8.40755">
        <ele>67.56199</ele>
      </trkpt>
      <trkpt lat="44.20551" lon="8.40763">
        <ele>58.98005</ele>
      </trkpt>
      <trkpt lat="44.20557" lon="8.40772">
        <ele>56.90155</ele>
      </trkpt>
      <trkpt lat="44.20559" lon="8.40783">
        <ele>56.93558</ele>
      </trkpt>
      <trkpt lat="44.2056" lon="8.40811">
        <ele>58.86339</ele>
      </trkpt>
      <trkpt lat="44.20565" lon="8.40826">
        <ele>57.57614</ele>
      </trkpt>
      <trkpt lat="44.20569" lon="8.40847">
        <ele>57.45443</ele>
      </trkpt>
      <trkpt lat="44.20569" lon="8.40853">
        <ele>58.07693</ele>
      </trkpt>
      <trkpt lat="44.20573" lon="8.40864">
        <ele>57.39401</ele>
      </trkpt>
      <trkpt lat="44.20589" lon="8.4088">
        <ele>52.26017</ele>
      </trkpt>
      <trkpt lat="44.20603" lon="8.40897">
        <ele>47.64115</ele>
      </trkpt>
      <trkpt lat="44.20602" lon="8.40897">
        <ele>48.05389</ele>
      </trkpt>
      <trkpt lat="44.20612" lon="8.40908">
        <ele>44.13276</ele>
      </trkpt>
      <trkpt lat="44.20629" lon="8.4094">
        <ele>35.77654</ele>
        <extensions>
          <oa:locType>routingNode</oa:locType>
        </extensions>
      </trkpt>
    </trkseg>
  </trk>
</gpx>