<?xml version="1.0" encoding="utf-8"?>
            <gpx xmlns="http://www.topografix.com/GPX/1/1" xmlns:xsd="http://www.w3.org/2001/XMLSchema" xmlns:xsi="http://www.w3.org/2001/XMLSchema-instance" version="1.1" creator="Fugawi 4,5,14,1696 http://www.fugawi.com/" xsi:schemaLocation="http://www.topografix.com/GPX/1/1 http://www.topografix.com/GPX/1/1/gpx.xsd">
                <trk>
                    <name>3A Schrofa Trail</name>
                    <desc></desc>
                    <trkseg>
                        <trkpt lat="46.96646" lon="10.14157"><ele>1957</ele></trkpt>
<trkpt lat="46.96641" lon="10.14155"><ele>1957</ele></trkpt>
<trkpt lat="46.96639" lon="10.14155"><ele>1957</ele></trkpt>
<trkpt lat="46.96634" lon="10.14157"><ele>1957</ele></trkpt>
<trkpt lat="46.96632" lon="10.1416"><ele>1957</ele></trkpt>
<trkpt lat="46.9663" lon="10.14165"><ele>1957</ele></trkpt>
<trkpt lat="46.96628" lon="10.14176"><ele>1957</ele></trkpt>
<trkpt lat="46.96629" lon="10.14186"><ele>1957</ele></trkpt>
<trkpt lat="46.96627" lon="10.14195"><ele>1957</ele></trkpt>
<trkpt lat="46.96624" lon="10.14202"><ele>1957</ele></trkpt>
<trkpt lat="46.96622" lon="10.14204"><ele>1956</ele></trkpt>
<trkpt lat="46.9661" lon="10.14209"><ele>1955</ele></trkpt>
<trkpt lat="46.96601" lon="10.14209"><ele>1954</ele></trkpt>
<trkpt lat="46.966" lon="10.14212"><ele>1954</ele></trkpt>
<trkpt lat="46.96597" lon="10.14214"><ele>1954</ele></trkpt>
<trkpt lat="46.96596" lon="10.1422"><ele>1954</ele></trkpt>
<trkpt lat="46.96597" lon="10.14223"><ele>1954</ele></trkpt>
<trkpt lat="46.96598" lon="10.14226"><ele>1954</ele></trkpt>
<trkpt lat="46.96602" lon="10.14231"><ele>1953</ele></trkpt>
<trkpt lat="46.96606" lon="10.14237"><ele>1955</ele></trkpt>
<trkpt lat="46.96607" lon="10.14239"><ele>1955</ele></trkpt>
<trkpt lat="46.96611" lon="10.14242"><ele>1953</ele></trkpt>
<trkpt lat="46.96612" lon="10.14244"><ele>1954</ele></trkpt>
<trkpt lat="46.96614" lon="10.14247"><ele>1954</ele></trkpt>
<trkpt lat="46.96615" lon="10.1425"><ele>1954</ele></trkpt>
<trkpt lat="46.96615" lon="10.14253"><ele>1954</ele></trkpt>
<trkpt lat="46.96614" lon="10.14256"><ele>1952</ele></trkpt>
<trkpt lat="46.96613" lon="10.14258"><ele>1952</ele></trkpt>
<trkpt lat="46.96612" lon="10.14259"><ele>1952</ele></trkpt>
<trkpt lat="46.96611" lon="10.14261"><ele>1952</ele></trkpt>
<trkpt lat="46.96611" lon="10.14262"><ele>1952</ele></trkpt>
<trkpt lat="46.96611" lon="10.14265"><ele>1952</ele></trkpt>
<trkpt lat="46.96612" lon="10.14269"><ele>1951</ele></trkpt>
<trkpt lat="46.96613" lon="10.14272"><ele>1951</ele></trkpt>
<trkpt lat="46.96614" lon="10.14274"><ele>1951</ele></trkpt>
<trkpt lat="46.96614" lon="10.14275"><ele>1951</ele></trkpt>
<trkpt lat="46.96615" lon="10.14277"><ele>1951</ele></trkpt>
<trkpt lat="46.96614" lon="10.14279"><ele>1951</ele></trkpt>
<trkpt lat="46.96614" lon="10.14282"><ele>1950</ele></trkpt>
<trkpt lat="46.96611" lon="10.14283"><ele>1949</ele></trkpt>
<trkpt lat="46.96609" lon="10.14286"><ele>1949</ele></trkpt>
<trkpt lat="46.96607" lon="10.14288"><ele>1949</ele></trkpt>
<trkpt lat="46.96606" lon="10.14292"><ele>1949</ele></trkpt>
<trkpt lat="46.96606" lon="10.14293"><ele>1948</ele></trkpt>
<trkpt lat="46.96606" lon="10.14297"><ele>1948</ele></trkpt>
<trkpt lat="46.96607" lon="10.14301"><ele>1948</ele></trkpt>
<trkpt lat="46.96607" lon="10.14303"><ele>1948</ele></trkpt>
<trkpt lat="46.96606" lon="10.14303"><ele>1948</ele></trkpt>
<trkpt lat="46.96606" lon="10.14303"><ele>1948</ele></trkpt>
<trkpt lat="46.96605" lon="10.14306"><ele>1947</ele></trkpt>
<trkpt lat="46.96605" lon="10.14306"><ele>1947</ele></trkpt>
<trkpt lat="46.96604" lon="10.14306"><ele>1947</ele></trkpt>
<trkpt lat="46.96604" lon="10.14307"><ele>1947</ele></trkpt>
<trkpt lat="46.96604" lon="10.14308"><ele>1947</ele></trkpt>
<trkpt lat="46.96602" lon="10.14312"><ele>1947</ele></trkpt>

                    </trkseg>
              </trk>
            </gpx>