<?xml version="1.0" encoding="utf-8"?>
            <gpx xmlns="http://www.topografix.com/GPX/1/1" xmlns:xsd="http://www.w3.org/2001/XMLSchema" xmlns:xsi="http://www.w3.org/2001/XMLSchema-instance" version="1.1" creator="Fugawi 4,5,14,1696 http://www.fugawi.com/" xsi:schemaLocation="http://www.topografix.com/GPX/1/1 http://www.topografix.com/GPX/1/1/gpx.xsd">
                <trk>
                    <name> 445 Salaaser Kopf Trail (Samnaun)</name>
                    <desc></desc>
                    <trkseg>
                        <trkpt lat="46.9518" lon="10.37492"><ele>1762</ele></trkpt>
<trkpt lat="46.95201" lon="10.37541"><ele>1762</ele></trkpt>
<trkpt lat="46.95258" lon="10.37678"><ele>1762</ele></trkpt>
<trkpt lat="46.95269" lon="10.37698"><ele>1762</ele></trkpt>
<trkpt lat="46.95295" lon="10.37731"><ele>1758</ele></trkpt>
<trkpt lat="46.95337" lon="10.37794"><ele>1758</ele></trkpt>
<trkpt lat="46.95348" lon="10.37815"><ele>1758</ele></trkpt>
<trkpt lat="46.95362" lon="10.37844"><ele>1758</ele></trkpt>
<trkpt lat="46.95381" lon="10.37881"><ele>1757</ele></trkpt>
<trkpt lat="46.95396" lon="10.37906"><ele>1757</ele></trkpt>
<trkpt lat="46.95396" lon="10.37906"><ele>1757</ele></trkpt>
<trkpt lat="46.95418" lon="10.37942"><ele>1757</ele></trkpt>
<trkpt lat="46.95453" lon="10.37988"><ele>1750</ele></trkpt>
<trkpt lat="46.95469" lon="10.37998"><ele>1750</ele></trkpt>
<trkpt lat="46.9548" lon="10.38012"><ele>1750</ele></trkpt>
<trkpt lat="46.95489" lon="10.38017"><ele>1750</ele></trkpt>
<trkpt lat="46.95496" lon="10.38017"><ele>1748</ele></trkpt>
<trkpt lat="46.95502" lon="10.38019"><ele>1748</ele></trkpt>
<trkpt lat="46.95507" lon="10.38022"><ele>1748</ele></trkpt>
<trkpt lat="46.95512" lon="10.38027"><ele>1748</ele></trkpt>
<trkpt lat="46.95515" lon="10.38029"><ele>1748</ele></trkpt>
<trkpt lat="46.95524" lon="10.38041"><ele>1748</ele></trkpt>
<trkpt lat="46.95524" lon="10.38041"><ele>1748</ele></trkpt>
<trkpt lat="46.95571" lon="10.38106"><ele>1748</ele></trkpt>
<trkpt lat="46.95598" lon="10.38176"><ele>1738</ele></trkpt>
<trkpt lat="46.95616" lon="10.38235"><ele>1738</ele></trkpt>
<trkpt lat="46.95627" lon="10.38297"><ele>1738</ele></trkpt>
<trkpt lat="46.95627" lon="10.38297"><ele>1738</ele></trkpt>
<trkpt lat="46.95623" lon="10.38311"><ele>1733</ele></trkpt>
<trkpt lat="46.95605" lon="10.38343"><ele>1733</ele></trkpt>
<trkpt lat="46.95599" lon="10.38354"><ele>1733</ele></trkpt>
<trkpt lat="46.95596" lon="10.38364"><ele>1733</ele></trkpt>
<trkpt lat="46.95593" lon="10.38374"><ele>1731</ele></trkpt>
<trkpt lat="46.9559" lon="10.38395"><ele>1731</ele></trkpt>
<trkpt lat="46.95591" lon="10.38432"><ele>1731</ele></trkpt>
<trkpt lat="46.95596" lon="10.38509"><ele>1731</ele></trkpt>
<trkpt lat="46.95598" lon="10.3854"><ele>1725</ele></trkpt>
<trkpt lat="46.95604" lon="10.38583"><ele>1725</ele></trkpt>
<trkpt lat="46.95615" lon="10.38639"><ele>1725</ele></trkpt>
<trkpt lat="46.95633" lon="10.38702"><ele>1725</ele></trkpt>
<trkpt lat="46.95642" lon="10.38726"><ele>1728</ele></trkpt>
<trkpt lat="46.95669" lon="10.38787"><ele>1728</ele></trkpt>
<trkpt lat="46.9568" lon="10.3881"><ele>1728</ele></trkpt>
<trkpt lat="46.9569" lon="10.38841"><ele>1728</ele></trkpt>
<trkpt lat="46.95698" lon="10.38874"><ele>1721</ele></trkpt>
<trkpt lat="46.95717" lon="10.39021"><ele>1721</ele></trkpt>
<trkpt lat="46.95724" lon="10.39068"><ele>1721</ele></trkpt>
<trkpt lat="46.9573" lon="10.39094"><ele>1721</ele></trkpt>
<trkpt lat="46.95737" lon="10.39125"><ele>1716</ele></trkpt>
<trkpt lat="46.95766" lon="10.39231"><ele>1716</ele></trkpt>
<trkpt lat="46.95776" lon="10.39265"><ele>1716</ele></trkpt>
<trkpt lat="46.95816" lon="10.39413"><ele>1716</ele></trkpt>
<trkpt lat="46.9583" lon="10.39438"><ele>1696</ele></trkpt>
<trkpt lat="46.95836" lon="10.39447"><ele>1696</ele></trkpt>
<trkpt lat="46.95858" lon="10.39472"><ele>1696</ele></trkpt>
<trkpt lat="46.95858" lon="10.39472"><ele>1696</ele></trkpt>
<trkpt lat="46.95886" lon="10.39541"><ele>1697</ele></trkpt>
<trkpt lat="46.95902" lon="10.39606"><ele>1697</ele></trkpt>
<trkpt lat="46.95915" lon="10.39659"><ele>1697</ele></trkpt>
<trkpt lat="46.95917" lon="10.39669"><ele>1697</ele></trkpt>
<trkpt lat="46.95917" lon="10.39669"><ele>1696</ele></trkpt>
<trkpt lat="46.95922" lon="10.39672"><ele>1696</ele></trkpt>
<trkpt lat="46.95944" lon="10.39705"><ele>1696</ele></trkpt>
<trkpt lat="46.95954" lon="10.39716"><ele>1696</ele></trkpt>
<trkpt lat="46.9596" lon="10.39725"><ele>1695</ele></trkpt>
<trkpt lat="46.95963" lon="10.3973"><ele>1695</ele></trkpt>
<trkpt lat="46.95963" lon="10.3973"><ele>1695</ele></trkpt>
<trkpt lat="46.95981" lon="10.39725"><ele>1695</ele></trkpt>
<trkpt lat="46.95987" lon="10.39727"><ele>1697</ele></trkpt>
<trkpt lat="46.95991" lon="10.39734"><ele>1697</ele></trkpt>
<trkpt lat="46.95993" lon="10.39743"><ele>1697</ele></trkpt>
<trkpt lat="46.95991" lon="10.3975"><ele>1697</ele></trkpt>
<trkpt lat="46.95988" lon="10.39756"><ele>1698</ele></trkpt>
<trkpt lat="46.95969" lon="10.39779"><ele>1698</ele></trkpt>
<trkpt lat="46.95965" lon="10.39785"><ele>1698</ele></trkpt>
<trkpt lat="46.95963" lon="10.398"><ele>1698</ele></trkpt>
<trkpt lat="46.95957" lon="10.39831"><ele>1697</ele></trkpt>
<trkpt lat="46.95959" lon="10.39842"><ele>1697</ele></trkpt>
<trkpt lat="46.95961" lon="10.39851"><ele>1697</ele></trkpt>
<trkpt lat="46.95958" lon="10.39869"><ele>1697</ele></trkpt>
<trkpt lat="46.95957" lon="10.3988"><ele>1702</ele></trkpt>
<trkpt lat="46.95953" lon="10.39898"><ele>1702</ele></trkpt>
<trkpt lat="46.95947" lon="10.39918"><ele>1702</ele></trkpt>
<trkpt lat="46.95946" lon="10.39927"><ele>1702</ele></trkpt>
<trkpt lat="46.95947" lon="10.39936"><ele>1706</ele></trkpt>
<trkpt lat="46.95952" lon="10.39953"><ele>1706</ele></trkpt>
<trkpt lat="46.9598" lon="10.40021"><ele>1706</ele></trkpt>
<trkpt lat="46.95988" lon="10.40043"><ele>1706</ele></trkpt>
<trkpt lat="46.95991" lon="10.40051"><ele>1712</ele></trkpt>
<trkpt lat="46.95998" lon="10.40075"><ele>1712</ele></trkpt>
<trkpt lat="46.95998" lon="10.40075"><ele>1712</ele></trkpt>
<trkpt lat="46.95998" lon="10.40076"><ele>1712</ele></trkpt>
<trkpt lat="46.96007" lon="10.40108"><ele>1714</ele></trkpt>
<trkpt lat="46.96012" lon="10.40133"><ele>1714</ele></trkpt>
<trkpt lat="46.96014" lon="10.40154"><ele>1714</ele></trkpt>
<trkpt lat="46.96014" lon="10.4018"><ele>1714</ele></trkpt>
<trkpt lat="46.96014" lon="10.40199"><ele>1713</ele></trkpt>
<trkpt lat="46.96014" lon="10.40245"><ele>1713</ele></trkpt>
<trkpt lat="46.96018" lon="10.40298"><ele>1713</ele></trkpt>
<trkpt lat="46.96018" lon="10.40298"><ele>1713</ele></trkpt>
<trkpt lat="46.96025" lon="10.40297"><ele>1717</ele></trkpt>
<trkpt lat="46.96029" lon="10.40298"><ele>1717</ele></trkpt>
<trkpt lat="46.96033" lon="10.40304"><ele>1717</ele></trkpt>
<trkpt lat="46.96043" lon="10.40323"><ele>1717</ele></trkpt>
<trkpt lat="46.96065" lon="10.40373"><ele>1723</ele></trkpt>
<trkpt lat="46.96068" lon="10.40376"><ele>1723</ele></trkpt>
<trkpt lat="46.96072" lon="10.40375"><ele>1723</ele></trkpt>
<trkpt lat="46.96079" lon="10.40371"><ele>1723</ele></trkpt>
<trkpt lat="46.96085" lon="10.40368"><ele>1732</ele></trkpt>
<trkpt lat="46.96093" lon="10.40368"><ele>1732</ele></trkpt>
<trkpt lat="46.96113" lon="10.40367"><ele>1732</ele></trkpt>
<trkpt lat="46.96119" lon="10.40368"><ele>1732</ele></trkpt>
<trkpt lat="46.96131" lon="10.40376"><ele>1742</ele></trkpt>
<trkpt lat="46.96139" lon="10.40386"><ele>1742</ele></trkpt>
<trkpt lat="46.96146" lon="10.40395"><ele>1742</ele></trkpt>
<trkpt lat="46.9617" lon="10.40431"><ele>1742</ele></trkpt>
<trkpt lat="46.96183" lon="10.4047"><ele>1738</ele></trkpt>
<trkpt lat="46.96188" lon="10.40478"><ele>1738</ele></trkpt>
<trkpt lat="46.96193" lon="10.40475"><ele>1738</ele></trkpt>
<trkpt lat="46.96194" lon="10.40468"><ele>1738</ele></trkpt>
<trkpt lat="46.96189" lon="10.40448"><ele>1753</ele></trkpt>
<trkpt lat="46.96182" lon="10.40409"><ele>1753</ele></trkpt>
<trkpt lat="46.96174" lon="10.40391"><ele>1753</ele></trkpt>
<trkpt lat="46.96153" lon="10.40343"><ele>1753</ele></trkpt>
<trkpt lat="46.9612" lon="10.40295"><ele>1763</ele></trkpt>
<trkpt lat="46.96102" lon="10.40264"><ele>1763</ele></trkpt>
<trkpt lat="46.96105" lon="10.40237"><ele>1763</ele></trkpt>
<trkpt lat="46.96119" lon="10.40174"><ele>1763</ele></trkpt>
<trkpt lat="46.96137" lon="10.40108"><ele>1774</ele></trkpt>
<trkpt lat="46.9616" lon="10.40052"><ele>1774</ele></trkpt>
<trkpt lat="46.96168" lon="10.40001"><ele>1774</ele></trkpt>
<trkpt lat="46.96168" lon="10.40001"><ele>1774</ele></trkpt>
<trkpt lat="46.9617" lon="10.39988"><ele>1788</ele></trkpt>
<trkpt lat="46.96183" lon="10.39917"><ele>1788</ele></trkpt>
<trkpt lat="46.96198" lon="10.39871"><ele>1788</ele></trkpt>
<trkpt lat="46.96213" lon="10.39826"><ele>1788</ele></trkpt>
<trkpt lat="46.96246" lon="10.39786"><ele>1788</ele></trkpt>
<trkpt lat="46.96282" lon="10.39738"><ele>1788</ele></trkpt>
<trkpt lat="46.96308" lon="10.39692"><ele>1788</ele></trkpt>
<trkpt lat="46.96317" lon="10.39678"><ele>1788</ele></trkpt>
<trkpt lat="46.96323" lon="10.39654"><ele>1798</ele></trkpt>
<trkpt lat="46.96331" lon="10.39642"><ele>1798</ele></trkpt>
<trkpt lat="46.96348" lon="10.39636"><ele>1798</ele></trkpt>
<trkpt lat="46.96375" lon="10.39622"><ele>1798</ele></trkpt>
<trkpt lat="46.96414" lon="10.39591"><ele>1817</ele></trkpt>
<trkpt lat="46.96447" lon="10.39556"><ele>1817</ele></trkpt>
<trkpt lat="46.96458" lon="10.39544"><ele>1817</ele></trkpt>
<trkpt lat="46.96462" lon="10.39547"><ele>1817</ele></trkpt>
<trkpt lat="46.96462" lon="10.39547"><ele>1819</ele></trkpt>
<trkpt lat="46.96461" lon="10.39556"><ele>1819</ele></trkpt>
<trkpt lat="46.96455" lon="10.39564"><ele>1819</ele></trkpt>
<trkpt lat="46.96435" lon="10.39589"><ele>1819</ele></trkpt>
<trkpt lat="46.96417" lon="10.39625"><ele>1825</ele></trkpt>
<trkpt lat="46.96389" lon="10.39671"><ele>1825</ele></trkpt>
<trkpt lat="46.9637" lon="10.3968"><ele>1825</ele></trkpt>
<trkpt lat="46.96363" lon="10.3969"><ele>1825</ele></trkpt>
<trkpt lat="46.96362" lon="10.39713"><ele>1827</ele></trkpt>
<trkpt lat="46.9636" lon="10.39729"><ele>1827</ele></trkpt>
<trkpt lat="46.96352" lon="10.39739"><ele>1827</ele></trkpt>
<trkpt lat="46.96345" lon="10.39748"><ele>1827</ele></trkpt>
<trkpt lat="46.96342" lon="10.39758"><ele>1824</ele></trkpt>
<trkpt lat="46.96341" lon="10.39767"><ele>1824</ele></trkpt>
<trkpt lat="46.96338" lon="10.39789"><ele>1824</ele></trkpt>
<trkpt lat="46.96333" lon="10.39805"><ele>1824</ele></trkpt>
<trkpt lat="46.9633" lon="10.39819"><ele>1836</ele></trkpt>
<trkpt lat="46.96327" lon="10.39837"><ele>1836</ele></trkpt>
<trkpt lat="46.96326" lon="10.3985"><ele>1836</ele></trkpt>
<trkpt lat="46.96324" lon="10.39878"><ele>1836</ele></trkpt>
<trkpt lat="46.96317" lon="10.39908"><ele>1844</ele></trkpt>
<trkpt lat="46.96285" lon="10.40077"><ele>1844</ele></trkpt>
<trkpt lat="46.96267" lon="10.40118"><ele>1844</ele></trkpt>
<trkpt lat="46.96259" lon="10.40142"><ele>1844</ele></trkpt>
<trkpt lat="46.9625" lon="10.40152"><ele>1859</ele></trkpt>
<trkpt lat="46.96242" lon="10.40159"><ele>1859</ele></trkpt>
<trkpt lat="46.96242" lon="10.40166"><ele>1859</ele></trkpt>
<trkpt lat="46.96245" lon="10.40173"><ele>1859</ele></trkpt>
<trkpt lat="46.96249" lon="10.40175"><ele>1866</ele></trkpt>
<trkpt lat="46.96255" lon="10.40173"><ele>1866</ele></trkpt>
<trkpt lat="46.96255" lon="10.40173"><ele>1866</ele></trkpt>
<trkpt lat="46.96263" lon="10.40152"><ele>1866</ele></trkpt>
<trkpt lat="46.96274" lon="10.40131"><ele>1859</ele></trkpt>
<trkpt lat="46.96321" lon="10.40062"><ele>1859</ele></trkpt>
<trkpt lat="46.96334" lon="10.40043"><ele>1859</ele></trkpt>
<trkpt lat="46.96354" lon="10.39997"><ele>1859</ele></trkpt>
<trkpt lat="46.96362" lon="10.39986"><ele>1874</ele></trkpt>
<trkpt lat="46.96379" lon="10.39979"><ele>1874</ele></trkpt>
<trkpt lat="46.96388" lon="10.39969"><ele>1874</ele></trkpt>
<trkpt lat="46.964" lon="10.39947"><ele>1874</ele></trkpt>
<trkpt lat="46.96406" lon="10.39922"><ele>1875</ele></trkpt>
<trkpt lat="46.96411" lon="10.39903"><ele>1875</ele></trkpt>
<trkpt lat="46.96417" lon="10.39894"><ele>1875</ele></trkpt>
<trkpt lat="46.96428" lon="10.39885"><ele>1875</ele></trkpt>
<trkpt lat="46.96435" lon="10.39878"><ele>1888</ele></trkpt>
<trkpt lat="46.96456" lon="10.39838"><ele>1888</ele></trkpt>
<trkpt lat="46.96468" lon="10.39817"><ele>1888</ele></trkpt>
<trkpt lat="46.96485" lon="10.398"><ele>1888</ele></trkpt>
<trkpt lat="46.965" lon="10.39777"><ele>1895</ele></trkpt>
<trkpt lat="46.96528" lon="10.39753"><ele>1895</ele></trkpt>
<trkpt lat="46.9654" lon="10.39738"><ele>1895</ele></trkpt>
<trkpt lat="46.96551" lon="10.3973"><ele>1895</ele></trkpt>
<trkpt lat="46.96568" lon="10.39732"><ele>1898</ele></trkpt>
<trkpt lat="46.96586" lon="10.39729"><ele>1898</ele></trkpt>
<trkpt lat="46.96618" lon="10.39713"><ele>1898</ele></trkpt>
<trkpt lat="46.96646" lon="10.39708"><ele>1898</ele></trkpt>
<trkpt lat="46.96663" lon="10.39699"><ele>1924</ele></trkpt>
<trkpt lat="46.96689" lon="10.39688"><ele>1924</ele></trkpt>
<trkpt lat="46.96699" lon="10.39681"><ele>1924</ele></trkpt>
<trkpt lat="46.96734" lon="10.39627"><ele>1924</ele></trkpt>
<trkpt lat="46.96748" lon="10.39605"><ele>1936</ele></trkpt>
<trkpt lat="46.9677" lon="10.39584"><ele>1936</ele></trkpt>
<trkpt lat="46.96813" lon="10.39532"><ele>1936</ele></trkpt>
<trkpt lat="46.96825" lon="10.39519"><ele>1936</ele></trkpt>
<trkpt lat="46.96847" lon="10.39504"><ele>1950</ele></trkpt>
<trkpt lat="46.96865" lon="10.39493"><ele>1950</ele></trkpt>
<trkpt lat="46.96902" lon="10.39481"><ele>1950</ele></trkpt>
<trkpt lat="46.96917" lon="10.39472"><ele>1950</ele></trkpt>
<trkpt lat="46.96926" lon="10.39467"><ele>1959</ele></trkpt>
<trkpt lat="46.96943" lon="10.3945"><ele>1959</ele></trkpt>
<trkpt lat="46.96957" lon="10.39439"><ele>1959</ele></trkpt>
<trkpt lat="46.96996" lon="10.39425"><ele>1959</ele></trkpt>
<trkpt lat="46.97012" lon="10.39417"><ele>1978</ele></trkpt>
<trkpt lat="46.97022" lon="10.39411"><ele>1978</ele></trkpt>
<trkpt lat="46.97034" lon="10.39406"><ele>1978</ele></trkpt>
<trkpt lat="46.97061" lon="10.39399"><ele>1978</ele></trkpt>
<trkpt lat="46.97081" lon="10.3939"><ele>1989</ele></trkpt>
<trkpt lat="46.97081" lon="10.3939"><ele>1989</ele></trkpt>
<trkpt lat="46.9708" lon="10.39401"><ele>1989</ele></trkpt>
<trkpt lat="46.97077" lon="10.39411"><ele>1989</ele></trkpt>
<trkpt lat="46.97069" lon="10.39419"><ele>1990</ele></trkpt>
<trkpt lat="46.9706" lon="10.3943"><ele>1990</ele></trkpt>
<trkpt lat="46.97016" lon="10.39491"><ele>1990</ele></trkpt>
<trkpt lat="46.9701" lon="10.39503"><ele>1990</ele></trkpt>
<trkpt lat="46.97009" lon="10.39512"><ele>1997</ele></trkpt>
<trkpt lat="46.97007" lon="10.39541"><ele>1997</ele></trkpt>
<trkpt lat="46.97004" lon="10.39556"><ele>1997</ele></trkpt>
<trkpt lat="46.96997" lon="10.39569"><ele>1997</ele></trkpt>
<trkpt lat="46.9699" lon="10.39575"><ele>2001</ele></trkpt>
<trkpt lat="46.96987" lon="10.39584"><ele>2001</ele></trkpt>
<trkpt lat="46.96985" lon="10.39601"><ele>2001</ele></trkpt>
<trkpt lat="46.96979" lon="10.39611"><ele>2001</ele></trkpt>
<trkpt lat="46.96971" lon="10.39617"><ele>2003</ele></trkpt>
<trkpt lat="46.96963" lon="10.39631"><ele>2003</ele></trkpt>
<trkpt lat="46.96965" lon="10.39642"><ele>2003</ele></trkpt>
<trkpt lat="46.96968" lon="10.39644"><ele>2003</ele></trkpt>
<trkpt lat="46.96975" lon="10.39644"><ele>2011</ele></trkpt>
<trkpt lat="46.96985" lon="10.39634"><ele>2011</ele></trkpt>
<trkpt lat="46.96998" lon="10.39619"><ele>2011</ele></trkpt>
<trkpt lat="46.9701" lon="10.39611"><ele>2011</ele></trkpt>
<trkpt lat="46.97023" lon="10.39601"><ele>2014</ele></trkpt>
<trkpt lat="46.97031" lon="10.39596"><ele>2014</ele></trkpt>
<trkpt lat="46.97045" lon="10.39596"><ele>2014</ele></trkpt>
<trkpt lat="46.97102" lon="10.39567"><ele>2014</ele></trkpt>
<trkpt lat="46.97108" lon="10.39561"><ele>2029</ele></trkpt>
<trkpt lat="46.97106" lon="10.39547"><ele>2029</ele></trkpt>
<trkpt lat="46.97105" lon="10.3953"><ele>2029</ele></trkpt>
<trkpt lat="46.97106" lon="10.3952"><ele>2029</ele></trkpt>
<trkpt lat="46.97113" lon="10.39519"><ele>2026</ele></trkpt>
<trkpt lat="46.97119" lon="10.39523"><ele>2026</ele></trkpt>
<trkpt lat="46.9713" lon="10.39547"><ele>2026</ele></trkpt>
<trkpt lat="46.97133" lon="10.39563"><ele>2026</ele></trkpt>
<trkpt lat="46.97132" lon="10.39578"><ele>2037</ele></trkpt>
<trkpt lat="46.97129" lon="10.39584"><ele>2037</ele></trkpt>
<trkpt lat="46.97129" lon="10.39584"><ele>2037</ele></trkpt>
<trkpt lat="46.97124" lon="10.39598"><ele>2037</ele></trkpt>
<trkpt lat="46.97121" lon="10.3961"><ele>2038</ele></trkpt>
<trkpt lat="46.97124" lon="10.39621"><ele>2038</ele></trkpt>
<trkpt lat="46.9713" lon="10.39624"><ele>2038</ele></trkpt>
<trkpt lat="46.97141" lon="10.39622"><ele>2038</ele></trkpt>
<trkpt lat="46.97157" lon="10.39613"><ele>2044</ele></trkpt>
<trkpt lat="46.9719" lon="10.39592"><ele>2044</ele></trkpt>
<trkpt lat="46.97214" lon="10.3957"><ele>2044</ele></trkpt>
<trkpt lat="46.97226" lon="10.39564"><ele>2044</ele></trkpt>
<trkpt lat="46.97238" lon="10.39556"><ele>2053</ele></trkpt>
<trkpt lat="46.97304" lon="10.3954"><ele>2053</ele></trkpt>
<trkpt lat="46.9731" lon="10.39535"><ele>2053</ele></trkpt>
<trkpt lat="46.97316" lon="10.39523"><ele>2053</ele></trkpt>
<trkpt lat="46.97321" lon="10.39509"><ele>2067</ele></trkpt>
<trkpt lat="46.97326" lon="10.39494"><ele>2067</ele></trkpt>
<trkpt lat="46.97326" lon="10.39494"><ele>2067</ele></trkpt>
<trkpt lat="46.97342" lon="10.39456"><ele>2067</ele></trkpt>
<trkpt lat="46.97358" lon="10.39437"><ele>2069</ele></trkpt>
<trkpt lat="46.97361" lon="10.39398"><ele>2069</ele></trkpt>
<trkpt lat="46.97366" lon="10.39386"><ele>2069</ele></trkpt>
<trkpt lat="46.97377" lon="10.3934"><ele>2069</ele></trkpt>
<trkpt lat="46.97395" lon="10.39297"><ele>2066</ele></trkpt>
<trkpt lat="46.97412" lon="10.39264"><ele>2066</ele></trkpt>
<trkpt lat="46.97412" lon="10.39264"><ele>2066</ele></trkpt>
<trkpt lat="46.97446" lon="10.39288"><ele>2066</ele></trkpt>
<trkpt lat="46.97499" lon="10.39324"><ele>2094</ele></trkpt>
<trkpt lat="46.97511" lon="10.39337"><ele>2094</ele></trkpt>
<trkpt lat="46.97523" lon="10.39353"><ele>2094</ele></trkpt>
<trkpt lat="46.97545" lon="10.39383"><ele>2094</ele></trkpt>
<trkpt lat="46.97558" lon="10.39397"><ele>2111</ele></trkpt>
<trkpt lat="46.97566" lon="10.39403"><ele>2111</ele></trkpt>
<trkpt lat="46.97575" lon="10.39406"><ele>2111</ele></trkpt>
<trkpt lat="46.9759" lon="10.39404"><ele>2111</ele></trkpt>
<trkpt lat="46.97627" lon="10.39397"><ele>2129</ele></trkpt>
<trkpt lat="46.97654" lon="10.39387"><ele>2129</ele></trkpt>
<trkpt lat="46.97661" lon="10.39383"><ele>2129</ele></trkpt>
<trkpt lat="46.97675" lon="10.39357"><ele>2129</ele></trkpt>
<trkpt lat="46.97679" lon="10.39345"><ele>2142</ele></trkpt>
<trkpt lat="46.97679" lon="10.39337"><ele>2142</ele></trkpt>
<trkpt lat="46.97675" lon="10.39326"><ele>2142</ele></trkpt>
<trkpt lat="46.97668" lon="10.39323"><ele>2142</ele></trkpt>
<trkpt lat="46.97647" lon="10.39322"><ele>2140</ele></trkpt>
<trkpt lat="46.97642" lon="10.3932"><ele>2140</ele></trkpt>
<trkpt lat="46.97638" lon="10.39315"><ele>2140</ele></trkpt>
<trkpt lat="46.97635" lon="10.393"><ele>2140</ele></trkpt>
<trkpt lat="46.97626" lon="10.39192"><ele>2163</ele></trkpt>
<trkpt lat="46.97628" lon="10.39181"><ele>2163</ele></trkpt>
<trkpt lat="46.97633" lon="10.39179"><ele>2163</ele></trkpt>
<trkpt lat="46.97639" lon="10.3918"><ele>2163</ele></trkpt>
<trkpt lat="46.97645" lon="10.39186"><ele>2163</ele></trkpt>
<trkpt lat="46.97659" lon="10.39214"><ele>2163</ele></trkpt>
<trkpt lat="46.97666" lon="10.39221"><ele>2163</ele></trkpt>
<trkpt lat="46.97673" lon="10.3922"><ele>2163</ele></trkpt>
<trkpt lat="46.97673" lon="10.3922"><ele>2166</ele></trkpt>
<trkpt lat="46.97678" lon="10.39214"><ele>2166</ele></trkpt>
<trkpt lat="46.97694" lon="10.39188"><ele>2166</ele></trkpt>
<trkpt lat="46.97699" lon="10.39175"><ele>2166</ele></trkpt>
<trkpt lat="46.977" lon="10.39155"><ele>2179</ele></trkpt>
<trkpt lat="46.97697" lon="10.3911"><ele>2179</ele></trkpt>
<trkpt lat="46.97689" lon="10.39068"><ele>2179</ele></trkpt>
<trkpt lat="46.97678" lon="10.39031"><ele>2179</ele></trkpt>
<trkpt lat="46.97664" lon="10.39002"><ele>2196</ele></trkpt>
<trkpt lat="46.9765" lon="10.38984"><ele>2196</ele></trkpt>
<trkpt lat="46.97643" lon="10.38974"><ele>2196</ele></trkpt>
<trkpt lat="46.97641" lon="10.38963"><ele>2196</ele></trkpt>
<trkpt lat="46.97641" lon="10.38955"><ele>2198</ele></trkpt>
<trkpt lat="46.97645" lon="10.38942"><ele>2198</ele></trkpt>
<trkpt lat="46.97652" lon="10.38932"><ele>2198</ele></trkpt>
<trkpt lat="46.9768" lon="10.38904"><ele>2198</ele></trkpt>
<trkpt lat="46.97686" lon="10.38895"><ele>2212</ele></trkpt>
<trkpt lat="46.97696" lon="10.38871"><ele>2212</ele></trkpt>
<trkpt lat="46.97719" lon="10.38829"><ele>2212</ele></trkpt>
<trkpt lat="46.97735" lon="10.38808"><ele>2212</ele></trkpt>
<trkpt lat="46.97741" lon="10.38795"><ele>2223</ele></trkpt>
<trkpt lat="46.97746" lon="10.38774"><ele>2223</ele></trkpt>
<trkpt lat="46.9775" lon="10.38735"><ele>2223</ele></trkpt>
<trkpt lat="46.97755" lon="10.38718"><ele>2223</ele></trkpt>
<trkpt lat="46.97764" lon="10.38688"><ele>2220</ele></trkpt>
<trkpt lat="46.97783" lon="10.38652"><ele>2220</ele></trkpt>
<trkpt lat="46.97793" lon="10.38626"><ele>2220</ele></trkpt>
<trkpt lat="46.97799" lon="10.38593"><ele>2220</ele></trkpt>
<trkpt lat="46.97803" lon="10.38571"><ele>2225</ele></trkpt>
<trkpt lat="46.97804" lon="10.38549"><ele>2225</ele></trkpt>
<trkpt lat="46.97803" lon="10.38505"><ele>2225</ele></trkpt>
<trkpt lat="46.97805" lon="10.38461"><ele>2225</ele></trkpt>
<trkpt lat="46.97804" lon="10.38447"><ele>2224</ele></trkpt>
<trkpt lat="46.978" lon="10.38438"><ele>2224</ele></trkpt>
<trkpt lat="46.97792" lon="10.38429"><ele>2224</ele></trkpt>
<trkpt lat="46.97772" lon="10.3841"><ele>2224</ele></trkpt>
<trkpt lat="46.97762" lon="10.38394"><ele>2219</ele></trkpt>
<trkpt lat="46.97755" lon="10.38364"><ele>2219</ele></trkpt>
<trkpt lat="46.97755" lon="10.38364"><ele>2219</ele></trkpt>
<trkpt lat="46.97751" lon="10.38348"><ele>2219</ele></trkpt>
<trkpt lat="46.97752" lon="10.38319"><ele>2228</ele></trkpt>
<trkpt lat="46.97759" lon="10.3828"><ele>2228</ele></trkpt>
<trkpt lat="46.97762" lon="10.38258"><ele>2228</ele></trkpt>
<trkpt lat="46.97765" lon="10.38241"><ele>2228</ele></trkpt>
<trkpt lat="46.9777" lon="10.38174"><ele>2235</ele></trkpt>
<trkpt lat="46.97775" lon="10.38108"><ele>2235</ele></trkpt>
<trkpt lat="46.9778" lon="10.38073"><ele>2235</ele></trkpt>
<trkpt lat="46.97793" lon="10.38012"><ele>2235</ele></trkpt>
<trkpt lat="46.97809" lon="10.37937"><ele>2249</ele></trkpt>
<trkpt lat="46.97811" lon="10.37918"><ele>2249</ele></trkpt>
<trkpt lat="46.97811" lon="10.37875"><ele>2249</ele></trkpt>
<trkpt lat="46.97813" lon="10.37842"><ele>2249</ele></trkpt>
<trkpt lat="46.97816" lon="10.37801"><ele>2258</ele></trkpt>
<trkpt lat="46.97815" lon="10.37759"><ele>2258</ele></trkpt>
<trkpt lat="46.97816" lon="10.37723"><ele>2258</ele></trkpt>
<trkpt lat="46.97815" lon="10.37698"><ele>2258</ele></trkpt>
<trkpt lat="46.97806" lon="10.37653"><ele>2257</ele></trkpt>
<trkpt lat="46.97806" lon="10.37639"><ele>2257</ele></trkpt>
<trkpt lat="46.97818" lon="10.37567"><ele>2257</ele></trkpt>
<trkpt lat="46.97828" lon="10.37519"><ele>2257</ele></trkpt>
<trkpt lat="46.97828" lon="10.37519"><ele>2264</ele></trkpt>
<trkpt lat="46.97832" lon="10.37458"><ele>2264</ele></trkpt>
<trkpt lat="46.97834" lon="10.37439"><ele>2264</ele></trkpt>
<trkpt lat="46.97834" lon="10.37404"><ele>2264</ele></trkpt>
<trkpt lat="46.97834" lon="10.37355"><ele>2271</ele></trkpt>
<trkpt lat="46.97835" lon="10.37339"><ele>2271</ele></trkpt>
<trkpt lat="46.9784" lon="10.37313"><ele>2271</ele></trkpt>
<trkpt lat="46.9784" lon="10.37298"><ele>2271</ele></trkpt>
<trkpt lat="46.97834" lon="10.37274"><ele>2276</ele></trkpt>
<trkpt lat="46.97829" lon="10.37264"><ele>2276</ele></trkpt>
<trkpt lat="46.97818" lon="10.37249"><ele>2276</ele></trkpt>
<trkpt lat="46.97809" lon="10.37234"><ele>2276</ele></trkpt>
<trkpt lat="46.97801" lon="10.37214"><ele>2277</ele></trkpt>
<trkpt lat="46.97792" lon="10.37199"><ele>2277</ele></trkpt>
<trkpt lat="46.97775" lon="10.37181"><ele>2277</ele></trkpt>
<trkpt lat="46.9777" lon="10.37176"><ele>2277</ele></trkpt>
<trkpt lat="46.97758" lon="10.37163"><ele>2280</ele></trkpt>
<trkpt lat="46.97751" lon="10.37159"><ele>2280</ele></trkpt>
<trkpt lat="46.97744" lon="10.37158"><ele>2280</ele></trkpt>
<trkpt lat="46.97737" lon="10.37159"><ele>2280</ele></trkpt>
<trkpt lat="46.97727" lon="10.37161"><ele>2282</ele></trkpt>
<trkpt lat="46.9772" lon="10.37167"><ele>2282</ele></trkpt>
<trkpt lat="46.97705" lon="10.37182"><ele>2282</ele></trkpt>
<trkpt lat="46.97687" lon="10.372"><ele>2282</ele></trkpt>
<trkpt lat="46.97661" lon="10.37221"><ele>2283</ele></trkpt>
<trkpt lat="46.97644" lon="10.37237"><ele>2283</ele></trkpt>
<trkpt lat="46.97623" lon="10.3727"><ele>2283</ele></trkpt>
<trkpt lat="46.97605" lon="10.37299"><ele>2283</ele></trkpt>
<trkpt lat="46.976" lon="10.37302"><ele>2293</ele></trkpt>
<trkpt lat="46.97596" lon="10.37298"><ele>2293</ele></trkpt>
<trkpt lat="46.97593" lon="10.3729"><ele>2293</ele></trkpt>
<trkpt lat="46.97589" lon="10.37278"><ele>2293</ele></trkpt>
<trkpt lat="46.97587" lon="10.37264"><ele>2294</ele></trkpt>
<trkpt lat="46.97587" lon="10.37248"><ele>2294</ele></trkpt>
<trkpt lat="46.97585" lon="10.37231"><ele>2294</ele></trkpt>
<trkpt lat="46.97585" lon="10.37231"><ele>2294</ele></trkpt>
<trkpt lat="46.97584" lon="10.37227"><ele>2295</ele></trkpt>
<trkpt lat="46.97584" lon="10.37213"><ele>2295</ele></trkpt>
<trkpt lat="46.97583" lon="10.37196"><ele>2295</ele></trkpt>
<trkpt lat="46.97578" lon="10.37156"><ele>2295</ele></trkpt>
<trkpt lat="46.97576" lon="10.37081"><ele>2312</ele></trkpt>
<trkpt lat="46.97579" lon="10.37063"><ele>2312</ele></trkpt>
<trkpt lat="46.97579" lon="10.37051"><ele>2312</ele></trkpt>
<trkpt lat="46.97577" lon="10.37026"><ele>2312</ele></trkpt>
<trkpt lat="46.97579" lon="10.36988"><ele>2323</ele></trkpt>
<trkpt lat="46.97581" lon="10.36938"><ele>2323</ele></trkpt>
<trkpt lat="46.97585" lon="10.36918"><ele>2323</ele></trkpt>
<trkpt lat="46.97596" lon="10.36863"><ele>2323</ele></trkpt>
<trkpt lat="46.97595" lon="10.36855"><ele>2333</ele></trkpt>
<trkpt lat="46.97592" lon="10.36852"><ele>2333</ele></trkpt>
<trkpt lat="46.97588" lon="10.36852"><ele>2333</ele></trkpt>
<trkpt lat="46.97585" lon="10.36856"><ele>2333</ele></trkpt>
<trkpt lat="46.97575" lon="10.36879"><ele>2337</ele></trkpt>
<trkpt lat="46.97569" lon="10.3689"><ele>2337</ele></trkpt>
<trkpt lat="46.97561" lon="10.36896"><ele>2337</ele></trkpt>
<trkpt lat="46.97548" lon="10.36902"><ele>2337</ele></trkpt>
<trkpt lat="46.97541" lon="10.36907"><ele>2354</ele></trkpt>
<trkpt lat="46.97534" lon="10.36914"><ele>2354</ele></trkpt>
<trkpt lat="46.97529" lon="10.36927"><ele>2354</ele></trkpt>
<trkpt lat="46.97524" lon="10.36926"><ele>2354</ele></trkpt>
<trkpt lat="46.97523" lon="10.36908"><ele>2349</ele></trkpt>
<trkpt lat="46.97526" lon="10.36899"><ele>2349</ele></trkpt>
<trkpt lat="46.97535" lon="10.36882"><ele>2349</ele></trkpt>
<trkpt lat="46.97539" lon="10.36865"><ele>2349</ele></trkpt>
<trkpt lat="46.97542" lon="10.36849"><ele>2359</ele></trkpt>
<trkpt lat="46.97543" lon="10.36837"><ele>2359</ele></trkpt>
<trkpt lat="46.97543" lon="10.36825"><ele>2359</ele></trkpt>
<trkpt lat="46.9754" lon="10.36811"><ele>2359</ele></trkpt>
<trkpt lat="46.97525" lon="10.36767"><ele>2369</ele></trkpt>
<trkpt lat="46.97521" lon="10.36749"><ele>2369</ele></trkpt>
<trkpt lat="46.97521" lon="10.36735"><ele>2369</ele></trkpt>
<trkpt lat="46.97522" lon="10.36717"><ele>2369</ele></trkpt>
<trkpt lat="46.97526" lon="10.36708"><ele>2377</ele></trkpt>
<trkpt lat="46.97538" lon="10.36683"><ele>2377</ele></trkpt>
<trkpt lat="46.97541" lon="10.36673"><ele>2377</ele></trkpt>
<trkpt lat="46.97542" lon="10.36664"><ele>2377</ele></trkpt>
<trkpt lat="46.97541" lon="10.36647"><ele>2385</ele></trkpt>
<trkpt lat="46.97542" lon="10.36639"><ele>2385</ele></trkpt>
<trkpt lat="46.97544" lon="10.36628"><ele>2385</ele></trkpt>
<trkpt lat="46.97545" lon="10.36619"><ele>2385</ele></trkpt>
<trkpt lat="46.97544" lon="10.36609"><ele>2384</ele></trkpt>
<trkpt lat="46.97537" lon="10.36579"><ele>2384</ele></trkpt>
<trkpt lat="46.97531" lon="10.3656"><ele>2384</ele></trkpt>
<trkpt lat="46.97522" lon="10.36549"><ele>2384</ele></trkpt>
<trkpt lat="46.97511" lon="10.36544"><ele>2405</ele></trkpt>
<trkpt lat="46.97505" lon="10.36544"><ele>2405</ele></trkpt>
<trkpt lat="46.97501" lon="10.36539"><ele>2405</ele></trkpt>
<trkpt lat="46.97501" lon="10.36529"><ele>2405</ele></trkpt>
<trkpt lat="46.97501" lon="10.36517"><ele>2409</ele></trkpt>
<trkpt lat="46.97506" lon="10.36495"><ele>2409</ele></trkpt>
<trkpt lat="46.97514" lon="10.36472"><ele>2409</ele></trkpt>
<trkpt lat="46.97519" lon="10.36459"><ele>2409</ele></trkpt>
<trkpt lat="46.97527" lon="10.36439"><ele>2412</ele></trkpt>
<trkpt lat="46.97538" lon="10.36428"><ele>2412</ele></trkpt>
<trkpt lat="46.97547" lon="10.36415"><ele>2412</ele></trkpt>
<trkpt lat="46.9755" lon="10.36408"><ele>2412</ele></trkpt>
<trkpt lat="46.97541" lon="10.36403"><ele>2418</ele></trkpt>
<trkpt lat="46.97531" lon="10.36412"><ele>2418</ele></trkpt>
<trkpt lat="46.97514" lon="10.36422"><ele>2418</ele></trkpt>
<trkpt lat="46.97485" lon="10.36422"><ele>2418</ele></trkpt>
<trkpt lat="46.97475" lon="10.3642"><ele>2426</ele></trkpt>
<trkpt lat="46.97461" lon="10.36412"><ele>2426</ele></trkpt>
<trkpt lat="46.97447" lon="10.36415"><ele>2426</ele></trkpt>
<trkpt lat="46.97433" lon="10.36421"><ele>2426</ele></trkpt>
<trkpt lat="46.97423" lon="10.36428"><ele>2426</ele></trkpt>
<trkpt lat="46.97407" lon="10.36445"><ele>2426</ele></trkpt>
<trkpt lat="46.974" lon="10.36452"><ele>2426</ele></trkpt>
<trkpt lat="46.97393" lon="10.36452"><ele>2426</ele></trkpt>
<trkpt lat="46.97384" lon="10.36449"><ele>2435</ele></trkpt>
<trkpt lat="46.97375" lon="10.36445"><ele>2435</ele></trkpt>
<trkpt lat="46.97368" lon="10.36445"><ele>2435</ele></trkpt>
<trkpt lat="46.97363" lon="10.36449"><ele>2435</ele></trkpt>
<trkpt lat="46.97362" lon="10.36461"><ele>2440</ele></trkpt>
<trkpt lat="46.97364" lon="10.36475"><ele>2440</ele></trkpt>
<trkpt lat="46.97374" lon="10.36494"><ele>2440</ele></trkpt>
<trkpt lat="46.97377" lon="10.36504"><ele>2440</ele></trkpt>
<trkpt lat="46.97377" lon="10.36513"><ele>2439</ele></trkpt>
<trkpt lat="46.97374" lon="10.36523"><ele>2439</ele></trkpt>
<trkpt lat="46.97368" lon="10.3653"><ele>2439</ele></trkpt>
<trkpt lat="46.97359" lon="10.36534"><ele>2439</ele></trkpt>
<trkpt lat="46.97346" lon="10.36536"><ele>2442</ele></trkpt>
<trkpt lat="46.97338" lon="10.36532"><ele>2442</ele></trkpt>
<trkpt lat="46.97314" lon="10.36519"><ele>2442</ele></trkpt>
<trkpt lat="46.97307" lon="10.36519"><ele>2442</ele></trkpt>
<trkpt lat="46.97287" lon="10.36523"><ele>2454</ele></trkpt>
<trkpt lat="46.9728" lon="10.36523"><ele>2454</ele></trkpt>
<trkpt lat="46.97258" lon="10.36513"><ele>2454</ele></trkpt>
<trkpt lat="46.97247" lon="10.36515"><ele>2454</ele></trkpt>
<trkpt lat="46.97234" lon="10.36525"><ele>2457</ele></trkpt>
<trkpt lat="46.97227" lon="10.36534"><ele>2457</ele></trkpt>
<trkpt lat="46.97222" lon="10.36536"><ele>2457</ele></trkpt>
<trkpt lat="46.97204" lon="10.36534"><ele>2457</ele></trkpt>
<trkpt lat="46.97196" lon="10.36537"><ele>2463</ele></trkpt>
<trkpt lat="46.97187" lon="10.36548"><ele>2463</ele></trkpt>
<trkpt lat="46.97163" lon="10.36584"><ele>2463</ele></trkpt>
<trkpt lat="46.97137" lon="10.36626"><ele>2463</ele></trkpt>
<trkpt lat="46.9713" lon="10.36635"><ele>2479</ele></trkpt>
<trkpt lat="46.97091" lon="10.36683"><ele>2479</ele></trkpt>
<trkpt lat="46.97077" lon="10.36708"><ele>2479</ele></trkpt>
<trkpt lat="46.97072" lon="10.36717"><ele>2479</ele></trkpt>
<trkpt lat="46.97064" lon="10.36724"><ele>2489</ele></trkpt>
<trkpt lat="46.97057" lon="10.36727"><ele>2489</ele></trkpt>
<trkpt lat="46.97048" lon="10.36725"><ele>2489</ele></trkpt>
<trkpt lat="46.97038" lon="10.36722"><ele>2489</ele></trkpt>
<trkpt lat="46.97027" lon="10.36715"><ele>2498</ele></trkpt>
<trkpt lat="46.97027" lon="10.36715"><ele>2498</ele></trkpt>
<trkpt lat="46.97038" lon="10.36722"><ele>2498</ele></trkpt>
<trkpt lat="46.97048" lon="10.36725"><ele>2498</ele></trkpt>
<trkpt lat="46.97057" lon="10.36727"><ele>2488</ele></trkpt>
<trkpt lat="46.97064" lon="10.36724"><ele>2488</ele></trkpt>
<trkpt lat="46.97072" lon="10.36717"><ele>2488</ele></trkpt>
<trkpt lat="46.97077" lon="10.36708"><ele>2488</ele></trkpt>
<trkpt lat="46.97091" lon="10.36683"><ele>2479</ele></trkpt>
<trkpt lat="46.9713" lon="10.36635"><ele>2479</ele></trkpt>
<trkpt lat="46.97128" lon="10.36625"><ele>2479</ele></trkpt>
<trkpt lat="46.97128" lon="10.36611"><ele>2479</ele></trkpt>
<trkpt lat="46.97128" lon="10.36611"><ele>2479</ele></trkpt>
<trkpt lat="46.97127" lon="10.36585"><ele>2479</ele></trkpt>
<trkpt lat="46.97132" lon="10.36514"><ele>2479</ele></trkpt>
<trkpt lat="46.97143" lon="10.3645"><ele>2479</ele></trkpt>
<trkpt lat="46.97147" lon="10.36398"><ele>2491</ele></trkpt>
<trkpt lat="46.97157" lon="10.36328"><ele>2491</ele></trkpt>
<trkpt lat="46.97159" lon="10.36319"><ele>2491</ele></trkpt>
<trkpt lat="46.9716" lon="10.36295"><ele>2491</ele></trkpt>
<trkpt lat="46.97164" lon="10.36276"><ele>2497</ele></trkpt>
<trkpt lat="46.97174" lon="10.36244"><ele>2497</ele></trkpt>
<trkpt lat="46.97182" lon="10.36206"><ele>2497</ele></trkpt>
<trkpt lat="46.97199" lon="10.36158"><ele>2497</ele></trkpt>
<trkpt lat="46.97209" lon="10.36135"><ele>2502</ele></trkpt>
<trkpt lat="46.97213" lon="10.36119"><ele>2502</ele></trkpt>
<trkpt lat="46.97219" lon="10.3609"><ele>2502</ele></trkpt>
<trkpt lat="46.97228" lon="10.36055"><ele>2502</ele></trkpt>
<trkpt lat="46.97237" lon="10.36026"><ele>2500</ele></trkpt>
<trkpt lat="46.97249" lon="10.35956"><ele>2500</ele></trkpt>
<trkpt lat="46.97257" lon="10.3592"><ele>2500</ele></trkpt>
<trkpt lat="46.97259" lon="10.35898"><ele>2500</ele></trkpt>
<trkpt lat="46.97258" lon="10.35873"><ele>2490</ele></trkpt>
<trkpt lat="46.97253" lon="10.35839"><ele>2490</ele></trkpt>
<trkpt lat="46.97253" lon="10.35819"><ele>2490</ele></trkpt>
<trkpt lat="46.9725" lon="10.35807"><ele>2490</ele></trkpt>
<trkpt lat="46.97245" lon="10.35795"><ele>2472</ele></trkpt>
<trkpt lat="46.97239" lon="10.35782"><ele>2472</ele></trkpt>
<trkpt lat="46.97231" lon="10.35744"><ele>2472</ele></trkpt>
<trkpt lat="46.97225" lon="10.3573"><ele>2472</ele></trkpt>
<trkpt lat="46.97217" lon="10.35716"><ele>2467</ele></trkpt>
<trkpt lat="46.97209" lon="10.3571"><ele>2467</ele></trkpt>
<trkpt lat="46.972" lon="10.35707"><ele>2467</ele></trkpt>
<trkpt lat="46.97174" lon="10.35697"><ele>2467</ele></trkpt>
<trkpt lat="46.97136" lon="10.35673"><ele>2447</ele></trkpt>
<trkpt lat="46.97093" lon="10.35642"><ele>2447</ele></trkpt>
<trkpt lat="46.97072" lon="10.35624"><ele>2447</ele></trkpt>
<trkpt lat="46.97066" lon="10.35615"><ele>2447</ele></trkpt>
<trkpt lat="46.97063" lon="10.35601"><ele>2442</ele></trkpt>
<trkpt lat="46.97059" lon="10.35574"><ele>2442</ele></trkpt>
<trkpt lat="46.97055" lon="10.35558"><ele>2442</ele></trkpt>
<trkpt lat="46.97051" lon="10.35546"><ele>2442</ele></trkpt>
<trkpt lat="46.97034" lon="10.35513"><ele>2446</ele></trkpt>
<trkpt lat="46.97029" lon="10.35505"><ele>2446</ele></trkpt>
<trkpt lat="46.97002" lon="10.35474"><ele>2446</ele></trkpt>
<trkpt lat="46.96988" lon="10.35454"><ele>2446</ele></trkpt>
<trkpt lat="46.96983" lon="10.35441"><ele>2444</ele></trkpt>
<trkpt lat="46.96974" lon="10.35394"><ele>2444</ele></trkpt>
<trkpt lat="46.96972" lon="10.3537"><ele>2444</ele></trkpt>
<trkpt lat="46.96973" lon="10.35355"><ele>2444</ele></trkpt>
<trkpt lat="46.96972" lon="10.35338"><ele>2449</ele></trkpt>
<trkpt lat="46.9697" lon="10.35324"><ele>2449</ele></trkpt>
<trkpt lat="46.96963" lon="10.35293"><ele>2449</ele></trkpt>
<trkpt lat="46.96961" lon="10.35272"><ele>2449</ele></trkpt>
<trkpt lat="46.96962" lon="10.35253"><ele>2449</ele></trkpt>
<trkpt lat="46.96966" lon="10.35247"><ele>2449</ele></trkpt>
<trkpt lat="46.96976" lon="10.35242"><ele>2449</ele></trkpt>
<trkpt lat="46.96982" lon="10.35239"><ele>2449</ele></trkpt>
<trkpt lat="46.96986" lon="10.35232"><ele>2452</ele></trkpt>
<trkpt lat="46.96995" lon="10.35194"><ele>2452</ele></trkpt>
<trkpt lat="46.97" lon="10.35164"><ele>2452</ele></trkpt>
<trkpt lat="46.97001" lon="10.3514"><ele>2452</ele></trkpt>
<trkpt lat="46.97002" lon="10.35125"><ele>2460</ele></trkpt>
<trkpt lat="46.97002" lon="10.35125"><ele>2460</ele></trkpt>
<trkpt lat="46.97008" lon="10.35096"><ele>2460</ele></trkpt>
<trkpt lat="46.97014" lon="10.35069"><ele>2460</ele></trkpt>
<trkpt lat="46.97014" lon="10.35065"><ele>2468</ele></trkpt>
<trkpt lat="46.97014" lon="10.35065"><ele>2468</ele></trkpt>
<trkpt lat="46.97015" lon="10.3505"><ele>2468</ele></trkpt>
<trkpt lat="46.97016" lon="10.3503"><ele>2468</ele></trkpt>
<trkpt lat="46.9702" lon="10.35013"><ele>2470</ele></trkpt>
<trkpt lat="46.97027" lon="10.34991"><ele>2470</ele></trkpt>
<trkpt lat="46.97029" lon="10.34981"><ele>2470</ele></trkpt>
<trkpt lat="46.97029" lon="10.34981"><ele>2470</ele></trkpt>
<trkpt lat="46.97033" lon="10.34962"><ele>2481</ele></trkpt>
<trkpt lat="46.97039" lon="10.34933"><ele>2481</ele></trkpt>
<trkpt lat="46.97039" lon="10.34933"><ele>2481</ele></trkpt>
<trkpt lat="46.97039" lon="10.34933"><ele>2481</ele></trkpt>
<trkpt lat="46.97049" lon="10.34902"><ele>2482</ele></trkpt>
<trkpt lat="46.97049" lon="10.34902"><ele>2482</ele></trkpt>
<trkpt lat="46.97038" lon="10.34892"><ele>2482</ele></trkpt>
<trkpt lat="46.97038" lon="10.34892"><ele>2482</ele></trkpt>
<trkpt lat="46.97019" lon="10.3492"><ele>2474</ele></trkpt>
<trkpt lat="46.96999" lon="10.34948"><ele>2474</ele></trkpt>
<trkpt lat="46.96998" lon="10.34948"><ele>2474</ele></trkpt>
<trkpt lat="46.96998" lon="10.34948"><ele>2474</ele></trkpt>
<trkpt lat="46.96972" lon="10.34958"><ele>2474</ele></trkpt>
<trkpt lat="46.96946" lon="10.34967"><ele>2474</ele></trkpt>
<trkpt lat="46.96933" lon="10.34972"><ele>2474</ele></trkpt>
<trkpt lat="46.96933" lon="10.34972"><ele>2474</ele></trkpt>
<trkpt lat="46.96933" lon="10.34972"><ele>2479</ele></trkpt>
<trkpt lat="46.96934" lon="10.34972"><ele>2479</ele></trkpt>
<trkpt lat="46.96934" lon="10.34972"><ele>2479</ele></trkpt>
<trkpt lat="46.96933" lon="10.34972"><ele>2479</ele></trkpt>
<trkpt lat="46.96912" lon="10.34983"><ele>2474</ele></trkpt>
<trkpt lat="46.96912" lon="10.34983"><ele>2474</ele></trkpt>
<trkpt lat="46.96901" lon="10.35008"><ele>2474</ele></trkpt>
<trkpt lat="46.96901" lon="10.35008"><ele>2474</ele></trkpt>
<trkpt lat="46.96874" lon="10.35017"><ele>2472</ele></trkpt>
<trkpt lat="46.96871" lon="10.35018"><ele>2472</ele></trkpt>
<trkpt lat="46.96871" lon="10.35018"><ele>2472</ele></trkpt>
<trkpt lat="46.96846" lon="10.35005"><ele>2472</ele></trkpt>
<trkpt lat="46.9682" lon="10.34991"><ele>2482</ele></trkpt>
<trkpt lat="46.9682" lon="10.34991"><ele>2482</ele></trkpt>
<trkpt lat="46.9682" lon="10.34991"><ele>2482</ele></trkpt>
<trkpt lat="46.96793" lon="10.34981"><ele>2482</ele></trkpt>
<trkpt lat="46.96774" lon="10.34975"><ele>2496</ele></trkpt>
<trkpt lat="46.96774" lon="10.34975"><ele>2496</ele></trkpt>
<trkpt lat="46.96784" lon="10.34956"><ele>2496</ele></trkpt>
<trkpt lat="46.96784" lon="10.34956"><ele>2496</ele></trkpt>
<trkpt lat="46.96772" lon="10.34946"><ele>2504</ele></trkpt>
<trkpt lat="46.96772" lon="10.34946"><ele>2504</ele></trkpt>
<trkpt lat="46.9676" lon="10.3497"><ele>2504</ele></trkpt>
<trkpt lat="46.9676" lon="10.3497"><ele>2504</ele></trkpt>
<trkpt lat="46.9676" lon="10.34971"><ele>2504</ele></trkpt>
<trkpt lat="46.9676" lon="10.34971"><ele>2504</ele></trkpt>
<trkpt lat="46.96752" lon="10.35009"><ele>2504</ele></trkpt>
<trkpt lat="46.96744" lon="10.35047"><ele>2504</ele></trkpt>
<trkpt lat="46.96741" lon="10.35058"><ele>2485</ele></trkpt>
<trkpt lat="46.96741" lon="10.35058"><ele>2485</ele></trkpt>
<trkpt lat="46.96725" lon="10.35064"><ele>2485</ele></trkpt>
<trkpt lat="46.96725" lon="10.35064"><ele>2485</ele></trkpt>
<trkpt lat="46.9671" lon="10.35032"><ele>2511</ele></trkpt>
<trkpt lat="46.96708" lon="10.35028"><ele>2511</ele></trkpt>
<trkpt lat="46.96708" lon="10.35028"><ele>2511</ele></trkpt>
<trkpt lat="46.96701" lon="10.35031"><ele>2511</ele></trkpt>
<trkpt lat="46.96701" lon="10.35031"><ele>2511</ele></trkpt>
<trkpt lat="46.96692" lon="10.35019"><ele>2511</ele></trkpt>
<trkpt lat="46.96692" lon="10.35019"><ele>2511</ele></trkpt>
<trkpt lat="46.96681" lon="10.34983"><ele>2511</ele></trkpt>
<trkpt lat="46.96677" lon="10.3497"><ele>2522</ele></trkpt>
<trkpt lat="46.96677" lon="10.3497"><ele>2522</ele></trkpt>
<trkpt lat="46.96669" lon="10.34932"><ele>2522</ele></trkpt>
<trkpt lat="46.96662" lon="10.34894"><ele>2522</ele></trkpt>
<trkpt lat="46.96659" lon="10.34875"><ele>2532</ele></trkpt>
<trkpt lat="46.96659" lon="10.34875"><ele>2532</ele></trkpt>
<trkpt lat="46.9666" lon="10.34882"><ele>2532</ele></trkpt>
<trkpt lat="46.96624" lon="10.34895"><ele>2532</ele></trkpt>
<trkpt lat="46.96589" lon="10.34886"><ele>2540</ele></trkpt>
<trkpt lat="46.96581" lon="10.34889"><ele>2540</ele></trkpt>
<trkpt lat="46.96573" lon="10.34872"><ele>2540</ele></trkpt>
<trkpt lat="46.96565" lon="10.3485"><ele>2540</ele></trkpt>
<trkpt lat="46.9656" lon="10.3483"><ele>2539</ele></trkpt>
<trkpt lat="46.96555" lon="10.34822"><ele>2539</ele></trkpt>
<trkpt lat="46.96546" lon="10.34797"><ele>2539</ele></trkpt>
<trkpt lat="46.96536" lon="10.34793"><ele>2539</ele></trkpt>
<trkpt lat="46.96532" lon="10.34786"><ele>2540</ele></trkpt>
<trkpt lat="46.96524" lon="10.34775"><ele>2540</ele></trkpt>
<trkpt lat="46.9652" lon="10.34756"><ele>2540</ele></trkpt>
<trkpt lat="46.96517" lon="10.3474"><ele>2540</ele></trkpt>
<trkpt lat="46.96514" lon="10.34723"><ele>2549</ele></trkpt>
<trkpt lat="46.96511" lon="10.34713"><ele>2549</ele></trkpt>
<trkpt lat="46.96511" lon="10.34709"><ele>2549</ele></trkpt>
<trkpt lat="46.96511" lon="10.34709"><ele>2549</ele></trkpt>
<trkpt lat="46.96512" lon="10.34709"><ele>2538</ele></trkpt>
<trkpt lat="46.96514" lon="10.3467"><ele>2538</ele></trkpt>
<trkpt lat="46.96515" lon="10.34641"><ele>2538</ele></trkpt>
<trkpt lat="46.96515" lon="10.34641"><ele>2538</ele></trkpt>
<trkpt lat="46.96514" lon="10.34604"><ele>2554</ele></trkpt>
<trkpt lat="46.96514" lon="10.34604"><ele>2554</ele></trkpt>
<trkpt lat="46.96516" lon="10.34566"><ele>2554</ele></trkpt>
<trkpt lat="46.96516" lon="10.34566"><ele>2554</ele></trkpt>
<trkpt lat="46.96516" lon="10.34566"><ele>2555</ele></trkpt>
<trkpt lat="46.96516" lon="10.34562"><ele>2555</ele></trkpt>
<trkpt lat="46.96514" lon="10.34534"><ele>2555</ele></trkpt>
<trkpt lat="46.96511" lon="10.3452"><ele>2555</ele></trkpt>
<trkpt lat="46.96506" lon="10.34483"><ele>2552</ele></trkpt>
<trkpt lat="46.96502" lon="10.34459"><ele>2552</ele></trkpt>
<trkpt lat="46.96502" lon="10.34451"><ele>2552</ele></trkpt>
<trkpt lat="46.965" lon="10.34442"><ele>2552</ele></trkpt>
<trkpt lat="46.96495" lon="10.34428"><ele>2557</ele></trkpt>
<trkpt lat="46.9649" lon="10.34407"><ele>2557</ele></trkpt>
<trkpt lat="46.96489" lon="10.34385"><ele>2557</ele></trkpt>
<trkpt lat="46.96474" lon="10.34341"><ele>2557</ele></trkpt>
<trkpt lat="46.96472" lon="10.34331"><ele>2550</ele></trkpt>
<trkpt lat="46.96469" lon="10.34324"><ele>2550</ele></trkpt>
<trkpt lat="46.96469" lon="10.34312"><ele>2550</ele></trkpt>
<trkpt lat="46.96466" lon="10.34298"><ele>2550</ele></trkpt>
<trkpt lat="46.96465" lon="10.34286"><ele>2554</ele></trkpt>
<trkpt lat="46.96464" lon="10.34276"><ele>2554</ele></trkpt>
<trkpt lat="46.96464" lon="10.3427"><ele>2554</ele></trkpt>
<trkpt lat="46.96465" lon="10.34263"><ele>2554</ele></trkpt>
<trkpt lat="46.96464" lon="10.34254"><ele>2562</ele></trkpt>
<trkpt lat="46.96459" lon="10.3424"><ele>2562</ele></trkpt>
<trkpt lat="46.96458" lon="10.34233"><ele>2562</ele></trkpt>
<trkpt lat="46.96457" lon="10.34217"><ele>2562</ele></trkpt>
<trkpt lat="46.96456" lon="10.34212"><ele>2565</ele></trkpt>
<trkpt lat="46.96453" lon="10.34205"><ele>2565</ele></trkpt>
<trkpt lat="46.96451" lon="10.34196"><ele>2565</ele></trkpt>
<trkpt lat="46.96449" lon="10.3419"><ele>2565</ele></trkpt>
<trkpt lat="46.96445" lon="10.34182"><ele>2560</ele></trkpt>
<trkpt lat="46.96443" lon="10.34174"><ele>2560</ele></trkpt>
<trkpt lat="46.96443" lon="10.34174"><ele>2560</ele></trkpt>
<trkpt lat="46.96443" lon="10.34172"><ele>2560</ele></trkpt>
<trkpt lat="46.9644" lon="10.34154"><ele>2563</ele></trkpt>
<trkpt lat="46.96435" lon="10.34131"><ele>2563</ele></trkpt>
<trkpt lat="46.96431" lon="10.34085"><ele>2563</ele></trkpt>
<trkpt lat="46.96426" lon="10.34057"><ele>2563</ele></trkpt>
<trkpt lat="46.96424" lon="10.34045"><ele>2564</ele></trkpt>
<trkpt lat="46.96419" lon="10.34043"><ele>2564</ele></trkpt>
<trkpt lat="46.96415" lon="10.34041"><ele>2564</ele></trkpt>
<trkpt lat="46.9641" lon="10.34038"><ele>2564</ele></trkpt>
<trkpt lat="46.96407" lon="10.34035"><ele>2561</ele></trkpt>
<trkpt lat="46.96406" lon="10.34023"><ele>2561</ele></trkpt>
<trkpt lat="46.96403" lon="10.34013"><ele>2561</ele></trkpt>
<trkpt lat="46.964" lon="10.34002"><ele>2561</ele></trkpt>
<trkpt lat="46.96398" lon="10.33994"><ele>2566</ele></trkpt>
<trkpt lat="46.96397" lon="10.33986"><ele>2566</ele></trkpt>
<trkpt lat="46.96397" lon="10.3398"><ele>2566</ele></trkpt>
<trkpt lat="46.96394" lon="10.33971"><ele>2566</ele></trkpt>
<trkpt lat="46.96391" lon="10.3396"><ele>2570</ele></trkpt>
<trkpt lat="46.96392" lon="10.33951"><ele>2570</ele></trkpt>
<trkpt lat="46.9639" lon="10.33943"><ele>2570</ele></trkpt>
<trkpt lat="46.96383" lon="10.33921"><ele>2570</ele></trkpt>
<trkpt lat="46.96373" lon="10.33897"><ele>2569</ele></trkpt>
<trkpt lat="46.96369" lon="10.3388"><ele>2569</ele></trkpt>
<trkpt lat="46.96367" lon="10.33869"><ele>2569</ele></trkpt>
<trkpt lat="46.96366" lon="10.33849"><ele>2569</ele></trkpt>
<trkpt lat="46.96364" lon="10.3384"><ele>2570</ele></trkpt>
<trkpt lat="46.9636" lon="10.33836"><ele>2570</ele></trkpt>
<trkpt lat="46.96356" lon="10.33826"><ele>2570</ele></trkpt>
<trkpt lat="46.96355" lon="10.33821"><ele>2570</ele></trkpt>
<trkpt lat="46.96349" lon="10.33813"><ele>2574</ele></trkpt>
<trkpt lat="46.96341" lon="10.33802"><ele>2574</ele></trkpt>
<trkpt lat="46.96339" lon="10.33799"><ele>2574</ele></trkpt>
<trkpt lat="46.96339" lon="10.33799"><ele>2574</ele></trkpt>
<trkpt lat="46.96335" lon="10.33793"><ele>2573</ele></trkpt>
<trkpt lat="46.96329" lon="10.33783"><ele>2573</ele></trkpt>
<trkpt lat="46.96326" lon="10.33773"><ele>2573</ele></trkpt>
<trkpt lat="46.96322" lon="10.33761"><ele>2573</ele></trkpt>
<trkpt lat="46.96321" lon="10.33758"><ele>2569</ele></trkpt>
<trkpt lat="46.96319" lon="10.33754"><ele>2569</ele></trkpt>
<trkpt lat="46.96319" lon="10.33746"><ele>2569</ele></trkpt>
<trkpt lat="46.96317" lon="10.33742"><ele>2569</ele></trkpt>
<trkpt lat="46.96316" lon="10.33732"><ele>2571</ele></trkpt>
<trkpt lat="46.96308" lon="10.3369"><ele>2571</ele></trkpt>
<trkpt lat="46.96308" lon="10.3368"><ele>2571</ele></trkpt>
<trkpt lat="46.96306" lon="10.33662"><ele>2571</ele></trkpt>
<trkpt lat="46.96302" lon="10.33646"><ele>2573</ele></trkpt>
<trkpt lat="46.963" lon="10.33643"><ele>2573</ele></trkpt>
<trkpt lat="46.96299" lon="10.33638"><ele>2573</ele></trkpt>
<trkpt lat="46.963" lon="10.3363"><ele>2573</ele></trkpt>
<trkpt lat="46.96298" lon="10.3362"><ele>2577</ele></trkpt>
<trkpt lat="46.96293" lon="10.33602"><ele>2577</ele></trkpt>
<trkpt lat="46.96287" lon="10.33596"><ele>2577</ele></trkpt>
<trkpt lat="46.96282" lon="10.33583"><ele>2577</ele></trkpt>
<trkpt lat="46.96278" lon="10.33571"><ele>2578</ele></trkpt>
<trkpt lat="46.96274" lon="10.33564"><ele>2578</ele></trkpt>
<trkpt lat="46.9627" lon="10.33562"><ele>2578</ele></trkpt>
<trkpt lat="46.96264" lon="10.33555"><ele>2578</ele></trkpt>
<trkpt lat="46.96262" lon="10.33557"><ele>2581</ele></trkpt>
<trkpt lat="46.96257" lon="10.33558"><ele>2581</ele></trkpt>
<trkpt lat="46.9625" lon="10.33557"><ele>2581</ele></trkpt>
<trkpt lat="46.96246" lon="10.33554"><ele>2581</ele></trkpt>
<trkpt lat="46.96239" lon="10.33541"><ele>2579</ele></trkpt>
<trkpt lat="46.96232" lon="10.33527"><ele>2579</ele></trkpt>
<trkpt lat="46.96227" lon="10.33522"><ele>2579</ele></trkpt>
<trkpt lat="46.96225" lon="10.33517"><ele>2579</ele></trkpt>
<trkpt lat="46.96224" lon="10.33512"><ele>2581</ele></trkpt>
<trkpt lat="46.96221" lon="10.3351"><ele>2581</ele></trkpt>
<trkpt lat="46.96216" lon="10.33508"><ele>2581</ele></trkpt>
<trkpt lat="46.9621" lon="10.33508"><ele>2581</ele></trkpt>
<trkpt lat="46.96202" lon="10.3351"><ele>2580</ele></trkpt>
<trkpt lat="46.96194" lon="10.33507"><ele>2580</ele></trkpt>
<trkpt lat="46.96191" lon="10.33501"><ele>2580</ele></trkpt>
<trkpt lat="46.96183" lon="10.33492"><ele>2580</ele></trkpt>
<trkpt lat="46.96177" lon="10.33485"><ele>2582</ele></trkpt>
<trkpt lat="46.96168" lon="10.33466"><ele>2582</ele></trkpt>
<trkpt lat="46.96163" lon="10.33461"><ele>2582</ele></trkpt>
<trkpt lat="46.96149" lon="10.33449"><ele>2582</ele></trkpt>
<trkpt lat="46.96134" lon="10.33427"><ele>2582</ele></trkpt>
<trkpt lat="46.96125" lon="10.334"><ele>2582</ele></trkpt>
<trkpt lat="46.9612" lon="10.33386"><ele>2582</ele></trkpt>
<trkpt lat="46.9611" lon="10.33375"><ele>2582</ele></trkpt>
<trkpt lat="46.9611" lon="10.33375"><ele>2587</ele></trkpt>
<trkpt lat="46.96109" lon="10.33372"><ele>2587</ele></trkpt>
<trkpt lat="46.96102" lon="10.33361"><ele>2587</ele></trkpt>
<trkpt lat="46.96094" lon="10.33351"><ele>2587</ele></trkpt>
<trkpt lat="46.96083" lon="10.33338"><ele>2589</ele></trkpt>
<trkpt lat="46.96073" lon="10.3333"><ele>2589</ele></trkpt>
<trkpt lat="46.96063" lon="10.33324"><ele>2589</ele></trkpt>
<trkpt lat="46.96038" lon="10.33319"><ele>2589</ele></trkpt>
<trkpt lat="46.96007" lon="10.33308"><ele>2594</ele></trkpt>
<trkpt lat="46.95999" lon="10.33301"><ele>2594</ele></trkpt>
<trkpt lat="46.95995" lon="10.33302"><ele>2594</ele></trkpt>
<trkpt lat="46.95988" lon="10.33299"><ele>2594</ele></trkpt>
<trkpt lat="46.95981" lon="10.33297"><ele>2597</ele></trkpt>
<trkpt lat="46.95977" lon="10.33295"><ele>2597</ele></trkpt>
<trkpt lat="46.95963" lon="10.33286"><ele>2597</ele></trkpt>
<trkpt lat="46.95959" lon="10.33281"><ele>2597</ele></trkpt>
<trkpt lat="46.95959" lon="10.33281"><ele>2601</ele></trkpt>
<trkpt lat="46.95959" lon="10.3328"><ele>2601</ele></trkpt>
<trkpt lat="46.95953" lon="10.33278"><ele>2601</ele></trkpt>
<trkpt lat="46.9594" lon="10.33273"><ele>2601</ele></trkpt>
<trkpt lat="46.95928" lon="10.33262"><ele>2601</ele></trkpt>
<trkpt lat="46.95923" lon="10.33259"><ele>2601</ele></trkpt>
<trkpt lat="46.95912" lon="10.33249"><ele>2601</ele></trkpt>
<trkpt lat="46.95902" lon="10.33242"><ele>2601</ele></trkpt>
<trkpt lat="46.95895" lon="10.33244"><ele>2602</ele></trkpt>
<trkpt lat="46.95889" lon="10.33245"><ele>2602</ele></trkpt>
<trkpt lat="46.95879" lon="10.33242"><ele>2602</ele></trkpt>
<trkpt lat="46.95873" lon="10.33236"><ele>2602</ele></trkpt>
<trkpt lat="46.95868" lon="10.33225"><ele>2608</ele></trkpt>
<trkpt lat="46.95862" lon="10.33214"><ele>2608</ele></trkpt>
<trkpt lat="46.95857" lon="10.33195"><ele>2608</ele></trkpt>
<trkpt lat="46.95853" lon="10.33191"><ele>2608</ele></trkpt>
<trkpt lat="46.95847" lon="10.33191"><ele>2614</ele></trkpt>
<trkpt lat="46.95839" lon="10.33184"><ele>2614</ele></trkpt>
<trkpt lat="46.95828" lon="10.3317"><ele>2614</ele></trkpt>
<trkpt lat="46.95826" lon="10.33161"><ele>2614</ele></trkpt>
<trkpt lat="46.95822" lon="10.33156"><ele>2618</ele></trkpt>
<trkpt lat="46.9581" lon="10.33149"><ele>2618</ele></trkpt>
<trkpt lat="46.95807" lon="10.33133"><ele>2618</ele></trkpt>
<trkpt lat="46.95804" lon="10.3313"><ele>2618</ele></trkpt>
<trkpt lat="46.95804" lon="10.33128"><ele>2625</ele></trkpt>
<trkpt lat="46.95804" lon="10.33128"><ele>2625</ele></trkpt>
<trkpt lat="46.95804" lon="10.3313"><ele>2625</ele></trkpt>
<trkpt lat="46.95786" lon="10.33104"><ele>2625</ele></trkpt>
<trkpt lat="46.95786" lon="10.33104"><ele>2633</ele></trkpt>
<trkpt lat="46.958" lon="10.331"><ele>2633</ele></trkpt>
<trkpt lat="46.958" lon="10.331"><ele>2633</ele></trkpt>
<trkpt lat="46.95775" lon="10.33087"><ele>2633</ele></trkpt>
<trkpt lat="46.9576" lon="10.33079"><ele>2633</ele></trkpt>
<trkpt lat="46.9576" lon="10.33079"><ele>2633</ele></trkpt>
<trkpt lat="46.9574" lon="10.331"><ele>2633</ele></trkpt>
<trkpt lat="46.9574" lon="10.331"><ele>2633</ele></trkpt>
<trkpt lat="46.95727" lon="10.331"><ele>2637</ele></trkpt>
<trkpt lat="46.95727" lon="10.331"><ele>2637</ele></trkpt>
<trkpt lat="46.95716" lon="10.33062"><ele>2637</ele></trkpt>
<trkpt lat="46.95716" lon="10.33061"><ele>2637</ele></trkpt>
<trkpt lat="46.95716" lon="10.33061"><ele>2639</ele></trkpt>
<trkpt lat="46.95722" lon="10.33039"><ele>2639</ele></trkpt>
<trkpt lat="46.95722" lon="10.33039"><ele>2639</ele></trkpt>
<trkpt lat="46.95697" lon="10.33024"><ele>2639</ele></trkpt>
<trkpt lat="46.9569" lon="10.3302"><ele>2641</ele></trkpt>
<trkpt lat="46.9569" lon="10.3302"><ele>2641</ele></trkpt>
<trkpt lat="46.95663" lon="10.33018"><ele>2641</ele></trkpt>
<trkpt lat="46.95636" lon="10.33015"><ele>2641</ele></trkpt>
<trkpt lat="46.95628" lon="10.33015"><ele>2657</ele></trkpt>
<trkpt lat="46.95628" lon="10.33015"><ele>2657</ele></trkpt>
<trkpt lat="46.95619" lon="10.33029"><ele>2657</ele></trkpt>
<trkpt lat="46.95619" lon="10.33029"><ele>2657</ele></trkpt>
<trkpt lat="46.95593" lon="10.33034"><ele>2658</ele></trkpt>
<trkpt lat="46.95591" lon="10.33034"><ele>2658</ele></trkpt>
<trkpt lat="46.95591" lon="10.33034"><ele>2658</ele></trkpt>
<trkpt lat="46.95579" lon="10.33015"><ele>2658</ele></trkpt>
<trkpt lat="46.95579" lon="10.33015"><ele>2663</ele></trkpt>
<trkpt lat="46.95575" lon="10.3299"><ele>2663</ele></trkpt>
<trkpt lat="46.95575" lon="10.3299"><ele>2663</ele></trkpt>
<trkpt lat="46.95587" lon="10.32973"><ele>2663</ele></trkpt>
<trkpt lat="46.95587" lon="10.32973"><ele>2669</ele></trkpt>
<trkpt lat="46.95561" lon="10.32975"><ele>2669</ele></trkpt>
<trkpt lat="46.95561" lon="10.32975"><ele>2669</ele></trkpt>
<trkpt lat="46.95543" lon="10.33005"><ele>2669</ele></trkpt>
<trkpt lat="46.9554" lon="10.3301"><ele>2669</ele></trkpt>
<trkpt lat="46.9554" lon="10.3301"><ele>2669</ele></trkpt>
<trkpt lat="46.9553" lon="10.33001"><ele>2669</ele></trkpt>
<trkpt lat="46.9553" lon="10.33001"><ele>2669</ele></trkpt>
<trkpt lat="46.95536" lon="10.32982"><ele>2676</ele></trkpt>
<trkpt lat="46.95536" lon="10.32982"><ele>2676</ele></trkpt>
<trkpt lat="46.95548" lon="10.32967"><ele>2676</ele></trkpt>
<trkpt lat="46.95548" lon="10.32967"><ele>2676</ele></trkpt>
<trkpt lat="46.95523" lon="10.32972"><ele>2678</ele></trkpt>
<trkpt lat="46.95523" lon="10.32972"><ele>2678</ele></trkpt>
<trkpt lat="46.95501" lon="10.32995"><ele>2678</ele></trkpt>
<trkpt lat="46.95492" lon="10.33005"><ele>2678</ele></trkpt>
<trkpt lat="46.95492" lon="10.33005"><ele>2676</ele></trkpt>
<trkpt lat="46.95465" lon="10.33012"><ele>2676</ele></trkpt>
<trkpt lat="46.95439" lon="10.3302"><ele>2676</ele></trkpt>
<trkpt lat="46.95428" lon="10.33022"><ele>2676</ele></trkpt>
<trkpt lat="46.95428" lon="10.33022"><ele>2672</ele></trkpt>
<trkpt lat="46.95428" lon="10.33022"><ele>2672</ele></trkpt>
<trkpt lat="46.95409" lon="10.3302"><ele>2672</ele></trkpt>
<trkpt lat="46.95394" lon="10.3302"><ele>2672</ele></trkpt>
<trkpt lat="46.95382" lon="10.3302"><ele>2675</ele></trkpt>
<trkpt lat="46.95371" lon="10.33015"><ele>2675</ele></trkpt>
<trkpt lat="46.95367" lon="10.33015"><ele>2675</ele></trkpt>
<trkpt lat="46.95367" lon="10.33015"><ele>2675</ele></trkpt>
<trkpt lat="46.95357" lon="10.33015"><ele>2682</ele></trkpt>
<trkpt lat="46.95344" lon="10.33017"><ele>2682</ele></trkpt>
<trkpt lat="46.95336" lon="10.33015"><ele>2682</ele></trkpt>
<trkpt lat="46.95333" lon="10.33015"><ele>2682</ele></trkpt>
<trkpt lat="46.95328" lon="10.33015"><ele>2681</ele></trkpt>
<trkpt lat="46.95322" lon="10.33012"><ele>2681</ele></trkpt>
<trkpt lat="46.95322" lon="10.33012"><ele>2681</ele></trkpt>
<trkpt lat="46.9532" lon="10.33011"><ele>2681</ele></trkpt>
<trkpt lat="46.95318" lon="10.33014"><ele>2678</ele></trkpt>
<trkpt lat="46.95318" lon="10.33"><ele>2678</ele></trkpt>
<trkpt lat="46.95316" lon="10.32987"><ele>2678</ele></trkpt>
<trkpt lat="46.95316" lon="10.32984"><ele>2678</ele></trkpt>
<trkpt lat="46.95316" lon="10.32984"><ele>2679</ele></trkpt>
<trkpt lat="46.95316" lon="10.32982"><ele>2679</ele></trkpt>
<trkpt lat="46.95316" lon="10.32982"><ele>2679</ele></trkpt>
<trkpt lat="46.95316" lon="10.32978"><ele>2679</ele></trkpt>
<trkpt lat="46.95313" lon="10.32971"><ele>2679</ele></trkpt>
<trkpt lat="46.95312" lon="10.32962"><ele>2679</ele></trkpt>
<trkpt lat="46.95312" lon="10.32962"><ele>2679</ele></trkpt>
<trkpt lat="46.95312" lon="10.32962"><ele>2679</ele></trkpt>
<trkpt lat="46.95314" lon="10.32953"><ele>2678</ele></trkpt>
<trkpt lat="46.95315" lon="10.32951"><ele>2678</ele></trkpt>
<trkpt lat="46.95315" lon="10.32951"><ele>2678</ele></trkpt>
<trkpt lat="46.95317" lon="10.32947"><ele>2678</ele></trkpt>
<trkpt lat="46.95317" lon="10.32947"><ele>2678</ele></trkpt>
<trkpt lat="46.95331" lon="10.3292"><ele>2678</ele></trkpt>
<trkpt lat="46.95331" lon="10.3292"><ele>2678</ele></trkpt>
<trkpt lat="46.95333" lon="10.32916"><ele>2678</ele></trkpt>
<trkpt lat="46.95333" lon="10.32916"><ele>2688</ele></trkpt>
<trkpt lat="46.95335" lon="10.32912"><ele>2688</ele></trkpt>
<trkpt lat="46.95343" lon="10.32895"><ele>2688</ele></trkpt>
<trkpt lat="46.95344" lon="10.32879"><ele>2688</ele></trkpt>
<trkpt lat="46.95344" lon="10.32879"><ele>2700</ele></trkpt>
<trkpt lat="46.95343" lon="10.32892"><ele>2700</ele></trkpt>
<trkpt lat="46.95343" lon="10.32892"><ele>2700</ele></trkpt>
<trkpt lat="46.95345" lon="10.32873"><ele>2700</ele></trkpt>
<trkpt lat="46.95345" lon="10.32865"><ele>2705</ele></trkpt>
<trkpt lat="46.95346" lon="10.32862"><ele>2705</ele></trkpt>
<trkpt lat="46.95347" lon="10.32863"><ele>2705</ele></trkpt>
<trkpt lat="46.95347" lon="10.32863"><ele>2705</ele></trkpt>
<trkpt lat="46.95353" lon="10.32868"><ele>2700</ele></trkpt>
<trkpt lat="46.95366" lon="10.32874"><ele>2700</ele></trkpt>
<trkpt lat="46.95373" lon="10.32874"><ele>2700</ele></trkpt>
<trkpt lat="46.9538" lon="10.3287"><ele>2700</ele></trkpt>
<trkpt lat="46.95384" lon="10.32869"><ele>2711</ele></trkpt>
<trkpt lat="46.95385" lon="10.32865"><ele>2711</ele></trkpt>
<trkpt lat="46.95384" lon="10.32863"><ele>2711</ele></trkpt>
<trkpt lat="46.95381" lon="10.32859"><ele>2711</ele></trkpt>
<trkpt lat="46.95379" lon="10.32855"><ele>2714</ele></trkpt>
<trkpt lat="46.95379" lon="10.32855"><ele>2714</ele></trkpt>
<trkpt lat="46.95379" lon="10.32854"><ele>2714</ele></trkpt>
<trkpt lat="46.95379" lon="10.32854"><ele>2714</ele></trkpt>
<trkpt lat="46.9538" lon="10.32856"><ele>2714</ele></trkpt>
<trkpt lat="46.9538" lon="10.32856"><ele>2714</ele></trkpt>
<trkpt lat="46.95374" lon="10.32844"><ele>2714</ele></trkpt>
<trkpt lat="46.95373" lon="10.32837"><ele>2714</ele></trkpt>
<trkpt lat="46.95373" lon="10.32837"><ele>2721</ele></trkpt>
<trkpt lat="46.9537" lon="10.32822"><ele>2721</ele></trkpt>
<trkpt lat="46.95367" lon="10.32806"><ele>2721</ele></trkpt>
<trkpt lat="46.95367" lon="10.32801"><ele>2721</ele></trkpt>
<trkpt lat="46.95367" lon="10.32801"><ele>2727</ele></trkpt>
<trkpt lat="46.95367" lon="10.32801"><ele>2727</ele></trkpt>
<trkpt lat="46.95362" lon="10.32771"><ele>2727</ele></trkpt>
<trkpt lat="46.95387" lon="10.32783"><ele>2727</ele></trkpt>
<trkpt lat="46.9539" lon="10.32784"><ele>2736</ele></trkpt>
<trkpt lat="46.9539" lon="10.32784"><ele>2736</ele></trkpt>
<trkpt lat="46.95403" lon="10.32795"><ele>2736</ele></trkpt>
<trkpt lat="46.95403" lon="10.32795"><ele>2736</ele></trkpt>
<trkpt lat="46.95406" lon="10.32792"><ele>2739</ele></trkpt>
<trkpt lat="46.95406" lon="10.32792"><ele>2739</ele></trkpt>
<trkpt lat="46.9541" lon="10.32784"><ele>2739</ele></trkpt>
<trkpt lat="46.9541" lon="10.32784"><ele>2739</ele></trkpt>
<trkpt lat="46.95403" lon="10.32795"><ele>2739</ele></trkpt>
<trkpt lat="46.95403" lon="10.32795"><ele>2739</ele></trkpt>
<trkpt lat="46.9539" lon="10.32785"><ele>2739</ele></trkpt>
<trkpt lat="46.9539" lon="10.32785"><ele>2739</ele></trkpt>
<trkpt lat="46.95364" lon="10.32773"><ele>2733</ele></trkpt>
<trkpt lat="46.95363" lon="10.32771"><ele>2733</ele></trkpt>
<trkpt lat="46.95363" lon="10.32771"><ele>2733</ele></trkpt>
<trkpt lat="46.95367" lon="10.32802"><ele>2733</ele></trkpt>
<trkpt lat="46.95367" lon="10.32802"><ele>2727</ele></trkpt>
<trkpt lat="46.95367" lon="10.32802"><ele>2727</ele></trkpt>
<trkpt lat="46.95367" lon="10.32806"><ele>2727</ele></trkpt>
<trkpt lat="46.9537" lon="10.32822"><ele>2727</ele></trkpt>
<trkpt lat="46.95374" lon="10.32844"><ele>2714</ele></trkpt>
<trkpt lat="46.95381" lon="10.32859"><ele>2714</ele></trkpt>
<trkpt lat="46.95384" lon="10.32863"><ele>2714</ele></trkpt>
<trkpt lat="46.95385" lon="10.32865"><ele>2714</ele></trkpt>
<trkpt lat="46.95384" lon="10.32867"><ele>2721</ele></trkpt>
<trkpt lat="46.95384" lon="10.32867"><ele>2721</ele></trkpt>
<trkpt lat="46.95384" lon="10.32869"><ele>2721</ele></trkpt>
<trkpt lat="46.9538" lon="10.3287"><ele>2721</ele></trkpt>
<trkpt lat="46.95373" lon="10.32874"><ele>2706</ele></trkpt>
<trkpt lat="46.95366" lon="10.32874"><ele>2706</ele></trkpt>
<trkpt lat="46.95353" lon="10.32868"><ele>2706</ele></trkpt>
<trkpt lat="46.95346" lon="10.32862"><ele>2706</ele></trkpt>
<trkpt lat="46.95345" lon="10.32865"><ele>2705</ele></trkpt>
<trkpt lat="46.95345" lon="10.32873"><ele>2705</ele></trkpt>
<trkpt lat="46.95343" lon="10.32895"><ele>2705</ele></trkpt>
<trkpt lat="46.95335" lon="10.32912"><ele>2705</ele></trkpt>
<trkpt lat="46.95314" lon="10.32953"><ele>2678</ele></trkpt>
<trkpt lat="46.95312" lon="10.32962"><ele>2678</ele></trkpt>
<trkpt lat="46.95313" lon="10.32971"><ele>2678</ele></trkpt>
<trkpt lat="46.95316" lon="10.32978"><ele>2678</ele></trkpt>
<trkpt lat="46.95316" lon="10.32987"><ele>2679</ele></trkpt>
<trkpt lat="46.95318" lon="10.33"><ele>2679</ele></trkpt>
<trkpt lat="46.95318" lon="10.33014"><ele>2679</ele></trkpt>
<trkpt lat="46.95311" lon="10.3301"><ele>2679</ele></trkpt>
<trkpt lat="46.95311" lon="10.3301"><ele>2678</ele></trkpt>
<trkpt lat="46.95303" lon="10.33006"><ele>2678</ele></trkpt>
<trkpt lat="46.9529" lon="10.32996"><ele>2678</ele></trkpt>
<trkpt lat="46.95269" lon="10.32989"><ele>2678</ele></trkpt>
<trkpt lat="46.95266" lon="10.32976"><ele>2662</ele></trkpt>
<trkpt lat="46.95266" lon="10.32976"><ele>2662</ele></trkpt>
<trkpt lat="46.95268" lon="10.32975"><ele>2662</ele></trkpt>
<trkpt lat="46.95263" lon="10.32953"><ele>2662</ele></trkpt>
<trkpt lat="46.95263" lon="10.32953"><ele>2659</ele></trkpt>
<trkpt lat="46.9527" lon="10.32915"><ele>2659</ele></trkpt>
<trkpt lat="46.95271" lon="10.32912"><ele>2659</ele></trkpt>
<trkpt lat="46.95271" lon="10.32912"><ele>2659</ele></trkpt>
<trkpt lat="46.95266" lon="10.32909"><ele>2658</ele></trkpt>
<trkpt lat="46.95266" lon="10.32909"><ele>2658</ele></trkpt>
<trkpt lat="46.95259" lon="10.32933"><ele>2658</ele></trkpt>
<trkpt lat="46.95259" lon="10.32933"><ele>2658</ele></trkpt>
<trkpt lat="46.95255" lon="10.32933"><ele>2651</ele></trkpt>
<trkpt lat="46.95255" lon="10.32933"><ele>2651</ele></trkpt>
<trkpt lat="46.95253" lon="10.32893"><ele>2651</ele></trkpt>
<trkpt lat="46.95253" lon="10.32893"><ele>2651</ele></trkpt>
<trkpt lat="46.95253" lon="10.32893"><ele>2652</ele></trkpt>
<trkpt lat="46.95233" lon="10.32865"><ele>2652</ele></trkpt>
<trkpt lat="46.95225" lon="10.32854"><ele>2652</ele></trkpt>
<trkpt lat="46.95225" lon="10.32854"><ele>2652</ele></trkpt>
<trkpt lat="46.9522" lon="10.32843"><ele>2647</ele></trkpt>
<trkpt lat="46.9522" lon="10.32843"><ele>2647</ele></trkpt>
<trkpt lat="46.95216" lon="10.32846"><ele>2647</ele></trkpt>
<trkpt lat="46.95216" lon="10.32846"><ele>2647</ele></trkpt>
<trkpt lat="46.95221" lon="10.32859"><ele>2647</ele></trkpt>
<trkpt lat="46.95221" lon="10.32859"><ele>2647</ele></trkpt>
<trkpt lat="46.95218" lon="10.32863"><ele>2647</ele></trkpt>
<trkpt lat="46.95218" lon="10.32863"><ele>2647</ele></trkpt>
<trkpt lat="46.95209" lon="10.32843"><ele>2640</ele></trkpt>
<trkpt lat="46.95209" lon="10.32843"><ele>2640</ele></trkpt>
<trkpt lat="46.95195" lon="10.32832"><ele>2640</ele></trkpt>
<trkpt lat="46.95195" lon="10.32832"><ele>2640</ele></trkpt>
<trkpt lat="46.95195" lon="10.32832"><ele>2638</ele></trkpt>
<trkpt lat="46.95187" lon="10.32825"><ele>2638</ele></trkpt>
<trkpt lat="46.95178" lon="10.32812"><ele>2638</ele></trkpt>
<trkpt lat="46.95155" lon="10.32776"><ele>2638</ele></trkpt>
<trkpt lat="46.95153" lon="10.32771"><ele>2631</ele></trkpt>
<trkpt lat="46.9514" lon="10.32753"><ele>2631</ele></trkpt>
<trkpt lat="46.95123" lon="10.3274"><ele>2631</ele></trkpt>
<trkpt lat="46.95119" lon="10.32732"><ele>2631</ele></trkpt>
<trkpt lat="46.95115" lon="10.32726"><ele>2625</ele></trkpt>
<trkpt lat="46.95114" lon="10.32712"><ele>2625</ele></trkpt>
<trkpt lat="46.9511" lon="10.32703"><ele>2625</ele></trkpt>
<trkpt lat="46.95109" lon="10.32692"><ele>2625</ele></trkpt>
<trkpt lat="46.95098" lon="10.32673"><ele>2629</ele></trkpt>
<trkpt lat="46.9509" lon="10.32663"><ele>2629</ele></trkpt>
<trkpt lat="46.95075" lon="10.32637"><ele>2629</ele></trkpt>
<trkpt lat="46.95066" lon="10.32625"><ele>2629</ele></trkpt>
<trkpt lat="46.95063" lon="10.32615"><ele>2619</ele></trkpt>
<trkpt lat="46.95058" lon="10.32606"><ele>2619</ele></trkpt>
<trkpt lat="46.95054" lon="10.32593"><ele>2619</ele></trkpt>
<trkpt lat="46.95054" lon="10.32593"><ele>2619</ele></trkpt>
<trkpt lat="46.95049" lon="10.32579"><ele>2610</ele></trkpt>
<trkpt lat="46.95048" lon="10.32565"><ele>2610</ele></trkpt>
<trkpt lat="46.95045" lon="10.32551"><ele>2610</ele></trkpt>
<trkpt lat="46.95041" lon="10.32531"><ele>2610</ele></trkpt>
<trkpt lat="46.95043" lon="10.32524"><ele>2603</ele></trkpt>
<trkpt lat="46.95042" lon="10.32515"><ele>2603</ele></trkpt>
<trkpt lat="46.95043" lon="10.32503"><ele>2603</ele></trkpt>
<trkpt lat="46.95042" lon="10.32479"><ele>2603</ele></trkpt>
<trkpt lat="46.95042" lon="10.32471"><ele>2614</ele></trkpt>
<trkpt lat="46.95042" lon="10.32465"><ele>2614</ele></trkpt>
<trkpt lat="46.9504" lon="10.32459"><ele>2614</ele></trkpt>
<trkpt lat="46.95032" lon="10.32455"><ele>2614</ele></trkpt>
<trkpt lat="46.95028" lon="10.32447"><ele>2605</ele></trkpt>
<trkpt lat="46.95026" lon="10.32435"><ele>2605</ele></trkpt>
<trkpt lat="46.95026" lon="10.32426"><ele>2605</ele></trkpt>
<trkpt lat="46.95023" lon="10.32422"><ele>2605</ele></trkpt>
<trkpt lat="46.95022" lon="10.32417"><ele>2614</ele></trkpt>
<trkpt lat="46.95023" lon="10.32412"><ele>2614</ele></trkpt>
<trkpt lat="46.95021" lon="10.32405"><ele>2614</ele></trkpt>
<trkpt lat="46.95012" lon="10.32402"><ele>2614</ele></trkpt>
<trkpt lat="46.9501" lon="10.32399"><ele>2610</ele></trkpt>
<trkpt lat="46.95007" lon="10.32394"><ele>2610</ele></trkpt>
<trkpt lat="46.95006" lon="10.3238"><ele>2610</ele></trkpt>
<trkpt lat="46.95002" lon="10.32363"><ele>2610</ele></trkpt>
<trkpt lat="46.94999" lon="10.32353"><ele>2621</ele></trkpt>
<trkpt lat="46.94995" lon="10.32347"><ele>2621</ele></trkpt>
<trkpt lat="46.94983" lon="10.32335"><ele>2621</ele></trkpt>
<trkpt lat="46.94981" lon="10.32332"><ele>2621</ele></trkpt>
<trkpt lat="46.94973" lon="10.3233"><ele>2616</ele></trkpt>
<trkpt lat="46.94961" lon="10.32324"><ele>2616</ele></trkpt>
<trkpt lat="46.94955" lon="10.32316"><ele>2616</ele></trkpt>
<trkpt lat="46.94949" lon="10.32315"><ele>2616</ele></trkpt>
<trkpt lat="46.94931" lon="10.32306"><ele>2621</ele></trkpt>
<trkpt lat="46.94913" lon="10.32302"><ele>2621</ele></trkpt>
<trkpt lat="46.94906" lon="10.32297"><ele>2621</ele></trkpt>
<trkpt lat="46.94904" lon="10.32296"><ele>2621</ele></trkpt>
<trkpt lat="46.94904" lon="10.32296"><ele>2613</ele></trkpt>
<trkpt lat="46.949" lon="10.32292"><ele>2613</ele></trkpt>
<trkpt lat="46.94896" lon="10.32281"><ele>2613</ele></trkpt>
<trkpt lat="46.94895" lon="10.32265"><ele>2613</ele></trkpt>
<trkpt lat="46.94892" lon="10.3225"><ele>2612</ele></trkpt>
<trkpt lat="46.94891" lon="10.32232"><ele>2612</ele></trkpt>
<trkpt lat="46.94893" lon="10.32221"><ele>2612</ele></trkpt>
<trkpt lat="46.94894" lon="10.32216"><ele>2612</ele></trkpt>
<trkpt lat="46.94888" lon="10.32204"><ele>2608</ele></trkpt>
<trkpt lat="46.94884" lon="10.32193"><ele>2608</ele></trkpt>
<trkpt lat="46.94882" lon="10.3218"><ele>2608</ele></trkpt>
<trkpt lat="46.94883" lon="10.32152"><ele>2608</ele></trkpt>
<trkpt lat="46.94881" lon="10.32143"><ele>2595</ele></trkpt>
<trkpt lat="46.94879" lon="10.32114"><ele>2595</ele></trkpt>
<trkpt lat="46.94876" lon="10.32102"><ele>2595</ele></trkpt>
<trkpt lat="46.94875" lon="10.32096"><ele>2595</ele></trkpt>
<trkpt lat="46.94876" lon="10.32089"><ele>2593</ele></trkpt>
<trkpt lat="46.94876" lon="10.32067"><ele>2593</ele></trkpt>
<trkpt lat="46.9488" lon="10.32038"><ele>2593</ele></trkpt>
<trkpt lat="46.94878" lon="10.32002"><ele>2593</ele></trkpt>
<trkpt lat="46.94878" lon="10.3199"><ele>2585</ele></trkpt>
<trkpt lat="46.94874" lon="10.31968"><ele>2585</ele></trkpt>
<trkpt lat="46.94872" lon="10.31929"><ele>2585</ele></trkpt>
<trkpt lat="46.94864" lon="10.31897"><ele>2585</ele></trkpt>
<trkpt lat="46.94864" lon="10.31894"><ele>2567</ele></trkpt>
<trkpt lat="46.94864" lon="10.31894"><ele>2567</ele></trkpt>
<trkpt lat="46.94864" lon="10.31879"><ele>2567</ele></trkpt>
<trkpt lat="46.94865" lon="10.31854"><ele>2567</ele></trkpt>
<trkpt lat="46.94862" lon="10.31845"><ele>2567</ele></trkpt>
<trkpt lat="46.94851" lon="10.31817"><ele>2567</ele></trkpt>
<trkpt lat="46.94848" lon="10.31802"><ele>2567</ele></trkpt>
<trkpt lat="46.9485" lon="10.31794"><ele>2567</ele></trkpt>
<trkpt lat="46.94851" lon="10.3178"><ele>2569</ele></trkpt>
<trkpt lat="46.94852" lon="10.31766"><ele>2569</ele></trkpt>
<trkpt lat="46.94849" lon="10.31758"><ele>2569</ele></trkpt>
<trkpt lat="46.94848" lon="10.31751"><ele>2569</ele></trkpt>
<trkpt lat="46.94849" lon="10.31742"><ele>2569</ele></trkpt>
<trkpt lat="46.94849" lon="10.31732"><ele>2569</ele></trkpt>
<trkpt lat="46.94843" lon="10.31715"><ele>2569</ele></trkpt>
<trkpt lat="46.94841" lon="10.31703"><ele>2569</ele></trkpt>
<trkpt lat="46.94831" lon="10.31664"><ele>2565</ele></trkpt>
<trkpt lat="46.94827" lon="10.3165"><ele>2565</ele></trkpt>
<trkpt lat="46.94824" lon="10.31644"><ele>2565</ele></trkpt>
<trkpt lat="46.9482" lon="10.3164"><ele>2565</ele></trkpt>
<trkpt lat="46.94817" lon="10.31629"><ele>2557</ele></trkpt>
<trkpt lat="46.94814" lon="10.31617"><ele>2557</ele></trkpt>
<trkpt lat="46.94809" lon="10.316"><ele>2557</ele></trkpt>
<trkpt lat="46.94805" lon="10.31586"><ele>2557</ele></trkpt>
<trkpt lat="46.94801" lon="10.31581"><ele>2553</ele></trkpt>
<trkpt lat="46.948" lon="10.31577"><ele>2553</ele></trkpt>
<trkpt lat="46.94799" lon="10.31565"><ele>2553</ele></trkpt>
<trkpt lat="46.94797" lon="10.31561"><ele>2553</ele></trkpt>
<trkpt lat="46.94794" lon="10.31559"><ele>2560</ele></trkpt>
<trkpt lat="46.9478" lon="10.3155"><ele>2560</ele></trkpt>
<trkpt lat="46.9477" lon="10.31551"><ele>2560</ele></trkpt>
<trkpt lat="46.94762" lon="10.31544"><ele>2560</ele></trkpt>
<trkpt lat="46.94752" lon="10.3154"><ele>2563</ele></trkpt>
<trkpt lat="46.94737" lon="10.31539"><ele>2563</ele></trkpt>
<trkpt lat="46.94731" lon="10.31535"><ele>2563</ele></trkpt>
<trkpt lat="46.94724" lon="10.31535"><ele>2563</ele></trkpt>
<trkpt lat="46.94713" lon="10.31532"><ele>2549</ele></trkpt>
<trkpt lat="46.94706" lon="10.31526"><ele>2549</ele></trkpt>
<trkpt lat="46.94699" lon="10.31513"><ele>2549</ele></trkpt>
<trkpt lat="46.94692" lon="10.315"><ele>2549</ele></trkpt>
<trkpt lat="46.94684" lon="10.31488"><ele>2548</ele></trkpt>
<trkpt lat="46.94681" lon="10.31486"><ele>2548</ele></trkpt>
<trkpt lat="46.94681" lon="10.31486"><ele>2548</ele></trkpt>
<trkpt lat="46.94678" lon="10.31485"><ele>2548</ele></trkpt>
<trkpt lat="46.94659" lon="10.31481"><ele>2538</ele></trkpt>
<trkpt lat="46.94653" lon="10.31481"><ele>2538</ele></trkpt>
<trkpt lat="46.94646" lon="10.3148"><ele>2538</ele></trkpt>
<trkpt lat="46.9464" lon="10.31473"><ele>2538</ele></trkpt>
<trkpt lat="46.94636" lon="10.31469"><ele>2540</ele></trkpt>
<trkpt lat="46.9463" lon="10.3146"><ele>2540</ele></trkpt>
<trkpt lat="46.94616" lon="10.31434"><ele>2540</ele></trkpt>
<trkpt lat="46.9461" lon="10.31425"><ele>2540</ele></trkpt>
<trkpt lat="46.94603" lon="10.31412"><ele>2544</ele></trkpt>
<trkpt lat="46.94602" lon="10.31405"><ele>2544</ele></trkpt>
<trkpt lat="46.946" lon="10.31395"><ele>2544</ele></trkpt>
<trkpt lat="46.94596" lon="10.3139"><ele>2544</ele></trkpt>
<trkpt lat="46.94581" lon="10.31378"><ele>2543</ele></trkpt>
<trkpt lat="46.94577" lon="10.31368"><ele>2543</ele></trkpt>
<trkpt lat="46.94567" lon="10.31354"><ele>2543</ele></trkpt>
<trkpt lat="46.94557" lon="10.31343"><ele>2543</ele></trkpt>
<trkpt lat="46.94545" lon="10.31333"><ele>2538</ele></trkpt>
<trkpt lat="46.94536" lon="10.31329"><ele>2538</ele></trkpt>
<trkpt lat="46.9453" lon="10.31321"><ele>2538</ele></trkpt>
<trkpt lat="46.94525" lon="10.31319"><ele>2538</ele></trkpt>
<trkpt lat="46.94522" lon="10.31314"><ele>2542</ele></trkpt>
<trkpt lat="46.94516" lon="10.3131"><ele>2542</ele></trkpt>
<trkpt lat="46.94515" lon="10.31309"><ele>2542</ele></trkpt>
<trkpt lat="46.94514" lon="10.31307"><ele>2542</ele></trkpt>
<trkpt lat="46.9451" lon="10.31307"><ele>2540</ele></trkpt>
<trkpt lat="46.94509" lon="10.31307"><ele>2540</ele></trkpt>
<trkpt lat="46.94507" lon="10.31307"><ele>2540</ele></trkpt>
<trkpt lat="46.94505" lon="10.31311"><ele>2540</ele></trkpt>
<trkpt lat="46.945" lon="10.31314"><ele>2540</ele></trkpt>
<trkpt lat="46.94496" lon="10.31317"><ele>2540</ele></trkpt>
<trkpt lat="46.94491" lon="10.31323"><ele>2540</ele></trkpt>
<trkpt lat="46.94484" lon="10.31324"><ele>2540</ele></trkpt>
<trkpt lat="46.94481" lon="10.31328"><ele>2540</ele></trkpt>
<trkpt lat="46.94474" lon="10.31333"><ele>2540</ele></trkpt>
<trkpt lat="46.94467" lon="10.31331"><ele>2540</ele></trkpt>
<trkpt lat="46.94463" lon="10.31334"><ele>2540</ele></trkpt>
<trkpt lat="46.94459" lon="10.31335"><ele>2531</ele></trkpt>
<trkpt lat="46.94452" lon="10.31333"><ele>2531</ele></trkpt>
<trkpt lat="46.94447" lon="10.31328"><ele>2531</ele></trkpt>
<trkpt lat="46.94447" lon="10.31328"><ele>2531</ele></trkpt>
<trkpt lat="46.94439" lon="10.3132"><ele>2532</ele></trkpt>
<trkpt lat="46.94431" lon="10.31298"><ele>2532</ele></trkpt>
<trkpt lat="46.94428" lon="10.31289"><ele>2532</ele></trkpt>
<trkpt lat="46.94427" lon="10.31286"><ele>2532</ele></trkpt>
<trkpt lat="46.94425" lon="10.31284"><ele>2533</ele></trkpt>
<trkpt lat="46.94424" lon="10.31284"><ele>2533</ele></trkpt>
<trkpt lat="46.94423" lon="10.31287"><ele>2533</ele></trkpt>
<trkpt lat="46.9442" lon="10.31289"><ele>2533</ele></trkpt>
<trkpt lat="46.94415" lon="10.31288"><ele>2533</ele></trkpt>
<trkpt lat="46.94407" lon="10.31284"><ele>2533</ele></trkpt>
<trkpt lat="46.944" lon="10.31274"><ele>2533</ele></trkpt>
<trkpt lat="46.94397" lon="10.3127"><ele>2533</ele></trkpt>
<trkpt lat="46.94395" lon="10.3127"><ele>2529</ele></trkpt>
<trkpt lat="46.94394" lon="10.31272"><ele>2529</ele></trkpt>
<trkpt lat="46.94388" lon="10.31284"><ele>2529</ele></trkpt>
<trkpt lat="46.94384" lon="10.31291"><ele>2529</ele></trkpt>
<trkpt lat="46.94378" lon="10.31292"><ele>2526</ele></trkpt>
<trkpt lat="46.9437" lon="10.31293"><ele>2526</ele></trkpt>
<trkpt lat="46.94356" lon="10.31287"><ele>2526</ele></trkpt>
<trkpt lat="46.94347" lon="10.31277"><ele>2526</ele></trkpt>
<trkpt lat="46.94336" lon="10.3127"><ele>2516</ele></trkpt>
<trkpt lat="46.94311" lon="10.31265"><ele>2516</ele></trkpt>
<trkpt lat="46.9426" lon="10.31255"><ele>2516</ele></trkpt>
<trkpt lat="46.94238" lon="10.3125"><ele>2516</ele></trkpt>
<trkpt lat="46.94186" lon="10.31248"><ele>2498</ele></trkpt>
<trkpt lat="46.9418" lon="10.31249"><ele>2498</ele></trkpt>
<trkpt lat="46.94174" lon="10.31253"><ele>2498</ele></trkpt>
<trkpt lat="46.94169" lon="10.31253"><ele>2498</ele></trkpt>
<trkpt lat="46.94169" lon="10.31253"><ele>2498</ele></trkpt>
<trkpt lat="46.94168" lon="10.31254"><ele>2498</ele></trkpt>
<trkpt lat="46.94151" lon="10.31258"><ele>2498</ele></trkpt>
<trkpt lat="46.94137" lon="10.31265"><ele>2498</ele></trkpt>
<trkpt lat="46.94128" lon="10.31267"><ele>2496</ele></trkpt>
<trkpt lat="46.94121" lon="10.31265"><ele>2496</ele></trkpt>
<trkpt lat="46.94116" lon="10.31267"><ele>2496</ele></trkpt>
<trkpt lat="46.94114" lon="10.3127"><ele>2496</ele></trkpt>
<trkpt lat="46.94112" lon="10.31279"><ele>2490</ele></trkpt>
<trkpt lat="46.94108" lon="10.31284"><ele>2490</ele></trkpt>
<trkpt lat="46.94108" lon="10.31284"><ele>2490</ele></trkpt>
<trkpt lat="46.94108" lon="10.31284"><ele>2490</ele></trkpt>
<trkpt lat="46.94108" lon="10.31282"><ele>2490</ele></trkpt>
<trkpt lat="46.94086" lon="10.31307"><ele>2490</ele></trkpt>
<trkpt lat="46.94075" lon="10.31319"><ele>2490</ele></trkpt>
<trkpt lat="46.94075" lon="10.31319"><ele>2490</ele></trkpt>
<trkpt lat="46.94062" lon="10.31354"><ele>2479</ele></trkpt>
<trkpt lat="46.94051" lon="10.31381"><ele>2479</ele></trkpt>
<trkpt lat="46.94051" lon="10.31381"><ele>2479</ele></trkpt>
<trkpt lat="46.94052" lon="10.31381"><ele>2479</ele></trkpt>
<trkpt lat="46.94054" lon="10.31387"><ele>2476</ele></trkpt>
<trkpt lat="46.94054" lon="10.31399"><ele>2476</ele></trkpt>
<trkpt lat="46.94054" lon="10.31406"><ele>2476</ele></trkpt>
<trkpt lat="46.94052" lon="10.31415"><ele>2476</ele></trkpt>
<trkpt lat="46.94052" lon="10.3142"><ele>2474</ele></trkpt>
<trkpt lat="46.94054" lon="10.31429"><ele>2474</ele></trkpt>
<trkpt lat="46.94059" lon="10.31437"><ele>2474</ele></trkpt>
<trkpt lat="46.94062" lon="10.31442"><ele>2474</ele></trkpt>
<trkpt lat="46.94074" lon="10.31455"><ele>2468</ele></trkpt>
<trkpt lat="46.94091" lon="10.31464"><ele>2468</ele></trkpt>
<trkpt lat="46.94116" lon="10.31475"><ele>2468</ele></trkpt>
<trkpt lat="46.94145" lon="10.3149"><ele>2468</ele></trkpt>
<trkpt lat="46.94153" lon="10.31495"><ele>2459</ele></trkpt>
<trkpt lat="46.94167" lon="10.31514"><ele>2459</ele></trkpt>
<trkpt lat="46.94172" lon="10.31518"><ele>2459</ele></trkpt>
<trkpt lat="46.94175" lon="10.3152"><ele>2459</ele></trkpt>
<trkpt lat="46.94179" lon="10.31522"><ele>2455</ele></trkpt>
<trkpt lat="46.94185" lon="10.3152"><ele>2455</ele></trkpt>
<trkpt lat="46.94188" lon="10.31518"><ele>2455</ele></trkpt>
<trkpt lat="46.94188" lon="10.31518"><ele>2455</ele></trkpt>
<trkpt lat="46.94192" lon="10.31518"><ele>2453</ele></trkpt>
<trkpt lat="46.94198" lon="10.31523"><ele>2453</ele></trkpt>
<trkpt lat="46.94222" lon="10.31539"><ele>2453</ele></trkpt>
<trkpt lat="46.94238" lon="10.31556"><ele>2453</ele></trkpt>
<trkpt lat="46.94257" lon="10.31588"><ele>2438</ele></trkpt>
<trkpt lat="46.94262" lon="10.31593"><ele>2438</ele></trkpt>
<trkpt lat="46.94268" lon="10.31594"><ele>2438</ele></trkpt>
<trkpt lat="46.94282" lon="10.31592"><ele>2438</ele></trkpt>
<trkpt lat="46.94289" lon="10.31593"><ele>2436</ele></trkpt>
<trkpt lat="46.94298" lon="10.31597"><ele>2436</ele></trkpt>
<trkpt lat="46.94306" lon="10.31602"><ele>2436</ele></trkpt>
<trkpt lat="46.94313" lon="10.31612"><ele>2436</ele></trkpt>
<trkpt lat="46.94316" lon="10.3162"><ele>2427</ele></trkpt>
<trkpt lat="46.94316" lon="10.31628"><ele>2427</ele></trkpt>
<trkpt lat="46.94316" lon="10.31638"><ele>2427</ele></trkpt>
<trkpt lat="46.94315" lon="10.31658"><ele>2427</ele></trkpt>
<trkpt lat="46.94317" lon="10.31666"><ele>2418</ele></trkpt>
<trkpt lat="46.9432" lon="10.3167"><ele>2418</ele></trkpt>
<trkpt lat="46.94323" lon="10.31672"><ele>2418</ele></trkpt>
<trkpt lat="46.9433" lon="10.31673"><ele>2418</ele></trkpt>
<trkpt lat="46.94337" lon="10.31671"><ele>2414</ele></trkpt>
<trkpt lat="46.94344" lon="10.31667"><ele>2414</ele></trkpt>
<trkpt lat="46.9435" lon="10.31663"><ele>2414</ele></trkpt>
<trkpt lat="46.94356" lon="10.31664"><ele>2414</ele></trkpt>
<trkpt lat="46.94359" lon="10.31668"><ele>2412</ele></trkpt>
<trkpt lat="46.94365" lon="10.3168"><ele>2412</ele></trkpt>
<trkpt lat="46.94378" lon="10.31697"><ele>2412</ele></trkpt>
<trkpt lat="46.94381" lon="10.31703"><ele>2412</ele></trkpt>
<trkpt lat="46.9438" lon="10.31706"><ele>2406</ele></trkpt>
<trkpt lat="46.9438" lon="10.31706"><ele>2406</ele></trkpt>
<trkpt lat="46.9438" lon="10.31715"><ele>2406</ele></trkpt>
<trkpt lat="46.9438" lon="10.31725"><ele>2406</ele></trkpt>
<trkpt lat="46.94379" lon="10.31734"><ele>2400</ele></trkpt>
<trkpt lat="46.94382" lon="10.31748"><ele>2400</ele></trkpt>
<trkpt lat="46.94386" lon="10.31769"><ele>2400</ele></trkpt>
<trkpt lat="46.94389" lon="10.31793"><ele>2400</ele></trkpt>
<trkpt lat="46.94391" lon="10.31819"><ele>2383</ele></trkpt>
<trkpt lat="46.94391" lon="10.31845"><ele>2383</ele></trkpt>
<trkpt lat="46.94387" lon="10.31872"><ele>2383</ele></trkpt>
<trkpt lat="46.94387" lon="10.31882"><ele>2383</ele></trkpt>
<trkpt lat="46.94388" lon="10.31893"><ele>2375</ele></trkpt>
<trkpt lat="46.94387" lon="10.31908"><ele>2375</ele></trkpt>
<trkpt lat="46.94383" lon="10.31917"><ele>2375</ele></trkpt>
<trkpt lat="46.94379" lon="10.31931"><ele>2375</ele></trkpt>
<trkpt lat="46.94378" lon="10.31944"><ele>2365</ele></trkpt>
<trkpt lat="46.94378" lon="10.31958"><ele>2365</ele></trkpt>
<trkpt lat="46.94377" lon="10.31977"><ele>2365</ele></trkpt>
<trkpt lat="46.94377" lon="10.31986"><ele>2365</ele></trkpt>
<trkpt lat="46.94379" lon="10.31992"><ele>2359</ele></trkpt>
<trkpt lat="46.94384" lon="10.32"><ele>2359</ele></trkpt>
<trkpt lat="46.944" lon="10.32016"><ele>2359</ele></trkpt>
<trkpt lat="46.94404" lon="10.32024"><ele>2359</ele></trkpt>
<trkpt lat="46.94405" lon="10.3203"><ele>2353</ele></trkpt>
<trkpt lat="46.94403" lon="10.32039"><ele>2353</ele></trkpt>
<trkpt lat="46.94399" lon="10.32044"><ele>2353</ele></trkpt>
<trkpt lat="46.9437" lon="10.32065"><ele>2353</ele></trkpt>
<trkpt lat="46.94364" lon="10.32072"><ele>2339</ele></trkpt>
<trkpt lat="46.9436" lon="10.32081"><ele>2339</ele></trkpt>
<trkpt lat="46.94351" lon="10.32114"><ele>2339</ele></trkpt>
<trkpt lat="46.94344" lon="10.32128"><ele>2339</ele></trkpt>
<trkpt lat="46.94339" lon="10.32144"><ele>2328</ele></trkpt>
<trkpt lat="46.94338" lon="10.32159"><ele>2328</ele></trkpt>
<trkpt lat="46.9434" lon="10.32171"><ele>2328</ele></trkpt>
<trkpt lat="46.94348" lon="10.32194"><ele>2328</ele></trkpt>
<trkpt lat="46.94355" lon="10.32217"><ele>2329</ele></trkpt>
<trkpt lat="46.94358" lon="10.32234"><ele>2329</ele></trkpt>
<trkpt lat="46.94359" lon="10.32241"><ele>2329</ele></trkpt>
<trkpt lat="46.94358" lon="10.3225"><ele>2329</ele></trkpt>
<trkpt lat="46.94354" lon="10.32264"><ele>2326</ele></trkpt>
<trkpt lat="46.94353" lon="10.32277"><ele>2326</ele></trkpt>
<trkpt lat="46.94353" lon="10.32291"><ele>2326</ele></trkpt>
<trkpt lat="46.94356" lon="10.323"><ele>2326</ele></trkpt>
<trkpt lat="46.94361" lon="10.32313"><ele>2322</ele></trkpt>
<trkpt lat="46.94362" lon="10.32319"><ele>2322</ele></trkpt>
<trkpt lat="46.94362" lon="10.32323"><ele>2322</ele></trkpt>
<trkpt lat="46.94361" lon="10.32327"><ele>2322</ele></trkpt>
<trkpt lat="46.94358" lon="10.32327"><ele>2318</ele></trkpt>
<trkpt lat="46.94358" lon="10.32327"><ele>2318</ele></trkpt>
<trkpt lat="46.94358" lon="10.32327"><ele>2318</ele></trkpt>
<trkpt lat="46.94353" lon="10.32316"><ele>2318</ele></trkpt>
<trkpt lat="46.94342" lon="10.32302"><ele>2307</ele></trkpt>
<trkpt lat="46.94337" lon="10.32291"><ele>2307</ele></trkpt>
<trkpt lat="46.94332" lon="10.32269"><ele>2307</ele></trkpt>
<trkpt lat="46.94327" lon="10.32244"><ele>2307</ele></trkpt>
<trkpt lat="46.94325" lon="10.32239"><ele>2304</ele></trkpt>
<trkpt lat="46.94322" lon="10.32236"><ele>2304</ele></trkpt>
<trkpt lat="46.9432" lon="10.32239"><ele>2304</ele></trkpt>
<trkpt lat="46.94318" lon="10.32245"><ele>2304</ele></trkpt>
<trkpt lat="46.94319" lon="10.32271"><ele>2299</ele></trkpt>
<trkpt lat="46.94317" lon="10.32293"><ele>2299</ele></trkpt>
<trkpt lat="46.94317" lon="10.32305"><ele>2299</ele></trkpt>
<trkpt lat="46.94318" lon="10.32328"><ele>2299</ele></trkpt>
<trkpt lat="46.94317" lon="10.32341"><ele>2291</ele></trkpt>
<trkpt lat="46.94308" lon="10.32386"><ele>2291</ele></trkpt>
<trkpt lat="46.94308" lon="10.32404"><ele>2291</ele></trkpt>
<trkpt lat="46.9431" lon="10.32424"><ele>2291</ele></trkpt>
<trkpt lat="46.94313" lon="10.32452"><ele>2276</ele></trkpt>
<trkpt lat="46.94317" lon="10.32506"><ele>2276</ele></trkpt>
<trkpt lat="46.94319" lon="10.3255"><ele>2276</ele></trkpt>
<trkpt lat="46.94319" lon="10.32558"><ele>2276</ele></trkpt>
<trkpt lat="46.94318" lon="10.32563"><ele>2260</ele></trkpt>
<trkpt lat="46.94317" lon="10.32565"><ele>2260</ele></trkpt>
<trkpt lat="46.94314" lon="10.32565"><ele>2260</ele></trkpt>
<trkpt lat="46.94311" lon="10.32563"><ele>2260</ele></trkpt>
<trkpt lat="46.94304" lon="10.32539"><ele>2248</ele></trkpt>
<trkpt lat="46.94289" lon="10.32493"><ele>2248</ele></trkpt>
<trkpt lat="46.94287" lon="10.32488"><ele>2248</ele></trkpt>
<trkpt lat="46.94283" lon="10.32485"><ele>2248</ele></trkpt>
<trkpt lat="46.94279" lon="10.32488"><ele>2246</ele></trkpt>
<trkpt lat="46.94279" lon="10.32488"><ele>2246</ele></trkpt>
<trkpt lat="46.94279" lon="10.32488"><ele>2246</ele></trkpt>
<trkpt lat="46.94278" lon="10.32493"><ele>2246</ele></trkpt>
<trkpt lat="46.94279" lon="10.32498"><ele>2246</ele></trkpt>
<trkpt lat="46.94285" lon="10.32527"><ele>2246</ele></trkpt>
<trkpt lat="46.94286" lon="10.32563"><ele>2246</ele></trkpt>
<trkpt lat="46.94283" lon="10.32581"><ele>2246</ele></trkpt>
<trkpt lat="46.9428" lon="10.32597"><ele>2223</ele></trkpt>
<trkpt lat="46.94281" lon="10.32609"><ele>2223</ele></trkpt>
<trkpt lat="46.94284" lon="10.32619"><ele>2223</ele></trkpt>
<trkpt lat="46.94301" lon="10.32652"><ele>2223</ele></trkpt>
<trkpt lat="46.94315" lon="10.32687"><ele>2230</ele></trkpt>
<trkpt lat="46.94321" lon="10.32715"><ele>2230</ele></trkpt>
<trkpt lat="46.94325" lon="10.32738"><ele>2230</ele></trkpt>
<trkpt lat="46.94324" lon="10.32748"><ele>2230</ele></trkpt>
<trkpt lat="46.94322" lon="10.32756"><ele>2212</ele></trkpt>
<trkpt lat="46.94319" lon="10.32757"><ele>2212</ele></trkpt>
<trkpt lat="46.94319" lon="10.32757"><ele>2212</ele></trkpt>
<trkpt lat="46.94316" lon="10.3276"><ele>2212</ele></trkpt>
<trkpt lat="46.94309" lon="10.32757"><ele>2201</ele></trkpt>
<trkpt lat="46.94303" lon="10.3275"><ele>2201</ele></trkpt>
<trkpt lat="46.94292" lon="10.32722"><ele>2201</ele></trkpt>
<trkpt lat="46.94283" lon="10.32701"><ele>2201</ele></trkpt>
<trkpt lat="46.94269" lon="10.3268"><ele>2196</ele></trkpt>
<trkpt lat="46.94256" lon="10.32654"><ele>2196</ele></trkpt>
<trkpt lat="46.9425" lon="10.32646"><ele>2196</ele></trkpt>
<trkpt lat="46.94246" lon="10.32644"><ele>2196</ele></trkpt>
<trkpt lat="46.94242" lon="10.32648"><ele>2198</ele></trkpt>
<trkpt lat="46.94241" lon="10.32653"><ele>2198</ele></trkpt>
<trkpt lat="46.94243" lon="10.32663"><ele>2198</ele></trkpt>
<trkpt lat="46.94245" lon="10.32684"><ele>2198</ele></trkpt>
<trkpt lat="46.94242" lon="10.32704"><ele>2178</ele></trkpt>
<trkpt lat="46.94236" lon="10.32719"><ele>2178</ele></trkpt>
<trkpt lat="46.94231" lon="10.32729"><ele>2178</ele></trkpt>
<trkpt lat="46.94221" lon="10.3274"><ele>2178</ele></trkpt>
<trkpt lat="46.94221" lon="10.3274"><ele>2168</ele></trkpt>
<trkpt lat="46.9422" lon="10.32741"><ele>2168</ele></trkpt>
<trkpt lat="46.94199" lon="10.32757"><ele>2168</ele></trkpt>
<trkpt lat="46.9417" lon="10.32785"><ele>2168</ele></trkpt>
<trkpt lat="46.94134" lon="10.32808"><ele>2152</ele></trkpt>
<trkpt lat="46.94115" lon="10.32823"><ele>2152</ele></trkpt>
<trkpt lat="46.94101" lon="10.32841"><ele>2152</ele></trkpt>
<trkpt lat="46.94092" lon="10.32858"><ele>2152</ele></trkpt>
<trkpt lat="46.94089" lon="10.32869"><ele>2135</ele></trkpt>
<trkpt lat="46.9409" lon="10.32877"><ele>2135</ele></trkpt>
<trkpt lat="46.94101" lon="10.32903"><ele>2135</ele></trkpt>
<trkpt lat="46.94101" lon="10.32911"><ele>2135</ele></trkpt>
<trkpt lat="46.941" lon="10.32917"><ele>2130</ele></trkpt>
<trkpt lat="46.94096" lon="10.3293"><ele>2130</ele></trkpt>
<trkpt lat="46.94087" lon="10.32944"><ele>2130</ele></trkpt>
<trkpt lat="46.94083" lon="10.32961"><ele>2130</ele></trkpt>
<trkpt lat="46.94081" lon="10.32973"><ele>2114</ele></trkpt>
<trkpt lat="46.9408" lon="10.32978"><ele>2114</ele></trkpt>
<trkpt lat="46.94078" lon="10.32984"><ele>2114</ele></trkpt>
<trkpt lat="46.94077" lon="10.32985"><ele>2114</ele></trkpt>
<trkpt lat="46.94073" lon="10.32985"><ele>2114</ele></trkpt>
<trkpt lat="46.94071" lon="10.32984"><ele>2114</ele></trkpt>
<trkpt lat="46.94069" lon="10.3298"><ele>2114</ele></trkpt>
<trkpt lat="46.94067" lon="10.32973"><ele>2114</ele></trkpt>
<trkpt lat="46.94066" lon="10.32966"><ele>2114</ele></trkpt>
<trkpt lat="46.94067" lon="10.32945"><ele>2114</ele></trkpt>
<trkpt lat="46.94066" lon="10.32939"><ele>2114</ele></trkpt>
<trkpt lat="46.94064" lon="10.32933"><ele>2114</ele></trkpt>
<trkpt lat="46.94058" lon="10.32931"><ele>2109</ele></trkpt>
<trkpt lat="46.94049" lon="10.32931"><ele>2109</ele></trkpt>
<trkpt lat="46.94043" lon="10.3293"><ele>2109</ele></trkpt>
<trkpt lat="46.94035" lon="10.32925"><ele>2109</ele></trkpt>
<trkpt lat="46.9402" lon="10.3291"><ele>2098</ele></trkpt>
<trkpt lat="46.94007" lon="10.32893"><ele>2098</ele></trkpt>
<trkpt lat="46.94001" lon="10.32884"><ele>2098</ele></trkpt>
<trkpt lat="46.93999" lon="10.32876"><ele>2098</ele></trkpt>
<trkpt lat="46.93998" lon="10.32865"><ele>2106</ele></trkpt>
<trkpt lat="46.93996" lon="10.32858"><ele>2106</ele></trkpt>
<trkpt lat="46.9399" lon="10.32853"><ele>2106</ele></trkpt>
<trkpt lat="46.93985" lon="10.32851"><ele>2106</ele></trkpt>
<trkpt lat="46.93973" lon="10.32851"><ele>2106</ele></trkpt>
<trkpt lat="46.93946" lon="10.32869"><ele>2106</ele></trkpt>
<trkpt lat="46.93939" lon="10.32878"><ele>2106</ele></trkpt>
<trkpt lat="46.93934" lon="10.32896"><ele>2106</ele></trkpt>
<trkpt lat="46.93932" lon="10.32915"><ele>2095</ele></trkpt>
<trkpt lat="46.93932" lon="10.32931"><ele>2095</ele></trkpt>
<trkpt lat="46.93931" lon="10.32945"><ele>2095</ele></trkpt>
<trkpt lat="46.9393" lon="10.32968"><ele>2095</ele></trkpt>
<trkpt lat="46.9393" lon="10.32968"><ele>2086</ele></trkpt>
<trkpt lat="46.9393" lon="10.32994"><ele>2086</ele></trkpt>
<trkpt lat="46.93936" lon="10.33031"><ele>2086</ele></trkpt>
<trkpt lat="46.93936" lon="10.33059"><ele>2086</ele></trkpt>
<trkpt lat="46.93936" lon="10.33095"><ele>2071</ele></trkpt>
<trkpt lat="46.93947" lon="10.33241"><ele>2071</ele></trkpt>
<trkpt lat="46.93958" lon="10.33342"><ele>2071</ele></trkpt>
<trkpt lat="46.93957" lon="10.33394"><ele>2071</ele></trkpt>
<trkpt lat="46.93956" lon="10.33402"><ele>2039</ele></trkpt>
<trkpt lat="46.93962" lon="10.33459"><ele>2039</ele></trkpt>
<trkpt lat="46.93963" lon="10.33505"><ele>2039</ele></trkpt>
<trkpt lat="46.93959" lon="10.33595"><ele>2039</ele></trkpt>
<trkpt lat="46.93961" lon="10.33623"><ele>2018</ele></trkpt>
<trkpt lat="46.93967" lon="10.33655"><ele>2018</ele></trkpt>
<trkpt lat="46.93972" lon="10.33704"><ele>2018</ele></trkpt>
<trkpt lat="46.93983" lon="10.33811"><ele>2018</ele></trkpt>
<trkpt lat="46.93984" lon="10.3383"><ele>1982</ele></trkpt>
<trkpt lat="46.93982" lon="10.33841"><ele>1982</ele></trkpt>
<trkpt lat="46.93982" lon="10.33841"><ele>1982</ele></trkpt>
<trkpt lat="46.93981" lon="10.33844"><ele>1982</ele></trkpt>
<trkpt lat="46.93979" lon="10.33849"><ele>1986</ele></trkpt>
<trkpt lat="46.93964" lon="10.33873"><ele>1986</ele></trkpt>
<trkpt lat="46.93952" lon="10.33897"><ele>1986</ele></trkpt>
<trkpt lat="46.9394" lon="10.33927"><ele>1986</ele></trkpt>
<trkpt lat="46.93923" lon="10.33977"><ele>1967</ele></trkpt>
<trkpt lat="46.93912" lon="10.3401"><ele>1967</ele></trkpt>
<trkpt lat="46.93902" lon="10.34027"><ele>1967</ele></trkpt>
<trkpt lat="46.93893" lon="10.34061"><ele>1967</ele></trkpt>
<trkpt lat="46.93854" lon="10.34186"><ele>1954</ele></trkpt>
<trkpt lat="46.93848" lon="10.34226"><ele>1954</ele></trkpt>
<trkpt lat="46.93846" lon="10.34263"><ele>1954</ele></trkpt>
<trkpt lat="46.9385" lon="10.34304"><ele>1954</ele></trkpt>
<trkpt lat="46.93891" lon="10.34475"><ele>1936</ele></trkpt>
<trkpt lat="46.93904" lon="10.34512"><ele>1936</ele></trkpt>
<trkpt lat="46.93912" lon="10.3454"><ele>1936</ele></trkpt>
<trkpt lat="46.93913" lon="10.34567"><ele>1936</ele></trkpt>
<trkpt lat="46.9392" lon="10.34606"><ele>1930</ele></trkpt>
<trkpt lat="46.93921" lon="10.34615"><ele>1930</ele></trkpt>
<trkpt lat="46.93924" lon="10.34623"><ele>1930</ele></trkpt>
<trkpt lat="46.93931" lon="10.34642"><ele>1930</ele></trkpt>
<trkpt lat="46.93942" lon="10.34679"><ele>1924</ele></trkpt>
<trkpt lat="46.9396" lon="10.34742"><ele>1924</ele></trkpt>
<trkpt lat="46.93969" lon="10.34784"><ele>1924</ele></trkpt>
<trkpt lat="46.93972" lon="10.34828"><ele>1924</ele></trkpt>
<trkpt lat="46.93986" lon="10.34897"><ele>1911</ele></trkpt>
<trkpt lat="46.93995" lon="10.34971"><ele>1911</ele></trkpt>
<trkpt lat="46.94001" lon="10.34998"><ele>1911</ele></trkpt>
<trkpt lat="46.9401" lon="10.35024"><ele>1911</ele></trkpt>
<trkpt lat="46.94064" lon="10.35122"><ele>1902</ele></trkpt>
<trkpt lat="46.94076" lon="10.35157"><ele>1902</ele></trkpt>
<trkpt lat="46.94081" lon="10.35188"><ele>1902</ele></trkpt>
<trkpt lat="46.94083" lon="10.35199"><ele>1902</ele></trkpt>
<trkpt lat="46.94092" lon="10.35228"><ele>1891</ele></trkpt>
<trkpt lat="46.94099" lon="10.35272"><ele>1891</ele></trkpt>
<trkpt lat="46.94101" lon="10.35318"><ele>1891</ele></trkpt>
<trkpt lat="46.94126" lon="10.35401"><ele>1891</ele></trkpt>
<trkpt lat="46.94143" lon="10.35479"><ele>1878</ele></trkpt>
<trkpt lat="46.94154" lon="10.35528"><ele>1878</ele></trkpt>
<trkpt lat="46.94157" lon="10.35543"><ele>1878</ele></trkpt>
<trkpt lat="46.94161" lon="10.35563"><ele>1878</ele></trkpt>
<trkpt lat="46.94161" lon="10.35563"><ele>1868</ele></trkpt>
<trkpt lat="46.94166" lon="10.35584"><ele>1868</ele></trkpt>
<trkpt lat="46.94177" lon="10.35645"><ele>1868</ele></trkpt>
<trkpt lat="46.94191" lon="10.35687"><ele>1868</ele></trkpt>
<trkpt lat="46.94214" lon="10.35736"><ele>1853</ele></trkpt>
<trkpt lat="46.94231" lon="10.35777"><ele>1853</ele></trkpt>
<trkpt lat="46.94236" lon="10.35796"><ele>1853</ele></trkpt>
<trkpt lat="46.9424" lon="10.35807"><ele>1853</ele></trkpt>
<trkpt lat="46.94249" lon="10.35823"><ele>1851</ele></trkpt>
<trkpt lat="46.94254" lon="10.35831"><ele>1851</ele></trkpt>
<trkpt lat="46.94266" lon="10.35838"><ele>1851</ele></trkpt>
<trkpt lat="46.94286" lon="10.35849"><ele>1851</ele></trkpt>
<trkpt lat="46.9429" lon="10.35854"><ele>1845</ele></trkpt>
<trkpt lat="46.94293" lon="10.35859"><ele>1845</ele></trkpt>
<trkpt lat="46.94308" lon="10.35886"><ele>1845</ele></trkpt>
<trkpt lat="46.94317" lon="10.359"><ele>1845</ele></trkpt>
<trkpt lat="46.94319" lon="10.35903"><ele>1840</ele></trkpt>
<trkpt lat="46.94328" lon="10.3592"><ele>1840</ele></trkpt>
<trkpt lat="46.94333" lon="10.35934"><ele>1840</ele></trkpt>
<trkpt lat="46.94341" lon="10.35975"><ele>1840</ele></trkpt>
<trkpt lat="46.94351" lon="10.36026"><ele>1839</ele></trkpt>
<trkpt lat="46.94355" lon="10.36037"><ele>1839</ele></trkpt>
<trkpt lat="46.94364" lon="10.36058"><ele>1839</ele></trkpt>
<trkpt lat="46.94364" lon="10.36058"><ele>1839</ele></trkpt>
<trkpt lat="46.94367" lon="10.36064"><ele>1837</ele></trkpt>
<trkpt lat="46.94383" lon="10.36076"><ele>1837</ele></trkpt>
<trkpt lat="46.94394" lon="10.36086"><ele>1837</ele></trkpt>
<trkpt lat="46.94401" lon="10.36091"><ele>1837</ele></trkpt>
<trkpt lat="46.94454" lon="10.36134"><ele>1827</ele></trkpt>
<trkpt lat="46.94464" lon="10.36149"><ele>1827</ele></trkpt>
<trkpt lat="46.9447" lon="10.36164"><ele>1827</ele></trkpt>
<trkpt lat="46.94483" lon="10.36192"><ele>1827</ele></trkpt>
<trkpt lat="46.9449" lon="10.36206"><ele>1824</ele></trkpt>
<trkpt lat="46.94505" lon="10.3622"><ele>1824</ele></trkpt>
<trkpt lat="46.9453" lon="10.36245"><ele>1824</ele></trkpt>
<trkpt lat="46.94553" lon="10.36267"><ele>1824</ele></trkpt>
<trkpt lat="46.94563" lon="10.36272"><ele>1822</ele></trkpt>
<trkpt lat="46.94577" lon="10.36276"><ele>1822</ele></trkpt>
<trkpt lat="46.94577" lon="10.36276"><ele>1822</ele></trkpt>
<trkpt lat="46.94585" lon="10.36276"><ele>1822</ele></trkpt>
<trkpt lat="46.94614" lon="10.3628"><ele>1817</ele></trkpt>
<trkpt lat="46.94621" lon="10.36281"><ele>1817</ele></trkpt>
<trkpt lat="46.94621" lon="10.36273"><ele>1817</ele></trkpt>
<trkpt lat="46.94627" lon="10.36274"><ele>1817</ele></trkpt>
<trkpt lat="46.94654" lon="10.36274"><ele>1807</ele></trkpt>
<trkpt lat="46.94679" lon="10.36267"><ele>1807</ele></trkpt>
<trkpt lat="46.94694" lon="10.36259"><ele>1807</ele></trkpt>
<trkpt lat="46.94705" lon="10.36259"><ele>1807</ele></trkpt>
<trkpt lat="46.94717" lon="10.36262"><ele>1799</ele></trkpt>
<trkpt lat="46.94738" lon="10.36274"><ele>1799</ele></trkpt>
<trkpt lat="46.94747" lon="10.3628"><ele>1799</ele></trkpt>
<trkpt lat="46.94747" lon="10.3628"><ele>1799</ele></trkpt>
<trkpt lat="46.94814" lon="10.36433"><ele>1795</ele></trkpt>
<trkpt lat="46.9482" lon="10.36462"><ele>1795</ele></trkpt>
<trkpt lat="46.94862" lon="10.36534"><ele>1795</ele></trkpt>
<trkpt lat="46.94876" lon="10.36567"><ele>1795</ele></trkpt>
<trkpt lat="46.94885" lon="10.3661"><ele>1790</ele></trkpt>
<trkpt lat="46.94889" lon="10.36625"><ele>1790</ele></trkpt>
<trkpt lat="46.94889" lon="10.36625"><ele>1790</ele></trkpt>
<trkpt lat="46.94897" lon="10.36664"><ele>1790</ele></trkpt>
<trkpt lat="46.9491" lon="10.36703"><ele>1786</ele></trkpt>
<trkpt lat="46.94917" lon="10.36721"><ele>1786</ele></trkpt>
<trkpt lat="46.94935" lon="10.36766"><ele>1786</ele></trkpt>
<trkpt lat="46.94963" lon="10.36822"><ele>1786</ele></trkpt>
<trkpt lat="46.9498" lon="10.36872"><ele>1781</ele></trkpt>
<trkpt lat="46.9498" lon="10.36872"><ele>1781</ele></trkpt>
<trkpt lat="46.94995" lon="10.36918"><ele>1781</ele></trkpt>
<trkpt lat="46.9502" lon="10.36991"><ele>1781</ele></trkpt>
<trkpt lat="46.95028" lon="10.37054"><ele>1778</ele></trkpt>
<trkpt lat="46.95028" lon="10.37054"><ele>1778</ele></trkpt>
<trkpt lat="46.95034" lon="10.37102"><ele>1778</ele></trkpt>
<trkpt lat="46.95034" lon="10.37112"><ele>1778</ele></trkpt>
<trkpt lat="46.95036" lon="10.37139"><ele>1777</ele></trkpt>
<trkpt lat="46.95036" lon="10.37151"><ele>1777</ele></trkpt>
<trkpt lat="46.95038" lon="10.37168"><ele>1777</ele></trkpt>
<trkpt lat="46.95049" lon="10.37217"><ele>1777</ele></trkpt>
<trkpt lat="46.95051" lon="10.37229"><ele>1783</ele></trkpt>
<trkpt lat="46.95056" lon="10.37238"><ele>1783</ele></trkpt>
<trkpt lat="46.95056" lon="10.37238"><ele>1783</ele></trkpt>
<trkpt lat="46.95112" lon="10.37342"><ele>1783</ele></trkpt>
<trkpt lat="46.95122" lon="10.37364"><ele>1768</ele></trkpt>
<trkpt lat="46.95156" lon="10.37439"><ele>1768</ele></trkpt>

                    </trkseg>
              </trk>
            </gpx>