<?xml version="1.0" encoding="utf-8"?>
            <gpx xmlns="http://www.topografix.com/GPX/1/1" xmlns:xsd="http://www.w3.org/2001/XMLSchema" xmlns:xsi="http://www.w3.org/2001/XMLSchema-instance" version="1.1" creator="Fugawi 4,5,14,1696 http://www.fugawi.com/" xsi:schemaLocation="http://www.topografix.com/GPX/1/1 http://www.topografix.com/GPX/1/1/gpx.xsd">
                <trk>
                    <name>7079 Friedrichshafener Uphill & Trail</name>
                    <desc></desc>
                    <trkseg>
                        <trkpt lat="46.98192" lon="10.21873"><ele>1540</ele></trkpt>
<trkpt lat="46.9819" lon="10.21884"><ele>1539</ele></trkpt>
<trkpt lat="46.9819" lon="10.21884"><ele>1539</ele></trkpt>
<trkpt lat="46.98209" lon="10.21899"><ele>1541</ele></trkpt>
<trkpt lat="46.98227" lon="10.21929"><ele>1543</ele></trkpt>
<trkpt lat="46.98255" lon="10.21941"><ele>1546</ele></trkpt>
<trkpt lat="46.98273" lon="10.21942"><ele>1548</ele></trkpt>
<trkpt lat="46.98291" lon="10.21956"><ele>1547</ele></trkpt>
<trkpt lat="46.98338" lon="10.22003"><ele>1553</ele></trkpt>
<trkpt lat="46.98343" lon="10.22007"><ele>1551</ele></trkpt>
<trkpt lat="46.98343" lon="10.22007"><ele>1551</ele></trkpt>
<trkpt lat="46.98343" lon="10.22007"><ele>1551</ele></trkpt>
<trkpt lat="46.98343" lon="10.22007"><ele>1551</ele></trkpt>
<trkpt lat="46.98381" lon="10.22053"><ele>1556</ele></trkpt>
<trkpt lat="46.98407" lon="10.22073"><ele>1560</ele></trkpt>
<trkpt lat="46.98426" lon="10.22136"><ele>1561</ele></trkpt>
<trkpt lat="46.9846" lon="10.22162"><ele>1565</ele></trkpt>
<trkpt lat="46.98505" lon="10.22221"><ele>1572</ele></trkpt>
<trkpt lat="46.98505" lon="10.22221"><ele>1572</ele></trkpt>
<trkpt lat="46.98505" lon="10.22221"><ele>1572</ele></trkpt>
<trkpt lat="46.98505" lon="10.22221"><ele>1572</ele></trkpt>
<trkpt lat="46.98544" lon="10.22272"><ele>1575</ele></trkpt>
<trkpt lat="46.98544" lon="10.22272"><ele>1575</ele></trkpt>
<trkpt lat="46.98592" lon="10.22298"><ele>1594</ele></trkpt>
<trkpt lat="46.9861" lon="10.22321"><ele>1599</ele></trkpt>
<trkpt lat="46.98625" lon="10.2234"><ele>1604</ele></trkpt>
<trkpt lat="46.98627" lon="10.22348"><ele>1604</ele></trkpt>
<trkpt lat="46.98633" lon="10.22359"><ele>1601</ele></trkpt>
<trkpt lat="46.98641" lon="10.22361"><ele>1606</ele></trkpt>
<trkpt lat="46.98652" lon="10.22373"><ele>1615</ele></trkpt>
<trkpt lat="46.98659" lon="10.22376"><ele>1615</ele></trkpt>
<trkpt lat="46.9867" lon="10.22392"><ele>1619</ele></trkpt>
<trkpt lat="46.98698" lon="10.22419"><ele>1634</ele></trkpt>
<trkpt lat="46.98698" lon="10.22419"><ele>1634</ele></trkpt>
<trkpt lat="46.9869" lon="10.22333"><ele>1644</ele></trkpt>
<trkpt lat="46.98663" lon="10.22217"><ele>1653</ele></trkpt>
<trkpt lat="46.98646" lon="10.22155"><ele>1658</ele></trkpt>
<trkpt lat="46.98637" lon="10.22129"><ele>1661</ele></trkpt>
<trkpt lat="46.98637" lon="10.22129"><ele>1661</ele></trkpt>
<trkpt lat="46.98637" lon="10.22129"><ele>1661</ele></trkpt>
<trkpt lat="46.98637" lon="10.22129"><ele>1661</ele></trkpt>
<trkpt lat="46.98616" lon="10.22075"><ele>1665</ele></trkpt>
<trkpt lat="46.98619" lon="10.22067"><ele>1667</ele></trkpt>
<trkpt lat="46.98619" lon="10.22067"><ele>1667</ele></trkpt>
<trkpt lat="46.98625" lon="10.2207"><ele>1672</ele></trkpt>
<trkpt lat="46.98648" lon="10.22122"><ele>1666</ele></trkpt>
<trkpt lat="46.98678" lon="10.22159"><ele>1679</ele></trkpt>
<trkpt lat="46.98694" lon="10.22198"><ele>1677</ele></trkpt>
<trkpt lat="46.98721" lon="10.22247"><ele>1689</ele></trkpt>
<trkpt lat="46.98721" lon="10.22247"><ele>1689</ele></trkpt>
<trkpt lat="46.98721" lon="10.22247"><ele>1689</ele></trkpt>
<trkpt lat="46.98721" lon="10.22247"><ele>1689</ele></trkpt>
<trkpt lat="46.98727" lon="10.22259"><ele>1686</ele></trkpt>
<trkpt lat="46.98749" lon="10.22308"><ele>1691</ele></trkpt>
<trkpt lat="46.98757" lon="10.2235"><ele>1689</ele></trkpt>
<trkpt lat="46.98771" lon="10.22373"><ele>1692</ele></trkpt>
<trkpt lat="46.98788" lon="10.22378"><ele>1696</ele></trkpt>
<trkpt lat="46.98831" lon="10.22402"><ele>1708</ele></trkpt>
<trkpt lat="46.98837" lon="10.22416"><ele>1706</ele></trkpt>
<trkpt lat="46.98865" lon="10.22493"><ele>1712</ele></trkpt>
<trkpt lat="46.98888" lon="10.22546"><ele>1719</ele></trkpt>
<trkpt lat="46.98888" lon="10.22546"><ele>1719</ele></trkpt>
<trkpt lat="46.98888" lon="10.22546"><ele>1719</ele></trkpt>
<trkpt lat="46.98888" lon="10.22546"><ele>1719</ele></trkpt>
<trkpt lat="46.98883" lon="10.22544"><ele>1716</ele></trkpt>
<trkpt lat="46.98884" lon="10.22564"><ele>1714</ele></trkpt>
<trkpt lat="46.98878" lon="10.22586"><ele>1710</ele></trkpt>
<trkpt lat="46.9888" lon="10.22601"><ele>1707</ele></trkpt>
<trkpt lat="46.98882" lon="10.22613"><ele>1704</ele></trkpt>
<trkpt lat="46.98882" lon="10.22613"><ele>1704</ele></trkpt>
<trkpt lat="46.98882" lon="10.22613"><ele>1704</ele></trkpt>
<trkpt lat="46.98882" lon="10.22613"><ele>1704</ele></trkpt>
<trkpt lat="46.98885" lon="10.22629"><ele>1700</ele></trkpt>
<trkpt lat="46.98882" lon="10.22648"><ele>1695</ele></trkpt>
<trkpt lat="46.9886" lon="10.22631"><ele>1692</ele></trkpt>
<trkpt lat="46.98852" lon="10.22622"><ele>1687</ele></trkpt>
<trkpt lat="46.98844" lon="10.22617"><ele>1685</ele></trkpt>
<trkpt lat="46.98844" lon="10.22617"><ele>1685</ele></trkpt>
<trkpt lat="46.98838" lon="10.22662"><ele>1670</ele></trkpt>
<trkpt lat="46.9884" lon="10.22695"><ele>1664</ele></trkpt>
<trkpt lat="46.98842" lon="10.22723"><ele>1650</ele></trkpt>
<trkpt lat="46.9885" lon="10.22741"><ele>1648</ele></trkpt>
<trkpt lat="46.98869" lon="10.22756"><ele>1646</ele></trkpt>
<trkpt lat="46.98879" lon="10.22767"><ele>1645</ele></trkpt>
<trkpt lat="46.98878" lon="10.22796"><ele>1637</ele></trkpt>
<trkpt lat="46.98887" lon="10.22819"><ele>1634</ele></trkpt>
<trkpt lat="46.98887" lon="10.22835"><ele>1629</ele></trkpt>
<trkpt lat="46.9889" lon="10.22846"><ele>1624</ele></trkpt>
<trkpt lat="46.98899" lon="10.22865"><ele>1622</ele></trkpt>
<trkpt lat="46.989" lon="10.2289"><ele>1619</ele></trkpt>
<trkpt lat="46.98901" lon="10.22918"><ele>1617</ele></trkpt>
<trkpt lat="46.98898" lon="10.22939"><ele>1614</ele></trkpt>
<trkpt lat="46.989" lon="10.22974"><ele>1608</ele></trkpt>
<trkpt lat="46.98913" lon="10.23004"><ele>1604</ele></trkpt>
<trkpt lat="46.98919" lon="10.23027"><ele>1601</ele></trkpt>
<trkpt lat="46.98925" lon="10.2307"><ele>1595</ele></trkpt>
<trkpt lat="46.98926" lon="10.23079"><ele>1595</ele></trkpt>
<trkpt lat="46.98926" lon="10.23079"><ele>1595</ele></trkpt>
<trkpt lat="46.98926" lon="10.23079"><ele>1595</ele></trkpt>
<trkpt lat="46.98926" lon="10.23079"><ele>1595</ele></trkpt>
<trkpt lat="46.98926" lon="10.23101"><ele>1595</ele></trkpt>
<trkpt lat="46.98921" lon="10.23132"><ele>1590</ele></trkpt>
<trkpt lat="46.98915" lon="10.23149"><ele>1587</ele></trkpt>
<trkpt lat="46.98911" lon="10.23156"><ele>1586</ele></trkpt>
<trkpt lat="46.98908" lon="10.23162"><ele>1584</ele></trkpt>
<trkpt lat="46.98897" lon="10.23174"><ele>1581</ele></trkpt>
<trkpt lat="46.98888" lon="10.23188"><ele>1578</ele></trkpt>
<trkpt lat="46.98881" lon="10.23199"><ele>1576</ele></trkpt>
<trkpt lat="46.98877" lon="10.23204"><ele>1575</ele></trkpt>
<trkpt lat="46.98877" lon="10.23204"><ele>1575</ele></trkpt>
<trkpt lat="46.98877" lon="10.23204"><ele>1575</ele></trkpt>
<trkpt lat="46.98877" lon="10.23204"><ele>1575</ele></trkpt>
<trkpt lat="46.9887" lon="10.23209"><ele>1572</ele></trkpt>
<trkpt lat="46.98862" lon="10.23221"><ele>1568</ele></trkpt>
<trkpt lat="46.98856" lon="10.23227"><ele>1568</ele></trkpt>
<trkpt lat="46.98846" lon="10.23239"><ele>1564</ele></trkpt>
<trkpt lat="46.98838" lon="10.23251"><ele>1560</ele></trkpt>
<trkpt lat="46.98831" lon="10.23258"><ele>1559</ele></trkpt>
<trkpt lat="46.98821" lon="10.23264"><ele>1555</ele></trkpt>
<trkpt lat="46.98815" lon="10.23274"><ele>1552</ele></trkpt>
<trkpt lat="46.98813" lon="10.23288"><ele>1549</ele></trkpt>
<trkpt lat="46.98808" lon="10.23298"><ele>1546</ele></trkpt>
<trkpt lat="46.98805" lon="10.23306"><ele>1546</ele></trkpt>
<trkpt lat="46.98801" lon="10.23311"><ele>1542</ele></trkpt>
<trkpt lat="46.98792" lon="10.23325"><ele>1538</ele></trkpt>
<trkpt lat="46.98774" lon="10.23349"><ele>1532</ele></trkpt>
<trkpt lat="46.98769" lon="10.23359"><ele>1533</ele></trkpt>
<trkpt lat="46.98764" lon="10.23365"><ele>1529</ele></trkpt>
<trkpt lat="46.98753" lon="10.23368"><ele>1528</ele></trkpt>
<trkpt lat="46.98744" lon="10.23376"><ele>1524</ele></trkpt>
<trkpt lat="46.98741" lon="10.2338"><ele>1524</ele></trkpt>
<trkpt lat="46.98739" lon="10.23384"><ele>1524</ele></trkpt>
<trkpt lat="46.98734" lon="10.23387"><ele>1520</ele></trkpt>
<trkpt lat="46.9873" lon="10.23389"><ele>1520</ele></trkpt>
<trkpt lat="46.9873" lon="10.23389"><ele>1520</ele></trkpt>
<trkpt lat="46.9873" lon="10.23389"><ele>1520</ele></trkpt>
<trkpt lat="46.9873" lon="10.23389"><ele>1520</ele></trkpt>
<trkpt lat="46.98728" lon="10.2339"><ele>1519</ele></trkpt>
<trkpt lat="46.98716" lon="10.23398"><ele>1517</ele></trkpt>
<trkpt lat="46.98701" lon="10.23406"><ele>1512</ele></trkpt>
<trkpt lat="46.98682" lon="10.2341"><ele>1510</ele></trkpt>
<trkpt lat="46.98676" lon="10.2342"><ele>1507</ele></trkpt>
<trkpt lat="46.98673" lon="10.23426"><ele>1504</ele></trkpt>
<trkpt lat="46.98648" lon="10.23457"><ele>1496</ele></trkpt>
<trkpt lat="46.98628" lon="10.23475"><ele>1491</ele></trkpt>
<trkpt lat="46.98619" lon="10.23484"><ele>1489</ele></trkpt>
<trkpt lat="46.986" lon="10.23511"><ele>1484</ele></trkpt>
<trkpt lat="46.986" lon="10.23511"><ele>1484</ele></trkpt>
<trkpt lat="46.98597" lon="10.23498"><ele>1485</ele></trkpt>
<trkpt lat="46.98597" lon="10.23498"><ele>1485</ele></trkpt>
<trkpt lat="46.98597" lon="10.23498"><ele>1485</ele></trkpt>
<trkpt lat="46.98597" lon="10.23498"><ele>1485</ele></trkpt>
<trkpt lat="46.98593" lon="10.23485"><ele>1487</ele></trkpt>
<trkpt lat="46.9859" lon="10.23475"><ele>1488</ele></trkpt>
<trkpt lat="46.98588" lon="10.23466"><ele>1487</ele></trkpt>
<trkpt lat="46.98587" lon="10.23456"><ele>1488</ele></trkpt>
<trkpt lat="46.98587" lon="10.2345"><ele>1488</ele></trkpt>
<trkpt lat="46.98587" lon="10.23441"><ele>1488</ele></trkpt>
<trkpt lat="46.98586" lon="10.23428"><ele>1489</ele></trkpt>
<trkpt lat="46.98585" lon="10.23418"><ele>1490</ele></trkpt>
<trkpt lat="46.98582" lon="10.23408"><ele>1491</ele></trkpt>
<trkpt lat="46.98568" lon="10.2337"><ele>1493</ele></trkpt>
<trkpt lat="46.98555" lon="10.23323"><ele>1494</ele></trkpt>
<trkpt lat="46.9855" lon="10.23295"><ele>1495</ele></trkpt>
<trkpt lat="46.98549" lon="10.23268"><ele>1495</ele></trkpt>
<trkpt lat="46.98552" lon="10.23232"><ele>1494</ele></trkpt>
<trkpt lat="46.98552" lon="10.23213"><ele>1494</ele></trkpt>
<trkpt lat="46.98523" lon="10.22887"><ele>1493</ele></trkpt>
<trkpt lat="46.98518" lon="10.2283"><ele>1494</ele></trkpt>
<trkpt lat="46.98507" lon="10.22796"><ele>1496</ele></trkpt>
<trkpt lat="46.98487" lon="10.22761"><ele>1496</ele></trkpt>
<trkpt lat="46.98487" lon="10.22761"><ele>1496</ele></trkpt>
<trkpt lat="46.98489" lon="10.22749"><ele>1497</ele></trkpt>
<trkpt lat="46.98484" lon="10.22735"><ele>1497</ele></trkpt>
<trkpt lat="46.98482" lon="10.22725"><ele>1497</ele></trkpt>
<trkpt lat="46.98477" lon="10.22715"><ele>1499</ele></trkpt>
<trkpt lat="46.98458" lon="10.22707"><ele>1501</ele></trkpt>
<trkpt lat="46.98434" lon="10.22705"><ele>1502</ele></trkpt>
<trkpt lat="46.98425" lon="10.22697"><ele>1503</ele></trkpt>
<trkpt lat="46.98418" lon="10.22683"><ele>1505</ele></trkpt>
<trkpt lat="46.98418" lon="10.22683"><ele>1505</ele></trkpt>
<trkpt lat="46.98423" lon="10.22672"><ele>1505</ele></trkpt>
<trkpt lat="46.98431" lon="10.22671"><ele>1505</ele></trkpt>
<trkpt lat="46.98446" lon="10.22674"><ele>1504</ele></trkpt>
<trkpt lat="46.98462" lon="10.22672"><ele>1504</ele></trkpt>
<trkpt lat="46.9848" lon="10.22664"><ele>1505</ele></trkpt>
<trkpt lat="46.98492" lon="10.22659"><ele>1505</ele></trkpt>
<trkpt lat="46.98499" lon="10.22641"><ele>1506</ele></trkpt>
<trkpt lat="46.98501" lon="10.22627"><ele>1507</ele></trkpt>
<trkpt lat="46.98501" lon="10.22622"><ele>1507</ele></trkpt>
<trkpt lat="46.98498" lon="10.22617"><ele>1509</ele></trkpt>
<trkpt lat="46.98489" lon="10.22605"><ele>1509</ele></trkpt>
<trkpt lat="46.98482" lon="10.22591"><ele>1510</ele></trkpt>
<trkpt lat="46.98477" lon="10.22572"><ele>1511</ele></trkpt>
<trkpt lat="46.98469" lon="10.22514"><ele>1515</ele></trkpt>
<trkpt lat="46.98462" lon="10.22493"><ele>1515</ele></trkpt>
<trkpt lat="46.98456" lon="10.22469"><ele>1517</ele></trkpt>
<trkpt lat="46.9845" lon="10.22428"><ele>1520</ele></trkpt>
<trkpt lat="46.98442" lon="10.22406"><ele>1523</ele></trkpt>
<trkpt lat="46.9842" lon="10.22367"><ele>1523</ele></trkpt>
<trkpt lat="46.98404" lon="10.22333"><ele>1524</ele></trkpt>
<trkpt lat="46.98394" lon="10.22308"><ele>1527</ele></trkpt>
<trkpt lat="46.98374" lon="10.22292"><ele>1527</ele></trkpt>
<trkpt lat="46.98355" lon="10.22265"><ele>1530</ele></trkpt>
<trkpt lat="46.98349" lon="10.22242"><ele>1532</ele></trkpt>
<trkpt lat="46.98348" lon="10.22218"><ele>1533</ele></trkpt>
<trkpt lat="46.98348" lon="10.22195"><ele>1535</ele></trkpt>
<trkpt lat="46.98349" lon="10.22173"><ele>1536</ele></trkpt>
<trkpt lat="46.98352" lon="10.22153"><ele>1538</ele></trkpt>
<trkpt lat="46.98357" lon="10.22131"><ele>1542</ele></trkpt>
<trkpt lat="46.98361" lon="10.22114"><ele>1543</ele></trkpt>
<trkpt lat="46.9836" lon="10.22104"><ele>1544</ele></trkpt>
<trkpt lat="46.98358" lon="10.22092"><ele>1546</ele></trkpt>
<trkpt lat="46.98352" lon="10.22064"><ele>1547</ele></trkpt>
<trkpt lat="46.98342" lon="10.2203"><ele>1550</ele></trkpt>
<trkpt lat="46.98338" lon="10.2201"><ele>1551</ele></trkpt>
<trkpt lat="46.98338" lon="10.2201"><ele>1551</ele></trkpt>
<trkpt lat="46.98338" lon="10.2201"><ele>1551</ele></trkpt>

                    </trkseg>
              </trk>
            </gpx>