<?xml version="1.0" encoding="utf-8"?>
            <gpx xmlns="http://www.topografix.com/GPX/1/1" xmlns:xsd="http://www.w3.org/2001/XMLSchema" xmlns:xsi="http://www.w3.org/2001/XMLSchema-instance" version="1.1" creator="Fugawi 4,5,14,1696 http://www.fugawi.com/" xsi:schemaLocation="http://www.topografix.com/GPX/1/1 http://www.topografix.com/GPX/1/1/gpx.xsd">
                <trk>
                    <name>7106 Flimjoch Trail</name>
                    <desc></desc>
                    <trkseg>
                        <trkpt lat="46.98043" lon="10.33948"><ele>2748</ele></trkpt>
<trkpt lat="46.98043" lon="10.33948"><ele>2748</ele></trkpt>
<trkpt lat="46.98042" lon="10.33948"><ele>2748</ele></trkpt>
<trkpt lat="46.98041" lon="10.33948"><ele>2748</ele></trkpt>
<trkpt lat="46.98031" lon="10.33949"><ele>2746</ele></trkpt>
<trkpt lat="46.9802" lon="10.33942"><ele>2746</ele></trkpt>
<trkpt lat="46.98017" lon="10.3394"><ele>2746</ele></trkpt>
<trkpt lat="46.9801" lon="10.33932"><ele>2746</ele></trkpt>
<trkpt lat="46.98006" lon="10.33929"><ele>2741</ele></trkpt>
<trkpt lat="46.97996" lon="10.33918"><ele>2741</ele></trkpt>
<trkpt lat="46.97984" lon="10.33902"><ele>2741</ele></trkpt>
<trkpt lat="46.97982" lon="10.33896"><ele>2741</ele></trkpt>
<trkpt lat="46.9799" lon="10.33896"><ele>2735</ele></trkpt>
<trkpt lat="46.9799" lon="10.33885"><ele>2735</ele></trkpt>
<trkpt lat="46.97987" lon="10.33863"><ele>2735</ele></trkpt>
<trkpt lat="46.97986" lon="10.3386"><ele>2735</ele></trkpt>
<trkpt lat="46.97987" lon="10.33843"><ele>2729</ele></trkpt>
<trkpt lat="46.97982" lon="10.33829"><ele>2729</ele></trkpt>
<trkpt lat="46.97985" lon="10.33824"><ele>2729</ele></trkpt>
<trkpt lat="46.97989" lon="10.33831"><ele>2729</ele></trkpt>
<trkpt lat="46.97994" lon="10.33826"><ele>2723</ele></trkpt>
<trkpt lat="46.97993" lon="10.33824"><ele>2723</ele></trkpt>
<trkpt lat="46.9799" lon="10.3382"><ele>2723</ele></trkpt>
<trkpt lat="46.97982" lon="10.33803"><ele>2723</ele></trkpt>
<trkpt lat="46.97981" lon="10.33799"><ele>2720</ele></trkpt>
<trkpt lat="46.97978" lon="10.33792"><ele>2720</ele></trkpt>
<trkpt lat="46.97977" lon="10.33775"><ele>2720</ele></trkpt>
<trkpt lat="46.97981" lon="10.3377"><ele>2720</ele></trkpt>
<trkpt lat="46.97984" lon="10.33764"><ele>2711</ele></trkpt>
<trkpt lat="46.97983" lon="10.33763"><ele>2711</ele></trkpt>
<trkpt lat="46.97982" lon="10.33761"><ele>2711</ele></trkpt>
<trkpt lat="46.97991" lon="10.3375"><ele>2711</ele></trkpt>
<trkpt lat="46.97991" lon="10.33741"><ele>2703</ele></trkpt>
<trkpt lat="46.97995" lon="10.33722"><ele>2703</ele></trkpt>
<trkpt lat="46.97994" lon="10.33718"><ele>2703</ele></trkpt>
<trkpt lat="46.97995" lon="10.33702"><ele>2703</ele></trkpt>
<trkpt lat="46.97989" lon="10.33688"><ele>2692</ele></trkpt>
<trkpt lat="46.97991" lon="10.33676"><ele>2692</ele></trkpt>
<trkpt lat="46.97991" lon="10.33669"><ele>2692</ele></trkpt>
<trkpt lat="46.97986" lon="10.33653"><ele>2692</ele></trkpt>
<trkpt lat="46.97991" lon="10.33648"><ele>2685</ele></trkpt>
<trkpt lat="46.98002" lon="10.33662"><ele>2685</ele></trkpt>
<trkpt lat="46.98003" lon="10.33668"><ele>2685</ele></trkpt>
<trkpt lat="46.98004" lon="10.33672"><ele>2685</ele></trkpt>
<trkpt lat="46.98011" lon="10.33679"><ele>2684</ele></trkpt>
<trkpt lat="46.98022" lon="10.33688"><ele>2684</ele></trkpt>
<trkpt lat="46.98026" lon="10.33693"><ele>2684</ele></trkpt>
<trkpt lat="46.98026" lon="10.33693"><ele>2684</ele></trkpt>
<trkpt lat="46.98027" lon="10.33694"><ele>2683</ele></trkpt>
<trkpt lat="46.98037" lon="10.33697"><ele>2683</ele></trkpt>
<trkpt lat="46.98055" lon="10.33699"><ele>2683</ele></trkpt>
<trkpt lat="46.98065" lon="10.33702"><ele>2683</ele></trkpt>
<trkpt lat="46.98077" lon="10.33698"><ele>2672</ele></trkpt>
<trkpt lat="46.98082" lon="10.33699"><ele>2672</ele></trkpt>
<trkpt lat="46.98084" lon="10.33699"><ele>2672</ele></trkpt>
<trkpt lat="46.98098" lon="10.33689"><ele>2672</ele></trkpt>
<trkpt lat="46.98101" lon="10.33676"><ele>2668</ele></trkpt>
<trkpt lat="46.98097" lon="10.3367"><ele>2668</ele></trkpt>
<trkpt lat="46.98093" lon="10.33668"><ele>2668</ele></trkpt>
<trkpt lat="46.9809" lon="10.33663"><ele>2668</ele></trkpt>
<trkpt lat="46.98088" lon="10.33658"><ele>2663</ele></trkpt>
<trkpt lat="46.98085" lon="10.33655"><ele>2663</ele></trkpt>
<trkpt lat="46.98082" lon="10.33652"><ele>2663</ele></trkpt>
<trkpt lat="46.98076" lon="10.33639"><ele>2663</ele></trkpt>
<trkpt lat="46.9807" lon="10.33627"><ele>2655</ele></trkpt>
<trkpt lat="46.98064" lon="10.33616"><ele>2655</ele></trkpt>
<trkpt lat="46.98065" lon="10.33599"><ele>2655</ele></trkpt>
<trkpt lat="46.98067" lon="10.336"><ele>2655</ele></trkpt>
<trkpt lat="46.98074" lon="10.33599"><ele>2649</ele></trkpt>
<trkpt lat="46.98085" lon="10.33595"><ele>2649</ele></trkpt>
<trkpt lat="46.981" lon="10.336"><ele>2649</ele></trkpt>
<trkpt lat="46.98105" lon="10.33597"><ele>2649</ele></trkpt>
<trkpt lat="46.98104" lon="10.33592"><ele>2647</ele></trkpt>
<trkpt lat="46.98102" lon="10.3359"><ele>2647</ele></trkpt>
<trkpt lat="46.98101" lon="10.33588"><ele>2647</ele></trkpt>
<trkpt lat="46.98095" lon="10.33581"><ele>2647</ele></trkpt>
<trkpt lat="46.98089" lon="10.33568"><ele>2640</ele></trkpt>
<trkpt lat="46.98085" lon="10.33562"><ele>2640</ele></trkpt>
<trkpt lat="46.9808" lon="10.33548"><ele>2640</ele></trkpt>
<trkpt lat="46.98082" lon="10.33538"><ele>2640</ele></trkpt>
<trkpt lat="46.98086" lon="10.33539"><ele>2630</ele></trkpt>
<trkpt lat="46.98097" lon="10.33541"><ele>2630</ele></trkpt>
<trkpt lat="46.98103" lon="10.33544"><ele>2630</ele></trkpt>
<trkpt lat="46.98126" lon="10.33544"><ele>2630</ele></trkpt>
<trkpt lat="46.98131" lon="10.33536"><ele>2630</ele></trkpt>
<trkpt lat="46.98142" lon="10.33527"><ele>2630</ele></trkpt>
<trkpt lat="46.98146" lon="10.33527"><ele>2630</ele></trkpt>
<trkpt lat="46.98158" lon="10.33524"><ele>2630</ele></trkpt>
<trkpt lat="46.98164" lon="10.33525"><ele>2625</ele></trkpt>
<trkpt lat="46.98172" lon="10.33508"><ele>2625</ele></trkpt>
<trkpt lat="46.98163" lon="10.33501"><ele>2625</ele></trkpt>
<trkpt lat="46.98153" lon="10.33501"><ele>2625</ele></trkpt>
<trkpt lat="46.98143" lon="10.33498"><ele>2617</ele></trkpt>
<trkpt lat="46.98134" lon="10.33482"><ele>2617</ele></trkpt>
<trkpt lat="46.98129" lon="10.33479"><ele>2617</ele></trkpt>
<trkpt lat="46.98117" lon="10.3346"><ele>2617</ele></trkpt>
<trkpt lat="46.98116" lon="10.33449"><ele>2607</ele></trkpt>
<trkpt lat="46.98118" lon="10.33442"><ele>2607</ele></trkpt>
<trkpt lat="46.98115" lon="10.33433"><ele>2607</ele></trkpt>
<trkpt lat="46.98114" lon="10.33428"><ele>2607</ele></trkpt>
<trkpt lat="46.98111" lon="10.33421"><ele>2602</ele></trkpt>
<trkpt lat="46.98096" lon="10.33393"><ele>2602</ele></trkpt>
<trkpt lat="46.98095" lon="10.33389"><ele>2602</ele></trkpt>
<trkpt lat="46.98101" lon="10.3338"><ele>2602</ele></trkpt>
<trkpt lat="46.98113" lon="10.33376"><ele>2600</ele></trkpt>
<trkpt lat="46.98114" lon="10.33375"><ele>2600</ele></trkpt>
<trkpt lat="46.98121" lon="10.33361"><ele>2600</ele></trkpt>
<trkpt lat="46.98128" lon="10.33358"><ele>2600</ele></trkpt>
<trkpt lat="46.98137" lon="10.33351"><ele>2592</ele></trkpt>
<trkpt lat="46.9814" lon="10.33348"><ele>2592</ele></trkpt>
<trkpt lat="46.9815" lon="10.33344"><ele>2592</ele></trkpt>
<trkpt lat="46.98152" lon="10.33344"><ele>2592</ele></trkpt>
<trkpt lat="46.98152" lon="10.33332"><ele>2583</ele></trkpt>
<trkpt lat="46.9815" lon="10.33332"><ele>2583</ele></trkpt>
<trkpt lat="46.98139" lon="10.3333"><ele>2583</ele></trkpt>
<trkpt lat="46.98138" lon="10.33332"><ele>2583</ele></trkpt>
<trkpt lat="46.98136" lon="10.33332"><ele>2581</ele></trkpt>
<trkpt lat="46.98128" lon="10.33327"><ele>2581</ele></trkpt>
<trkpt lat="46.9812" lon="10.33324"><ele>2581</ele></trkpt>
<trkpt lat="46.9811" lon="10.33317"><ele>2581</ele></trkpt>
<trkpt lat="46.98103" lon="10.33311"><ele>2576</ele></trkpt>
<trkpt lat="46.98098" lon="10.3331"><ele>2576</ele></trkpt>
<trkpt lat="46.98086" lon="10.33303"><ele>2576</ele></trkpt>
<trkpt lat="46.98091" lon="10.33299"><ele>2576</ele></trkpt>
<trkpt lat="46.98093" lon="10.3329"><ele>2567</ele></trkpt>
<trkpt lat="46.98088" lon="10.33287"><ele>2567</ele></trkpt>
<trkpt lat="46.98097" lon="10.33285"><ele>2567</ele></trkpt>
<trkpt lat="46.98107" lon="10.33283"><ele>2567</ele></trkpt>
<trkpt lat="46.98111" lon="10.33283"><ele>2561</ele></trkpt>
<trkpt lat="46.98118" lon="10.33281"><ele>2561</ele></trkpt>
<trkpt lat="46.98123" lon="10.33282"><ele>2561</ele></trkpt>
<trkpt lat="46.98146" lon="10.33282"><ele>2561</ele></trkpt>
<trkpt lat="46.98159" lon="10.33276"><ele>2559</ele></trkpt>
<trkpt lat="46.98173" lon="10.33255"><ele>2559</ele></trkpt>
<trkpt lat="46.98176" lon="10.33245"><ele>2559</ele></trkpt>
<trkpt lat="46.98183" lon="10.33234"><ele>2559</ele></trkpt>
<trkpt lat="46.98195" lon="10.33219"><ele>2549</ele></trkpt>
<trkpt lat="46.98206" lon="10.33203"><ele>2549</ele></trkpt>
<trkpt lat="46.98216" lon="10.33187"><ele>2549</ele></trkpt>
<trkpt lat="46.98222" lon="10.33183"><ele>2549</ele></trkpt>
<trkpt lat="46.98239" lon="10.33184"><ele>2539</ele></trkpt>
<trkpt lat="46.98246" lon="10.33183"><ele>2539</ele></trkpt>
<trkpt lat="46.98258" lon="10.33187"><ele>2539</ele></trkpt>
<trkpt lat="46.98264" lon="10.33175"><ele>2539</ele></trkpt>
<trkpt lat="46.9826" lon="10.33165"><ele>2527</ele></trkpt>
<trkpt lat="46.98248" lon="10.33137"><ele>2527</ele></trkpt>
<trkpt lat="46.98238" lon="10.33113"><ele>2527</ele></trkpt>
<trkpt lat="46.98239" lon="10.33102"><ele>2527</ele></trkpt>
<trkpt lat="46.9824" lon="10.33098"><ele>2522</ele></trkpt>
<trkpt lat="46.98249" lon="10.33085"><ele>2522</ele></trkpt>
<trkpt lat="46.9825" lon="10.33064"><ele>2522</ele></trkpt>
<trkpt lat="46.98261" lon="10.3305"><ele>2522</ele></trkpt>
<trkpt lat="46.98263" lon="10.33039"><ele>2514</ele></trkpt>
<trkpt lat="46.98259" lon="10.33034"><ele>2514</ele></trkpt>
<trkpt lat="46.98252" lon="10.33023"><ele>2514</ele></trkpt>
<trkpt lat="46.98256" lon="10.33006"><ele>2514</ele></trkpt>
<trkpt lat="46.9826" lon="10.32999"><ele>2510</ele></trkpt>
<trkpt lat="46.98265" lon="10.32995"><ele>2510</ele></trkpt>
<trkpt lat="46.98267" lon="10.32972"><ele>2510</ele></trkpt>
<trkpt lat="46.98272" lon="10.32954"><ele>2510</ele></trkpt>
<trkpt lat="46.98279" lon="10.32962"><ele>2503</ele></trkpt>
<trkpt lat="46.98283" lon="10.32978"><ele>2503</ele></trkpt>
<trkpt lat="46.98284" lon="10.3298"><ele>2503</ele></trkpt>
<trkpt lat="46.98289" lon="10.32985"><ele>2503</ele></trkpt>
<trkpt lat="46.98289" lon="10.32985"><ele>2501</ele></trkpt>
<trkpt lat="46.98289" lon="10.32985"><ele>2501</ele></trkpt>
<trkpt lat="46.98303" lon="10.33001"><ele>2501</ele></trkpt>
<trkpt lat="46.98307" lon="10.33005"><ele>2501</ele></trkpt>
<trkpt lat="46.98317" lon="10.3301"><ele>2495</ele></trkpt>
<trkpt lat="46.98319" lon="10.33013"><ele>2495</ele></trkpt>
<trkpt lat="46.98331" lon="10.3302"><ele>2495</ele></trkpt>
<trkpt lat="46.98344" lon="10.33028"><ele>2495</ele></trkpt>
<trkpt lat="46.98346" lon="10.33031"><ele>2490</ele></trkpt>
<trkpt lat="46.98354" lon="10.33029"><ele>2490</ele></trkpt>
<trkpt lat="46.98357" lon="10.33008"><ele>2490</ele></trkpt>
<trkpt lat="46.98353" lon="10.33001"><ele>2490</ele></trkpt>
<trkpt lat="46.98348" lon="10.33"><ele>2484</ele></trkpt>
<trkpt lat="46.98341" lon="10.32989"><ele>2484</ele></trkpt>
<trkpt lat="46.98324" lon="10.32959"><ele>2484</ele></trkpt>
<trkpt lat="46.98311" lon="10.32934"><ele>2484</ele></trkpt>
<trkpt lat="46.98306" lon="10.32924"><ele>2478</ele></trkpt>
<trkpt lat="46.98314" lon="10.32917"><ele>2478</ele></trkpt>
<trkpt lat="46.98317" lon="10.32925"><ele>2478</ele></trkpt>
<trkpt lat="46.98329" lon="10.32933"><ele>2478</ele></trkpt>
<trkpt lat="46.98334" lon="10.32935"><ele>2471</ele></trkpt>
<trkpt lat="46.98342" lon="10.32934"><ele>2471</ele></trkpt>
<trkpt lat="46.98347" lon="10.32938"><ele>2471</ele></trkpt>
<trkpt lat="46.98353" lon="10.32937"><ele>2471</ele></trkpt>
<trkpt lat="46.98364" lon="10.3294"><ele>2468</ele></trkpt>
<trkpt lat="46.98367" lon="10.3294"><ele>2468</ele></trkpt>
<trkpt lat="46.9837" lon="10.32926"><ele>2468</ele></trkpt>
<trkpt lat="46.98369" lon="10.32925"><ele>2468</ele></trkpt>
<trkpt lat="46.98362" lon="10.32914"><ele>2462</ele></trkpt>
<trkpt lat="46.98357" lon="10.32909"><ele>2462</ele></trkpt>
<trkpt lat="46.98346" lon="10.32889"><ele>2462</ele></trkpt>
<trkpt lat="46.98342" lon="10.32879"><ele>2462</ele></trkpt>
<trkpt lat="46.98338" lon="10.32868"><ele>2452</ele></trkpt>
<trkpt lat="46.98331" lon="10.32856"><ele>2452</ele></trkpt>
<trkpt lat="46.98329" lon="10.32851"><ele>2452</ele></trkpt>
<trkpt lat="46.98324" lon="10.32842"><ele>2452</ele></trkpt>
<trkpt lat="46.98314" lon="10.3282"><ele>2447</ele></trkpt>
<trkpt lat="46.98324" lon="10.32812"><ele>2447</ele></trkpt>
<trkpt lat="46.98328" lon="10.32816"><ele>2447</ele></trkpt>
<trkpt lat="46.98334" lon="10.32821"><ele>2447</ele></trkpt>
<trkpt lat="46.98342" lon="10.32818"><ele>2441</ele></trkpt>
<trkpt lat="46.98367" lon="10.32799"><ele>2441</ele></trkpt>
<trkpt lat="46.98383" lon="10.32781"><ele>2441</ele></trkpt>
<trkpt lat="46.98382" lon="10.32781"><ele>2441</ele></trkpt>
<trkpt lat="46.98382" lon="10.32781"><ele>2434</ele></trkpt>
<trkpt lat="46.98383" lon="10.32781"><ele>2434</ele></trkpt>
<trkpt lat="46.98383" lon="10.32781"><ele>2434</ele></trkpt>
<trkpt lat="46.98383" lon="10.32781"><ele>2434</ele></trkpt>
<trkpt lat="46.98387" lon="10.32778"><ele>2434</ele></trkpt>
<trkpt lat="46.98386" lon="10.32771"><ele>2434</ele></trkpt>
<trkpt lat="46.98389" lon="10.32755"><ele>2434</ele></trkpt>
<trkpt lat="46.98393" lon="10.3274"><ele>2434</ele></trkpt>
<trkpt lat="46.98399" lon="10.32734"><ele>2426</ele></trkpt>
<trkpt lat="46.98401" lon="10.32727"><ele>2426</ele></trkpt>
<trkpt lat="46.98383" lon="10.32707"><ele>2426</ele></trkpt>
<trkpt lat="46.98366" lon="10.32704"><ele>2426</ele></trkpt>
<trkpt lat="46.98348" lon="10.32701"><ele>2419</ele></trkpt>
<trkpt lat="46.98333" lon="10.32696"><ele>2419</ele></trkpt>
<trkpt lat="46.9833" lon="10.32694"><ele>2419</ele></trkpt>
<trkpt lat="46.9832" lon="10.32692"><ele>2419</ele></trkpt>
<trkpt lat="46.98302" lon="10.32679"><ele>2412</ele></trkpt>
<trkpt lat="46.98305" lon="10.32668"><ele>2412</ele></trkpt>
<trkpt lat="46.98305" lon="10.32658"><ele>2412</ele></trkpt>
<trkpt lat="46.98301" lon="10.32649"><ele>2412</ele></trkpt>
<trkpt lat="46.98298" lon="10.32643"><ele>2404</ele></trkpt>
<trkpt lat="46.98293" lon="10.32635"><ele>2404</ele></trkpt>
<trkpt lat="46.9829" lon="10.3262"><ele>2404</ele></trkpt>
<trkpt lat="46.98291" lon="10.32614"><ele>2404</ele></trkpt>
<trkpt lat="46.98287" lon="10.326"><ele>2400</ele></trkpt>
<trkpt lat="46.98285" lon="10.32593"><ele>2400</ele></trkpt>
<trkpt lat="46.98294" lon="10.32593"><ele>2400</ele></trkpt>
<trkpt lat="46.98296" lon="10.32596"><ele>2400</ele></trkpt>
<trkpt lat="46.98309" lon="10.32606"><ele>2395</ele></trkpt>
<trkpt lat="46.98311" lon="10.32607"><ele>2395</ele></trkpt>
<trkpt lat="46.98312" lon="10.32597"><ele>2395</ele></trkpt>
<trkpt lat="46.98306" lon="10.32588"><ele>2395</ele></trkpt>
<trkpt lat="46.98316" lon="10.32577"><ele>2389</ele></trkpt>
<trkpt lat="46.98319" lon="10.32576"><ele>2389</ele></trkpt>
<trkpt lat="46.98324" lon="10.32571"><ele>2389</ele></trkpt>
<trkpt lat="46.9833" lon="10.32568"><ele>2389</ele></trkpt>
<trkpt lat="46.98332" lon="10.32565"><ele>2387</ele></trkpt>
<trkpt lat="46.98337" lon="10.32557"><ele>2387</ele></trkpt>
<trkpt lat="46.98343" lon="10.32551"><ele>2387</ele></trkpt>
<trkpt lat="46.98336" lon="10.32548"><ele>2387</ele></trkpt>
<trkpt lat="46.98332" lon="10.3255"><ele>2384</ele></trkpt>
<trkpt lat="46.98325" lon="10.32554"><ele>2384</ele></trkpt>
<trkpt lat="46.9831" lon="10.32543"><ele>2384</ele></trkpt>
<trkpt lat="46.98306" lon="10.32534"><ele>2384</ele></trkpt>
<trkpt lat="46.98304" lon="10.32527"><ele>2377</ele></trkpt>
<trkpt lat="46.983" lon="10.32518"><ele>2377</ele></trkpt>
<trkpt lat="46.98293" lon="10.32496"><ele>2377</ele></trkpt>
<trkpt lat="46.98288" lon="10.3247"><ele>2377</ele></trkpt>
<trkpt lat="46.98288" lon="10.32462"><ele>2368</ele></trkpt>
<trkpt lat="46.98284" lon="10.32449"><ele>2368</ele></trkpt>
<trkpt lat="46.98275" lon="10.32408"><ele>2368</ele></trkpt>
<trkpt lat="46.9826" lon="10.32368"><ele>2368</ele></trkpt>
<trkpt lat="46.98265" lon="10.32354"><ele>2362</ele></trkpt>
<trkpt lat="46.9827" lon="10.32349"><ele>2362</ele></trkpt>
<trkpt lat="46.98273" lon="10.32348"><ele>2362</ele></trkpt>
<trkpt lat="46.98275" lon="10.32342"><ele>2362</ele></trkpt>
<trkpt lat="46.98276" lon="10.3233"><ele>2358</ele></trkpt>
<trkpt lat="46.98277" lon="10.32319"><ele>2358</ele></trkpt>
<trkpt lat="46.98279" lon="10.32301"><ele>2358</ele></trkpt>
<trkpt lat="46.98275" lon="10.32287"><ele>2358</ele></trkpt>
<trkpt lat="46.98276" lon="10.32274"><ele>2350</ele></trkpt>
<trkpt lat="46.98281" lon="10.32252"><ele>2350</ele></trkpt>
<trkpt lat="46.98288" lon="10.32227"><ele>2350</ele></trkpt>
<trkpt lat="46.98294" lon="10.32219"><ele>2350</ele></trkpt>
<trkpt lat="46.98298" lon="10.32213"><ele>2343</ele></trkpt>
<trkpt lat="46.98298" lon="10.32199"><ele>2343</ele></trkpt>
<trkpt lat="46.98298" lon="10.32194"><ele>2343</ele></trkpt>
<trkpt lat="46.98297" lon="10.32175"><ele>2343</ele></trkpt>
<trkpt lat="46.98295" lon="10.32152"><ele>2337</ele></trkpt>
<trkpt lat="46.98288" lon="10.32138"><ele>2337</ele></trkpt>
<trkpt lat="46.98285" lon="10.32124"><ele>2337</ele></trkpt>
<trkpt lat="46.98278" lon="10.32091"><ele>2337</ele></trkpt>
<trkpt lat="46.98277" lon="10.32088"><ele>2329</ele></trkpt>
<trkpt lat="46.98273" lon="10.32077"><ele>2329</ele></trkpt>
<trkpt lat="46.98268" lon="10.32053"><ele>2329</ele></trkpt>
<trkpt lat="46.98267" lon="10.32023"><ele>2329</ele></trkpt>
<trkpt lat="46.98269" lon="10.31992"><ele>2322</ele></trkpt>
<trkpt lat="46.98269" lon="10.31986"><ele>2322</ele></trkpt>
<trkpt lat="46.98267" lon="10.31968"><ele>2322</ele></trkpt>
<trkpt lat="46.98264" lon="10.31936"><ele>2322</ele></trkpt>
<trkpt lat="46.98265" lon="10.31936"><ele>2319</ele></trkpt>
<trkpt lat="46.98265" lon="10.31935"><ele>2319</ele></trkpt>

                    </trkseg>
              </trk>
            </gpx>