<?xml version="1.0" encoding="utf-8"?>
            <gpx xmlns="http://www.topografix.com/GPX/1/1" xmlns:xsd="http://www.w3.org/2001/XMLSchema" xmlns:xsi="http://www.w3.org/2001/XMLSchema-instance" version="1.1" creator="Fugawi 4,5,14,1696 http://www.fugawi.com/" xsi:schemaLocation="http://www.topografix.com/GPX/1/1 http://www.topografix.com/GPX/1/1/gpx.xsd">
                <trk>
                    <name>7134 Velill Trail </name>
                    <desc></desc>
                    <trkseg>
                        <trkpt lat="46.98042" lon="10.33963"><ele>2750</ele></trkpt>
<trkpt lat="46.98049" lon="10.33962"><ele>2750</ele></trkpt>
<trkpt lat="46.98062" lon="10.33949"><ele>2750</ele></trkpt>
<trkpt lat="46.98072" lon="10.33941"><ele>2748</ele></trkpt>
<trkpt lat="46.98078" lon="10.33936"><ele>2750</ele></trkpt>
<trkpt lat="46.98087" lon="10.33928"><ele>2748</ele></trkpt>
<trkpt lat="46.98089" lon="10.33926"><ele>2748</ele></trkpt>
<trkpt lat="46.98091" lon="10.33924"><ele>2748</ele></trkpt>
<trkpt lat="46.98094" lon="10.33921"><ele>2745</ele></trkpt>
<trkpt lat="46.98098" lon="10.33919"><ele>2745</ele></trkpt>
<trkpt lat="46.98102" lon="10.33918"><ele>2746</ele></trkpt>
<trkpt lat="46.98105" lon="10.33916"><ele>2746</ele></trkpt>
<trkpt lat="46.98106" lon="10.33914"><ele>2746</ele></trkpt>
<trkpt lat="46.98111" lon="10.33912"><ele>2746</ele></trkpt>
<trkpt lat="46.98117" lon="10.33911"><ele>2746</ele></trkpt>
<trkpt lat="46.98123" lon="10.33912"><ele>2746</ele></trkpt>
<trkpt lat="46.9813" lon="10.33914"><ele>2745</ele></trkpt>
<trkpt lat="46.98136" lon="10.33915"><ele>2745</ele></trkpt>
<trkpt lat="46.98143" lon="10.33916"><ele>2744</ele></trkpt>
<trkpt lat="46.98151" lon="10.33916"><ele>2743</ele></trkpt>
<trkpt lat="46.98201" lon="10.33907"><ele>2739</ele></trkpt>
<trkpt lat="46.98215" lon="10.33902"><ele>2740</ele></trkpt>
<trkpt lat="46.9822" lon="10.33899"><ele>2743</ele></trkpt>
<trkpt lat="46.9822" lon="10.33899"><ele>2743</ele></trkpt>
<trkpt lat="46.9822" lon="10.33899"><ele>2743</ele></trkpt>
<trkpt lat="46.9822" lon="10.33899"><ele>2743</ele></trkpt>
<trkpt lat="46.9822" lon="10.33899"><ele>2743</ele></trkpt>
<trkpt lat="46.9822" lon="10.33899"><ele>2743</ele></trkpt>
<trkpt lat="46.9822" lon="10.33899"><ele>2743</ele></trkpt>
<trkpt lat="46.9822" lon="10.33899"><ele>2743</ele></trkpt>
<trkpt lat="46.9822" lon="10.33899"><ele>2743</ele></trkpt>
<trkpt lat="46.9822" lon="10.33899"><ele>2743</ele></trkpt>
<trkpt lat="46.9822" lon="10.33899"><ele>2743</ele></trkpt>
<trkpt lat="46.9822" lon="10.33899"><ele>2743</ele></trkpt>
<trkpt lat="46.9822" lon="10.33899"><ele>2743</ele></trkpt>
<trkpt lat="46.9822" lon="10.33899"><ele>2743</ele></trkpt>
<trkpt lat="46.9822" lon="10.33899"><ele>2743</ele></trkpt>
<trkpt lat="46.9822" lon="10.33899"><ele>2743</ele></trkpt>
<trkpt lat="46.9822" lon="10.33899"><ele>2743</ele></trkpt>
<trkpt lat="46.9822" lon="10.33899"><ele>2743</ele></trkpt>
<trkpt lat="46.9822" lon="10.33899"><ele>2743</ele></trkpt>
<trkpt lat="46.9822" lon="10.33899"><ele>2743</ele></trkpt>
<trkpt lat="46.9822" lon="10.33899"><ele>2743</ele></trkpt>
<trkpt lat="46.9822" lon="10.33899"><ele>2743</ele></trkpt>
<trkpt lat="46.9822" lon="10.33899"><ele>2743</ele></trkpt>
<trkpt lat="46.9822" lon="10.33899"><ele>2743</ele></trkpt>
<trkpt lat="46.9822" lon="10.33899"><ele>2743</ele></trkpt>
<trkpt lat="46.9822" lon="10.33899"><ele>2743</ele></trkpt>
<trkpt lat="46.98225" lon="10.33892"><ele>2743</ele></trkpt>
<trkpt lat="46.98228" lon="10.33885"><ele>2743</ele></trkpt>
<trkpt lat="46.98231" lon="10.33877"><ele>2740</ele></trkpt>
<trkpt lat="46.98233" lon="10.33869"><ele>2740</ele></trkpt>
<trkpt lat="46.98238" lon="10.33859"><ele>2740</ele></trkpt>
<trkpt lat="46.9824" lon="10.33854"><ele>2739</ele></trkpt>
<trkpt lat="46.98243" lon="10.33851"><ele>2738</ele></trkpt>
<trkpt lat="46.98247" lon="10.33851"><ele>2738</ele></trkpt>
<trkpt lat="46.98248" lon="10.33852"><ele>2738</ele></trkpt>
<trkpt lat="46.98253" lon="10.3385"><ele>2735</ele></trkpt>
<trkpt lat="46.98253" lon="10.33844"><ele>2733</ele></trkpt>
<trkpt lat="46.98249" lon="10.33838"><ele>2733</ele></trkpt>
<trkpt lat="46.98261" lon="10.33834"><ele>2730</ele></trkpt>
<trkpt lat="46.98266" lon="10.33825"><ele>2728</ele></trkpt>
<trkpt lat="46.9827" lon="10.33816"><ele>2724</ele></trkpt>
<trkpt lat="46.98274" lon="10.33811"><ele>2724</ele></trkpt>
<trkpt lat="46.98275" lon="10.33805"><ele>2722</ele></trkpt>
<trkpt lat="46.98274" lon="10.33799"><ele>2722</ele></trkpt>
<trkpt lat="46.98272" lon="10.3379"><ele>2721</ele></trkpt>
<trkpt lat="46.9828" lon="10.33793"><ele>2718</ele></trkpt>
<trkpt lat="46.98281" lon="10.33784"><ele>2718</ele></trkpt>
<trkpt lat="46.98291" lon="10.33784"><ele>2715</ele></trkpt>
<trkpt lat="46.98295" lon="10.33784"><ele>2711</ele></trkpt>
<trkpt lat="46.98301" lon="10.33797"><ele>2711</ele></trkpt>
<trkpt lat="46.98305" lon="10.33807"><ele>0</ele></trkpt>
<trkpt lat="46.98308" lon="10.33812"><ele>0</ele></trkpt>
<trkpt lat="46.98309" lon="10.33811"><ele>2705</ele></trkpt>
<trkpt lat="46.9831" lon="10.33809"><ele>0</ele></trkpt>
<trkpt lat="46.98307" lon="10.33799"><ele>0</ele></trkpt>
<trkpt lat="46.98305" lon="10.33786"><ele>0</ele></trkpt>
<trkpt lat="46.98304" lon="10.33778"><ele>0</ele></trkpt>
<trkpt lat="46.98307" lon="10.33771"><ele>2705</ele></trkpt>
<trkpt lat="46.9831" lon="10.33769"><ele>2702</ele></trkpt>
<trkpt lat="46.98313" lon="10.33766"><ele>2700</ele></trkpt>
<trkpt lat="46.98317" lon="10.33773"><ele>2702</ele></trkpt>
<trkpt lat="46.98319" lon="10.33779"><ele>0</ele></trkpt>
<trkpt lat="46.98322" lon="10.33778"><ele>0</ele></trkpt>
<trkpt lat="46.98326" lon="10.33771"><ele>2698</ele></trkpt>
<trkpt lat="46.98337" lon="10.33769"><ele>2693</ele></trkpt>
<trkpt lat="46.9834" lon="10.33768"><ele>0</ele></trkpt>
<trkpt lat="46.98342" lon="10.33759"><ele>2689</ele></trkpt>
<trkpt lat="46.98341" lon="10.33752"><ele>2686</ele></trkpt>
<trkpt lat="46.98339" lon="10.33747"><ele>2686</ele></trkpt>
<trkpt lat="46.98338" lon="10.33741"><ele>2683</ele></trkpt>
<trkpt lat="46.98336" lon="10.33736"><ele>2687</ele></trkpt>
<trkpt lat="46.98335" lon="10.33733"><ele>2687</ele></trkpt>
<trkpt lat="46.98333" lon="10.3373"><ele>2682</ele></trkpt>
<trkpt lat="46.98329" lon="10.33722"><ele>2682</ele></trkpt>
<trkpt lat="46.98322" lon="10.3371"><ele>2680</ele></trkpt>
<trkpt lat="46.98317" lon="10.33699"><ele>2679</ele></trkpt>
<trkpt lat="46.98319" lon="10.33695"><ele>2679</ele></trkpt>
<trkpt lat="46.98319" lon="10.33695"><ele>2679</ele></trkpt>
<trkpt lat="46.98319" lon="10.33695"><ele>2679</ele></trkpt>
<trkpt lat="46.98319" lon="10.33695"><ele>2679</ele></trkpt>
<trkpt lat="46.98319" lon="10.33695"><ele>2679</ele></trkpt>
<trkpt lat="46.98319" lon="10.33695"><ele>2679</ele></trkpt>
<trkpt lat="46.98319" lon="10.33695"><ele>2679</ele></trkpt>
<trkpt lat="46.98319" lon="10.33695"><ele>2679</ele></trkpt>
<trkpt lat="46.98319" lon="10.33695"><ele>2679</ele></trkpt>
<trkpt lat="46.98319" lon="10.33695"><ele>2679</ele></trkpt>
<trkpt lat="46.98319" lon="10.33695"><ele>2679</ele></trkpt>
<trkpt lat="46.98319" lon="10.33695"><ele>2679</ele></trkpt>
<trkpt lat="46.98319" lon="10.33695"><ele>2679</ele></trkpt>
<trkpt lat="46.98319" lon="10.33695"><ele>2679</ele></trkpt>
<trkpt lat="46.98319" lon="10.33695"><ele>2679</ele></trkpt>
<trkpt lat="46.98319" lon="10.33695"><ele>2679</ele></trkpt>
<trkpt lat="46.98319" lon="10.33695"><ele>2679</ele></trkpt>
<trkpt lat="46.98319" lon="10.33695"><ele>2679</ele></trkpt>
<trkpt lat="46.98319" lon="10.33695"><ele>2679</ele></trkpt>
<trkpt lat="46.98319" lon="10.33695"><ele>2679</ele></trkpt>
<trkpt lat="46.98319" lon="10.33695"><ele>2679</ele></trkpt>
<trkpt lat="46.98319" lon="10.33695"><ele>2679</ele></trkpt>
<trkpt lat="46.98319" lon="10.33695"><ele>2679</ele></trkpt>
<trkpt lat="46.98319" lon="10.33695"><ele>2679</ele></trkpt>
<trkpt lat="46.98319" lon="10.33695"><ele>2679</ele></trkpt>
<trkpt lat="46.98319" lon="10.33695"><ele>2679</ele></trkpt>
<trkpt lat="46.98326" lon="10.33695"><ele>2676</ele></trkpt>
<trkpt lat="46.98343" lon="10.33698"><ele>2671</ele></trkpt>
<trkpt lat="46.98354" lon="10.337"><ele>2668</ele></trkpt>
<trkpt lat="46.98367" lon="10.33702"><ele>2662</ele></trkpt>
<trkpt lat="46.98378" lon="10.33702"><ele>2658</ele></trkpt>
<trkpt lat="46.98382" lon="10.33704"><ele>2655</ele></trkpt>
<trkpt lat="46.98386" lon="10.33708"><ele>2657</ele></trkpt>
<trkpt lat="46.98389" lon="10.33713"><ele>2657</ele></trkpt>
<trkpt lat="46.98393" lon="10.33718"><ele>2652</ele></trkpt>
<trkpt lat="46.98396" lon="10.33724"><ele>2653</ele></trkpt>
<trkpt lat="46.984" lon="10.33731"><ele>2649</ele></trkpt>
<trkpt lat="46.98404" lon="10.33737"><ele>2649</ele></trkpt>
<trkpt lat="46.98407" lon="10.33744"><ele>2644</ele></trkpt>
<trkpt lat="46.98409" lon="10.33751"><ele>2644</ele></trkpt>
<trkpt lat="46.98411" lon="10.33757"><ele>2644</ele></trkpt>
<trkpt lat="46.98414" lon="10.33765"><ele>2644</ele></trkpt>
<trkpt lat="46.98416" lon="10.33771"><ele>2641</ele></trkpt>
<trkpt lat="46.98419" lon="10.3378"><ele>2641</ele></trkpt>
<trkpt lat="46.98422" lon="10.33789"><ele>2641</ele></trkpt>
<trkpt lat="46.98424" lon="10.33797"><ele>2641</ele></trkpt>
<trkpt lat="46.98427" lon="10.33803"><ele>2638</ele></trkpt>
<trkpt lat="46.9843" lon="10.33805"><ele>2638</ele></trkpt>
<trkpt lat="46.9843" lon="10.33805"><ele>2638</ele></trkpt>
<trkpt lat="46.9843" lon="10.33805"><ele>2638</ele></trkpt>
<trkpt lat="46.9843" lon="10.33805"><ele>2638</ele></trkpt>
<trkpt lat="46.9843" lon="10.33805"><ele>2638</ele></trkpt>
<trkpt lat="46.9843" lon="10.33805"><ele>2638</ele></trkpt>
<trkpt lat="46.9843" lon="10.33805"><ele>2638</ele></trkpt>
<trkpt lat="46.9843" lon="10.33805"><ele>2638</ele></trkpt>
<trkpt lat="46.9843" lon="10.33805"><ele>2638</ele></trkpt>
<trkpt lat="46.9843" lon="10.33805"><ele>2638</ele></trkpt>
<trkpt lat="46.9843" lon="10.33805"><ele>2638</ele></trkpt>
<trkpt lat="46.9843" lon="10.33805"><ele>2638</ele></trkpt>
<trkpt lat="46.9843" lon="10.33805"><ele>2638</ele></trkpt>
<trkpt lat="46.9843" lon="10.33805"><ele>2638</ele></trkpt>
<trkpt lat="46.9843" lon="10.33805"><ele>2638</ele></trkpt>
<trkpt lat="46.9843" lon="10.33805"><ele>2638</ele></trkpt>
<trkpt lat="46.9843" lon="10.33805"><ele>2638</ele></trkpt>
<trkpt lat="46.9843" lon="10.33805"><ele>2638</ele></trkpt>
<trkpt lat="46.9843" lon="10.33805"><ele>2638</ele></trkpt>
<trkpt lat="46.9843" lon="10.33805"><ele>2638</ele></trkpt>
<trkpt lat="46.9843" lon="10.33805"><ele>2638</ele></trkpt>
<trkpt lat="46.9843" lon="10.33805"><ele>2638</ele></trkpt>
<trkpt lat="46.9843" lon="10.33805"><ele>2638</ele></trkpt>
<trkpt lat="46.9843" lon="10.33805"><ele>2638</ele></trkpt>
<trkpt lat="46.9843" lon="10.33805"><ele>2638</ele></trkpt>
<trkpt lat="46.9843" lon="10.33805"><ele>2638</ele></trkpt>
<trkpt lat="46.98437" lon="10.33801"><ele>2634</ele></trkpt>
<trkpt lat="46.9844" lon="10.33794"><ele>2633</ele></trkpt>
<trkpt lat="46.98448" lon="10.33785"><ele>2631</ele></trkpt>
<trkpt lat="46.9845" lon="10.33779"><ele>2630</ele></trkpt>
<trkpt lat="46.98452" lon="10.3377"><ele>2627</ele></trkpt>
<trkpt lat="46.98452" lon="10.33761"><ele>2625</ele></trkpt>
<trkpt lat="46.98452" lon="10.33755"><ele>2623</ele></trkpt>
<trkpt lat="46.98453" lon="10.33745"><ele>2623</ele></trkpt>
<trkpt lat="46.98454" lon="10.33735"><ele>2621</ele></trkpt>
<trkpt lat="46.98459" lon="10.33726"><ele>2620</ele></trkpt>
<trkpt lat="46.98465" lon="10.33724"><ele>2618</ele></trkpt>
<trkpt lat="46.98469" lon="10.33719"><ele>2617</ele></trkpt>
<trkpt lat="46.9847" lon="10.33712"><ele>2613</ele></trkpt>
<trkpt lat="46.98469" lon="10.33705"><ele>2608</ele></trkpt>
<trkpt lat="46.98471" lon="10.33704"><ele>2608</ele></trkpt>
<trkpt lat="46.98477" lon="10.33706"><ele>2608</ele></trkpt>
<trkpt lat="46.98483" lon="10.33706"><ele>0</ele></trkpt>
<trkpt lat="46.98485" lon="10.33702"><ele>2607</ele></trkpt>
<trkpt lat="46.98483" lon="10.33697"><ele>2607</ele></trkpt>
<trkpt lat="46.98481" lon="10.33692"><ele>2607</ele></trkpt>
<trkpt lat="46.98477" lon="10.33686"><ele>2603</ele></trkpt>
<trkpt lat="46.98474" lon="10.33683"><ele>2603</ele></trkpt>
<trkpt lat="46.98472" lon="10.33677"><ele>2598</ele></trkpt>
<trkpt lat="46.98471" lon="10.33672"><ele>2598</ele></trkpt>
<trkpt lat="46.9847" lon="10.33665"><ele>0</ele></trkpt>
<trkpt lat="46.98475" lon="10.33666"><ele>2593</ele></trkpt>
<trkpt lat="46.98475" lon="10.33666"><ele>2593</ele></trkpt>
<trkpt lat="46.98475" lon="10.33666"><ele>2593</ele></trkpt>
<trkpt lat="46.98475" lon="10.33666"><ele>2593</ele></trkpt>
<trkpt lat="46.98475" lon="10.33666"><ele>2593</ele></trkpt>
<trkpt lat="46.98475" lon="10.33666"><ele>2593</ele></trkpt>
<trkpt lat="46.98475" lon="10.33666"><ele>2593</ele></trkpt>
<trkpt lat="46.98475" lon="10.33666"><ele>2593</ele></trkpt>
<trkpt lat="46.98475" lon="10.33666"><ele>2593</ele></trkpt>
<trkpt lat="46.98475" lon="10.33666"><ele>2593</ele></trkpt>
<trkpt lat="46.98475" lon="10.33666"><ele>2593</ele></trkpt>
<trkpt lat="46.98475" lon="10.33666"><ele>2593</ele></trkpt>
<trkpt lat="46.98475" lon="10.33666"><ele>2593</ele></trkpt>
<trkpt lat="46.98475" lon="10.33666"><ele>2593</ele></trkpt>
<trkpt lat="46.98475" lon="10.33666"><ele>2593</ele></trkpt>
<trkpt lat="46.98475" lon="10.33666"><ele>2593</ele></trkpt>
<trkpt lat="46.98475" lon="10.33666"><ele>2593</ele></trkpt>
<trkpt lat="46.98475" lon="10.33666"><ele>2593</ele></trkpt>
<trkpt lat="46.98475" lon="10.33666"><ele>2593</ele></trkpt>
<trkpt lat="46.98475" lon="10.33666"><ele>2593</ele></trkpt>
<trkpt lat="46.98475" lon="10.33666"><ele>2593</ele></trkpt>
<trkpt lat="46.98475" lon="10.33666"><ele>2593</ele></trkpt>
<trkpt lat="46.98475" lon="10.33666"><ele>2593</ele></trkpt>
<trkpt lat="46.98475" lon="10.33666"><ele>2593</ele></trkpt>
<trkpt lat="46.98475" lon="10.33666"><ele>2593</ele></trkpt>
<trkpt lat="46.98475" lon="10.33666"><ele>2593</ele></trkpt>
<trkpt lat="46.98475" lon="10.33666"><ele>2593</ele></trkpt>
<trkpt lat="46.98475" lon="10.33666"><ele>2593</ele></trkpt>
<trkpt lat="46.98481" lon="10.33665"><ele>2591</ele></trkpt>
<trkpt lat="46.98487" lon="10.33663"><ele>2590</ele></trkpt>
<trkpt lat="46.98498" lon="10.33653"><ele>2585</ele></trkpt>
<trkpt lat="46.98507" lon="10.33646"><ele>2586</ele></trkpt>
<trkpt lat="46.98529" lon="10.33627"><ele>2581</ele></trkpt>
<trkpt lat="46.98537" lon="10.33622"><ele>2581</ele></trkpt>
<trkpt lat="46.9856" lon="10.33616"><ele>2579</ele></trkpt>
<trkpt lat="46.98583" lon="10.33623"><ele>2584</ele></trkpt>
<trkpt lat="46.98596" lon="10.33638"><ele>2585</ele></trkpt>
<trkpt lat="46.98617" lon="10.33649"><ele>2585</ele></trkpt>
<trkpt lat="46.98625" lon="10.33648"><ele>2584</ele></trkpt>
<trkpt lat="46.98637" lon="10.3363"><ele>2580</ele></trkpt>
<trkpt lat="46.98643" lon="10.33619"><ele>2575</ele></trkpt>
<trkpt lat="46.98649" lon="10.33599"><ele>2569</ele></trkpt>
<trkpt lat="46.9865" lon="10.3359"><ele>2567</ele></trkpt>
<trkpt lat="46.98654" lon="10.33572"><ele>2563</ele></trkpt>
<trkpt lat="46.98669" lon="10.33554"><ele>2566</ele></trkpt>
<trkpt lat="46.9868" lon="10.33541"><ele>2566</ele></trkpt>
<trkpt lat="46.98694" lon="10.33541"><ele>2566</ele></trkpt>
<trkpt lat="46.98706" lon="10.33552"><ele>2563</ele></trkpt>
<trkpt lat="46.98737" lon="10.33568"><ele>2562</ele></trkpt>
<trkpt lat="46.98743" lon="10.33573"><ele>2562</ele></trkpt>
<trkpt lat="46.98743" lon="10.33573"><ele>2562</ele></trkpt>
<trkpt lat="46.98757" lon="10.33613"><ele>2566</ele></trkpt>
<trkpt lat="46.98761" lon="10.33616"><ele>2567</ele></trkpt>
<trkpt lat="46.9877" lon="10.3362"><ele>2569</ele></trkpt>
<trkpt lat="46.98784" lon="10.33585"><ele>0</ele></trkpt>
<trkpt lat="46.98799" lon="10.33556"><ele>0</ele></trkpt>
<trkpt lat="46.98833" lon="10.33546"><ele>0</ele></trkpt>
<trkpt lat="46.98853" lon="10.33551"><ele>0</ele></trkpt>
<trkpt lat="46.98863" lon="10.33522"><ele>0</ele></trkpt>
<trkpt lat="46.98867" lon="10.33475"><ele>0</ele></trkpt>
<trkpt lat="46.98874" lon="10.33438"><ele>0</ele></trkpt>
<trkpt lat="46.98881" lon="10.33418"><ele>0</ele></trkpt>
<trkpt lat="46.98887" lon="10.33378"><ele>0</ele></trkpt>
<trkpt lat="46.98891" lon="10.3336"><ele>0</ele></trkpt>
<trkpt lat="46.98886" lon="10.33337"><ele>0</ele></trkpt>
<trkpt lat="46.98872" lon="10.33317"><ele>0</ele></trkpt>
<trkpt lat="46.98896" lon="10.333"><ele>0</ele></trkpt>
<trkpt lat="46.98903" lon="10.33303"><ele>0</ele></trkpt>
<trkpt lat="46.98906" lon="10.33315"><ele>0</ele></trkpt>
<trkpt lat="46.98918" lon="10.33314"><ele>0</ele></trkpt>
<trkpt lat="46.98923" lon="10.33323"><ele>0</ele></trkpt>
<trkpt lat="46.98939" lon="10.33318"><ele>0</ele></trkpt>
<trkpt lat="46.98942" lon="10.3332"><ele>0</ele></trkpt>
<trkpt lat="46.9895" lon="10.33344"><ele>0</ele></trkpt>
<trkpt lat="46.98957" lon="10.3335"><ele>0</ele></trkpt>
<trkpt lat="46.98963" lon="10.33348"><ele>0</ele></trkpt>
<trkpt lat="46.98971" lon="10.33334"><ele>2542</ele></trkpt>
<trkpt lat="46.98971" lon="10.33334"><ele>2542</ele></trkpt>
<trkpt lat="46.98971" lon="10.33334"><ele>2542</ele></trkpt>
<trkpt lat="46.98971" lon="10.33334"><ele>2542</ele></trkpt>
<trkpt lat="46.98971" lon="10.33334"><ele>2542</ele></trkpt>
<trkpt lat="46.98971" lon="10.33334"><ele>2542</ele></trkpt>
<trkpt lat="46.98971" lon="10.33334"><ele>2542</ele></trkpt>
<trkpt lat="46.98971" lon="10.33334"><ele>2542</ele></trkpt>
<trkpt lat="46.98971" lon="10.33334"><ele>2542</ele></trkpt>
<trkpt lat="46.98971" lon="10.33334"><ele>2542</ele></trkpt>
<trkpt lat="46.98971" lon="10.33334"><ele>2542</ele></trkpt>
<trkpt lat="46.98971" lon="10.33334"><ele>2542</ele></trkpt>
<trkpt lat="46.98971" lon="10.33334"><ele>2542</ele></trkpt>
<trkpt lat="46.98971" lon="10.33334"><ele>2542</ele></trkpt>
<trkpt lat="46.98971" lon="10.33334"><ele>2542</ele></trkpt>
<trkpt lat="46.98971" lon="10.33334"><ele>2542</ele></trkpt>
<trkpt lat="46.98971" lon="10.33334"><ele>2542</ele></trkpt>
<trkpt lat="46.98971" lon="10.33334"><ele>2542</ele></trkpt>
<trkpt lat="46.98971" lon="10.33334"><ele>2542</ele></trkpt>
<trkpt lat="46.98971" lon="10.33334"><ele>2542</ele></trkpt>
<trkpt lat="46.98971" lon="10.33334"><ele>2542</ele></trkpt>
<trkpt lat="46.98971" lon="10.33334"><ele>2542</ele></trkpt>
<trkpt lat="46.98971" lon="10.33334"><ele>2542</ele></trkpt>
<trkpt lat="46.98971" lon="10.33334"><ele>2542</ele></trkpt>
<trkpt lat="46.98971" lon="10.33334"><ele>2542</ele></trkpt>
<trkpt lat="46.98971" lon="10.33334"><ele>2542</ele></trkpt>
<trkpt lat="46.98971" lon="10.33334"><ele>2542</ele></trkpt>
<trkpt lat="46.98971" lon="10.33334"><ele>2542</ele></trkpt>
<trkpt lat="46.98971" lon="10.33334"><ele>2542</ele></trkpt>
<trkpt lat="46.98971" lon="10.33334"><ele>2542</ele></trkpt>
<trkpt lat="46.98971" lon="10.33334"><ele>2542</ele></trkpt>
<trkpt lat="46.98971" lon="10.33334"><ele>2542</ele></trkpt>
<trkpt lat="46.98971" lon="10.33334"><ele>2542</ele></trkpt>
<trkpt lat="46.98973" lon="10.33325"><ele>2542</ele></trkpt>
<trkpt lat="46.98972" lon="10.33292"><ele>2540</ele></trkpt>
<trkpt lat="46.98965" lon="10.33275"><ele>2538</ele></trkpt>
<trkpt lat="46.98964" lon="10.33258"><ele>2536</ele></trkpt>
<trkpt lat="46.98958" lon="10.33245"><ele>2533</ele></trkpt>
<trkpt lat="46.98953" lon="10.33239"><ele>2535</ele></trkpt>
<trkpt lat="46.98952" lon="10.33231"><ele>2533</ele></trkpt>
<trkpt lat="46.98954" lon="10.33216"><ele>2531</ele></trkpt>
<trkpt lat="46.98969" lon="10.33217"><ele>2526</ele></trkpt>
<trkpt lat="46.98973" lon="10.3321"><ele>2526</ele></trkpt>
<trkpt lat="46.98976" lon="10.33184"><ele>2520</ele></trkpt>
<trkpt lat="46.98975" lon="10.33145"><ele>2518</ele></trkpt>
<trkpt lat="46.98974" lon="10.33136"><ele>2516</ele></trkpt>
<trkpt lat="46.98972" lon="10.33128"><ele>2515</ele></trkpt>
<trkpt lat="46.98971" lon="10.33114"><ele>2513</ele></trkpt>
<trkpt lat="46.98971" lon="10.33113"><ele>2513</ele></trkpt>
<trkpt lat="46.98969" lon="10.33095"><ele>2511</ele></trkpt>
<trkpt lat="46.9897" lon="10.3309"><ele>2509</ele></trkpt>
<trkpt lat="46.98969" lon="10.33079"><ele>2508</ele></trkpt>
<trkpt lat="46.9897" lon="10.33066"><ele>2508</ele></trkpt>
<trkpt lat="46.9897" lon="10.33053"><ele>2508</ele></trkpt>
<trkpt lat="46.9897" lon="10.33048"><ele>2508</ele></trkpt>
<trkpt lat="46.9897" lon="10.33043"><ele>2508</ele></trkpt>
<trkpt lat="46.98969" lon="10.33039"><ele>2508</ele></trkpt>
<trkpt lat="46.9897" lon="10.33037"><ele>2508</ele></trkpt>
<trkpt lat="46.98971" lon="10.33034"><ele>2508</ele></trkpt>
<trkpt lat="46.98973" lon="10.33034"><ele>2508</ele></trkpt>
<trkpt lat="46.98975" lon="10.33039"><ele>2504</ele></trkpt>
<trkpt lat="46.98976" lon="10.33047"><ele>2504</ele></trkpt>
<trkpt lat="46.98976" lon="10.33053"><ele>2504</ele></trkpt>
<trkpt lat="46.98977" lon="10.33062"><ele>2504</ele></trkpt>
<trkpt lat="46.98977" lon="10.33067"><ele>2504</ele></trkpt>
<trkpt lat="46.98978" lon="10.33073"><ele>2504</ele></trkpt>
<trkpt lat="46.98981" lon="10.33074"><ele>2504</ele></trkpt>
<trkpt lat="46.98987" lon="10.33064"><ele>2500</ele></trkpt>
<trkpt lat="46.98993" lon="10.33048"><ele>2496</ele></trkpt>
<trkpt lat="46.98995" lon="10.33042"><ele>2496</ele></trkpt>
<trkpt lat="46.99003" lon="10.3302"><ele>2491</ele></trkpt>
<trkpt lat="46.99006" lon="10.33014"><ele>2491</ele></trkpt>
<trkpt lat="46.99009" lon="10.33009"><ele>2487</ele></trkpt>
<trkpt lat="46.99009" lon="10.33009"><ele>2487</ele></trkpt>
<trkpt lat="46.99009" lon="10.33009"><ele>2487</ele></trkpt>
<trkpt lat="46.99009" lon="10.33009"><ele>2487</ele></trkpt>
<trkpt lat="46.99009" lon="10.33009"><ele>2487</ele></trkpt>
<trkpt lat="46.99009" lon="10.33009"><ele>2487</ele></trkpt>
<trkpt lat="46.99009" lon="10.33009"><ele>2487</ele></trkpt>
<trkpt lat="46.99009" lon="10.33009"><ele>2487</ele></trkpt>
<trkpt lat="46.99009" lon="10.33009"><ele>2487</ele></trkpt>
<trkpt lat="46.99009" lon="10.33009"><ele>2487</ele></trkpt>
<trkpt lat="46.99009" lon="10.33009"><ele>2487</ele></trkpt>
<trkpt lat="46.99009" lon="10.33009"><ele>2487</ele></trkpt>
<trkpt lat="46.99009" lon="10.33009"><ele>2487</ele></trkpt>
<trkpt lat="46.99009" lon="10.33009"><ele>2487</ele></trkpt>
<trkpt lat="46.99009" lon="10.33009"><ele>2487</ele></trkpt>
<trkpt lat="46.99009" lon="10.33009"><ele>2487</ele></trkpt>
<trkpt lat="46.99009" lon="10.33009"><ele>2487</ele></trkpt>
<trkpt lat="46.99009" lon="10.33009"><ele>2487</ele></trkpt>
<trkpt lat="46.99009" lon="10.33009"><ele>2487</ele></trkpt>
<trkpt lat="46.99009" lon="10.33009"><ele>2487</ele></trkpt>
<trkpt lat="46.99009" lon="10.33009"><ele>2487</ele></trkpt>
<trkpt lat="46.99009" lon="10.33009"><ele>2487</ele></trkpt>
<trkpt lat="46.99009" lon="10.33009"><ele>2487</ele></trkpt>
<trkpt lat="46.99009" lon="10.33009"><ele>2487</ele></trkpt>
<trkpt lat="46.99009" lon="10.33009"><ele>2487</ele></trkpt>
<trkpt lat="46.99009" lon="10.33009"><ele>2487</ele></trkpt>
<trkpt lat="46.99009" lon="10.33009"><ele>2487</ele></trkpt>
<trkpt lat="46.99009" lon="10.33009"><ele>2487</ele></trkpt>
<trkpt lat="46.99009" lon="10.33009"><ele>2487</ele></trkpt>
<trkpt lat="46.99009" lon="10.33009"><ele>2487</ele></trkpt>
<trkpt lat="46.99009" lon="10.33009"><ele>2487</ele></trkpt>
<trkpt lat="46.99009" lon="10.33009"><ele>2487</ele></trkpt>
<trkpt lat="46.99009" lon="10.33009"><ele>2487</ele></trkpt>
<trkpt lat="46.99009" lon="10.33009"><ele>2487</ele></trkpt>
<trkpt lat="46.99017" lon="10.33014"><ele>2484</ele></trkpt>
<trkpt lat="46.99019" lon="10.33022"><ele>2484</ele></trkpt>
<trkpt lat="46.99021" lon="10.33029"><ele>2484</ele></trkpt>
<trkpt lat="46.99022" lon="10.33037"><ele>2484</ele></trkpt>
<trkpt lat="46.99022" lon="10.33047"><ele>2484</ele></trkpt>
<trkpt lat="46.9903" lon="10.33043"><ele>2480</ele></trkpt>
<trkpt lat="46.99032" lon="10.33041"><ele>2481</ele></trkpt>
<trkpt lat="46.99035" lon="10.33037"><ele>2477</ele></trkpt>
<trkpt lat="46.99039" lon="10.33042"><ele>2476</ele></trkpt>
<trkpt lat="46.99039" lon="10.33048"><ele>2476</ele></trkpt>
<trkpt lat="46.99038" lon="10.33057"><ele>2475</ele></trkpt>
<trkpt lat="46.99037" lon="10.33066"><ele>2475</ele></trkpt>
<trkpt lat="46.99036" lon="10.33076"><ele>2472</ele></trkpt>
<trkpt lat="46.99034" lon="10.33085"><ele>2474</ele></trkpt>
<trkpt lat="46.99032" lon="10.33092"><ele>2474</ele></trkpt>
<trkpt lat="46.99031" lon="10.33095"><ele>2473</ele></trkpt>
<trkpt lat="46.99031" lon="10.33097"><ele>2473</ele></trkpt>
<trkpt lat="46.99032" lon="10.331"><ele>2473</ele></trkpt>
<trkpt lat="46.99032" lon="10.33104"><ele>2473</ele></trkpt>
<trkpt lat="46.99033" lon="10.33108"><ele>2473</ele></trkpt>
<trkpt lat="46.99034" lon="10.33112"><ele>2473</ele></trkpt>
<trkpt lat="46.99035" lon="10.33114"><ele>2468</ele></trkpt>
<trkpt lat="46.99035" lon="10.33117"><ele>2468</ele></trkpt>
<trkpt lat="46.99035" lon="10.33118"><ele>2468</ele></trkpt>
<trkpt lat="46.99039" lon="10.33126"><ele>2468</ele></trkpt>
<trkpt lat="46.99045" lon="10.33151"><ele>2461</ele></trkpt>
<trkpt lat="46.99047" lon="10.33165"><ele>2461</ele></trkpt>
<trkpt lat="46.99051" lon="10.33178"><ele>2461</ele></trkpt>
<trkpt lat="46.99051" lon="10.33178"><ele>2461</ele></trkpt>
<trkpt lat="46.99051" lon="10.33178"><ele>2461</ele></trkpt>
<trkpt lat="46.99051" lon="10.33178"><ele>2461</ele></trkpt>
<trkpt lat="46.99051" lon="10.33178"><ele>2461</ele></trkpt>
<trkpt lat="46.99051" lon="10.33178"><ele>2461</ele></trkpt>
<trkpt lat="46.99051" lon="10.33178"><ele>2461</ele></trkpt>
<trkpt lat="46.99051" lon="10.33178"><ele>2461</ele></trkpt>
<trkpt lat="46.99051" lon="10.33178"><ele>2461</ele></trkpt>
<trkpt lat="46.99051" lon="10.33178"><ele>2461</ele></trkpt>
<trkpt lat="46.99051" lon="10.33178"><ele>2461</ele></trkpt>
<trkpt lat="46.99051" lon="10.33178"><ele>2461</ele></trkpt>
<trkpt lat="46.99051" lon="10.33178"><ele>2461</ele></trkpt>
<trkpt lat="46.99051" lon="10.33178"><ele>2461</ele></trkpt>
<trkpt lat="46.99051" lon="10.33178"><ele>2461</ele></trkpt>
<trkpt lat="46.99051" lon="10.33178"><ele>2461</ele></trkpt>
<trkpt lat="46.99051" lon="10.33178"><ele>2461</ele></trkpt>
<trkpt lat="46.99051" lon="10.33178"><ele>2461</ele></trkpt>
<trkpt lat="46.99051" lon="10.33178"><ele>2461</ele></trkpt>
<trkpt lat="46.99051" lon="10.33178"><ele>2461</ele></trkpt>
<trkpt lat="46.99051" lon="10.33178"><ele>2461</ele></trkpt>
<trkpt lat="46.99051" lon="10.33178"><ele>2461</ele></trkpt>
<trkpt lat="46.99051" lon="10.33178"><ele>2461</ele></trkpt>
<trkpt lat="46.99051" lon="10.33178"><ele>2461</ele></trkpt>
<trkpt lat="46.99051" lon="10.33178"><ele>2461</ele></trkpt>
<trkpt lat="46.99051" lon="10.33178"><ele>2461</ele></trkpt>
<trkpt lat="46.99051" lon="10.33178"><ele>2461</ele></trkpt>
<trkpt lat="46.99051" lon="10.33178"><ele>2461</ele></trkpt>
<trkpt lat="46.99051" lon="10.33178"><ele>2461</ele></trkpt>
<trkpt lat="46.99051" lon="10.33178"><ele>2461</ele></trkpt>
<trkpt lat="46.99051" lon="10.33178"><ele>2461</ele></trkpt>
<trkpt lat="46.99051" lon="10.33178"><ele>2461</ele></trkpt>
<trkpt lat="46.99051" lon="10.33178"><ele>2461</ele></trkpt>
<trkpt lat="46.99051" lon="10.33178"><ele>2461</ele></trkpt>
<trkpt lat="46.99057" lon="10.3318"><ele>2456</ele></trkpt>
<trkpt lat="46.99076" lon="10.33172"><ele>2449</ele></trkpt>
<trkpt lat="46.99089" lon="10.33197"><ele>2447</ele></trkpt>
<trkpt lat="46.99103" lon="10.33208"><ele>2446</ele></trkpt>
<trkpt lat="46.99111" lon="10.33211"><ele>2443</ele></trkpt>
<trkpt lat="46.99114" lon="10.33211"><ele>2440</ele></trkpt>
<trkpt lat="46.99131" lon="10.3322"><ele>2434</ele></trkpt>
<trkpt lat="46.99138" lon="10.33228"><ele>2434</ele></trkpt>
<trkpt lat="46.99139" lon="10.33234"><ele>2432</ele></trkpt>
<trkpt lat="46.99146" lon="10.3325"><ele>2433</ele></trkpt>
<trkpt lat="46.99157" lon="10.33252"><ele>2427</ele></trkpt>
<trkpt lat="46.99161" lon="10.33253"><ele>2427</ele></trkpt>
<trkpt lat="46.99174" lon="10.33258"><ele>2423</ele></trkpt>
<trkpt lat="46.99177" lon="10.33262"><ele>2422</ele></trkpt>
<trkpt lat="46.99181" lon="10.33268"><ele>2422</ele></trkpt>
<trkpt lat="46.99184" lon="10.33273"><ele>2421</ele></trkpt>
<trkpt lat="46.99188" lon="10.33278"><ele>2421</ele></trkpt>
<trkpt lat="46.99192" lon="10.33282"><ele>2420</ele></trkpt>
<trkpt lat="46.99197" lon="10.33282"><ele>2420</ele></trkpt>
<trkpt lat="46.99203" lon="10.33282"><ele>2420</ele></trkpt>
<trkpt lat="46.99216" lon="10.33282"><ele>2419</ele></trkpt>
<trkpt lat="46.9922" lon="10.33286"><ele>2417</ele></trkpt>
<trkpt lat="46.99222" lon="10.33292"><ele>2417</ele></trkpt>
<trkpt lat="46.99223" lon="10.333"><ele>2415</ele></trkpt>
<trkpt lat="46.99227" lon="10.33306"><ele>2414</ele></trkpt>
<trkpt lat="46.99232" lon="10.33309"><ele>2414</ele></trkpt>
<trkpt lat="46.99238" lon="10.33311"><ele>2412</ele></trkpt>
<trkpt lat="46.99244" lon="10.33311"><ele>2409</ele></trkpt>
<trkpt lat="46.99249" lon="10.33311"><ele>2409</ele></trkpt>
<trkpt lat="46.99249" lon="10.33311"><ele>2409</ele></trkpt>
<trkpt lat="46.99249" lon="10.33311"><ele>2409</ele></trkpt>
<trkpt lat="46.99249" lon="10.33311"><ele>2409</ele></trkpt>
<trkpt lat="46.99249" lon="10.33311"><ele>2409</ele></trkpt>
<trkpt lat="46.99249" lon="10.33311"><ele>2409</ele></trkpt>
<trkpt lat="46.99249" lon="10.33311"><ele>2409</ele></trkpt>
<trkpt lat="46.99249" lon="10.33311"><ele>2409</ele></trkpt>
<trkpt lat="46.99249" lon="10.33311"><ele>2409</ele></trkpt>
<trkpt lat="46.99249" lon="10.33311"><ele>2409</ele></trkpt>
<trkpt lat="46.99249" lon="10.33311"><ele>2409</ele></trkpt>
<trkpt lat="46.99249" lon="10.33311"><ele>2409</ele></trkpt>
<trkpt lat="46.99249" lon="10.33311"><ele>2409</ele></trkpt>
<trkpt lat="46.99249" lon="10.33311"><ele>2409</ele></trkpt>
<trkpt lat="46.99249" lon="10.33311"><ele>2409</ele></trkpt>
<trkpt lat="46.99249" lon="10.33311"><ele>2409</ele></trkpt>
<trkpt lat="46.99249" lon="10.33311"><ele>2409</ele></trkpt>
<trkpt lat="46.99249" lon="10.33311"><ele>2409</ele></trkpt>
<trkpt lat="46.99249" lon="10.33311"><ele>2409</ele></trkpt>
<trkpt lat="46.99249" lon="10.33311"><ele>2409</ele></trkpt>
<trkpt lat="46.99249" lon="10.33311"><ele>2409</ele></trkpt>
<trkpt lat="46.99249" lon="10.33311"><ele>2409</ele></trkpt>
<trkpt lat="46.99249" lon="10.33311"><ele>2409</ele></trkpt>
<trkpt lat="46.99249" lon="10.33311"><ele>2409</ele></trkpt>
<trkpt lat="46.99249" lon="10.33311"><ele>2409</ele></trkpt>
<trkpt lat="46.99249" lon="10.33311"><ele>2409</ele></trkpt>
<trkpt lat="46.99249" lon="10.33311"><ele>2409</ele></trkpt>
<trkpt lat="46.99249" lon="10.33311"><ele>2409</ele></trkpt>
<trkpt lat="46.99249" lon="10.33311"><ele>2409</ele></trkpt>
<trkpt lat="46.99249" lon="10.33311"><ele>2409</ele></trkpt>
<trkpt lat="46.99249" lon="10.33311"><ele>2409</ele></trkpt>
<trkpt lat="46.99249" lon="10.33311"><ele>2409</ele></trkpt>
<trkpt lat="46.99249" lon="10.33311"><ele>2409</ele></trkpt>
<trkpt lat="46.99249" lon="10.33311"><ele>2409</ele></trkpt>
<trkpt lat="46.99253" lon="10.33309"><ele>2407</ele></trkpt>
<trkpt lat="46.99258" lon="10.33306"><ele>2407</ele></trkpt>
<trkpt lat="46.99262" lon="10.33304"><ele>2404</ele></trkpt>
<trkpt lat="46.99267" lon="10.33302"><ele>2404</ele></trkpt>
<trkpt lat="46.99272" lon="10.33299"><ele>2402</ele></trkpt>
<trkpt lat="46.99277" lon="10.33296"><ele>2400</ele></trkpt>
<trkpt lat="46.99284" lon="10.33292"><ele>2398</ele></trkpt>
<trkpt lat="46.99289" lon="10.33292"><ele>2397</ele></trkpt>
<trkpt lat="46.99289" lon="10.33291"><ele>2397</ele></trkpt>
<trkpt lat="46.99291" lon="10.33291"><ele>2397</ele></trkpt>
<trkpt lat="46.99295" lon="10.33291"><ele>2397</ele></trkpt>
<trkpt lat="46.99298" lon="10.33292"><ele>2398</ele></trkpt>
<trkpt lat="46.99302" lon="10.33291"><ele>2398</ele></trkpt>
<trkpt lat="46.99305" lon="10.33289"><ele>2398</ele></trkpt>
<trkpt lat="46.9931" lon="10.33283"><ele>2392</ele></trkpt>
<trkpt lat="46.99313" lon="10.33281"><ele>2392</ele></trkpt>
<trkpt lat="46.99315" lon="10.33278"><ele>2392</ele></trkpt>
<trkpt lat="46.9932" lon="10.33275"><ele>2392</ele></trkpt>
<trkpt lat="46.99324" lon="10.33273"><ele>2393</ele></trkpt>
<trkpt lat="46.99327" lon="10.3327"><ele>2389</ele></trkpt>
<trkpt lat="46.99331" lon="10.33267"><ele>2391</ele></trkpt>
<trkpt lat="46.99333" lon="10.33264"><ele>2391</ele></trkpt>
<trkpt lat="46.99336" lon="10.33259"><ele>2391</ele></trkpt>
<trkpt lat="46.99337" lon="10.33258"><ele>2387</ele></trkpt>
<trkpt lat="46.99337" lon="10.33255"><ele>2387</ele></trkpt>
<trkpt lat="46.99339" lon="10.3325"><ele>2387</ele></trkpt>
<trkpt lat="46.99353" lon="10.33236"><ele>2385</ele></trkpt>
<trkpt lat="46.99355" lon="10.33231"><ele>2382</ele></trkpt>
<trkpt lat="46.99355" lon="10.33231"><ele>2382</ele></trkpt>
<trkpt lat="46.99356" lon="10.33231"><ele>2382</ele></trkpt>
<trkpt lat="46.99359" lon="10.3323"><ele>2382</ele></trkpt>
<trkpt lat="46.99364" lon="10.33229"><ele>2382</ele></trkpt>
<trkpt lat="46.99368" lon="10.33229"><ele>2383</ele></trkpt>
<trkpt lat="46.99373" lon="10.33222"><ele>2383</ele></trkpt>
<trkpt lat="46.99382" lon="10.33212"><ele>2382</ele></trkpt>
<trkpt lat="46.99402" lon="10.33184"><ele>2385</ele></trkpt>
<trkpt lat="46.99405" lon="10.33184"><ele>2385</ele></trkpt>
<trkpt lat="46.99413" lon="10.33182"><ele>2386</ele></trkpt>
<trkpt lat="46.99415" lon="10.33181"><ele>2383</ele></trkpt>
<trkpt lat="46.99419" lon="10.3317"><ele>2383</ele></trkpt>
<trkpt lat="46.99422" lon="10.33165"><ele>2380</ele></trkpt>
<trkpt lat="46.99425" lon="10.33161"><ele>2380</ele></trkpt>
<trkpt lat="46.99429" lon="10.33156"><ele>2378</ele></trkpt>
<trkpt lat="46.99433" lon="10.33151"><ele>2378</ele></trkpt>
<trkpt lat="46.99436" lon="10.33147"><ele>2379</ele></trkpt>
<trkpt lat="46.9944" lon="10.33144"><ele>2379</ele></trkpt>
<trkpt lat="46.99444" lon="10.33142"><ele>2376</ele></trkpt>
<trkpt lat="46.99448" lon="10.33139"><ele>2376</ele></trkpt>
<trkpt lat="46.99452" lon="10.33134"><ele>2376</ele></trkpt>
<trkpt lat="46.99458" lon="10.33131"><ele>2376</ele></trkpt>
<trkpt lat="46.99463" lon="10.33128"><ele>2372</ele></trkpt>
<trkpt lat="46.99474" lon="10.33128"><ele>2372</ele></trkpt>
<trkpt lat="46.99477" lon="10.33125"><ele>2372</ele></trkpt>
<trkpt lat="46.99481" lon="10.33122"><ele>2372</ele></trkpt>
<trkpt lat="46.99486" lon="10.3312"><ele>2372</ele></trkpt>
<trkpt lat="46.99492" lon="10.33119"><ele>2371</ele></trkpt>
<trkpt lat="46.99498" lon="10.33119"><ele>2371</ele></trkpt>
<trkpt lat="46.99504" lon="10.33117"><ele>2367</ele></trkpt>
<trkpt lat="46.99508" lon="10.33116"><ele>2367</ele></trkpt>
<trkpt lat="46.99514" lon="10.33116"><ele>2367</ele></trkpt>
<trkpt lat="46.99519" lon="10.33113"><ele>2367</ele></trkpt>
<trkpt lat="46.99524" lon="10.33111"><ele>2366</ele></trkpt>
<trkpt lat="46.99529" lon="10.33111"><ele>2366</ele></trkpt>
<trkpt lat="46.99534" lon="10.33112"><ele>2365</ele></trkpt>
<trkpt lat="46.99538" lon="10.33112"><ele>2365</ele></trkpt>
<trkpt lat="46.99541" lon="10.33109"><ele>2364</ele></trkpt>
<trkpt lat="46.99544" lon="10.33109"><ele>2364</ele></trkpt>
<trkpt lat="46.99548" lon="10.33109"><ele>2364</ele></trkpt>
<trkpt lat="46.99552" lon="10.33111"><ele>2363</ele></trkpt>
<trkpt lat="46.99556" lon="10.33109"><ele>2363</ele></trkpt>
<trkpt lat="46.99561" lon="10.33108"><ele>2362</ele></trkpt>
<trkpt lat="46.99565" lon="10.33104"><ele>2358</ele></trkpt>
<trkpt lat="46.9957" lon="10.33102"><ele>2357</ele></trkpt>
<trkpt lat="46.99577" lon="10.331"><ele>2357</ele></trkpt>
<trkpt lat="46.99583" lon="10.33097"><ele>2357</ele></trkpt>
<trkpt lat="46.9959" lon="10.33095"><ele>2357</ele></trkpt>
<trkpt lat="46.99595" lon="10.33095"><ele>2357</ele></trkpt>
<trkpt lat="46.996" lon="10.33095"><ele>2357</ele></trkpt>
<trkpt lat="46.99605" lon="10.33094"><ele>2357</ele></trkpt>
<trkpt lat="46.9961" lon="10.3309"><ele>2351</ele></trkpt>
<trkpt lat="46.9962" lon="10.33088"><ele>2350</ele></trkpt>
<trkpt lat="46.99625" lon="10.3309"><ele>2350</ele></trkpt>
<trkpt lat="46.99625" lon="10.3309"><ele>2350</ele></trkpt>
<trkpt lat="46.99625" lon="10.3309"><ele>2350</ele></trkpt>
<trkpt lat="46.99625" lon="10.33088"><ele>2350</ele></trkpt>
<trkpt lat="46.99627" lon="10.33081"><ele>2349</ele></trkpt>
<trkpt lat="46.99611" lon="10.33067"><ele>2347</ele></trkpt>
<trkpt lat="46.99598" lon="10.33062"><ele>2343</ele></trkpt>
<trkpt lat="46.99588" lon="10.33047"><ele>2341</ele></trkpt>
<trkpt lat="46.99572" lon="10.33033"><ele>2341</ele></trkpt>
<trkpt lat="46.99568" lon="10.33033"><ele>2341</ele></trkpt>
<trkpt lat="46.99565" lon="10.33029"><ele>2341</ele></trkpt>
<trkpt lat="46.99565" lon="10.33027"><ele>2338</ele></trkpt>
<trkpt lat="46.99565" lon="10.33027"><ele>2338</ele></trkpt>
<trkpt lat="46.99565" lon="10.33027"><ele>2338</ele></trkpt>
<trkpt lat="46.99565" lon="10.33027"><ele>2338</ele></trkpt>
<trkpt lat="46.99565" lon="10.33027"><ele>2338</ele></trkpt>
<trkpt lat="46.99565" lon="10.33027"><ele>2338</ele></trkpt>
<trkpt lat="46.99572" lon="10.33023"><ele>2337</ele></trkpt>
<trkpt lat="46.9958" lon="10.33018"><ele>2337</ele></trkpt>
<trkpt lat="46.9959" lon="10.3302"><ele>2335</ele></trkpt>
<trkpt lat="46.99603" lon="10.33034"><ele>2334</ele></trkpt>
<trkpt lat="46.99607" lon="10.33038"><ele>2334</ele></trkpt>
<trkpt lat="46.99611" lon="10.33038"><ele>2333</ele></trkpt>
<trkpt lat="46.99613" lon="10.33034"><ele>2333</ele></trkpt>
<trkpt lat="46.99613" lon="10.33029"><ele>2333</ele></trkpt>
<trkpt lat="46.99612" lon="10.33025"><ele>2329</ele></trkpt>
<trkpt lat="46.99608" lon="10.3302"><ele>2331</ele></trkpt>
<trkpt lat="46.99601" lon="10.33009"><ele>2329</ele></trkpt>
<trkpt lat="46.99599" lon="10.32999"><ele>2328</ele></trkpt>
<trkpt lat="46.99599" lon="10.32995"><ele>2328</ele></trkpt>
<trkpt lat="46.99593" lon="10.3299"><ele>2325</ele></trkpt>
<trkpt lat="46.99593" lon="10.32989"><ele>2325</ele></trkpt>
<trkpt lat="46.99594" lon="10.32987"><ele>2325</ele></trkpt>
<trkpt lat="46.99595" lon="10.32984"><ele>2325</ele></trkpt>
<trkpt lat="46.99603" lon="10.32984"><ele>2324</ele></trkpt>
<trkpt lat="46.99606" lon="10.32981"><ele>2324</ele></trkpt>
<trkpt lat="46.99606" lon="10.32981"><ele>2324</ele></trkpt>
<trkpt lat="46.99606" lon="10.32981"><ele>2324</ele></trkpt>
<trkpt lat="46.99609" lon="10.32982"><ele>2324</ele></trkpt>
<trkpt lat="46.99609" lon="10.32982"><ele>2324</ele></trkpt>
<trkpt lat="46.99609" lon="10.32982"><ele>2324</ele></trkpt>
<trkpt lat="46.99609" lon="10.32982"><ele>2324</ele></trkpt>
<trkpt lat="46.99609" lon="10.32982"><ele>2324</ele></trkpt>
<trkpt lat="46.99609" lon="10.32982"><ele>2324</ele></trkpt>
<trkpt lat="46.99609" lon="10.32982"><ele>2324</ele></trkpt>
<trkpt lat="46.99609" lon="10.32982"><ele>2324</ele></trkpt>
<trkpt lat="46.99609" lon="10.32982"><ele>2324</ele></trkpt>
<trkpt lat="46.99609" lon="10.32982"><ele>2324</ele></trkpt>
<trkpt lat="46.99609" lon="10.32982"><ele>2324</ele></trkpt>
<trkpt lat="46.99609" lon="10.32982"><ele>2324</ele></trkpt>
<trkpt lat="46.99609" lon="10.32982"><ele>2324</ele></trkpt>
<trkpt lat="46.99609" lon="10.32982"><ele>2324</ele></trkpt>
<trkpt lat="46.99609" lon="10.32982"><ele>2324</ele></trkpt>
<trkpt lat="46.99609" lon="10.32982"><ele>2324</ele></trkpt>
<trkpt lat="46.99609" lon="10.32982"><ele>2324</ele></trkpt>
<trkpt lat="46.99609" lon="10.32982"><ele>2324</ele></trkpt>
<trkpt lat="46.99609" lon="10.32982"><ele>2324</ele></trkpt>
<trkpt lat="46.99609" lon="10.32982"><ele>2324</ele></trkpt>
<trkpt lat="46.99609" lon="10.32982"><ele>2324</ele></trkpt>
<trkpt lat="46.99609" lon="10.32982"><ele>2324</ele></trkpt>
<trkpt lat="46.99609" lon="10.32982"><ele>2324</ele></trkpt>
<trkpt lat="46.99609" lon="10.32982"><ele>2324</ele></trkpt>
<trkpt lat="46.99609" lon="10.32982"><ele>2324</ele></trkpt>
<trkpt lat="46.99609" lon="10.32982"><ele>2324</ele></trkpt>
<trkpt lat="46.99609" lon="10.32982"><ele>2324</ele></trkpt>
<trkpt lat="46.99609" lon="10.32982"><ele>2324</ele></trkpt>
<trkpt lat="46.99609" lon="10.32982"><ele>2324</ele></trkpt>
<trkpt lat="46.99609" lon="10.32982"><ele>2324</ele></trkpt>
<trkpt lat="46.99609" lon="10.32982"><ele>2324</ele></trkpt>
<trkpt lat="46.99609" lon="10.32982"><ele>2324</ele></trkpt>
<trkpt lat="46.99609" lon="10.32982"><ele>2324</ele></trkpt>
<trkpt lat="46.99613" lon="10.32985"><ele>2321</ele></trkpt>
<trkpt lat="46.99616" lon="10.32987"><ele>2321</ele></trkpt>
<trkpt lat="46.99626" lon="10.32999"><ele>2321</ele></trkpt>
<trkpt lat="46.99641" lon="10.3301"><ele>2318</ele></trkpt>
<trkpt lat="46.99661" lon="10.3302"><ele>2319</ele></trkpt>
<trkpt lat="46.99678" lon="10.33029"><ele>2320</ele></trkpt>
<trkpt lat="46.99694" lon="10.33034"><ele>2317</ele></trkpt>
<trkpt lat="46.99695" lon="10.33034"><ele>2317</ele></trkpt>
<trkpt lat="46.99702" lon="10.33037"><ele>2314</ele></trkpt>
<trkpt lat="46.99722" lon="10.33038"><ele>2310</ele></trkpt>
<trkpt lat="46.99733" lon="10.33043"><ele>2308</ele></trkpt>
<trkpt lat="46.9976" lon="10.33043"><ele>2301</ele></trkpt>
<trkpt lat="46.99788" lon="10.33037"><ele>2295</ele></trkpt>
<trkpt lat="46.99813" lon="10.33024"><ele>2291</ele></trkpt>
<trkpt lat="46.99819" lon="10.3302"><ele>2292</ele></trkpt>
<trkpt lat="46.9983" lon="10.33013"><ele>2287</ele></trkpt>
<trkpt lat="46.99855" lon="10.32995"><ele>2284</ele></trkpt>
<trkpt lat="46.99869" lon="10.32987"><ele>2279</ele></trkpt>
<trkpt lat="46.9988" lon="10.32986"><ele>2277</ele></trkpt>
<trkpt lat="46.99885" lon="10.32984"><ele>2277</ele></trkpt>
<trkpt lat="46.999" lon="10.32982"><ele>2274</ele></trkpt>
<trkpt lat="46.99905" lon="10.32978"><ele>2274</ele></trkpt>
<trkpt lat="46.99939" lon="10.32972"><ele>2269</ele></trkpt>
<trkpt lat="46.99951" lon="10.32982"><ele>2267</ele></trkpt>
<trkpt lat="46.99958" lon="10.32987"><ele>2265</ele></trkpt>
<trkpt lat="46.99976" lon="10.32992"><ele>2263</ele></trkpt>
<trkpt lat="46.99984" lon="10.32989"><ele>2259</ele></trkpt>
<trkpt lat="46.99984" lon="10.32989"><ele>2259</ele></trkpt>
<trkpt lat="46.99984" lon="10.32989"><ele>2259</ele></trkpt>
<trkpt lat="46.99984" lon="10.32989"><ele>2259</ele></trkpt>
<trkpt lat="46.99984" lon="10.32989"><ele>2259</ele></trkpt>
<trkpt lat="46.99984" lon="10.32989"><ele>2259</ele></trkpt>
<trkpt lat="46.99984" lon="10.32989"><ele>2259</ele></trkpt>
<trkpt lat="46.99984" lon="10.32989"><ele>2259</ele></trkpt>
<trkpt lat="46.99984" lon="10.32989"><ele>2259</ele></trkpt>
<trkpt lat="46.99984" lon="10.32989"><ele>2259</ele></trkpt>
<trkpt lat="46.99984" lon="10.32989"><ele>2259</ele></trkpt>
<trkpt lat="46.99984" lon="10.32989"><ele>2259</ele></trkpt>
<trkpt lat="46.99984" lon="10.32989"><ele>2259</ele></trkpt>
<trkpt lat="46.99984" lon="10.32989"><ele>2259</ele></trkpt>
<trkpt lat="46.99984" lon="10.32989"><ele>2259</ele></trkpt>
<trkpt lat="46.99984" lon="10.32989"><ele>2259</ele></trkpt>
<trkpt lat="46.99984" lon="10.32989"><ele>2259</ele></trkpt>
<trkpt lat="46.99984" lon="10.32989"><ele>2259</ele></trkpt>
<trkpt lat="46.99984" lon="10.32989"><ele>2259</ele></trkpt>
<trkpt lat="46.99984" lon="10.32989"><ele>2259</ele></trkpt>
<trkpt lat="46.99984" lon="10.32989"><ele>2259</ele></trkpt>
<trkpt lat="46.99984" lon="10.32989"><ele>2259</ele></trkpt>
<trkpt lat="46.99984" lon="10.32989"><ele>2259</ele></trkpt>
<trkpt lat="46.99984" lon="10.32989"><ele>2259</ele></trkpt>
<trkpt lat="46.99984" lon="10.32989"><ele>2259</ele></trkpt>
<trkpt lat="46.99984" lon="10.32989"><ele>2259</ele></trkpt>
<trkpt lat="46.99984" lon="10.32989"><ele>2259</ele></trkpt>
<trkpt lat="46.99984" lon="10.32989"><ele>2259</ele></trkpt>
<trkpt lat="46.99984" lon="10.32989"><ele>2259</ele></trkpt>
<trkpt lat="46.99984" lon="10.32989"><ele>2259</ele></trkpt>
<trkpt lat="46.99984" lon="10.32989"><ele>2259</ele></trkpt>
<trkpt lat="46.99984" lon="10.32989"><ele>2259</ele></trkpt>
<trkpt lat="46.99981" lon="10.32987"><ele>2261</ele></trkpt>
<trkpt lat="46.99981" lon="10.32986"><ele>2261</ele></trkpt>
<trkpt lat="46.99981" lon="10.3298"><ele>2261</ele></trkpt>
<trkpt lat="46.99981" lon="10.32977"><ele>2259</ele></trkpt>
<trkpt lat="46.99982" lon="10.32973"><ele>2259</ele></trkpt>
<trkpt lat="46.99986" lon="10.32968"><ele>2258</ele></trkpt>
<trkpt lat="46.99987" lon="10.32965"><ele>2258</ele></trkpt>
<trkpt lat="46.99988" lon="10.32961"><ele>2256</ele></trkpt>
<trkpt lat="46.99993" lon="10.32954"><ele>2254</ele></trkpt>
<trkpt lat="46.99994" lon="10.32947"><ele>2253</ele></trkpt>
<trkpt lat="46.99992" lon="10.3294"><ele>2254</ele></trkpt>
<trkpt lat="46.99988" lon="10.32938"><ele>2253</ele></trkpt>
<trkpt lat="46.99987" lon="10.32935"><ele>2253</ele></trkpt>
<trkpt lat="46.99988" lon="10.32929"><ele>2253</ele></trkpt>
<trkpt lat="46.99989" lon="10.32924"><ele>2251</ele></trkpt>
<trkpt lat="46.99989" lon="10.32917"><ele>2251</ele></trkpt>
<trkpt lat="46.99986" lon="10.32914"><ele>2251</ele></trkpt>
<trkpt lat="46.99981" lon="10.3291"><ele>2248</ele></trkpt>
<trkpt lat="46.99974" lon="10.32907"><ele>2248</ele></trkpt>
<trkpt lat="46.99968" lon="10.32906"><ele>2248</ele></trkpt>
<trkpt lat="46.99964" lon="10.32905"><ele>2248</ele></trkpt>
<trkpt lat="46.99961" lon="10.32901"><ele>2248</ele></trkpt>
<trkpt lat="46.99956" lon="10.32895"><ele>2244</ele></trkpt>
<trkpt lat="46.99947" lon="10.3289"><ele>2245</ele></trkpt>
<trkpt lat="46.99942" lon="10.32889"><ele>2245</ele></trkpt>
<trkpt lat="46.99937" lon="10.32888"><ele>2245</ele></trkpt>
<trkpt lat="46.99931" lon="10.32884"><ele>2241</ele></trkpt>
<trkpt lat="46.99926" lon="10.32878"><ele>2241</ele></trkpt>
<trkpt lat="46.99925" lon="10.32872"><ele>2237</ele></trkpt>
<trkpt lat="46.99924" lon="10.32868"><ele>2237</ele></trkpt>
<trkpt lat="46.99919" lon="10.32865"><ele>2237</ele></trkpt>
<trkpt lat="46.99915" lon="10.3286"><ele>2233</ele></trkpt>
<trkpt lat="46.99911" lon="10.3286"><ele>2233</ele></trkpt>
<trkpt lat="46.99908" lon="10.3286"><ele>2233</ele></trkpt>
<trkpt lat="46.99905" lon="10.3286"><ele>2232</ele></trkpt>
<trkpt lat="46.99902" lon="10.32856"><ele>2232</ele></trkpt>
<trkpt lat="46.99899" lon="10.32854"><ele>2232</ele></trkpt>
<trkpt lat="46.99893" lon="10.32855"><ele>2231</ele></trkpt>
<trkpt lat="46.99889" lon="10.32851"><ele>2231</ele></trkpt>
<trkpt lat="46.99887" lon="10.3285"><ele>2231</ele></trkpt>
<trkpt lat="46.99886" lon="10.32846"><ele>2228</ele></trkpt>
<trkpt lat="46.99886" lon="10.32843"><ele>2228</ele></trkpt>
<trkpt lat="46.99886" lon="10.32843"><ele>2228</ele></trkpt>
<trkpt lat="46.99886" lon="10.32843"><ele>2228</ele></trkpt>
<trkpt lat="46.99886" lon="10.32843"><ele>2228</ele></trkpt>
<trkpt lat="46.99886" lon="10.32843"><ele>2228</ele></trkpt>
<trkpt lat="46.99886" lon="10.32843"><ele>2228</ele></trkpt>
<trkpt lat="46.99886" lon="10.32843"><ele>2228</ele></trkpt>
<trkpt lat="46.99886" lon="10.32843"><ele>2228</ele></trkpt>
<trkpt lat="46.99886" lon="10.32843"><ele>2228</ele></trkpt>
<trkpt lat="46.99886" lon="10.32843"><ele>2228</ele></trkpt>
<trkpt lat="46.99886" lon="10.32843"><ele>2228</ele></trkpt>
<trkpt lat="46.99886" lon="10.32843"><ele>2228</ele></trkpt>
<trkpt lat="46.99886" lon="10.32843"><ele>2228</ele></trkpt>
<trkpt lat="46.99886" lon="10.32843"><ele>2228</ele></trkpt>
<trkpt lat="46.99886" lon="10.32843"><ele>2228</ele></trkpt>
<trkpt lat="46.99886" lon="10.32843"><ele>2228</ele></trkpt>
<trkpt lat="46.99886" lon="10.32843"><ele>2228</ele></trkpt>
<trkpt lat="46.99886" lon="10.32843"><ele>2228</ele></trkpt>
<trkpt lat="46.99886" lon="10.32843"><ele>2228</ele></trkpt>
<trkpt lat="46.99886" lon="10.32843"><ele>2228</ele></trkpt>
<trkpt lat="46.99886" lon="10.32843"><ele>2228</ele></trkpt>
<trkpt lat="46.99886" lon="10.32843"><ele>2228</ele></trkpt>
<trkpt lat="46.99886" lon="10.32843"><ele>2228</ele></trkpt>
<trkpt lat="46.99886" lon="10.32843"><ele>2228</ele></trkpt>
<trkpt lat="46.99888" lon="10.3284"><ele>2228</ele></trkpt>
<trkpt lat="46.9989" lon="10.32839"><ele>2228</ele></trkpt>
<trkpt lat="46.99896" lon="10.32837"><ele>2228</ele></trkpt>
<trkpt lat="46.999" lon="10.3284"><ele>2229</ele></trkpt>
<trkpt lat="46.99904" lon="10.3284"><ele>2229</ele></trkpt>
<trkpt lat="46.99905" lon="10.3284"><ele>2229</ele></trkpt>
<trkpt lat="46.99906" lon="10.32837"><ele>2229</ele></trkpt>
<trkpt lat="46.99907" lon="10.32832"><ele>2226</ele></trkpt>
<trkpt lat="46.99907" lon="10.32828"><ele>2226</ele></trkpt>
<trkpt lat="46.99905" lon="10.32823"><ele>2224</ele></trkpt>
<trkpt lat="46.99905" lon="10.32816"><ele>2224</ele></trkpt>
<trkpt lat="46.99906" lon="10.32812"><ele>2223</ele></trkpt>
<trkpt lat="46.99908" lon="10.32812"><ele>2223</ele></trkpt>
<trkpt lat="46.99913" lon="10.32815"><ele>2223</ele></trkpt>
<trkpt lat="46.99916" lon="10.32816"><ele>2222</ele></trkpt>
<trkpt lat="46.99919" lon="10.32817"><ele>2222</ele></trkpt>
<trkpt lat="46.99928" lon="10.32813"><ele>2222</ele></trkpt>
<trkpt lat="46.99935" lon="10.32811"><ele>2218</ele></trkpt>
<trkpt lat="46.99942" lon="10.32809"><ele>2217</ele></trkpt>
<trkpt lat="46.99951" lon="10.32809"><ele>2217</ele></trkpt>
<trkpt lat="46.99955" lon="10.32806"><ele>2217</ele></trkpt>
<trkpt lat="46.99956" lon="10.32803"><ele>2217</ele></trkpt>
<trkpt lat="46.99955" lon="10.32801"><ele>2217</ele></trkpt>
<trkpt lat="46.99949" lon="10.32799"><ele>2217</ele></trkpt>
<trkpt lat="46.99944" lon="10.32793"><ele>2214</ele></trkpt>
<trkpt lat="46.99937" lon="10.3279"><ele>2215</ele></trkpt>
<trkpt lat="46.99937" lon="10.32789"><ele>2215</ele></trkpt>
<trkpt lat="46.99937" lon="10.32787"><ele>2215</ele></trkpt>
<trkpt lat="46.99938" lon="10.32785"><ele>2212</ele></trkpt>
<trkpt lat="46.9994" lon="10.32785"><ele>2212</ele></trkpt>
<trkpt lat="46.99944" lon="10.32787"><ele>2214</ele></trkpt>
<trkpt lat="46.9995" lon="10.32788"><ele>2213</ele></trkpt>
<trkpt lat="46.9996" lon="10.3279"><ele>2212</ele></trkpt>
<trkpt lat="46.99962" lon="10.3279"><ele>2212</ele></trkpt>
<trkpt lat="46.99962" lon="10.32787"><ele>2212</ele></trkpt>
<trkpt lat="46.99962" lon="10.32787"><ele>2212</ele></trkpt>
<trkpt lat="46.99962" lon="10.32787"><ele>2212</ele></trkpt>
<trkpt lat="46.99962" lon="10.32787"><ele>2212</ele></trkpt>
<trkpt lat="46.99962" lon="10.32787"><ele>2212</ele></trkpt>
<trkpt lat="46.99962" lon="10.32787"><ele>2212</ele></trkpt>
<trkpt lat="46.99962" lon="10.32787"><ele>2212</ele></trkpt>
<trkpt lat="46.99962" lon="10.32787"><ele>2212</ele></trkpt>
<trkpt lat="46.99958" lon="10.32784"><ele>2208</ele></trkpt>
<trkpt lat="46.99955" lon="10.32779"><ele>2209</ele></trkpt>
<trkpt lat="46.99955" lon="10.32775"><ele>2209</ele></trkpt>
<trkpt lat="46.99957" lon="10.32766"><ele>2207</ele></trkpt>
<trkpt lat="46.99957" lon="10.32762"><ele>2207</ele></trkpt>
<trkpt lat="46.99955" lon="10.32759"><ele>2205</ele></trkpt>
<trkpt lat="46.99954" lon="10.32755"><ele>2205</ele></trkpt>
<trkpt lat="46.99955" lon="10.32743"><ele>2204</ele></trkpt>
<trkpt lat="46.99955" lon="10.32733"><ele>2202</ele></trkpt>
<trkpt lat="46.99956" lon="10.32732"><ele>2202</ele></trkpt>
<trkpt lat="46.99957" lon="10.32731"><ele>2202</ele></trkpt>
<trkpt lat="46.99958" lon="10.32732"><ele>2200</ele></trkpt>
<trkpt lat="46.9996" lon="10.32734"><ele>2200</ele></trkpt>
<trkpt lat="46.99962" lon="10.32734"><ele>2200</ele></trkpt>
<trkpt lat="46.99963" lon="10.32734"><ele>2200</ele></trkpt>
<trkpt lat="46.99965" lon="10.32732"><ele>2200</ele></trkpt>
<trkpt lat="46.99965" lon="10.32724"><ele>2200</ele></trkpt>
<trkpt lat="46.99966" lon="10.32715"><ele>2199</ele></trkpt>
<trkpt lat="46.99966" lon="10.32715"><ele>2199</ele></trkpt>
<trkpt lat="46.99969" lon="10.32712"><ele>2196</ele></trkpt>
<trkpt lat="46.99972" lon="10.32709"><ele>2195</ele></trkpt>
<trkpt lat="46.9998" lon="10.32715"><ele>2190</ele></trkpt>
<trkpt lat="46.99987" lon="10.32712"><ele>2190</ele></trkpt>
<trkpt lat="46.99989" lon="10.32707"><ele>2190</ele></trkpt>
<trkpt lat="46.99991" lon="10.32701"><ele>2190</ele></trkpt>
<trkpt lat="46.99991" lon="10.32693"><ele>2190</ele></trkpt>
<trkpt lat="46.99992" lon="10.32682"><ele>2190</ele></trkpt>
<trkpt lat="47.00001" lon="10.32676"><ele>2183</ele></trkpt>
<trkpt lat="47.00007" lon="10.32675"><ele>2183</ele></trkpt>
<trkpt lat="47.00012" lon="10.32676"><ele>2183</ele></trkpt>
<trkpt lat="47.00015" lon="10.32677"><ele>2183</ele></trkpt>
<trkpt lat="47.00024" lon="10.32677"><ele>2183</ele></trkpt>
<trkpt lat="47.00031" lon="10.32671"><ele>2181</ele></trkpt>
<trkpt lat="47.0004" lon="10.32665"><ele>2177</ele></trkpt>
<trkpt lat="47.00045" lon="10.32659"><ele>2173</ele></trkpt>
<trkpt lat="47.00052" lon="10.32648"><ele>2171</ele></trkpt>
<trkpt lat="47.0006" lon="10.32641"><ele>2168</ele></trkpt>
<trkpt lat="47.00063" lon="10.32625"><ele>2168</ele></trkpt>
<trkpt lat="47.00066" lon="10.32614"><ele>2168</ele></trkpt>
<trkpt lat="47.00072" lon="10.32607"><ele>2168</ele></trkpt>
<trkpt lat="47.00075" lon="10.32598"><ele>2168</ele></trkpt>
<trkpt lat="47.00075" lon="10.32587"><ele>2164</ele></trkpt>
<trkpt lat="47.00073" lon="10.32579"><ele>2159</ele></trkpt>
<trkpt lat="47.00081" lon="10.32575"><ele>2158</ele></trkpt>
<trkpt lat="47.00089" lon="10.32573"><ele>0</ele></trkpt>
<trkpt lat="47.00085" lon="10.32563"><ele>0</ele></trkpt>
<trkpt lat="47.00083" lon="10.32552"><ele>0</ele></trkpt>
<trkpt lat="47.00096" lon="10.3253"><ele>0</ele></trkpt>
<trkpt lat="47.00108" lon="10.32502"><ele>2151</ele></trkpt>
<trkpt lat="47.00121" lon="10.32466"><ele>2145</ele></trkpt>
<trkpt lat="47.00146" lon="10.32448"><ele>2140</ele></trkpt>
<trkpt lat="47.00164" lon="10.32438"><ele>2135</ele></trkpt>
<trkpt lat="47.00164" lon="10.32438"><ele>2135</ele></trkpt>
<trkpt lat="47.00204" lon="10.32446"><ele>2132</ele></trkpt>
<trkpt lat="47.00215" lon="10.32435"><ele>2129</ele></trkpt>
<trkpt lat="47.00215" lon="10.32435"><ele>2129</ele></trkpt>
<trkpt lat="47.00215" lon="10.32435"><ele>2129</ele></trkpt>
<trkpt lat="47.00216" lon="10.32437"><ele>2129</ele></trkpt>
<trkpt lat="47.00216" lon="10.32437"><ele>2129</ele></trkpt>
<trkpt lat="47.00216" lon="10.32437"><ele>2129</ele></trkpt>
<trkpt lat="47.00216" lon="10.32437"><ele>2129</ele></trkpt>
<trkpt lat="47.00216" lon="10.32437"><ele>2129</ele></trkpt>
<trkpt lat="47.00216" lon="10.32437"><ele>2129</ele></trkpt>
<trkpt lat="47.00218" lon="10.32433"><ele>2129</ele></trkpt>
<trkpt lat="47.00221" lon="10.32429"><ele>2128</ele></trkpt>
<trkpt lat="47.00221" lon="10.32424"><ele>2125</ele></trkpt>
<trkpt lat="47.0022" lon="10.32419"><ele>2125</ele></trkpt>
<trkpt lat="47.00218" lon="10.32415"><ele>2123</ele></trkpt>
<trkpt lat="47.00219" lon="10.3241"><ele>2122</ele></trkpt>
<trkpt lat="47.0022" lon="10.32407"><ele>2122</ele></trkpt>
<trkpt lat="47.00216" lon="10.32399"><ele>2120</ele></trkpt>
<trkpt lat="47.00211" lon="10.32394"><ele>2120</ele></trkpt>
<trkpt lat="47.00206" lon="10.3238"><ele>2117</ele></trkpt>
<trkpt lat="47.00206" lon="10.32372"><ele>2117</ele></trkpt>
<trkpt lat="47.00207" lon="10.32363"><ele>2118</ele></trkpt>
<trkpt lat="47.0021" lon="10.32358"><ele>2118</ele></trkpt>
<trkpt lat="47.00214" lon="10.32353"><ele>2115</ele></trkpt>
<trkpt lat="47.00219" lon="10.32349"><ele>2113</ele></trkpt>
<trkpt lat="47.00228" lon="10.3234"><ele>2110</ele></trkpt>
<trkpt lat="47.00231" lon="10.32334"><ele>2110</ele></trkpt>
<trkpt lat="47.00232" lon="10.32333"><ele>2110</ele></trkpt>
<trkpt lat="47.00235" lon="10.32327"><ele>2110</ele></trkpt>
<trkpt lat="47.00238" lon="10.3232"><ele>2107</ele></trkpt>
<trkpt lat="47.00242" lon="10.32314"><ele>2107</ele></trkpt>
<trkpt lat="47.00246" lon="10.32307"><ele>2103</ele></trkpt>
<trkpt lat="47.00249" lon="10.32301"><ele>2103</ele></trkpt>
<trkpt lat="47.00258" lon="10.32282"><ele>2099</ele></trkpt>
<trkpt lat="47.0026" lon="10.32274"><ele>2099</ele></trkpt>
<trkpt lat="47.00261" lon="10.32267"><ele>2099</ele></trkpt>
<trkpt lat="47.00263" lon="10.32259"><ele>2097</ele></trkpt>
<trkpt lat="47.00266" lon="10.32253"><ele>2097</ele></trkpt>
<trkpt lat="47.0027" lon="10.32246"><ele>2098</ele></trkpt>
<trkpt lat="47.00273" lon="10.32243"><ele>2095</ele></trkpt>
<trkpt lat="47.00279" lon="10.32241"><ele>2095</ele></trkpt>
<trkpt lat="47.00284" lon="10.32232"><ele>2093</ele></trkpt>
<trkpt lat="47.00286" lon="10.32226"><ele>2093</ele></trkpt>
<trkpt lat="47.00291" lon="10.32219"><ele>2090</ele></trkpt>
<trkpt lat="47.003" lon="10.32208"><ele>2088</ele></trkpt>
<trkpt lat="47.00303" lon="10.32204"><ele>2088</ele></trkpt>
<trkpt lat="47.00309" lon="10.32199"><ele>2085</ele></trkpt>
<trkpt lat="47.00321" lon="10.32188"><ele>2083</ele></trkpt>
<trkpt lat="47.00322" lon="10.32185"><ele>2084</ele></trkpt>
<trkpt lat="47.00326" lon="10.32179"><ele>2082</ele></trkpt>
<trkpt lat="47.00329" lon="10.32166"><ele>2081</ele></trkpt>
<trkpt lat="47.00329" lon="10.32158"><ele>2079</ele></trkpt>
<trkpt lat="47.00325" lon="10.32149"><ele>2079</ele></trkpt>
<trkpt lat="47.00326" lon="10.32141"><ele>2078</ele></trkpt>
<trkpt lat="47.00327" lon="10.32132"><ele>2078</ele></trkpt>
<trkpt lat="47.0033" lon="10.32124"><ele>2078</ele></trkpt>
<trkpt lat="47.00334" lon="10.32122"><ele>2076</ele></trkpt>
<trkpt lat="47.00339" lon="10.32119"><ele>2077</ele></trkpt>
<trkpt lat="47.00344" lon="10.32116"><ele>2075</ele></trkpt>
<trkpt lat="47.00349" lon="10.32114"><ele>2075</ele></trkpt>
<trkpt lat="47.00355" lon="10.32107"><ele>2074</ele></trkpt>
<trkpt lat="47.00358" lon="10.321"><ele>2074</ele></trkpt>
<trkpt lat="47.0036" lon="10.32094"><ele>2073</ele></trkpt>
<trkpt lat="47.00362" lon="10.32086"><ele>2073</ele></trkpt>
<trkpt lat="47.00365" lon="10.3208"><ele>2073</ele></trkpt>
<trkpt lat="47.0037" lon="10.32069"><ele>2072</ele></trkpt>
<trkpt lat="47.00374" lon="10.32052"><ele>2073</ele></trkpt>
<trkpt lat="47.00376" lon="10.32047"><ele>2070</ele></trkpt>
<trkpt lat="47.00384" lon="10.32041"><ele>2071</ele></trkpt>
<trkpt lat="47.00388" lon="10.32035"><ele>2068</ele></trkpt>
<trkpt lat="47.00393" lon="10.32029"><ele>2067</ele></trkpt>
<trkpt lat="47.00396" lon="10.32023"><ele>2067</ele></trkpt>
<trkpt lat="47.004" lon="10.32018"><ele>2068</ele></trkpt>
<trkpt lat="47.00407" lon="10.32009"><ele>2066</ele></trkpt>
<trkpt lat="47.00408" lon="10.32"><ele>2066</ele></trkpt>
<trkpt lat="47.0041" lon="10.31985"><ele>2066</ele></trkpt>
<trkpt lat="47.00413" lon="10.31978"><ele>2065</ele></trkpt>
<trkpt lat="47.00413" lon="10.31978"><ele>2065</ele></trkpt>
<trkpt lat="47.00413" lon="10.31978"><ele>2065</ele></trkpt>
<trkpt lat="47.00413" lon="10.31978"><ele>2065</ele></trkpt>
<trkpt lat="47.00413" lon="10.31978"><ele>2065</ele></trkpt>
<trkpt lat="47.00413" lon="10.31978"><ele>2065</ele></trkpt>
<trkpt lat="47.00413" lon="10.31978"><ele>2065</ele></trkpt>
<trkpt lat="47.00428" lon="10.31963"><ele>2064</ele></trkpt>
<trkpt lat="47.00446" lon="10.31955"><ele>2063</ele></trkpt>
<trkpt lat="47.00454" lon="10.31954"><ele>2063</ele></trkpt>
<trkpt lat="47.00459" lon="10.3195"><ele>2062</ele></trkpt>
<trkpt lat="47.00484" lon="10.31936"><ele>2060</ele></trkpt>
<trkpt lat="47.00491" lon="10.3193"><ele>2059</ele></trkpt>
<trkpt lat="47.00507" lon="10.3191"><ele>2057</ele></trkpt>
<trkpt lat="47.00522" lon="10.31889"><ele>2055</ele></trkpt>
<trkpt lat="47.00525" lon="10.31883"><ele>2053</ele></trkpt>
<trkpt lat="47.00534" lon="10.31865"><ele>2051</ele></trkpt>
<trkpt lat="47.00538" lon="10.31861"><ele>2051</ele></trkpt>
<trkpt lat="47.00543" lon="10.31858"><ele>2050</ele></trkpt>
<trkpt lat="47.0055" lon="10.31858"><ele>2049</ele></trkpt>
<trkpt lat="47.00567" lon="10.31858"><ele>0</ele></trkpt>
<trkpt lat="47.00557" lon="10.31858"><ele>2049</ele></trkpt>
<trkpt lat="47.00573" lon="10.31859"><ele>2047</ele></trkpt>
<trkpt lat="47.00581" lon="10.31866"><ele>2047</ele></trkpt>
<trkpt lat="47.00589" lon="10.31875"><ele>2048</ele></trkpt>
<trkpt lat="47.00597" lon="10.3188"><ele>2051</ele></trkpt>
<trkpt lat="47.00609" lon="10.31874"><ele>2050</ele></trkpt>
<trkpt lat="47.00618" lon="10.31866"><ele>2049</ele></trkpt>
<trkpt lat="47.00679" lon="10.31842"><ele>2056</ele></trkpt>
<trkpt lat="47.00679" lon="10.31842"><ele>2056</ele></trkpt>
<trkpt lat="47.00679" lon="10.31842"><ele>2056</ele></trkpt>
<trkpt lat="47.00679" lon="10.31842"><ele>2056</ele></trkpt>
<trkpt lat="47.00679" lon="10.31842"><ele>2056</ele></trkpt>
<trkpt lat="47.00679" lon="10.31842"><ele>2056</ele></trkpt>
<trkpt lat="47.00679" lon="10.31842"><ele>2056</ele></trkpt>
<trkpt lat="47.00679" lon="10.31842"><ele>2056</ele></trkpt>
<trkpt lat="47.00679" lon="10.31842"><ele>2056</ele></trkpt>
<trkpt lat="47.00679" lon="10.31842"><ele>2056</ele></trkpt>
<trkpt lat="47.00679" lon="10.31842"><ele>2056</ele></trkpt>
<trkpt lat="47.00679" lon="10.31842"><ele>2056</ele></trkpt>
<trkpt lat="47.00679" lon="10.31842"><ele>2056</ele></trkpt>
<trkpt lat="47.00679" lon="10.31842"><ele>2056</ele></trkpt>
<trkpt lat="47.00679" lon="10.31842"><ele>2056</ele></trkpt>
<trkpt lat="47.00679" lon="10.31842"><ele>2056</ele></trkpt>
<trkpt lat="47.00679" lon="10.31842"><ele>2056</ele></trkpt>
<trkpt lat="47.00679" lon="10.31842"><ele>2056</ele></trkpt>
<trkpt lat="47.00679" lon="10.31842"><ele>2056</ele></trkpt>
<trkpt lat="47.00679" lon="10.31842"><ele>2056</ele></trkpt>
<trkpt lat="47.00679" lon="10.31842"><ele>2056</ele></trkpt>
<trkpt lat="47.00679" lon="10.31842"><ele>2056</ele></trkpt>
<trkpt lat="47.00679" lon="10.31842"><ele>2056</ele></trkpt>
<trkpt lat="47.00727" lon="10.318"><ele>2050</ele></trkpt>
<trkpt lat="47.00741" lon="10.31786"><ele>2048</ele></trkpt>
<trkpt lat="47.0075" lon="10.31769"><ele>2048</ele></trkpt>
<trkpt lat="47.00764" lon="10.31748"><ele>2045</ele></trkpt>
<trkpt lat="47.00769" lon="10.31738"><ele>2044</ele></trkpt>
<trkpt lat="47.00778" lon="10.31728"><ele>2047</ele></trkpt>
<trkpt lat="47.00782" lon="10.31718"><ele>2042</ele></trkpt>
<trkpt lat="47.00793" lon="10.3171"><ele>2039</ele></trkpt>
<trkpt lat="47.00797" lon="10.31699"><ele>2037</ele></trkpt>
<trkpt lat="47.00804" lon="10.31687"><ele>2036</ele></trkpt>
<trkpt lat="47.00814" lon="10.31672"><ele>2034</ele></trkpt>
<trkpt lat="47.00821" lon="10.31659"><ele>2033</ele></trkpt>
<trkpt lat="47.00827" lon="10.31647"><ele>2027</ele></trkpt>
<trkpt lat="47.00842" lon="10.31616"><ele>2026</ele></trkpt>
<trkpt lat="47.00851" lon="10.31598"><ele>2021</ele></trkpt>
<trkpt lat="47.00851" lon="10.31598"><ele>2021</ele></trkpt>
<trkpt lat="47.00851" lon="10.31598"><ele>2021</ele></trkpt>
<trkpt lat="47.00851" lon="10.31598"><ele>2021</ele></trkpt>
<trkpt lat="47.00851" lon="10.31598"><ele>2021</ele></trkpt>
<trkpt lat="47.00851" lon="10.31598"><ele>2021</ele></trkpt>
<trkpt lat="47.00851" lon="10.31598"><ele>2021</ele></trkpt>
<trkpt lat="47.00851" lon="10.31598"><ele>2021</ele></trkpt>
<trkpt lat="47.00851" lon="10.31598"><ele>2021</ele></trkpt>
<trkpt lat="47.00851" lon="10.31598"><ele>2021</ele></trkpt>
<trkpt lat="47.00851" lon="10.31598"><ele>2021</ele></trkpt>
<trkpt lat="47.00851" lon="10.31598"><ele>2021</ele></trkpt>
<trkpt lat="47.00851" lon="10.31598"><ele>2021</ele></trkpt>
<trkpt lat="47.00851" lon="10.31598"><ele>2021</ele></trkpt>
<trkpt lat="47.00851" lon="10.31598"><ele>2021</ele></trkpt>
<trkpt lat="47.00851" lon="10.31598"><ele>2021</ele></trkpt>
<trkpt lat="47.00851" lon="10.31598"><ele>2021</ele></trkpt>
<trkpt lat="47.00851" lon="10.31598"><ele>2021</ele></trkpt>
<trkpt lat="47.00851" lon="10.31598"><ele>2021</ele></trkpt>
<trkpt lat="47.00851" lon="10.31598"><ele>2021</ele></trkpt>
<trkpt lat="47.00851" lon="10.31598"><ele>2021</ele></trkpt>
<trkpt lat="47.00851" lon="10.31598"><ele>2021</ele></trkpt>
<trkpt lat="47.00851" lon="10.31598"><ele>2021</ele></trkpt>
<trkpt lat="47.00859" lon="10.3157"><ele>2020</ele></trkpt>
<trkpt lat="47.00863" lon="10.3153"><ele>2012</ele></trkpt>
<trkpt lat="47.00865" lon="10.31487"><ele>2016</ele></trkpt>
<trkpt lat="47.00865" lon="10.31441"><ele>2014</ele></trkpt>
<trkpt lat="47.00858" lon="10.31405"><ele>2005</ele></trkpt>
<trkpt lat="47.00858" lon="10.31381"><ele>2005</ele></trkpt>
<trkpt lat="47.0086" lon="10.31351"><ele>1998</ele></trkpt>
<trkpt lat="47.00861" lon="10.31329"><ele>1996</ele></trkpt>
<trkpt lat="47.00861" lon="10.31317"><ele>1996</ele></trkpt>
<trkpt lat="47.00853" lon="10.31277"><ele>1990</ele></trkpt>
<trkpt lat="47.00851" lon="10.31246"><ele>1988</ele></trkpt>
<trkpt lat="47.00854" lon="10.31215"><ele>1985</ele></trkpt>
<trkpt lat="47.00857" lon="10.31203"><ele>1988</ele></trkpt>
<trkpt lat="47.00862" lon="10.31184"><ele>1980</ele></trkpt>
<trkpt lat="47.00865" lon="10.31169"><ele>1985</ele></trkpt>
<trkpt lat="47.00863" lon="10.31148"><ele>1978</ele></trkpt>
<trkpt lat="47.00858" lon="10.31124"><ele>1980</ele></trkpt>
<trkpt lat="47.00851" lon="10.31092"><ele>1973</ele></trkpt>
<trkpt lat="47.00847" lon="10.31056"><ele>1975</ele></trkpt>
<trkpt lat="47.0085" lon="10.31031"><ele>1971</ele></trkpt>
<trkpt lat="47.00853" lon="10.30999"><ele>1964</ele></trkpt>
<trkpt lat="47.00858" lon="10.30971"><ele>1962</ele></trkpt>
<trkpt lat="47.00868" lon="10.30929"><ele>1958</ele></trkpt>
<trkpt lat="47.00875" lon="10.30885"><ele>1953</ele></trkpt>
<trkpt lat="47.00881" lon="10.30857"><ele>1950</ele></trkpt>
<trkpt lat="47.00885" lon="10.3084"><ele>1947</ele></trkpt>
<trkpt lat="47.00888" lon="10.30823"><ele>1945</ele></trkpt>
<trkpt lat="47.00899" lon="10.30758"><ele>1941</ele></trkpt>
<trkpt lat="47.00906" lon="10.30718"><ele>1934</ele></trkpt>
<trkpt lat="47.00907" lon="10.30711"><ele>1937</ele></trkpt>
<trkpt lat="47.00907" lon="10.30699"><ele>1935</ele></trkpt>
<trkpt lat="47.00909" lon="10.30674"><ele>1930</ele></trkpt>
<trkpt lat="47.00911" lon="10.30655"><ele>1927</ele></trkpt>
<trkpt lat="47.00913" lon="10.30622"><ele>1923</ele></trkpt>
<trkpt lat="47.0091" lon="10.30589"><ele>1922</ele></trkpt>
<trkpt lat="47.00904" lon="10.30564"><ele>1917</ele></trkpt>
<trkpt lat="47.00902" lon="10.30538"><ele>1916</ele></trkpt>
<trkpt lat="47.00901" lon="10.30519"><ele>1913</ele></trkpt>
<trkpt lat="47.00903" lon="10.30499"><ele>1908</ele></trkpt>
<trkpt lat="47.00903" lon="10.30499"><ele>1908</ele></trkpt>
<trkpt lat="47.00903" lon="10.30499"><ele>1908</ele></trkpt>
<trkpt lat="47.00903" lon="10.30499"><ele>1908</ele></trkpt>
<trkpt lat="47.00903" lon="10.30499"><ele>1908</ele></trkpt>
<trkpt lat="47.00903" lon="10.30499"><ele>1908</ele></trkpt>
<trkpt lat="47.00903" lon="10.30499"><ele>1908</ele></trkpt>
<trkpt lat="47.00903" lon="10.30499"><ele>1908</ele></trkpt>
<trkpt lat="47.00903" lon="10.30499"><ele>1908</ele></trkpt>
<trkpt lat="47.00903" lon="10.30499"><ele>1908</ele></trkpt>
<trkpt lat="47.00903" lon="10.30499"><ele>1908</ele></trkpt>
<trkpt lat="47.00903" lon="10.30499"><ele>1908</ele></trkpt>
<trkpt lat="47.00903" lon="10.30499"><ele>1908</ele></trkpt>
<trkpt lat="47.00903" lon="10.30499"><ele>1908</ele></trkpt>
<trkpt lat="47.00903" lon="10.30499"><ele>1908</ele></trkpt>
<trkpt lat="47.00903" lon="10.30499"><ele>1908</ele></trkpt>
<trkpt lat="47.00903" lon="10.30499"><ele>1908</ele></trkpt>
<trkpt lat="47.00903" lon="10.30499"><ele>1908</ele></trkpt>
<trkpt lat="47.00903" lon="10.30499"><ele>1908</ele></trkpt>
<trkpt lat="47.00903" lon="10.30499"><ele>1908</ele></trkpt>
<trkpt lat="47.00903" lon="10.30499"><ele>1908</ele></trkpt>
<trkpt lat="47.00903" lon="10.30499"><ele>1908</ele></trkpt>
<trkpt lat="47.00903" lon="10.30499"><ele>1908</ele></trkpt>
<trkpt lat="47.00911" lon="10.30486"><ele>1908</ele></trkpt>
<trkpt lat="47.00928" lon="10.30467"><ele>1908</ele></trkpt>
<trkpt lat="47.00947" lon="10.30456"><ele>1904</ele></trkpt>
<trkpt lat="47.0096" lon="10.30452"><ele>1905</ele></trkpt>
<trkpt lat="47.00978" lon="10.30449"><ele>1902</ele></trkpt>
<trkpt lat="47.00998" lon="10.30453"><ele>1898</ele></trkpt>
<trkpt lat="47.01006" lon="10.30457"><ele>1895</ele></trkpt>
<trkpt lat="47.01012" lon="10.30451"><ele>1891</ele></trkpt>
<trkpt lat="47.01012" lon="10.30451"><ele>1891</ele></trkpt>
<trkpt lat="47.01012" lon="10.30451"><ele>1891</ele></trkpt>
<trkpt lat="47.01012" lon="10.30451"><ele>1891</ele></trkpt>
<trkpt lat="47.01012" lon="10.30451"><ele>1891</ele></trkpt>
<trkpt lat="47.01012" lon="10.30451"><ele>1891</ele></trkpt>
<trkpt lat="47.01012" lon="10.30451"><ele>1891</ele></trkpt>
<trkpt lat="47.01012" lon="10.30451"><ele>1891</ele></trkpt>
<trkpt lat="47.01012" lon="10.30451"><ele>1891</ele></trkpt>
<trkpt lat="47.01012" lon="10.30451"><ele>1891</ele></trkpt>
<trkpt lat="47.01012" lon="10.30451"><ele>1891</ele></trkpt>
<trkpt lat="47.01012" lon="10.30451"><ele>1891</ele></trkpt>
<trkpt lat="47.01012" lon="10.30451"><ele>1891</ele></trkpt>
<trkpt lat="47.01012" lon="10.30451"><ele>1891</ele></trkpt>
<trkpt lat="47.01012" lon="10.30451"><ele>1891</ele></trkpt>
<trkpt lat="47.01012" lon="10.30451"><ele>1891</ele></trkpt>
<trkpt lat="47.01012" lon="10.30451"><ele>1891</ele></trkpt>
<trkpt lat="47.01012" lon="10.30451"><ele>1891</ele></trkpt>
<trkpt lat="47.01012" lon="10.30451"><ele>1891</ele></trkpt>
<trkpt lat="47.01012" lon="10.30451"><ele>1891</ele></trkpt>
<trkpt lat="47.01012" lon="10.30451"><ele>1891</ele></trkpt>
<trkpt lat="47.01012" lon="10.30451"><ele>1891</ele></trkpt>
<trkpt lat="47.01012" lon="10.30451"><ele>1891</ele></trkpt>
<trkpt lat="47.01006" lon="10.30444"><ele>1890</ele></trkpt>
<trkpt lat="47.00975" lon="10.30434"><ele>1889</ele></trkpt>
<trkpt lat="47.00951" lon="10.30421"><ele>1886</ele></trkpt>
<trkpt lat="47.00938" lon="10.30416"><ele>1885</ele></trkpt>
<trkpt lat="47.00921" lon="10.30424"><ele>1885</ele></trkpt>
<trkpt lat="47.00888" lon="10.30446"><ele>1875</ele></trkpt>
<trkpt lat="47.0085" lon="10.30474"><ele>1869</ele></trkpt>
<trkpt lat="47.00836" lon="10.30486"><ele>1864</ele></trkpt>
<trkpt lat="47.00836" lon="10.30486"><ele>1864</ele></trkpt>
<trkpt lat="47.00836" lon="10.30486"><ele>1864</ele></trkpt>
<trkpt lat="47.00836" lon="10.30486"><ele>1864</ele></trkpt>
<trkpt lat="47.00836" lon="10.30486"><ele>1864</ele></trkpt>
<trkpt lat="47.00836" lon="10.30486"><ele>1864</ele></trkpt>
<trkpt lat="47.00836" lon="10.30486"><ele>1864</ele></trkpt>
<trkpt lat="47.00836" lon="10.30486"><ele>1864</ele></trkpt>
<trkpt lat="47.00836" lon="10.30486"><ele>1864</ele></trkpt>
<trkpt lat="47.00836" lon="10.30486"><ele>1864</ele></trkpt>
<trkpt lat="47.00836" lon="10.30486"><ele>1864</ele></trkpt>
<trkpt lat="47.00836" lon="10.30486"><ele>1864</ele></trkpt>
<trkpt lat="47.00836" lon="10.30486"><ele>1864</ele></trkpt>
<trkpt lat="47.00836" lon="10.30486"><ele>1864</ele></trkpt>
<trkpt lat="47.00836" lon="10.30486"><ele>1864</ele></trkpt>
<trkpt lat="47.00836" lon="10.30486"><ele>1864</ele></trkpt>
<trkpt lat="47.00836" lon="10.30486"><ele>1864</ele></trkpt>
<trkpt lat="47.00836" lon="10.30486"><ele>1864</ele></trkpt>
<trkpt lat="47.00836" lon="10.30486"><ele>1864</ele></trkpt>
<trkpt lat="47.00836" lon="10.30486"><ele>1864</ele></trkpt>
<trkpt lat="47.00836" lon="10.30486"><ele>1864</ele></trkpt>
<trkpt lat="47.00836" lon="10.30486"><ele>1864</ele></trkpt>
<trkpt lat="47.00836" lon="10.30486"><ele>1864</ele></trkpt>
<trkpt lat="47.00829" lon="10.30505"><ele>1868</ele></trkpt>
<trkpt lat="47.00829" lon="10.30546"><ele>1867</ele></trkpt>
<trkpt lat="47.0082" lon="10.30574"><ele>1862</ele></trkpt>
<trkpt lat="47.00797" lon="10.30645"><ele>1853</ele></trkpt>
<trkpt lat="47.00785" lon="10.30683"><ele>1851</ele></trkpt>
<trkpt lat="47.00759" lon="10.30705"><ele>1847</ele></trkpt>
<trkpt lat="47.00734" lon="10.30771"><ele>1840</ele></trkpt>
<trkpt lat="47.00717" lon="10.30791"><ele>1832</ele></trkpt>
<trkpt lat="47.00706" lon="10.30835"><ele>1828</ele></trkpt>
<trkpt lat="47.00675" lon="10.30883"><ele>1821</ele></trkpt>
<trkpt lat="47.00661" lon="10.30923"><ele>1816</ele></trkpt>
<trkpt lat="47.00659" lon="10.30963"><ele>1813</ele></trkpt>
<trkpt lat="47.00652" lon="10.31047"><ele>1805</ele></trkpt>
<trkpt lat="47.00637" lon="10.31075"><ele>1806</ele></trkpt>
<trkpt lat="47.00637" lon="10.31075"><ele>1806</ele></trkpt>
<trkpt lat="47.00637" lon="10.31075"><ele>1806</ele></trkpt>
<trkpt lat="47.00637" lon="10.31075"><ele>1806</ele></trkpt>
<trkpt lat="47.00637" lon="10.31075"><ele>1806</ele></trkpt>
<trkpt lat="47.00637" lon="10.31075"><ele>1806</ele></trkpt>
<trkpt lat="47.00637" lon="10.31075"><ele>1806</ele></trkpt>
<trkpt lat="47.00637" lon="10.31075"><ele>1806</ele></trkpt>
<trkpt lat="47.00637" lon="10.31075"><ele>1806</ele></trkpt>
<trkpt lat="47.00637" lon="10.31075"><ele>1806</ele></trkpt>
<trkpt lat="47.00637" lon="10.31075"><ele>1806</ele></trkpt>
<trkpt lat="47.00637" lon="10.31075"><ele>1806</ele></trkpt>
<trkpt lat="47.00637" lon="10.31075"><ele>1806</ele></trkpt>
<trkpt lat="47.00637" lon="10.31075"><ele>1806</ele></trkpt>
<trkpt lat="47.00637" lon="10.31075"><ele>1806</ele></trkpt>
<trkpt lat="47.00637" lon="10.31075"><ele>1806</ele></trkpt>
<trkpt lat="47.00637" lon="10.31075"><ele>1806</ele></trkpt>
<trkpt lat="47.00637" lon="10.31073"><ele>1804</ele></trkpt>
<trkpt lat="47.00639" lon="10.3106"><ele>1802</ele></trkpt>
<trkpt lat="47.00643" lon="10.31047"><ele>1800</ele></trkpt>
<trkpt lat="47.00643" lon="10.31044"><ele>1800</ele></trkpt>
<trkpt lat="47.0064" lon="10.31042"><ele>1800</ele></trkpt>
<trkpt lat="47.00632" lon="10.31049"><ele>1799</ele></trkpt>
<trkpt lat="47.00631" lon="10.31049"><ele>1799</ele></trkpt>
<trkpt lat="47.00629" lon="10.31049"><ele>1799</ele></trkpt>
<trkpt lat="47.00629" lon="10.31045"><ele>1796</ele></trkpt>
<trkpt lat="47.00631" lon="10.31042"><ele>1796</ele></trkpt>
<trkpt lat="47.00633" lon="10.31038"><ele>1796</ele></trkpt>
<trkpt lat="47.00633" lon="10.31037"><ele>1796</ele></trkpt>
<trkpt lat="47.00632" lon="10.31035"><ele>1793</ele></trkpt>
<trkpt lat="47.00628" lon="10.31035"><ele>1791</ele></trkpt>
<trkpt lat="47.00625" lon="10.31035"><ele>1791</ele></trkpt>
<trkpt lat="47.00624" lon="10.31035"><ele>1791</ele></trkpt>
<trkpt lat="47.00624" lon="10.31034"><ele>1791</ele></trkpt>
<trkpt lat="47.00625" lon="10.31029"><ele>1791</ele></trkpt>
<trkpt lat="47.00634" lon="10.31004"><ele>1790</ele></trkpt>
<trkpt lat="47.00634" lon="10.31"><ele>1790</ele></trkpt>
<trkpt lat="47.00632" lon="10.30998"><ele>1790</ele></trkpt>
<trkpt lat="47.00629" lon="10.30999"><ele>1790</ele></trkpt>
<trkpt lat="47.00626" lon="10.31001"><ele>1787</ele></trkpt>
<trkpt lat="47.00623" lon="10.30999"><ele>1787</ele></trkpt>
<trkpt lat="47.00624" lon="10.30995"><ele>1785</ele></trkpt>
<trkpt lat="47.00627" lon="10.30988"><ele>1785</ele></trkpt>
<trkpt lat="47.00627" lon="10.30986"><ele>1785</ele></trkpt>
<trkpt lat="47.00626" lon="10.30984"><ele>1784</ele></trkpt>
<trkpt lat="47.00623" lon="10.30984"><ele>1784</ele></trkpt>
<trkpt lat="47.0061" lon="10.3099"><ele>1781</ele></trkpt>
<trkpt lat="47.00607" lon="10.30991"><ele>1781</ele></trkpt>
<trkpt lat="47.00606" lon="10.3099"><ele>1781</ele></trkpt>
<trkpt lat="47.00605" lon="10.30988"><ele>1781</ele></trkpt>
<trkpt lat="47.00605" lon="10.30984"><ele>1778</ele></trkpt>
<trkpt lat="47.00607" lon="10.30979"><ele>1778</ele></trkpt>
<trkpt lat="47.00615" lon="10.30965"><ele>1779</ele></trkpt>
<trkpt lat="47.00616" lon="10.3096"><ele>1779</ele></trkpt>
<trkpt lat="47.00616" lon="10.30959"><ele>1779</ele></trkpt>
<trkpt lat="47.00615" lon="10.30957"><ele>1779</ele></trkpt>
<trkpt lat="47.00613" lon="10.30957"><ele>1779</ele></trkpt>
<trkpt lat="47.00608" lon="10.3096"><ele>1776</ele></trkpt>
<trkpt lat="47.00603" lon="10.30957"><ele>1775</ele></trkpt>
<trkpt lat="47.00597" lon="10.30955"><ele>1772</ele></trkpt>
<trkpt lat="47.00595" lon="10.30955"><ele>1772</ele></trkpt>
<trkpt lat="47.00594" lon="10.30954"><ele>1772</ele></trkpt>
<trkpt lat="47.00593" lon="10.30949"><ele>1771</ele></trkpt>
<trkpt lat="47.00596" lon="10.30945"><ele>1770</ele></trkpt>
<trkpt lat="47.00602" lon="10.30936"><ele>1774</ele></trkpt>
<trkpt lat="47.00602" lon="10.30931"><ele>1773</ele></trkpt>
<trkpt lat="47.006" lon="10.30927"><ele>1769</ele></trkpt>
<trkpt lat="47.00598" lon="10.30921"><ele>1767</ele></trkpt>
<trkpt lat="47.00595" lon="10.30918"><ele>1767</ele></trkpt>
<trkpt lat="47.00588" lon="10.3092"><ele>1764</ele></trkpt>
<trkpt lat="47.00585" lon="10.30921"><ele>1764</ele></trkpt>
<trkpt lat="47.00583" lon="10.30921"><ele>1762</ele></trkpt>
<trkpt lat="47.00581" lon="10.3092"><ele>1762</ele></trkpt>
<trkpt lat="47.00581" lon="10.30916"><ele>1762</ele></trkpt>
<trkpt lat="47.00583" lon="10.30913"><ele>1762</ele></trkpt>
<trkpt lat="47.00584" lon="10.30913"><ele>1762</ele></trkpt>
<trkpt lat="47.00587" lon="10.30904"><ele>1762</ele></trkpt>
<trkpt lat="47.00588" lon="10.3089"><ele>1760</ele></trkpt>
<trkpt lat="47.00588" lon="10.30876"><ele>1757</ele></trkpt>
<trkpt lat="47.00592" lon="10.30865"><ele>1755</ele></trkpt>
<trkpt lat="47.00594" lon="10.30852"><ele>1759</ele></trkpt>
<trkpt lat="47.00594" lon="10.30841"><ele>1757</ele></trkpt>
<trkpt lat="47.0059" lon="10.30833"><ele>1753</ele></trkpt>
<trkpt lat="47.0059" lon="10.30831"><ele>1751</ele></trkpt>
<trkpt lat="47.00591" lon="10.30827"><ele>1751</ele></trkpt>
<trkpt lat="47.00594" lon="10.30823"><ele>1756</ele></trkpt>
<trkpt lat="47.00594" lon="10.30814"><ele>1754</ele></trkpt>
<trkpt lat="47.00592" lon="10.30788"><ele>1746</ele></trkpt>
<trkpt lat="47.00588" lon="10.30749"><ele>1743</ele></trkpt>
<trkpt lat="47.00593" lon="10.30718"><ele>1739</ele></trkpt>
<trkpt lat="47.0059" lon="10.30687"><ele>1734</ele></trkpt>
<trkpt lat="47.00588" lon="10.30672"><ele>1733</ele></trkpt>
<trkpt lat="47.00586" lon="10.30669"><ele>1733</ele></trkpt>
<trkpt lat="47.00585" lon="10.30665"><ele>1733</ele></trkpt>
<trkpt lat="47.00581" lon="10.30638"><ele>1727</ele></trkpt>
<trkpt lat="47.0058" lon="10.30622"><ele>1727</ele></trkpt>
<trkpt lat="47.00579" lon="10.30615"><ele>1727</ele></trkpt>
<trkpt lat="47.00575" lon="10.30611"><ele>1722</ele></trkpt>
<trkpt lat="47.00548" lon="10.30509"><ele>1706</ele></trkpt>
<trkpt lat="47.00548" lon="10.30509"><ele>1706</ele></trkpt>
<trkpt lat="47.00548" lon="10.30509"><ele>1706</ele></trkpt>
<trkpt lat="47.00548" lon="10.30509"><ele>1706</ele></trkpt>
<trkpt lat="47.00548" lon="10.30509"><ele>1706</ele></trkpt>
<trkpt lat="47.00548" lon="10.30509"><ele>1706</ele></trkpt>
<trkpt lat="47.00528" lon="10.30499"><ele>1699</ele></trkpt>
<trkpt lat="47.00523" lon="10.30493"><ele>1695</ele></trkpt>
<trkpt lat="47.0051" lon="10.3048"><ele>1692</ele></trkpt>
<trkpt lat="47.00505" lon="10.30474"><ele>1689</ele></trkpt>
<trkpt lat="47.005" lon="10.30461"><ele>1690</ele></trkpt>
<trkpt lat="47.005" lon="10.30447"><ele>1690</ele></trkpt>
<trkpt lat="47.00505" lon="10.3043"><ele>1687</ele></trkpt>
<trkpt lat="47.00502" lon="10.30416"><ele>1684</ele></trkpt>
<trkpt lat="47.00492" lon="10.30413"><ele>1684</ele></trkpt>
<trkpt lat="47.00482" lon="10.30425"><ele>1684</ele></trkpt>
<trkpt lat="47.00488" lon="10.30458"><ele>1680</ele></trkpt>
<trkpt lat="47.00497" lon="10.30498"><ele>1680</ele></trkpt>
<trkpt lat="47.00495" lon="10.3051"><ele>1679</ele></trkpt>
<trkpt lat="47.00491" lon="10.30518"><ele>1679</ele></trkpt>
<trkpt lat="47.00487" lon="10.30517"><ele>1676</ele></trkpt>
<trkpt lat="47.00474" lon="10.30484"><ele>1671</ele></trkpt>
<trkpt lat="47.00443" lon="10.30438"><ele>1659</ele></trkpt>
<trkpt lat="47.00416" lon="10.30406"><ele>1648</ele></trkpt>
<trkpt lat="47.0041" lon="10.30396"><ele>1644</ele></trkpt>
<trkpt lat="47.00399" lon="10.30383"><ele>1641</ele></trkpt>
<trkpt lat="47.00399" lon="10.30383"><ele>1641</ele></trkpt>
<trkpt lat="47.00399" lon="10.30383"><ele>1641</ele></trkpt>
<trkpt lat="47.00399" lon="10.30383"><ele>1641</ele></trkpt>
<trkpt lat="47.00402" lon="10.3036"><ele>1642</ele></trkpt>
<trkpt lat="47.00401" lon="10.30341"><ele>1638</ele></trkpt>
<trkpt lat="47.00391" lon="10.30328"><ele>1634</ele></trkpt>
<trkpt lat="47.0038" lon="10.30313"><ele>1631</ele></trkpt>
<trkpt lat="47.00371" lon="10.30289"><ele>1626</ele></trkpt>
<trkpt lat="47.00367" lon="10.30256"><ele>1622</ele></trkpt>
<trkpt lat="47.00367" lon="10.30214"><ele>1613</ele></trkpt>
<trkpt lat="47.00366" lon="10.30179"><ele>1602</ele></trkpt>
<trkpt lat="47.00366" lon="10.30179"><ele>1602</ele></trkpt>
<trkpt lat="47.00366" lon="10.30179"><ele>1602</ele></trkpt>
<trkpt lat="47.00366" lon="10.30179"><ele>1602</ele></trkpt>
<trkpt lat="47.00366" lon="10.30179"><ele>1602</ele></trkpt>
<trkpt lat="47.00366" lon="10.30179"><ele>1602</ele></trkpt>
<trkpt lat="47.00366" lon="10.30179"><ele>1602</ele></trkpt>
<trkpt lat="47.00366" lon="10.30179"><ele>1602</ele></trkpt>
<trkpt lat="47.00366" lon="10.30179"><ele>1602</ele></trkpt>
<trkpt lat="47.00366" lon="10.30179"><ele>1602</ele></trkpt>
<trkpt lat="47.00366" lon="10.30179"><ele>1602</ele></trkpt>
<trkpt lat="47.00366" lon="10.30179"><ele>1602</ele></trkpt>
<trkpt lat="47.00366" lon="10.30179"><ele>1602</ele></trkpt>
<trkpt lat="47.00366" lon="10.30179"><ele>1602</ele></trkpt>
<trkpt lat="47.00366" lon="10.30179"><ele>1602</ele></trkpt>
<trkpt lat="47.00366" lon="10.30179"><ele>1602</ele></trkpt>
<trkpt lat="47.00366" lon="10.30179"><ele>1602</ele></trkpt>
<trkpt lat="47.00382" lon="10.30147"><ele>1599</ele></trkpt>
<trkpt lat="47.004" lon="10.30131"><ele>1599</ele></trkpt>
<trkpt lat="47.00442" lon="10.30113"><ele>1591</ele></trkpt>
<trkpt lat="47.005" lon="10.301"><ele>1579</ele></trkpt>
<trkpt lat="47.00527" lon="10.30073"><ele>1574</ele></trkpt>
<trkpt lat="47.00581" lon="10.30067"><ele>1571</ele></trkpt>
<trkpt lat="47.00616" lon="10.30078"><ele>1564</ele></trkpt>
<trkpt lat="47.00633" lon="10.30071"><ele>1566</ele></trkpt>
<trkpt lat="47.00633" lon="10.30071"><ele>1566</ele></trkpt>
<trkpt lat="47.00633" lon="10.30071"><ele>1566</ele></trkpt>
<trkpt lat="47.00633" lon="10.30071"><ele>1566</ele></trkpt>
<trkpt lat="47.00633" lon="10.30071"><ele>1566</ele></trkpt>
<trkpt lat="47.00633" lon="10.30071"><ele>1566</ele></trkpt>
<trkpt lat="47.00633" lon="10.30071"><ele>1566</ele></trkpt>
<trkpt lat="47.00633" lon="10.30071"><ele>1566</ele></trkpt>
<trkpt lat="47.00633" lon="10.30071"><ele>1566</ele></trkpt>
<trkpt lat="47.00633" lon="10.30071"><ele>1566</ele></trkpt>
<trkpt lat="47.00633" lon="10.30071"><ele>1566</ele></trkpt>
<trkpt lat="47.00633" lon="10.30071"><ele>1566</ele></trkpt>
<trkpt lat="47.00633" lon="10.30071"><ele>1566</ele></trkpt>
<trkpt lat="47.00633" lon="10.30071"><ele>1566</ele></trkpt>
<trkpt lat="47.00633" lon="10.30071"><ele>1566</ele></trkpt>
<trkpt lat="47.00633" lon="10.30071"><ele>1566</ele></trkpt>
<trkpt lat="47.00633" lon="10.30071"><ele>1566</ele></trkpt>
<trkpt lat="47.00711" lon="10.2993"><ele>1551</ele></trkpt>
<trkpt lat="47.00711" lon="10.2993"><ele>1551</ele></trkpt>
<trkpt lat="47.00766" lon="10.29847"><ele>1538</ele></trkpt>
<trkpt lat="47.00804" lon="10.29809"><ele>1535</ele></trkpt>
<trkpt lat="47.00825" lon="10.29796"><ele>1532</ele></trkpt>
<trkpt lat="47.00896" lon="10.29749"><ele>1529</ele></trkpt>
<trkpt lat="47.00907" lon="10.29743"><ele>1525</ele></trkpt>
<trkpt lat="47.00907" lon="10.29743"><ele>1525</ele></trkpt>
<trkpt lat="47.00907" lon="10.29743"><ele>1525</ele></trkpt>
<trkpt lat="47.00907" lon="10.29743"><ele>1525</ele></trkpt>
<trkpt lat="47.00907" lon="10.29743"><ele>1525</ele></trkpt>
<trkpt lat="47.00907" lon="10.29743"><ele>1525</ele></trkpt>
<trkpt lat="47.00907" lon="10.29743"><ele>1525</ele></trkpt>
<trkpt lat="47.00907" lon="10.29743"><ele>1525</ele></trkpt>
<trkpt lat="47.00907" lon="10.29743"><ele>1525</ele></trkpt>
<trkpt lat="47.00907" lon="10.29743"><ele>1525</ele></trkpt>
<trkpt lat="47.00907" lon="10.29743"><ele>1525</ele></trkpt>
<trkpt lat="47.00907" lon="10.29743"><ele>1525</ele></trkpt>
<trkpt lat="47.00907" lon="10.29743"><ele>1525</ele></trkpt>
<trkpt lat="47.00907" lon="10.29743"><ele>1525</ele></trkpt>
<trkpt lat="47.00907" lon="10.29743"><ele>1525</ele></trkpt>
<trkpt lat="47.00907" lon="10.29743"><ele>1525</ele></trkpt>
<trkpt lat="47.00907" lon="10.29743"><ele>1525</ele></trkpt>
<trkpt lat="47.00907" lon="10.29743"><ele>1525</ele></trkpt>
<trkpt lat="47.00907" lon="10.29743"><ele>1525</ele></trkpt>
<trkpt lat="47.00907" lon="10.29743"><ele>1525</ele></trkpt>
<trkpt lat="47.00907" lon="10.29743"><ele>1525</ele></trkpt>
<trkpt lat="47.00907" lon="10.29743"><ele>1525</ele></trkpt>
<trkpt lat="47.00907" lon="10.29743"><ele>1525</ele></trkpt>
<trkpt lat="47.00907" lon="10.29743"><ele>1525</ele></trkpt>
<trkpt lat="47.00907" lon="10.29743"><ele>1525</ele></trkpt>
<trkpt lat="47.00907" lon="10.29743"><ele>1525</ele></trkpt>
<trkpt lat="47.00907" lon="10.29743"><ele>1525</ele></trkpt>
<trkpt lat="47.00907" lon="10.29743"><ele>1525</ele></trkpt>
<trkpt lat="47.00907" lon="10.29743"><ele>1525</ele></trkpt>
<trkpt lat="47.0093" lon="10.29739"><ele>1523</ele></trkpt>
<trkpt lat="47.00961" lon="10.29737"><ele>1519</ele></trkpt>
<trkpt lat="47.00964" lon="10.29738"><ele>1519</ele></trkpt>
<trkpt lat="47.00964" lon="10.29738"><ele>1519</ele></trkpt>
<trkpt lat="47.00964" lon="10.29738"><ele>1519</ele></trkpt>
<trkpt lat="47.00964" lon="10.29738"><ele>1519</ele></trkpt>
<trkpt lat="47.01005" lon="10.2974"><ele>1514</ele></trkpt>
<trkpt lat="47.01032" lon="10.29745"><ele>1508</ele></trkpt>
<trkpt lat="47.01062" lon="10.29754"><ele>1506</ele></trkpt>
<trkpt lat="47.01077" lon="10.29754"><ele>1504</ele></trkpt>
<trkpt lat="47.01093" lon="10.29758"><ele>1500</ele></trkpt>
<trkpt lat="47.01101" lon="10.29759"><ele>1503</ele></trkpt>
<trkpt lat="47.0111" lon="10.29764"><ele>1500</ele></trkpt>
<trkpt lat="47.01115" lon="10.29768"><ele>1500</ele></trkpt>
<trkpt lat="47.01137" lon="10.29787"><ele>1498</ele></trkpt>
<trkpt lat="47.01145" lon="10.29792"><ele>1496</ele></trkpt>
<trkpt lat="47.01152" lon="10.29794"><ele>1494</ele></trkpt>
<trkpt lat="47.01154" lon="10.29792"><ele>1494</ele></trkpt>
<trkpt lat="47.01155" lon="10.29792"><ele>1494</ele></trkpt>
<trkpt lat="47.01156" lon="10.2979"><ele>1494</ele></trkpt>
<trkpt lat="47.01156" lon="10.29787"><ele>1494</ele></trkpt>
<trkpt lat="47.01154" lon="10.29786"><ele>1494</ele></trkpt>
<trkpt lat="47.01149" lon="10.29782"><ele>1491</ele></trkpt>
<trkpt lat="47.01141" lon="10.29777"><ele>1494</ele></trkpt>
<trkpt lat="47.01135" lon="10.29768"><ele>1489</ele></trkpt>
<trkpt lat="47.01129" lon="10.29759"><ele>1493</ele></trkpt>
<trkpt lat="47.01123" lon="10.29749"><ele>1492</ele></trkpt>
<trkpt lat="47.01103" lon="10.29723"><ele>1488</ele></trkpt>
<trkpt lat="47.01092" lon="10.29717"><ele>1484</ele></trkpt>
<trkpt lat="47.01085" lon="10.29712"><ele>1485</ele></trkpt>
<trkpt lat="47.01086" lon="10.29707"><ele>1480</ele></trkpt>
<trkpt lat="47.01091" lon="10.29701"><ele>1478</ele></trkpt>
<trkpt lat="47.01107" lon="10.29702"><ele>1476</ele></trkpt>
<trkpt lat="47.01125" lon="10.29707"><ele>1469</ele></trkpt>
<trkpt lat="47.0114" lon="10.29717"><ele>1470</ele></trkpt>
<trkpt lat="47.01165" lon="10.29726"><ele>1466</ele></trkpt>
<trkpt lat="47.01207" lon="10.29749"><ele>1461</ele></trkpt>
<trkpt lat="47.01211" lon="10.2975"><ele>1461</ele></trkpt>
<trkpt lat="47.01214" lon="10.29751"><ele>1459</ele></trkpt>
<trkpt lat="47.01216" lon="10.29749"><ele>1459</ele></trkpt>
<trkpt lat="47.01216" lon="10.29749"><ele>1459</ele></trkpt>
<trkpt lat="47.01216" lon="10.29749"><ele>1459</ele></trkpt>
<trkpt lat="47.01216" lon="10.29749"><ele>1459</ele></trkpt>
<trkpt lat="47.01216" lon="10.29749"><ele>1459</ele></trkpt>
<trkpt lat="47.01216" lon="10.29749"><ele>1459</ele></trkpt>
<trkpt lat="47.01216" lon="10.29749"><ele>1459</ele></trkpt>
<trkpt lat="47.01216" lon="10.29749"><ele>1459</ele></trkpt>
<trkpt lat="47.01216" lon="10.29749"><ele>1459</ele></trkpt>
<trkpt lat="47.01216" lon="10.29749"><ele>1459</ele></trkpt>
<trkpt lat="47.01216" lon="10.29749"><ele>1459</ele></trkpt>
<trkpt lat="47.01216" lon="10.29749"><ele>1459</ele></trkpt>
<trkpt lat="47.01216" lon="10.29749"><ele>1459</ele></trkpt>
<trkpt lat="47.01216" lon="10.29749"><ele>1459</ele></trkpt>
<trkpt lat="47.01216" lon="10.29749"><ele>1459</ele></trkpt>
<trkpt lat="47.01216" lon="10.29749"><ele>1459</ele></trkpt>
<trkpt lat="47.01216" lon="10.29749"><ele>1459</ele></trkpt>
<trkpt lat="47.01216" lon="10.29749"><ele>1459</ele></trkpt>
<trkpt lat="47.01216" lon="10.29749"><ele>1459</ele></trkpt>
<trkpt lat="47.01216" lon="10.29749"><ele>1459</ele></trkpt>
<trkpt lat="47.01216" lon="10.29749"><ele>1459</ele></trkpt>
<trkpt lat="47.01216" lon="10.29749"><ele>1459</ele></trkpt>
<trkpt lat="47.01216" lon="10.29749"><ele>1459</ele></trkpt>
<trkpt lat="47.01216" lon="10.29745"><ele>1455</ele></trkpt>
<trkpt lat="47.01214" lon="10.2974"><ele>1455</ele></trkpt>
<trkpt lat="47.01211" lon="10.29738"><ele>1456</ele></trkpt>
<trkpt lat="47.01204" lon="10.29729"><ele>1453</ele></trkpt>
<trkpt lat="47.0119" lon="10.29707"><ele>1450</ele></trkpt>
<trkpt lat="47.01176" lon="10.29679"><ele>1447</ele></trkpt>
<trkpt lat="47.01163" lon="10.29665"><ele>1445</ele></trkpt>
<trkpt lat="47.01152" lon="10.29653"><ele>1443</ele></trkpt>
<trkpt lat="47.01121" lon="10.29603"><ele>1439</ele></trkpt>
<trkpt lat="47.01106" lon="10.29583"><ele>1438</ele></trkpt>
<trkpt lat="47.01086" lon="10.29557"><ele>1434</ele></trkpt>
<trkpt lat="47.01073" lon="10.29536"><ele>1431</ele></trkpt>
<trkpt lat="47.01073" lon="10.29526"><ele>1429</ele></trkpt>
<trkpt lat="47.01073" lon="10.29526"><ele>1429</ele></trkpt>
<trkpt lat="47.01078" lon="10.2952"><ele>1429</ele></trkpt>
<trkpt lat="47.01078" lon="10.2952"><ele>1429</ele></trkpt>
<trkpt lat="47.01078" lon="10.2952"><ele>1429</ele></trkpt>
<trkpt lat="47.01078" lon="10.2952"><ele>1429</ele></trkpt>
<trkpt lat="47.01078" lon="10.2952"><ele>1429</ele></trkpt>
<trkpt lat="47.01078" lon="10.2952"><ele>1429</ele></trkpt>
<trkpt lat="47.01078" lon="10.2952"><ele>1429</ele></trkpt>
<trkpt lat="47.01078" lon="10.2952"><ele>1429</ele></trkpt>
<trkpt lat="47.01078" lon="10.2952"><ele>1429</ele></trkpt>
<trkpt lat="47.01078" lon="10.2952"><ele>1429</ele></trkpt>
<trkpt lat="47.01078" lon="10.2952"><ele>1429</ele></trkpt>
<trkpt lat="47.01078" lon="10.2952"><ele>1429</ele></trkpt>
<trkpt lat="47.01078" lon="10.2952"><ele>1429</ele></trkpt>
<trkpt lat="47.01078" lon="10.2952"><ele>1429</ele></trkpt>
<trkpt lat="47.01078" lon="10.2952"><ele>1429</ele></trkpt>
<trkpt lat="47.01078" lon="10.2952"><ele>1429</ele></trkpt>
<trkpt lat="47.01078" lon="10.2952"><ele>1429</ele></trkpt>
<trkpt lat="47.01078" lon="10.2952"><ele>1429</ele></trkpt>
<trkpt lat="47.01078" lon="10.2952"><ele>1429</ele></trkpt>
<trkpt lat="47.01078" lon="10.2952"><ele>1429</ele></trkpt>
<trkpt lat="47.01078" lon="10.2952"><ele>1429</ele></trkpt>
<trkpt lat="47.01078" lon="10.2952"><ele>1429</ele></trkpt>
<trkpt lat="47.01078" lon="10.2952"><ele>1429</ele></trkpt>
<trkpt lat="47.01078" lon="10.2952"><ele>1429</ele></trkpt>
<trkpt lat="47.01085" lon="10.29523"><ele>1427</ele></trkpt>
<trkpt lat="47.0112" lon="10.29547"><ele>1423</ele></trkpt>
<trkpt lat="47.01144" lon="10.29562"><ele>1419</ele></trkpt>
<trkpt lat="47.01184" lon="10.29578"><ele>1414</ele></trkpt>
<trkpt lat="47.01208" lon="10.29593"><ele>1415</ele></trkpt>
<trkpt lat="47.01224" lon="10.29607"><ele>1412</ele></trkpt>
<trkpt lat="47.01236" lon="10.29615"><ele>1409</ele></trkpt>
<trkpt lat="47.01253" lon="10.2962"><ele>1409</ele></trkpt>
<trkpt lat="47.01259" lon="10.29623"><ele>1407</ele></trkpt>
<trkpt lat="47.01275" lon="10.29635"><ele>1403</ele></trkpt>
<trkpt lat="47.01285" lon="10.29653"><ele>1401</ele></trkpt>
<trkpt lat="47.01296" lon="10.29674"><ele>1400</ele></trkpt>
<trkpt lat="47.01299" lon="10.29679"><ele>1397</ele></trkpt>
<trkpt lat="47.01303" lon="10.29681"><ele>1397</ele></trkpt>
<trkpt lat="47.01305" lon="10.29681"><ele>1397</ele></trkpt>
<trkpt lat="47.01307" lon="10.29679"><ele>1397</ele></trkpt>
<trkpt lat="47.01307" lon="10.29679"><ele>1397</ele></trkpt>
<trkpt lat="47.01307" lon="10.29674"><ele>1397</ele></trkpt>
<trkpt lat="47.01307" lon="10.2967"><ele>1397</ele></trkpt>
<trkpt lat="47.01303" lon="10.29651"><ele>1393</ele></trkpt>
<trkpt lat="47.01298" lon="10.29635"><ele>1395</ele></trkpt>
<trkpt lat="47.01293" lon="10.2962"><ele>1392</ele></trkpt>
<trkpt lat="47.01253" lon="10.29554"><ele>1382</ele></trkpt>
<trkpt lat="47.01241" lon="10.29534"><ele>1382</ele></trkpt>
<trkpt lat="47.01229" lon="10.29521"><ele>1382</ele></trkpt>
<trkpt lat="47.0122" lon="10.29505"><ele>1383</ele></trkpt>
<trkpt lat="47.01212" lon="10.29487"><ele>1376</ele></trkpt>
<trkpt lat="47.01199" lon="10.29453"><ele>1375</ele></trkpt>
<trkpt lat="47.01195" lon="10.2943"><ele>1372</ele></trkpt>
<trkpt lat="47.01194" lon="10.29421"><ele>1372</ele></trkpt>
<trkpt lat="47.01195" lon="10.29418"><ele>1370</ele></trkpt>
<trkpt lat="47.01195" lon="10.29418"><ele>1370</ele></trkpt>
<trkpt lat="47.01192" lon="10.29402"><ele>1369</ele></trkpt>
<trkpt lat="47.01183" lon="10.29367"><ele>1360</ele></trkpt>
<trkpt lat="47.01183" lon="10.29367"><ele>1360</ele></trkpt>
<trkpt lat="47.01183" lon="10.29367"><ele>1360</ele></trkpt>
<trkpt lat="47.01183" lon="10.29367"><ele>1360</ele></trkpt>
<trkpt lat="47.01183" lon="10.29362"><ele>1363</ele></trkpt>
<trkpt lat="47.01178" lon="10.29341"><ele>1365</ele></trkpt>
<trkpt lat="47.01177" lon="10.29337"><ele>1368</ele></trkpt>
<trkpt lat="47.01174" lon="10.29329"><ele>1372</ele></trkpt>
<trkpt lat="47.01174" lon="10.29329"><ele>1372</ele></trkpt>
<trkpt lat="47.01142" lon="10.29202"><ele>1386</ele></trkpt>
<trkpt lat="47.01134" lon="10.29088"><ele>1369</ele></trkpt>
<trkpt lat="47.01135" lon="10.29079"><ele>1366</ele></trkpt>
<trkpt lat="47.01135" lon="10.29079"><ele>1366</ele></trkpt>
<trkpt lat="47.01136" lon="10.29071"><ele>1366</ele></trkpt>
<trkpt lat="47.01136" lon="10.29071"><ele>1366</ele></trkpt>
<trkpt lat="47.01128" lon="10.29069"><ele>1365</ele></trkpt>
<trkpt lat="47.01123" lon="10.29069"><ele>1365</ele></trkpt>
<trkpt lat="47.0111" lon="10.29074"><ele>1367</ele></trkpt>
<trkpt lat="47.01104" lon="10.29074"><ele>1367</ele></trkpt>
<trkpt lat="47.01104" lon="10.29074"><ele>1367</ele></trkpt>
<trkpt lat="47.01099" lon="10.29074"><ele>1367</ele></trkpt>
<trkpt lat="47.01082" lon="10.29072"><ele>1367</ele></trkpt>
<trkpt lat="47.01049" lon="10.29053"><ele>1365</ele></trkpt>
<trkpt lat="47.01037" lon="10.29041"><ele>1364</ele></trkpt>
<trkpt lat="47.01029" lon="10.29033"><ele>1364</ele></trkpt>
<trkpt lat="47.01029" lon="10.29033"><ele>1364</ele></trkpt>
<trkpt lat="47.00998" lon="10.28996"><ele>1363</ele></trkpt>
<trkpt lat="47.00983" lon="10.28972"><ele>1361</ele></trkpt>
<trkpt lat="47.00959" lon="10.28926"><ele>1358</ele></trkpt>
<trkpt lat="47.00948" lon="10.28899"><ele>1356</ele></trkpt>
<trkpt lat="47.00945" lon="10.28889"><ele>1355</ele></trkpt>
<trkpt lat="47.00942" lon="10.28877"><ele>1355</ele></trkpt>
<trkpt lat="47.00942" lon="10.28877"><ele>1355</ele></trkpt>
<trkpt lat="47.00979" lon="10.28855"><ele>1353</ele></trkpt>
<trkpt lat="47.00986" lon="10.28848"><ele>1353</ele></trkpt>

                    </trkseg>
              </trk>
            </gpx>