<?xml version="1.0" encoding="utf-8"?>
            <gpx xmlns="http://www.topografix.com/GPX/1/1" xmlns:xsd="http://www.w3.org/2001/XMLSchema" xmlns:xsi="http://www.w3.org/2001/XMLSchema-instance" version="1.1" creator="Fugawi 4,5,14,1696 http://www.fugawi.com/" xsi:schemaLocation="http://www.topografix.com/GPX/1/1 http://www.topografix.com/GPX/1/1/gpx.xsd">
                <trk>
                    <name>7146 Velill Trail Expert</name>
                    <desc></desc>
                    <trkseg>
                        <trkpt lat="47.00567" lon="10.31858"><ele>2048</ele></trkpt>
<trkpt lat="47.00573" lon="10.31859"><ele>2047</ele></trkpt>
<trkpt lat="47.00576" lon="10.3186"><ele>2047</ele></trkpt>
<trkpt lat="47.00569" lon="10.31859"><ele>2047</ele></trkpt>
<trkpt lat="47.00569" lon="10.31859"><ele>2047</ele></trkpt>
<trkpt lat="47.00578" lon="10.31847"><ele>2046</ele></trkpt>
<trkpt lat="47.00587" lon="10.31814"><ele>2045</ele></trkpt>
<trkpt lat="47.00593" lon="10.31795"><ele>2045</ele></trkpt>
<trkpt lat="47.00598" lon="10.3179"><ele>2043</ele></trkpt>
<trkpt lat="47.0061" lon="10.31783"><ele>2041</ele></trkpt>
<trkpt lat="47.00618" lon="10.31774"><ele>2037</ele></trkpt>
<trkpt lat="47.00624" lon="10.3177"><ele>2033</ele></trkpt>
<trkpt lat="47.00632" lon="10.31746"><ele>2029</ele></trkpt>
<trkpt lat="47.00632" lon="10.31746"><ele>2029</ele></trkpt>
<trkpt lat="47.00632" lon="10.31746"><ele>2029</ele></trkpt>
<trkpt lat="47.00632" lon="10.31746"><ele>2029</ele></trkpt>
<trkpt lat="47.00632" lon="10.31746"><ele>2029</ele></trkpt>
<trkpt lat="47.00632" lon="10.31746"><ele>2029</ele></trkpt>
<trkpt lat="47.00632" lon="10.31746"><ele>2029</ele></trkpt>
<trkpt lat="47.00632" lon="10.31746"><ele>2029</ele></trkpt>
<trkpt lat="47.00632" lon="10.31746"><ele>2029</ele></trkpt>
<trkpt lat="47.00632" lon="10.31746"><ele>2029</ele></trkpt>
<trkpt lat="47.00632" lon="10.31746"><ele>2029</ele></trkpt>
<trkpt lat="47.00632" lon="10.31746"><ele>2029</ele></trkpt>
<trkpt lat="47.00632" lon="10.31746"><ele>2029</ele></trkpt>
<trkpt lat="47.00632" lon="10.31746"><ele>2029</ele></trkpt>
<trkpt lat="47.00632" lon="10.31746"><ele>2029</ele></trkpt>
<trkpt lat="47.00632" lon="10.31746"><ele>2029</ele></trkpt>
<trkpt lat="47.00632" lon="10.31746"><ele>2029</ele></trkpt>
<trkpt lat="47.00632" lon="10.31746"><ele>2029</ele></trkpt>
<trkpt lat="47.00632" lon="10.31746"><ele>2029</ele></trkpt>
<trkpt lat="47.00632" lon="10.31746"><ele>2029</ele></trkpt>
<trkpt lat="47.00632" lon="10.31746"><ele>2029</ele></trkpt>
<trkpt lat="47.00632" lon="10.31746"><ele>2029</ele></trkpt>
<trkpt lat="47.00632" lon="10.31746"><ele>2029</ele></trkpt>
<trkpt lat="47.00632" lon="10.31746"><ele>2029</ele></trkpt>
<trkpt lat="47.00632" lon="10.31746"><ele>2029</ele></trkpt>
<trkpt lat="47.00632" lon="10.31746"><ele>2029</ele></trkpt>
<trkpt lat="47.00632" lon="10.31746"><ele>2029</ele></trkpt>
<trkpt lat="47.00632" lon="10.31746"><ele>2029</ele></trkpt>
<trkpt lat="47.00633" lon="10.31739"><ele>2029</ele></trkpt>
<trkpt lat="47.00633" lon="10.3172"><ele>2024</ele></trkpt>
<trkpt lat="47.00636" lon="10.31664"><ele>2015</ele></trkpt>
<trkpt lat="47.00637" lon="10.31635"><ele>2003</ele></trkpt>
<trkpt lat="47.00635" lon="10.31615"><ele>2007</ele></trkpt>
<trkpt lat="47.00633" lon="10.31598"><ele>2002</ele></trkpt>
<trkpt lat="47.00636" lon="10.31581"><ele>1999</ele></trkpt>
<trkpt lat="47.00633" lon="10.31556"><ele>1991</ele></trkpt>
<trkpt lat="47.00632" lon="10.3155"><ele>1991</ele></trkpt>
<trkpt lat="47.00632" lon="10.3155"><ele>1991</ele></trkpt>
<trkpt lat="47.00632" lon="10.3155"><ele>1991</ele></trkpt>
<trkpt lat="47.00632" lon="10.3155"><ele>1991</ele></trkpt>
<trkpt lat="47.00629" lon="10.31539"><ele>1986</ele></trkpt>
<trkpt lat="47.00625" lon="10.31528"><ele>1986</ele></trkpt>
<trkpt lat="47.0062" lon="10.31518"><ele>1981</ele></trkpt>
<trkpt lat="47.00615" lon="10.31504"><ele>1977</ele></trkpt>
<trkpt lat="47.00614" lon="10.31493"><ele>1970</ele></trkpt>
<trkpt lat="47.00604" lon="10.31475"><ele>1970</ele></trkpt>
<trkpt lat="47.006" lon="10.31461"><ele>1972</ele></trkpt>
<trkpt lat="47.00589" lon="10.31445"><ele>1972</ele></trkpt>
<trkpt lat="47.00587" lon="10.31429"><ele>1959</ele></trkpt>
<trkpt lat="47.00585" lon="10.3142"><ele>1959</ele></trkpt>
<trkpt lat="47.00584" lon="10.3141"><ele>1964</ele></trkpt>
<trkpt lat="47.00582" lon="10.31404"><ele>1957</ele></trkpt>
<trkpt lat="47.00581" lon="10.31392"><ele>1949</ele></trkpt>
<trkpt lat="47.00578" lon="10.31386"><ele>1949</ele></trkpt>
<trkpt lat="47.00578" lon="10.31386"><ele>1949</ele></trkpt>
<trkpt lat="47.00578" lon="10.31386"><ele>1949</ele></trkpt>
<trkpt lat="47.00578" lon="10.31386"><ele>1949</ele></trkpt>
<trkpt lat="47.00578" lon="10.31386"><ele>1949</ele></trkpt>
<trkpt lat="47.00578" lon="10.31386"><ele>1949</ele></trkpt>
<trkpt lat="47.00578" lon="10.31386"><ele>1949</ele></trkpt>
<trkpt lat="47.00578" lon="10.31386"><ele>1949</ele></trkpt>
<trkpt lat="47.00578" lon="10.31386"><ele>1949</ele></trkpt>
<trkpt lat="47.00578" lon="10.31386"><ele>1949</ele></trkpt>
<trkpt lat="47.00578" lon="10.31386"><ele>1949</ele></trkpt>
<trkpt lat="47.00578" lon="10.31386"><ele>1949</ele></trkpt>
<trkpt lat="47.00578" lon="10.31386"><ele>1949</ele></trkpt>
<trkpt lat="47.00578" lon="10.31386"><ele>1949</ele></trkpt>
<trkpt lat="47.00578" lon="10.31386"><ele>1949</ele></trkpt>
<trkpt lat="47.00578" lon="10.31386"><ele>1949</ele></trkpt>
<trkpt lat="47.00578" lon="10.31386"><ele>1949</ele></trkpt>
<trkpt lat="47.00578" lon="10.31386"><ele>1949</ele></trkpt>
<trkpt lat="47.00578" lon="10.31386"><ele>1949</ele></trkpt>
<trkpt lat="47.00578" lon="10.31386"><ele>1949</ele></trkpt>
<trkpt lat="47.00578" lon="10.31386"><ele>1949</ele></trkpt>
<trkpt lat="47.00578" lon="10.31386"><ele>1949</ele></trkpt>
<trkpt lat="47.00578" lon="10.31386"><ele>1949</ele></trkpt>
<trkpt lat="47.00578" lon="10.31386"><ele>1949</ele></trkpt>
<trkpt lat="47.00578" lon="10.31386"><ele>1949</ele></trkpt>
<trkpt lat="47.00578" lon="10.31386"><ele>1949</ele></trkpt>
<trkpt lat="47.00578" lon="10.31386"><ele>1949</ele></trkpt>
<trkpt lat="47.00578" lon="10.31386"><ele>1949</ele></trkpt>
<trkpt lat="47.0058" lon="10.31377"><ele>1943</ele></trkpt>
<trkpt lat="47.00585" lon="10.31378"><ele>1936</ele></trkpt>
<trkpt lat="47.00586" lon="10.31375"><ele>1936</ele></trkpt>
<trkpt lat="47.00589" lon="10.31378"><ele>1936</ele></trkpt>
<trkpt lat="47.0059" lon="10.31378"><ele>1936</ele></trkpt>
<trkpt lat="47.00591" lon="10.3138"><ele>1936</ele></trkpt>
<trkpt lat="47.00593" lon="10.31377"><ele>1936</ele></trkpt>
<trkpt lat="47.00595" lon="10.31378"><ele>1930</ele></trkpt>
<trkpt lat="47.00597" lon="10.31381"><ele>1936</ele></trkpt>
<trkpt lat="47.00599" lon="10.31381"><ele>1936</ele></trkpt>
<trkpt lat="47.006" lon="10.31381"><ele>1936</ele></trkpt>
<trkpt lat="47.00601" lon="10.31382"><ele>1936</ele></trkpt>
<trkpt lat="47.00603" lon="10.31382"><ele>1930</ele></trkpt>
<trkpt lat="47.00605" lon="10.31384"><ele>1930</ele></trkpt>
<trkpt lat="47.00609" lon="10.31387"><ele>1930</ele></trkpt>
<trkpt lat="47.00612" lon="10.31386"><ele>1925</ele></trkpt>
<trkpt lat="47.00615" lon="10.31385"><ele>1925</ele></trkpt>
<trkpt lat="47.00618" lon="10.31382"><ele>1925</ele></trkpt>
<trkpt lat="47.00621" lon="10.31384"><ele>1921</ele></trkpt>
<trkpt lat="47.00623" lon="10.31385"><ele>1921</ele></trkpt>
<trkpt lat="47.00627" lon="10.31384"><ele>1921</ele></trkpt>
<trkpt lat="47.0063" lon="10.31385"><ele>1917</ele></trkpt>
<trkpt lat="47.00634" lon="10.31387"><ele>1917</ele></trkpt>
<trkpt lat="47.00639" lon="10.31392"><ele>1911</ele></trkpt>
<trkpt lat="47.00665" lon="10.31426"><ele>1910</ele></trkpt>
<trkpt lat="47.00669" lon="10.31427"><ele>1910</ele></trkpt>
<trkpt lat="47.00672" lon="10.31424"><ele>1908</ele></trkpt>
<trkpt lat="47.00681" lon="10.31422"><ele>1906</ele></trkpt>
<trkpt lat="47.00681" lon="10.31422"><ele>1906</ele></trkpt>
<trkpt lat="47.00681" lon="10.31422"><ele>1906</ele></trkpt>
<trkpt lat="47.00681" lon="10.31422"><ele>1906</ele></trkpt>
<trkpt lat="47.00681" lon="10.31422"><ele>1906</ele></trkpt>
<trkpt lat="47.00681" lon="10.31422"><ele>1906</ele></trkpt>
<trkpt lat="47.00681" lon="10.31422"><ele>1906</ele></trkpt>
<trkpt lat="47.00681" lon="10.31422"><ele>1906</ele></trkpt>
<trkpt lat="47.00681" lon="10.31422"><ele>1906</ele></trkpt>
<trkpt lat="47.00681" lon="10.31422"><ele>1906</ele></trkpt>
<trkpt lat="47.00681" lon="10.31422"><ele>1906</ele></trkpt>
<trkpt lat="47.00681" lon="10.31422"><ele>1906</ele></trkpt>
<trkpt lat="47.00681" lon="10.31422"><ele>1906</ele></trkpt>
<trkpt lat="47.00681" lon="10.31422"><ele>1906</ele></trkpt>
<trkpt lat="47.00681" lon="10.31422"><ele>1906</ele></trkpt>
<trkpt lat="47.00681" lon="10.31422"><ele>1906</ele></trkpt>
<trkpt lat="47.00681" lon="10.31422"><ele>1906</ele></trkpt>
<trkpt lat="47.00681" lon="10.31422"><ele>1906</ele></trkpt>
<trkpt lat="47.00681" lon="10.31422"><ele>1906</ele></trkpt>
<trkpt lat="47.00681" lon="10.31422"><ele>1906</ele></trkpt>
<trkpt lat="47.00681" lon="10.31422"><ele>1906</ele></trkpt>
<trkpt lat="47.00681" lon="10.31422"><ele>1906</ele></trkpt>
<trkpt lat="47.00681" lon="10.31422"><ele>1906</ele></trkpt>
<trkpt lat="47.00681" lon="10.31422"><ele>1906</ele></trkpt>
<trkpt lat="47.00681" lon="10.31422"><ele>1906</ele></trkpt>
<trkpt lat="47.00681" lon="10.31422"><ele>1906</ele></trkpt>
<trkpt lat="47.00681" lon="10.31422"><ele>1906</ele></trkpt>
<trkpt lat="47.00681" lon="10.31422"><ele>1906</ele></trkpt>
<trkpt lat="47.00681" lon="10.31422"><ele>1906</ele></trkpt>
<trkpt lat="47.00681" lon="10.31422"><ele>1906</ele></trkpt>
<trkpt lat="47.00681" lon="10.31422"><ele>1906</ele></trkpt>
<trkpt lat="47.00679" lon="10.31415"><ele>1904</ele></trkpt>
<trkpt lat="47.00673" lon="10.31413"><ele>1904</ele></trkpt>
<trkpt lat="47.00668" lon="10.3141"><ele>1906</ele></trkpt>
<trkpt lat="47.00667" lon="10.31405"><ele>1902</ele></trkpt>
<trkpt lat="47.00668" lon="10.31401"><ele>1902</ele></trkpt>
<trkpt lat="47.0067" lon="10.31401"><ele>1902</ele></trkpt>
<trkpt lat="47.00679" lon="10.31401"><ele>1900</ele></trkpt>
<trkpt lat="47.00679" lon="10.31398"><ele>1900</ele></trkpt>
<trkpt lat="47.00679" lon="10.31396"><ele>1900</ele></trkpt>
<trkpt lat="47.00672" lon="10.3139"><ele>1896</ele></trkpt>
<trkpt lat="47.00665" lon="10.31385"><ele>1898</ele></trkpt>
<trkpt lat="47.00663" lon="10.31382"><ele>1898</ele></trkpt>
<trkpt lat="47.00664" lon="10.31378"><ele>1894</ele></trkpt>
<trkpt lat="47.00668" lon="10.31376"><ele>1894</ele></trkpt>
<trkpt lat="47.00675" lon="10.31376"><ele>1892</ele></trkpt>
<trkpt lat="47.00676" lon="10.31373"><ele>1892</ele></trkpt>
<trkpt lat="47.00675" lon="10.3137"><ele>1892</ele></trkpt>
<trkpt lat="47.0067" lon="10.31365"><ele>1889</ele></trkpt>
<trkpt lat="47.00667" lon="10.31362"><ele>1889</ele></trkpt>
<trkpt lat="47.00664" lon="10.31363"><ele>1889</ele></trkpt>
<trkpt lat="47.00662" lon="10.31361"><ele>1892</ele></trkpt>
<trkpt lat="47.00661" lon="10.31359"><ele>1892</ele></trkpt>
<trkpt lat="47.00662" lon="10.31357"><ele>1892</ele></trkpt>
<trkpt lat="47.00663" lon="10.31354"><ele>1886</ele></trkpt>
<trkpt lat="47.00666" lon="10.31354"><ele>1886</ele></trkpt>
<trkpt lat="47.00675" lon="10.31354"><ele>1884</ele></trkpt>
<trkpt lat="47.00679" lon="10.3135"><ele>1884</ele></trkpt>
<trkpt lat="47.00679" lon="10.31347"><ele>1884</ele></trkpt>
<trkpt lat="47.00675" lon="10.3134"><ele>1881</ele></trkpt>
<trkpt lat="47.00671" lon="10.31335"><ele>1882</ele></trkpt>
<trkpt lat="47.0066" lon="10.3133"><ele>1883</ele></trkpt>
<trkpt lat="47.00657" lon="10.31326"><ele>1879</ele></trkpt>
<trkpt lat="47.00657" lon="10.31325"><ele>1879</ele></trkpt>
<trkpt lat="47.00658" lon="10.31324"><ele>1879</ele></trkpt>
<trkpt lat="47.00668" lon="10.31321"><ele>1878</ele></trkpt>
<trkpt lat="47.00671" lon="10.31317"><ele>1874</ele></trkpt>
<trkpt lat="47.00676" lon="10.31317"><ele>1873</ele></trkpt>
<trkpt lat="47.00677" lon="10.31315"><ele>1873</ele></trkpt>
<trkpt lat="47.00678" lon="10.31312"><ele>1873</ele></trkpt>
<trkpt lat="47.00669" lon="10.31304"><ele>1870</ele></trkpt>
<trkpt lat="47.00668" lon="10.313"><ele>1870</ele></trkpt>
<trkpt lat="47.0067" lon="10.31296"><ele>1870</ele></trkpt>
<trkpt lat="47.00681" lon="10.31297"><ele>1868</ele></trkpt>
<trkpt lat="47.00682" lon="10.31293"><ele>1868</ele></trkpt>
<trkpt lat="47.00682" lon="10.31292"><ele>1868</ele></trkpt>
<trkpt lat="47.00682" lon="10.31292"><ele>1868</ele></trkpt>
<trkpt lat="47.00682" lon="10.31292"><ele>1868</ele></trkpt>
<trkpt lat="47.00681" lon="10.3129"><ele>1864</ele></trkpt>
<trkpt lat="47.00675" lon="10.31286"><ele>1865</ele></trkpt>
<trkpt lat="47.00673" lon="10.31279"><ele>1865</ele></trkpt>
<trkpt lat="47.00669" lon="10.31278"><ele>1862</ele></trkpt>
<trkpt lat="47.00665" lon="10.31277"><ele>1862</ele></trkpt>
<trkpt lat="47.00663" lon="10.31274"><ele>1862</ele></trkpt>
<trkpt lat="47.00665" lon="10.3127"><ele>1862</ele></trkpt>
<trkpt lat="47.00669" lon="10.31268"><ele>1862</ele></trkpt>
<trkpt lat="47.00671" lon="10.31268"><ele>1862</ele></trkpt>
<trkpt lat="47.00672" lon="10.31265"><ele>1857</ele></trkpt>
<trkpt lat="47.0067" lon="10.31262"><ele>1857</ele></trkpt>
<trkpt lat="47.00667" lon="10.3126"><ele>1857</ele></trkpt>
<trkpt lat="47.0066" lon="10.3126"><ele>1858</ele></trkpt>
<trkpt lat="47.00656" lon="10.31256"><ele>1858</ele></trkpt>
<trkpt lat="47.00652" lon="10.31255"><ele>1858</ele></trkpt>
<trkpt lat="47.00651" lon="10.31251"><ele>1854</ele></trkpt>
<trkpt lat="47.00651" lon="10.31249"><ele>1854</ele></trkpt>
<trkpt lat="47.00653" lon="10.31246"><ele>1854</ele></trkpt>
<trkpt lat="47.00662" lon="10.3124"><ele>1850</ele></trkpt>
<trkpt lat="47.00665" lon="10.31239"><ele>1849</ele></trkpt>
<trkpt lat="47.00667" lon="10.31237"><ele>1849</ele></trkpt>
<trkpt lat="47.00666" lon="10.31236"><ele>1849</ele></trkpt>
<trkpt lat="47.00663" lon="10.31232"><ele>1849</ele></trkpt>
<trkpt lat="47.00658" lon="10.3123"><ele>1850</ele></trkpt>
<trkpt lat="47.00658" lon="10.31227"><ele>1846</ele></trkpt>
<trkpt lat="47.00662" lon="10.31222"><ele>1846</ele></trkpt>
<trkpt lat="47.00664" lon="10.3122"><ele>1845</ele></trkpt>
<trkpt lat="47.00665" lon="10.31218"><ele>1845</ele></trkpt>
<trkpt lat="47.00664" lon="10.31216"><ele>1845</ele></trkpt>
<trkpt lat="47.0066" lon="10.31213"><ele>1842</ele></trkpt>
<trkpt lat="47.00653" lon="10.31212"><ele>1842</ele></trkpt>
<trkpt lat="47.00652" lon="10.31212"><ele>1842</ele></trkpt>
<trkpt lat="47.00652" lon="10.31209"><ele>1842</ele></trkpt>
<trkpt lat="47.00653" lon="10.31208"><ele>1842</ele></trkpt>
<trkpt lat="47.00656" lon="10.31206"><ele>1842</ele></trkpt>
<trkpt lat="47.00656" lon="10.31206"><ele>1842</ele></trkpt>
<trkpt lat="47.00656" lon="10.31206"><ele>1842</ele></trkpt>
<trkpt lat="47.00656" lon="10.31206"><ele>1842</ele></trkpt>
<trkpt lat="47.0066" lon="10.31203"><ele>1842</ele></trkpt>
<trkpt lat="47.00661" lon="10.31201"><ele>1838</ele></trkpt>
<trkpt lat="47.00661" lon="10.31199"><ele>1838</ele></trkpt>
<trkpt lat="47.0066" lon="10.31197"><ele>1838</ele></trkpt>
<trkpt lat="47.00657" lon="10.31195"><ele>1838</ele></trkpt>
<trkpt lat="47.00646" lon="10.3119"><ele>1838</ele></trkpt>
<trkpt lat="47.0064" lon="10.31185"><ele>1834</ele></trkpt>
<trkpt lat="47.00638" lon="10.31182"><ele>1834</ele></trkpt>
<trkpt lat="47.0064" lon="10.31179"><ele>1834</ele></trkpt>
<trkpt lat="47.00643" lon="10.31178"><ele>1834</ele></trkpt>
<trkpt lat="47.00654" lon="10.31173"><ele>1829</ele></trkpt>
<trkpt lat="47.00654" lon="10.3117"><ele>1829</ele></trkpt>
<trkpt lat="47.00653" lon="10.31168"><ele>1829</ele></trkpt>
<trkpt lat="47.0065" lon="10.31168"><ele>1829</ele></trkpt>
<trkpt lat="47.00648" lon="10.31167"><ele>1829</ele></trkpt>
<trkpt lat="47.00648" lon="10.31165"><ele>1829</ele></trkpt>
<trkpt lat="47.0065" lon="10.3116"><ele>1826</ele></trkpt>
<trkpt lat="47.00651" lon="10.31157"><ele>1826</ele></trkpt>
<trkpt lat="47.00651" lon="10.31156"><ele>1826</ele></trkpt>
<trkpt lat="47.00647" lon="10.31153"><ele>1826</ele></trkpt>
<trkpt lat="47.00645" lon="10.31154"><ele>1826</ele></trkpt>
<trkpt lat="47.00643" lon="10.31155"><ele>1826</ele></trkpt>
<trkpt lat="47.00641" lon="10.31155"><ele>1826</ele></trkpt>
<trkpt lat="47.0064" lon="10.31154"><ele>1826</ele></trkpt>
<trkpt lat="47.00634" lon="10.31151"><ele>1822</ele></trkpt>
<trkpt lat="47.00633" lon="10.31148"><ele>1822</ele></trkpt>
<trkpt lat="47.00633" lon="10.31146"><ele>1822</ele></trkpt>
<trkpt lat="47.00636" lon="10.31142"><ele>1822</ele></trkpt>
<trkpt lat="47.0064" lon="10.3114"><ele>1822</ele></trkpt>
<trkpt lat="47.00642" lon="10.31139"><ele>1822</ele></trkpt>
<trkpt lat="47.00643" lon="10.31137"><ele>1817</ele></trkpt>
<trkpt lat="47.00643" lon="10.31135"><ele>1817</ele></trkpt>
<trkpt lat="47.00641" lon="10.31134"><ele>1817</ele></trkpt>
<trkpt lat="47.00639" lon="10.31133"><ele>1817</ele></trkpt>
<trkpt lat="47.00636" lon="10.31132"><ele>1818</ele></trkpt>
<trkpt lat="47.00633" lon="10.31132"><ele>1818</ele></trkpt>
<trkpt lat="47.00631" lon="10.31132"><ele>1818</ele></trkpt>
<trkpt lat="47.00629" lon="10.31132"><ele>1818</ele></trkpt>
<trkpt lat="47.00628" lon="10.31129"><ele>1819</ele></trkpt>
<trkpt lat="47.00629" lon="10.31126"><ele>1818</ele></trkpt>
<trkpt lat="47.00632" lon="10.31124"><ele>1813</ele></trkpt>
<trkpt lat="47.00636" lon="10.31119"><ele>1813</ele></trkpt>
<trkpt lat="47.00637" lon="10.31117"><ele>1814</ele></trkpt>
<trkpt lat="47.00637" lon="10.31115"><ele>1814</ele></trkpt>
<trkpt lat="47.00635" lon="10.31114"><ele>1813</ele></trkpt>
<trkpt lat="47.00633" lon="10.31112"><ele>1810</ele></trkpt>
<trkpt lat="47.00633" lon="10.31109"><ele>1810</ele></trkpt>
<trkpt lat="47.00635" lon="10.31107"><ele>1810</ele></trkpt>
<trkpt lat="47.00635" lon="10.31104"><ele>1810</ele></trkpt>
<trkpt lat="47.00633" lon="10.31102"><ele>1810</ele></trkpt>
<trkpt lat="47.00629" lon="10.311"><ele>1810</ele></trkpt>
<trkpt lat="47.00626" lon="10.31098"><ele>1807</ele></trkpt>
<trkpt lat="47.00624" lon="10.31096"><ele>1807</ele></trkpt>
<trkpt lat="47.00624" lon="10.31095"><ele>1807</ele></trkpt>
<trkpt lat="47.00625" lon="10.3109"><ele>1807</ele></trkpt>
<trkpt lat="47.00628" lon="10.31087"><ele>1804</ele></trkpt>
<trkpt lat="47.00631" lon="10.31081"><ele>1804</ele></trkpt>
<trkpt lat="47.00637" lon="10.31075"><ele>1806</ele></trkpt>
<trkpt lat="47.00637" lon="10.31073"><ele>1804</ele></trkpt>
<trkpt lat="47.00639" lon="10.3106"><ele>1802</ele></trkpt>
<trkpt lat="47.00643" lon="10.31047"><ele>1800</ele></trkpt>
<trkpt lat="47.00643" lon="10.31044"><ele>1800</ele></trkpt>
<trkpt lat="47.0064" lon="10.31042"><ele>1800</ele></trkpt>
<trkpt lat="47.00632" lon="10.31049"><ele>1799</ele></trkpt>
<trkpt lat="47.00631" lon="10.31049"><ele>1799</ele></trkpt>
<trkpt lat="47.00629" lon="10.31049"><ele>1799</ele></trkpt>
<trkpt lat="47.00629" lon="10.31045"><ele>1796</ele></trkpt>
<trkpt lat="47.00631" lon="10.31042"><ele>1796</ele></trkpt>
<trkpt lat="47.00633" lon="10.31038"><ele>1796</ele></trkpt>
<trkpt lat="47.00633" lon="10.31037"><ele>1796</ele></trkpt>
<trkpt lat="47.00632" lon="10.31035"><ele>1793</ele></trkpt>
<trkpt lat="47.00628" lon="10.31035"><ele>1791</ele></trkpt>
<trkpt lat="47.00625" lon="10.31035"><ele>1791</ele></trkpt>
<trkpt lat="47.00624" lon="10.31035"><ele>1791</ele></trkpt>
<trkpt lat="47.00624" lon="10.31034"><ele>1791</ele></trkpt>
<trkpt lat="47.00625" lon="10.31029"><ele>1791</ele></trkpt>
<trkpt lat="47.00634" lon="10.31004"><ele>1790</ele></trkpt>
<trkpt lat="47.00634" lon="10.31"><ele>1790</ele></trkpt>
<trkpt lat="47.00632" lon="10.30998"><ele>1790</ele></trkpt>
<trkpt lat="47.00629" lon="10.30999"><ele>1790</ele></trkpt>
<trkpt lat="47.00626" lon="10.31001"><ele>1787</ele></trkpt>
<trkpt lat="47.00623" lon="10.30999"><ele>1787</ele></trkpt>
<trkpt lat="47.00624" lon="10.30995"><ele>1785</ele></trkpt>
<trkpt lat="47.00627" lon="10.30988"><ele>1785</ele></trkpt>
<trkpt lat="47.00627" lon="10.30986"><ele>1785</ele></trkpt>
<trkpt lat="47.00626" lon="10.30984"><ele>1784</ele></trkpt>
<trkpt lat="47.00623" lon="10.30984"><ele>1784</ele></trkpt>
<trkpt lat="47.0061" lon="10.3099"><ele>1781</ele></trkpt>
<trkpt lat="47.00607" lon="10.30991"><ele>1781</ele></trkpt>
<trkpt lat="47.00606" lon="10.3099"><ele>1781</ele></trkpt>
<trkpt lat="47.00605" lon="10.30988"><ele>1781</ele></trkpt>
<trkpt lat="47.00605" lon="10.30984"><ele>1778</ele></trkpt>
<trkpt lat="47.00607" lon="10.30979"><ele>1778</ele></trkpt>
<trkpt lat="47.00615" lon="10.30965"><ele>1779</ele></trkpt>
<trkpt lat="47.00616" lon="10.3096"><ele>1779</ele></trkpt>
<trkpt lat="47.00616" lon="10.30959"><ele>1779</ele></trkpt>
<trkpt lat="47.00615" lon="10.30957"><ele>1779</ele></trkpt>
<trkpt lat="47.00613" lon="10.30957"><ele>1779</ele></trkpt>
<trkpt lat="47.00608" lon="10.3096"><ele>1776</ele></trkpt>
<trkpt lat="47.00603" lon="10.30957"><ele>1775</ele></trkpt>
<trkpt lat="47.00597" lon="10.30955"><ele>1772</ele></trkpt>
<trkpt lat="47.00595" lon="10.30955"><ele>1772</ele></trkpt>
<trkpt lat="47.00594" lon="10.30954"><ele>1772</ele></trkpt>
<trkpt lat="47.00593" lon="10.30949"><ele>1771</ele></trkpt>
<trkpt lat="47.00596" lon="10.30945"><ele>1770</ele></trkpt>
<trkpt lat="47.00602" lon="10.30936"><ele>1774</ele></trkpt>
<trkpt lat="47.00602" lon="10.30931"><ele>1773</ele></trkpt>
<trkpt lat="47.006" lon="10.30927"><ele>1769</ele></trkpt>
<trkpt lat="47.00598" lon="10.30921"><ele>1767</ele></trkpt>
<trkpt lat="47.00595" lon="10.30918"><ele>1767</ele></trkpt>
<trkpt lat="47.00588" lon="10.3092"><ele>1764</ele></trkpt>
<trkpt lat="47.00585" lon="10.30921"><ele>1764</ele></trkpt>
<trkpt lat="47.00583" lon="10.30921"><ele>1762</ele></trkpt>
<trkpt lat="47.00581" lon="10.3092"><ele>1762</ele></trkpt>
<trkpt lat="47.00581" lon="10.30916"><ele>1762</ele></trkpt>
<trkpt lat="47.00583" lon="10.30913"><ele>1762</ele></trkpt>
<trkpt lat="47.00584" lon="10.30913"><ele>1762</ele></trkpt>
<trkpt lat="47.00587" lon="10.30904"><ele>1762</ele></trkpt>
<trkpt lat="47.00588" lon="10.3089"><ele>1760</ele></trkpt>
<trkpt lat="47.00588" lon="10.30876"><ele>1757</ele></trkpt>
<trkpt lat="47.00592" lon="10.30865"><ele>1755</ele></trkpt>
<trkpt lat="47.00594" lon="10.30852"><ele>1759</ele></trkpt>
<trkpt lat="47.00594" lon="10.30841"><ele>1757</ele></trkpt>
<trkpt lat="47.0059" lon="10.30833"><ele>1753</ele></trkpt>
<trkpt lat="47.0059" lon="10.30831"><ele>1751</ele></trkpt>
<trkpt lat="47.00591" lon="10.30827"><ele>1751</ele></trkpt>
<trkpt lat="47.00594" lon="10.30823"><ele>1756</ele></trkpt>
<trkpt lat="47.00594" lon="10.30814"><ele>1754</ele></trkpt>
<trkpt lat="47.00592" lon="10.30788"><ele>1746</ele></trkpt>
<trkpt lat="47.00588" lon="10.30749"><ele>1743</ele></trkpt>
<trkpt lat="47.00593" lon="10.30718"><ele>1739</ele></trkpt>
<trkpt lat="47.0059" lon="10.30687"><ele>1734</ele></trkpt>
<trkpt lat="47.00588" lon="10.30672"><ele>1733</ele></trkpt>
<trkpt lat="47.00586" lon="10.30669"><ele>1733</ele></trkpt>
<trkpt lat="47.00585" lon="10.30665"><ele>1733</ele></trkpt>
<trkpt lat="47.00581" lon="10.30638"><ele>1727</ele></trkpt>
<trkpt lat="47.0058" lon="10.30622"><ele>1727</ele></trkpt>
<trkpt lat="47.00579" lon="10.30615"><ele>1727</ele></trkpt>
<trkpt lat="47.00575" lon="10.30611"><ele>1722</ele></trkpt>
<trkpt lat="47.00548" lon="10.30509"><ele>1706</ele></trkpt>
<trkpt lat="47.00548" lon="10.30509"><ele>1706</ele></trkpt>
<trkpt lat="47.00548" lon="10.30509"><ele>1706</ele></trkpt>
<trkpt lat="47.00548" lon="10.30509"><ele>1706</ele></trkpt>
<trkpt lat="47.00548" lon="10.30509"><ele>1706</ele></trkpt>
<trkpt lat="47.00548" lon="10.30509"><ele>1706</ele></trkpt>
<trkpt lat="47.00548" lon="10.30509"><ele>1706</ele></trkpt>
<trkpt lat="47.00549" lon="10.30507"><ele>1706</ele></trkpt>
<trkpt lat="47.00576" lon="10.30467"><ele>1699</ele></trkpt>
<trkpt lat="47.00571" lon="10.30406"><ele>1681</ele></trkpt>
<trkpt lat="47.00572" lon="10.30372"><ele>1679</ele></trkpt>
<trkpt lat="47.0058" lon="10.30327"><ele>1674</ele></trkpt>
<trkpt lat="47.00593" lon="10.30298"><ele>1672</ele></trkpt>
<trkpt lat="47.00622" lon="10.30254"><ele>1652</ele></trkpt>
<trkpt lat="47.00653" lon="10.30209"><ele>1643</ele></trkpt>
<trkpt lat="47.00676" lon="10.30124"><ele>1610</ele></trkpt>
<trkpt lat="47.00685" lon="10.30103"><ele>1603</ele></trkpt>
<trkpt lat="47.00688" lon="10.30072"><ele>1594</ele></trkpt>
<trkpt lat="47.007" lon="10.30035"><ele>1588</ele></trkpt>
<trkpt lat="47.00706" lon="10.30009"><ele>1577</ele></trkpt>
<trkpt lat="47.00712" lon="10.29978"><ele>1571</ele></trkpt>
<trkpt lat="47.00722" lon="10.29948"><ele>1561</ele></trkpt>
<trkpt lat="47.00732" lon="10.29928"><ele>1559</ele></trkpt>
<trkpt lat="47.00738" lon="10.29913"><ele>1557</ele></trkpt>
<trkpt lat="47.0073" lon="10.2992"><ele>1553</ele></trkpt>
<trkpt lat="47.00719" lon="10.29925"><ele>1554</ele></trkpt>
<trkpt lat="47.00716" lon="10.29924"><ele>1549</ele></trkpt>
<trkpt lat="47.00716" lon="10.29921"><ele>1549</ele></trkpt>
<trkpt lat="47.00718" lon="10.29918"><ele>0</ele></trkpt>

                    </trkseg>
              </trk>
            </gpx>