<?xml version="1.0" encoding="utf-8"?>
            <gpx xmlns="http://www.topografix.com/GPX/1/1" xmlns:xsd="http://www.w3.org/2001/XMLSchema" xmlns:xsi="http://www.w3.org/2001/XMLSchema-instance" version="1.1" creator="Fugawi 4,5,14,1696 http://www.fugawi.com/" xsi:schemaLocation="http://www.topografix.com/GPX/1/1 http://www.topografix.com/GPX/1/1/gpx.xsd">
                <trk>
                    <name>7149 Fimba Trail</name>
                    <desc></desc>
                    <trkseg>
                        <trkpt lat="46.97994" lon="10.34005"><ele>2751</ele></trkpt>
<trkpt lat="46.97987" lon="10.3401"><ele>2751</ele></trkpt>
<trkpt lat="46.97973" lon="10.34019"><ele>2748</ele></trkpt>
<trkpt lat="46.97919" lon="10.3405"><ele>2735</ele></trkpt>
<trkpt lat="46.97878" lon="10.34064"><ele>2732</ele></trkpt>
<trkpt lat="46.97878" lon="10.34064"><ele>2732</ele></trkpt>
<trkpt lat="46.97871" lon="10.34049"><ele>2730</ele></trkpt>
<trkpt lat="46.97871" lon="10.34049"><ele>2730</ele></trkpt>
<trkpt lat="46.97868" lon="10.34055"><ele>2731</ele></trkpt>
<trkpt lat="46.97856" lon="10.34052"><ele>2732</ele></trkpt>
<trkpt lat="46.97856" lon="10.34052"><ele>2732</ele></trkpt>
<trkpt lat="46.97856" lon="10.34052"><ele>2732</ele></trkpt>
<trkpt lat="46.9783" lon="10.34029"><ele>2733</ele></trkpt>
<trkpt lat="46.97791" lon="10.3398"><ele>2735</ele></trkpt>
<trkpt lat="46.9776" lon="10.33944"><ele>2737</ele></trkpt>
<trkpt lat="46.97703" lon="10.33901"><ele>2744</ele></trkpt>
<trkpt lat="46.97649" lon="10.33873"><ele>2748</ele></trkpt>
<trkpt lat="46.97613" lon="10.3385"><ele>2753</ele></trkpt>
<trkpt lat="46.97578" lon="10.33822"><ele>2755</ele></trkpt>
<trkpt lat="46.97541" lon="10.33765"><ele>2752</ele></trkpt>
<trkpt lat="46.97526" lon="10.33745"><ele>2752</ele></trkpt>
<trkpt lat="46.97526" lon="10.33745"><ele>2752</ele></trkpt>
<trkpt lat="46.97526" lon="10.33745"><ele>2752</ele></trkpt>
<trkpt lat="46.97526" lon="10.33745"><ele>2752</ele></trkpt>
<trkpt lat="46.97526" lon="10.33745"><ele>2752</ele></trkpt>
<trkpt lat="46.975" lon="10.33714"><ele>2753</ele></trkpt>
<trkpt lat="46.97491" lon="10.33686"><ele>2752</ele></trkpt>
<trkpt lat="46.97476" lon="10.33672"><ele>2752</ele></trkpt>
<trkpt lat="46.97469" lon="10.33666"><ele>2752</ele></trkpt>
<trkpt lat="46.97454" lon="10.33646"><ele>2755</ele></trkpt>
<trkpt lat="46.97442" lon="10.3362"><ele>2757</ele></trkpt>
<trkpt lat="46.97431" lon="10.33606"><ele>2759</ele></trkpt>
<trkpt lat="46.97419" lon="10.33592"><ele>2762</ele></trkpt>
<trkpt lat="46.97374" lon="10.33559"><ele>2774</ele></trkpt>
<trkpt lat="46.97355" lon="10.33494"><ele>2778</ele></trkpt>
<trkpt lat="46.9734" lon="10.33468"><ele>2785</ele></trkpt>
<trkpt lat="46.97317" lon="10.33433"><ele>2786</ele></trkpt>
<trkpt lat="46.97307" lon="10.33427"><ele>2793</ele></trkpt>
<trkpt lat="46.97305" lon="10.33432"><ele>2793</ele></trkpt>
<trkpt lat="46.97311" lon="10.33446"><ele>2793</ele></trkpt>
<trkpt lat="46.97311" lon="10.33461"><ele>2796</ele></trkpt>
<trkpt lat="46.97301" lon="10.33461"><ele>2799</ele></trkpt>
<trkpt lat="46.97285" lon="10.33454"><ele>2801</ele></trkpt>
<trkpt lat="46.97285" lon="10.33454"><ele>2801</ele></trkpt>
<trkpt lat="46.97266" lon="10.33444"><ele>2803</ele></trkpt>
<trkpt lat="46.97263" lon="10.33444"><ele>2805</ele></trkpt>
<trkpt lat="46.97263" lon="10.33444"><ele>2805</ele></trkpt>
<trkpt lat="46.97239" lon="10.33442"><ele>2809</ele></trkpt>
<trkpt lat="46.97184" lon="10.33454"><ele>2812</ele></trkpt>
<trkpt lat="46.97176" lon="10.33459"><ele>2811</ele></trkpt>
<trkpt lat="46.97169" lon="10.33466"><ele>2813</ele></trkpt>
<trkpt lat="46.97157" lon="10.33471"><ele>2815</ele></trkpt>
<trkpt lat="46.97143" lon="10.3348"><ele>2815</ele></trkpt>
<trkpt lat="46.97134" lon="10.33491"><ele>2820</ele></trkpt>
<trkpt lat="46.97122" lon="10.33499"><ele>2824</ele></trkpt>
<trkpt lat="46.97108" lon="10.33504"><ele>2824</ele></trkpt>
<trkpt lat="46.97092" lon="10.33509"><ele>2831</ele></trkpt>
<trkpt lat="46.97081" lon="10.33511"><ele>2838</ele></trkpt>
<trkpt lat="46.97056" lon="10.33516"><ele>2841</ele></trkpt>
<trkpt lat="46.97042" lon="10.33519"><ele>2847</ele></trkpt>
<trkpt lat="46.97027" lon="10.33518"><ele>2842</ele></trkpt>
<trkpt lat="46.97021" lon="10.33513"><ele>2838</ele></trkpt>
<trkpt lat="46.97015" lon="10.33509"><ele>2841</ele></trkpt>
<trkpt lat="46.97008" lon="10.33504"><ele>2837</ele></trkpt>
<trkpt lat="46.96996" lon="10.33492"><ele>2837</ele></trkpt>
<trkpt lat="46.96972" lon="10.33484"><ele>2833</ele></trkpt>
<trkpt lat="46.96963" lon="10.33475"><ele>2832</ele></trkpt>
<trkpt lat="46.9693" lon="10.33409"><ele>2841</ele></trkpt>
<trkpt lat="46.96922" lon="10.33386"><ele>2842</ele></trkpt>
<trkpt lat="46.96909" lon="10.33375"><ele>2841</ele></trkpt>
<trkpt lat="46.96909" lon="10.33375"><ele>2849</ele></trkpt>
<trkpt lat="46.96909" lon="10.33375"><ele>2849</ele></trkpt>
<trkpt lat="46.9686" lon="10.33339"><ele>2849</ele></trkpt>
<trkpt lat="46.96844" lon="10.33325"><ele>2849</ele></trkpt>
<trkpt lat="46.96818" lon="10.33299"><ele>2822</ele></trkpt>
<trkpt lat="46.96818" lon="10.33299"><ele>2822</ele></trkpt>
<trkpt lat="46.9678" lon="10.33258"><ele>2822</ele></trkpt>
<trkpt lat="46.96742" lon="10.33197"><ele>2822</ele></trkpt>
<trkpt lat="46.96742" lon="10.33197"><ele>2805</ele></trkpt>
<trkpt lat="46.96742" lon="10.33197"><ele>2805</ele></trkpt>
<trkpt lat="46.96742" lon="10.33197"><ele>2805</ele></trkpt>
<trkpt lat="46.96742" lon="10.33197"><ele>2805</ele></trkpt>
<trkpt lat="46.96742" lon="10.33197"><ele>2805</ele></trkpt>
<trkpt lat="46.96742" lon="10.33197"><ele>2805</ele></trkpt>
<trkpt lat="46.96742" lon="10.33197"><ele>2805</ele></trkpt>
<trkpt lat="46.96742" lon="10.33197"><ele>2805</ele></trkpt>
<trkpt lat="46.96742" lon="10.33197"><ele>2805</ele></trkpt>
<trkpt lat="46.96742" lon="10.33197"><ele>2805</ele></trkpt>
<trkpt lat="46.96742" lon="10.33197"><ele>2805</ele></trkpt>
<trkpt lat="46.96742" lon="10.33197"><ele>2805</ele></trkpt>
<trkpt lat="46.96742" lon="10.33197"><ele>2805</ele></trkpt>
<trkpt lat="46.96734" lon="10.33177"><ele>2805</ele></trkpt>
<trkpt lat="46.9672" lon="10.33163"><ele>2805</ele></trkpt>
<trkpt lat="46.96698" lon="10.33126"><ele>2805</ele></trkpt>
<trkpt lat="46.96664" lon="10.33109"><ele>2791</ele></trkpt>
<trkpt lat="46.96607" lon="10.33093"><ele>2791</ele></trkpt>
<trkpt lat="46.96542" lon="10.33047"><ele>2791</ele></trkpt>
<trkpt lat="46.96484" lon="10.33015"><ele>2791</ele></trkpt>
<trkpt lat="46.96462" lon="10.32991"><ele>2741</ele></trkpt>
<trkpt lat="46.96462" lon="10.32991"><ele>2741</ele></trkpt>
<trkpt lat="46.96462" lon="10.32991"><ele>2741</ele></trkpt>
<trkpt lat="46.96462" lon="10.32991"><ele>2741</ele></trkpt>
<trkpt lat="46.96462" lon="10.32991"><ele>2741</ele></trkpt>
<trkpt lat="46.96462" lon="10.32991"><ele>2741</ele></trkpt>
<trkpt lat="46.96462" lon="10.32991"><ele>2741</ele></trkpt>
<trkpt lat="46.96462" lon="10.32991"><ele>2741</ele></trkpt>
<trkpt lat="46.96462" lon="10.32991"><ele>2741</ele></trkpt>
<trkpt lat="46.96462" lon="10.32991"><ele>2741</ele></trkpt>
<trkpt lat="46.96462" lon="10.32991"><ele>2741</ele></trkpt>
<trkpt lat="46.96462" lon="10.32991"><ele>2741</ele></trkpt>
<trkpt lat="46.96462" lon="10.32991"><ele>2741</ele></trkpt>
<trkpt lat="46.96462" lon="10.32991"><ele>2741</ele></trkpt>
<trkpt lat="46.96442" lon="10.32968"><ele>2741</ele></trkpt>
<trkpt lat="46.96421" lon="10.32952"><ele>2741</ele></trkpt>
<trkpt lat="46.96421" lon="10.32952"><ele>2741</ele></trkpt>
<trkpt lat="46.96421" lon="10.32952"><ele>2741</ele></trkpt>
<trkpt lat="46.96398" lon="10.32963"><ele>2749</ele></trkpt>
<trkpt lat="46.96374" lon="10.32948"><ele>2749</ele></trkpt>
<trkpt lat="46.96347" lon="10.32945"><ele>2749</ele></trkpt>
<trkpt lat="46.96337" lon="10.32936"><ele>2749</ele></trkpt>
<trkpt lat="46.96325" lon="10.32935"><ele>2744</ele></trkpt>
<trkpt lat="46.96315" lon="10.32934"><ele>2744</ele></trkpt>
<trkpt lat="46.96303" lon="10.32938"><ele>2744</ele></trkpt>
<trkpt lat="46.96298" lon="10.32937"><ele>2744</ele></trkpt>
<trkpt lat="46.96294" lon="10.32931"><ele>2743</ele></trkpt>
<trkpt lat="46.96284" lon="10.32928"><ele>2743</ele></trkpt>
<trkpt lat="46.96269" lon="10.32926"><ele>2743</ele></trkpt>
<trkpt lat="46.96255" lon="10.3293"><ele>2743</ele></trkpt>
<trkpt lat="46.96248" lon="10.32925"><ele>2737</ele></trkpt>
<trkpt lat="46.96225" lon="10.3292"><ele>2737</ele></trkpt>
<trkpt lat="46.96223" lon="10.32919"><ele>2737</ele></trkpt>
<trkpt lat="46.96223" lon="10.32919"><ele>2737</ele></trkpt>
<trkpt lat="46.96223" lon="10.32919"><ele>2738</ele></trkpt>
<trkpt lat="46.96223" lon="10.32919"><ele>2738</ele></trkpt>
<trkpt lat="46.96223" lon="10.32919"><ele>2738</ele></trkpt>
<trkpt lat="46.96223" lon="10.32919"><ele>2738</ele></trkpt>
<trkpt lat="46.96223" lon="10.32919"><ele>2738</ele></trkpt>
<trkpt lat="46.96223" lon="10.32919"><ele>2738</ele></trkpt>
<trkpt lat="46.96223" lon="10.32919"><ele>2738</ele></trkpt>
<trkpt lat="46.96223" lon="10.32919"><ele>2738</ele></trkpt>
<trkpt lat="46.96223" lon="10.32919"><ele>2738</ele></trkpt>
<trkpt lat="46.96223" lon="10.32919"><ele>2738</ele></trkpt>
<trkpt lat="46.96223" lon="10.32919"><ele>2738</ele></trkpt>
<trkpt lat="46.96223" lon="10.32919"><ele>2738</ele></trkpt>
<trkpt lat="46.96219" lon="10.32916"><ele>2738</ele></trkpt>
<trkpt lat="46.96212" lon="10.32916"><ele>2738</ele></trkpt>
<trkpt lat="46.96203" lon="10.32912"><ele>2738</ele></trkpt>
<trkpt lat="46.96194" lon="10.32912"><ele>2738</ele></trkpt>
<trkpt lat="46.96183" lon="10.32907"><ele>2737</ele></trkpt>
<trkpt lat="46.96175" lon="10.32912"><ele>2737</ele></trkpt>
<trkpt lat="46.96165" lon="10.3291"><ele>2737</ele></trkpt>
<trkpt lat="46.96154" lon="10.32915"><ele>2737</ele></trkpt>
<trkpt lat="46.96136" lon="10.32924"><ele>2729</ele></trkpt>
<trkpt lat="46.96127" lon="10.32934"><ele>2729</ele></trkpt>
<trkpt lat="46.96118" lon="10.32938"><ele>2729</ele></trkpt>
<trkpt lat="46.96114" lon="10.32943"><ele>2729</ele></trkpt>
<trkpt lat="46.96102" lon="10.32947"><ele>2730</ele></trkpt>
<trkpt lat="46.96096" lon="10.32947"><ele>2730</ele></trkpt>
<trkpt lat="46.96094" lon="10.3294"><ele>2730</ele></trkpt>
<trkpt lat="46.9609" lon="10.32939"><ele>2730</ele></trkpt>
<trkpt lat="46.96085" lon="10.32944"><ele>2730</ele></trkpt>
<trkpt lat="46.96081" lon="10.32939"><ele>2730</ele></trkpt>
<trkpt lat="46.96076" lon="10.3294"><ele>2730</ele></trkpt>
<trkpt lat="46.96069" lon="10.3294"><ele>2730</ele></trkpt>
<trkpt lat="46.96061" lon="10.32942"><ele>2724</ele></trkpt>
<trkpt lat="46.96052" lon="10.32942"><ele>2724</ele></trkpt>
<trkpt lat="46.96049" lon="10.32939"><ele>2724</ele></trkpt>
<trkpt lat="46.96045" lon="10.32937"><ele>2724</ele></trkpt>
<trkpt lat="46.96045" lon="10.32937"><ele>2718</ele></trkpt>
<trkpt lat="46.96036" lon="10.32942"><ele>2718</ele></trkpt>
<trkpt lat="46.96032" lon="10.32951"><ele>2718</ele></trkpt>
<trkpt lat="46.96021" lon="10.32954"><ele>2718</ele></trkpt>
<trkpt lat="46.96014" lon="10.32952"><ele>2708</ele></trkpt>
<trkpt lat="46.96006" lon="10.32954"><ele>2708</ele></trkpt>
<trkpt lat="46.95996" lon="10.32954"><ele>2708</ele></trkpt>
<trkpt lat="46.95992" lon="10.32954"><ele>2708</ele></trkpt>
<trkpt lat="46.95985" lon="10.32953"><ele>2704</ele></trkpt>
<trkpt lat="46.95979" lon="10.32954"><ele>2704</ele></trkpt>
<trkpt lat="46.95972" lon="10.32954"><ele>2704</ele></trkpt>
<trkpt lat="46.9596" lon="10.32961"><ele>2704</ele></trkpt>
<trkpt lat="46.95956" lon="10.32959"><ele>2708</ele></trkpt>
<trkpt lat="46.95952" lon="10.32958"><ele>2708</ele></trkpt>
<trkpt lat="46.95947" lon="10.32959"><ele>2708</ele></trkpt>
<trkpt lat="46.95942" lon="10.32957"><ele>2708</ele></trkpt>
<trkpt lat="46.95932" lon="10.32953"><ele>2696</ele></trkpt>
<trkpt lat="46.95929" lon="10.32953"><ele>2696</ele></trkpt>
<trkpt lat="46.95923" lon="10.32956"><ele>2696</ele></trkpt>
<trkpt lat="46.95916" lon="10.32954"><ele>2696</ele></trkpt>
<trkpt lat="46.95903" lon="10.32959"><ele>2703</ele></trkpt>
<trkpt lat="46.95896" lon="10.32966"><ele>2703</ele></trkpt>
<trkpt lat="46.95893" lon="10.32966"><ele>2703</ele></trkpt>
<trkpt lat="46.95893" lon="10.32966"><ele>2703</ele></trkpt>
<trkpt lat="46.95893" lon="10.32966"><ele>2703</ele></trkpt>
<trkpt lat="46.9589" lon="10.32965"><ele>2703</ele></trkpt>
<trkpt lat="46.95885" lon="10.32959"><ele>2699</ele></trkpt>
<trkpt lat="46.95874" lon="10.32954"><ele>2699</ele></trkpt>
<trkpt lat="46.9587" lon="10.32954"><ele>2699</ele></trkpt>
<trkpt lat="46.95865" lon="10.32951"><ele>2699</ele></trkpt>
<trkpt lat="46.95859" lon="10.3295"><ele>2687</ele></trkpt>
<trkpt lat="46.95855" lon="10.32951"><ele>2687</ele></trkpt>
<trkpt lat="46.95851" lon="10.32954"><ele>2687</ele></trkpt>
<trkpt lat="46.9585" lon="10.32954"><ele>2687</ele></trkpt>
<trkpt lat="46.95847" lon="10.32952"><ele>2685</ele></trkpt>
<trkpt lat="46.95844" lon="10.32952"><ele>2685</ele></trkpt>
<trkpt lat="46.95834" lon="10.32945"><ele>2685</ele></trkpt>
<trkpt lat="46.95809" lon="10.32931"><ele>2685</ele></trkpt>
<trkpt lat="46.95803" lon="10.32931"><ele>2685</ele></trkpt>
<trkpt lat="46.95792" lon="10.32926"><ele>2685</ele></trkpt>
<trkpt lat="46.95787" lon="10.32926"><ele>2685</ele></trkpt>
<trkpt lat="46.95773" lon="10.32923"><ele>2685</ele></trkpt>
<trkpt lat="46.95768" lon="10.32919"><ele>2680</ele></trkpt>
<trkpt lat="46.95672" lon="10.32849"><ele>2680</ele></trkpt>
<trkpt lat="46.95669" lon="10.3284"><ele>2680</ele></trkpt>
<trkpt lat="46.95663" lon="10.32821"><ele>2680</ele></trkpt>
<trkpt lat="46.9565" lon="10.32809"><ele>2690</ele></trkpt>
<trkpt lat="46.95646" lon="10.32814"><ele>2690</ele></trkpt>
<trkpt lat="46.95655" lon="10.32837"><ele>2690</ele></trkpt>
<trkpt lat="46.9564" lon="10.32825"><ele>2690</ele></trkpt>
<trkpt lat="46.95618" lon="10.32815"><ele>2701</ele></trkpt>
<trkpt lat="46.9561" lon="10.32818"><ele>2701</ele></trkpt>
<trkpt lat="46.95615" lon="10.3283"><ele>2701</ele></trkpt>
<trkpt lat="46.95598" lon="10.32832"><ele>2701</ele></trkpt>
<trkpt lat="46.95571" lon="10.32835"><ele>2708</ele></trkpt>
<trkpt lat="46.95549" lon="10.32827"><ele>2708</ele></trkpt>
<trkpt lat="46.95528" lon="10.3282"><ele>2708</ele></trkpt>
<trkpt lat="46.95489" lon="10.32793"><ele>2708</ele></trkpt>
<trkpt lat="46.95486" lon="10.32781"><ele>2721</ele></trkpt>
<trkpt lat="46.95481" lon="10.32774"><ele>2721</ele></trkpt>
<trkpt lat="46.95478" lon="10.32771"><ele>2721</ele></trkpt>
<trkpt lat="46.9548" lon="10.32785"><ele>2721</ele></trkpt>
<trkpt lat="46.95476" lon="10.32792"><ele>2727</ele></trkpt>
<trkpt lat="46.95462" lon="10.32776"><ele>2727</ele></trkpt>
<trkpt lat="46.95436" lon="10.32753"><ele>2727</ele></trkpt>
<trkpt lat="46.9544" lon="10.32769"><ele>2727</ele></trkpt>
<trkpt lat="46.95436" lon="10.32784"><ele>2738</ele></trkpt>
<trkpt lat="46.95414" lon="10.3278"><ele>2738</ele></trkpt>
<trkpt lat="46.95409" lon="10.3278"><ele>2738</ele></trkpt>
<trkpt lat="46.95399" lon="10.32781"><ele>2738</ele></trkpt>
<trkpt lat="46.95399" lon="10.32781"><ele>2736</ele></trkpt>
<trkpt lat="46.95399" lon="10.32781"><ele>2736</ele></trkpt>
<trkpt lat="46.95399" lon="10.32781"><ele>2736</ele></trkpt>
<trkpt lat="46.95399" lon="10.32781"><ele>2736</ele></trkpt>
<trkpt lat="46.95399" lon="10.32781"><ele>2736</ele></trkpt>
<trkpt lat="46.95399" lon="10.32781"><ele>2736</ele></trkpt>
<trkpt lat="46.95399" lon="10.32781"><ele>2736</ele></trkpt>
<trkpt lat="46.95399" lon="10.32781"><ele>2736</ele></trkpt>
<trkpt lat="46.95393" lon="10.32784"><ele>2736</ele></trkpt>
<trkpt lat="46.95378" lon="10.32752"><ele>2736</ele></trkpt>
<trkpt lat="46.95368" lon="10.32734"><ele>2736</ele></trkpt>
<trkpt lat="46.95368" lon="10.32734"><ele>2736</ele></trkpt>
<trkpt lat="46.95368" lon="10.32734"><ele>2736</ele></trkpt>
<trkpt lat="46.95368" lon="10.32766"><ele>2736</ele></trkpt>
<trkpt lat="46.95367" lon="10.32779"><ele>2727</ele></trkpt>
<trkpt lat="46.95369" lon="10.32795"><ele>2727</ele></trkpt>
<trkpt lat="46.95367" lon="10.32799"><ele>2727</ele></trkpt>
<trkpt lat="46.95367" lon="10.32804"><ele>2727</ele></trkpt>
<trkpt lat="46.95368" lon="10.32811"><ele>2721</ele></trkpt>
<trkpt lat="46.95368" lon="10.32813"><ele>2721</ele></trkpt>
<trkpt lat="46.95369" lon="10.32817"><ele>2721</ele></trkpt>
<trkpt lat="46.9537" lon="10.32822"><ele>2721</ele></trkpt>
<trkpt lat="46.95375" lon="10.32845"><ele>2714</ele></trkpt>
<trkpt lat="46.95381" lon="10.32859"><ele>2714</ele></trkpt>
<trkpt lat="46.95384" lon="10.32863"><ele>2714</ele></trkpt>
<trkpt lat="46.95387" lon="10.32865"><ele>2714</ele></trkpt>
<trkpt lat="46.95385" lon="10.3287"><ele>2711</ele></trkpt>
<trkpt lat="46.95378" lon="10.32865"><ele>2711</ele></trkpt>
<trkpt lat="46.95372" lon="10.32856"><ele>2711</ele></trkpt>
<trkpt lat="46.95366" lon="10.32855"><ele>2711</ele></trkpt>
<trkpt lat="46.95368" lon="10.32865"><ele>2714</ele></trkpt>
<trkpt lat="46.95373" lon="10.32873"><ele>2714</ele></trkpt>
<trkpt lat="46.95371" lon="10.32881"><ele>2714</ele></trkpt>
<trkpt lat="46.95367" lon="10.32881"><ele>2714</ele></trkpt>
<trkpt lat="46.95363" lon="10.32874"><ele>2706</ele></trkpt>
<trkpt lat="46.95357" lon="10.32856"><ele>2706</ele></trkpt>
<trkpt lat="46.95354" lon="10.32859"><ele>2706</ele></trkpt>
<trkpt lat="46.95356" lon="10.32876"><ele>2706</ele></trkpt>
<trkpt lat="46.95358" lon="10.32882"><ele>2700</ele></trkpt>
<trkpt lat="46.95359" lon="10.32889"><ele>2700</ele></trkpt>
<trkpt lat="46.95354" lon="10.32893"><ele>2700</ele></trkpt>
<trkpt lat="46.95351" lon="10.32881"><ele>2700</ele></trkpt>
<trkpt lat="46.95347" lon="10.32864"><ele>2705</ele></trkpt>
<trkpt lat="46.95346" lon="10.3286"><ele>2705</ele></trkpt>
<trkpt lat="46.9534" lon="10.32873"><ele>2705</ele></trkpt>
<trkpt lat="46.95338" lon="10.32891"><ele>2705</ele></trkpt>
<trkpt lat="46.95339" lon="10.32901"><ele>2688</ele></trkpt>
<trkpt lat="46.95336" lon="10.32916"><ele>2688</ele></trkpt>
<trkpt lat="46.95335" lon="10.32923"><ele>2688</ele></trkpt>
<trkpt lat="46.9533" lon="10.32917"><ele>2688</ele></trkpt>
<trkpt lat="46.95324" lon="10.32903"><ele>2688</ele></trkpt>
<trkpt lat="46.95322" lon="10.32924"><ele>2688</ele></trkpt>
<trkpt lat="46.95314" lon="10.32953"><ele>2688</ele></trkpt>
<trkpt lat="46.95314" lon="10.32961"><ele>2688</ele></trkpt>
<trkpt lat="46.95314" lon="10.32965"><ele>2679</ele></trkpt>
<trkpt lat="46.95318" lon="10.3298"><ele>2679</ele></trkpt>
<trkpt lat="46.95322" lon="10.32987"><ele>2679</ele></trkpt>
<trkpt lat="46.95326" lon="10.32994"><ele>2679</ele></trkpt>
<trkpt lat="46.95326" lon="10.32999"><ele>2681</ele></trkpt>
<trkpt lat="46.95323" lon="10.33004"><ele>2681</ele></trkpt>
<trkpt lat="46.95318" lon="10.33"><ele>2681</ele></trkpt>
<trkpt lat="46.95318" lon="10.33014"><ele>2681</ele></trkpt>
<trkpt lat="46.95318" lon="10.33014"><ele>2678</ele></trkpt>
<trkpt lat="46.95304" lon="10.33006"><ele>2678</ele></trkpt>
<trkpt lat="46.95291" lon="10.32996"><ele>2678</ele></trkpt>
<trkpt lat="46.9527" lon="10.32989"><ele>2678</ele></trkpt>
<trkpt lat="46.9527" lon="10.32989"><ele>2678</ele></trkpt>
<trkpt lat="46.9527" lon="10.32989"><ele>2678</ele></trkpt>
<trkpt lat="46.95266" lon="10.32977"><ele>2662</ele></trkpt>
<trkpt lat="46.95265" lon="10.32953"><ele>2662</ele></trkpt>
<trkpt lat="46.95267" lon="10.32943"><ele>2662</ele></trkpt>
<trkpt lat="46.95269" lon="10.32933"><ele>2662</ele></trkpt>
<trkpt lat="46.95263" lon="10.32935"><ele>2659</ele></trkpt>
<trkpt lat="46.95262" lon="10.32944"><ele>2659</ele></trkpt>
<trkpt lat="46.9526" lon="10.32952"><ele>2659</ele></trkpt>
<trkpt lat="46.95257" lon="10.3295"><ele>2659</ele></trkpt>
<trkpt lat="46.95257" lon="10.3294"><ele>2651</ele></trkpt>
<trkpt lat="46.95255" lon="10.32931"><ele>2651</ele></trkpt>
<trkpt lat="46.95249" lon="10.329"><ele>2651</ele></trkpt>
<trkpt lat="46.95247" lon="10.32915"><ele>2651</ele></trkpt>
<trkpt lat="46.95239" lon="10.32897"><ele>2652</ele></trkpt>
<trkpt lat="46.9522" lon="10.3287"><ele>2652</ele></trkpt>
<trkpt lat="46.95211" lon="10.32862"><ele>2652</ele></trkpt>
<trkpt lat="46.95204" lon="10.32849"><ele>2652</ele></trkpt>
<trkpt lat="46.95198" lon="10.32836"><ele>2645</ele></trkpt>
<trkpt lat="46.95188" lon="10.32825"><ele>2645</ele></trkpt>
<trkpt lat="46.95178" lon="10.32812"><ele>2645</ele></trkpt>
<trkpt lat="46.95171" lon="10.32801"><ele>2645</ele></trkpt>
<trkpt lat="46.95171" lon="10.32801"><ele>2635</ele></trkpt>
<trkpt lat="46.95171" lon="10.32801"><ele>2635</ele></trkpt>
<trkpt lat="46.95171" lon="10.32801"><ele>2635</ele></trkpt>
<trkpt lat="46.95171" lon="10.32801"><ele>2635</ele></trkpt>
<trkpt lat="46.95171" lon="10.32801"><ele>2635</ele></trkpt>
<trkpt lat="46.95171" lon="10.32801"><ele>2635</ele></trkpt>
<trkpt lat="46.95171" lon="10.32801"><ele>2635</ele></trkpt>
<trkpt lat="46.95171" lon="10.32801"><ele>2635</ele></trkpt>
<trkpt lat="46.95171" lon="10.32801"><ele>2635</ele></trkpt>
<trkpt lat="46.95171" lon="10.32801"><ele>2635</ele></trkpt>
<trkpt lat="46.95171" lon="10.32801"><ele>2635</ele></trkpt>
<trkpt lat="46.95171" lon="10.32801"><ele>2635</ele></trkpt>
<trkpt lat="46.95171" lon="10.32801"><ele>2635</ele></trkpt>
<trkpt lat="46.95155" lon="10.32776"><ele>2635</ele></trkpt>
<trkpt lat="46.95153" lon="10.32771"><ele>2635</ele></trkpt>
<trkpt lat="46.95141" lon="10.32754"><ele>2635</ele></trkpt>
<trkpt lat="46.95124" lon="10.3274"><ele>2625</ele></trkpt>
<trkpt lat="46.9512" lon="10.32733"><ele>2625</ele></trkpt>
<trkpt lat="46.95115" lon="10.32726"><ele>2625</ele></trkpt>
<trkpt lat="46.95114" lon="10.32713"><ele>2625</ele></trkpt>
<trkpt lat="46.9511" lon="10.32704"><ele>2620</ele></trkpt>
<trkpt lat="46.95109" lon="10.32692"><ele>2620</ele></trkpt>
<trkpt lat="46.95098" lon="10.32673"><ele>2620</ele></trkpt>
<trkpt lat="46.95091" lon="10.32663"><ele>2620</ele></trkpt>
<trkpt lat="46.95075" lon="10.32638"><ele>2626</ele></trkpt>
<trkpt lat="46.95066" lon="10.32625"><ele>2626</ele></trkpt>
<trkpt lat="46.95063" lon="10.32615"><ele>2626</ele></trkpt>
<trkpt lat="46.95059" lon="10.32607"><ele>2626</ele></trkpt>
<trkpt lat="46.9505" lon="10.32581"><ele>2610</ele></trkpt>
<trkpt lat="46.95048" lon="10.32565"><ele>2610</ele></trkpt>
<trkpt lat="46.95045" lon="10.32551"><ele>2610</ele></trkpt>
<trkpt lat="46.95042" lon="10.32532"><ele>2610</ele></trkpt>
<trkpt lat="46.95043" lon="10.32524"><ele>2603</ele></trkpt>
<trkpt lat="46.95042" lon="10.32516"><ele>2603</ele></trkpt>
<trkpt lat="46.95044" lon="10.32503"><ele>2603</ele></trkpt>
<trkpt lat="46.95043" lon="10.3248"><ele>2603</ele></trkpt>
<trkpt lat="46.95043" lon="10.32471"><ele>2614</ele></trkpt>
<trkpt lat="46.95043" lon="10.32465"><ele>2614</ele></trkpt>
<trkpt lat="46.9504" lon="10.3246"><ele>2614</ele></trkpt>
<trkpt lat="46.95032" lon="10.32455"><ele>2614</ele></trkpt>
<trkpt lat="46.95028" lon="10.32448"><ele>2605</ele></trkpt>
<trkpt lat="46.95027" lon="10.32435"><ele>2605</ele></trkpt>
<trkpt lat="46.95026" lon="10.32426"><ele>2605</ele></trkpt>
<trkpt lat="46.95024" lon="10.32422"><ele>2605</ele></trkpt>
<trkpt lat="46.95023" lon="10.32418"><ele>2614</ele></trkpt>
<trkpt lat="46.95024" lon="10.32412"><ele>2614</ele></trkpt>
<trkpt lat="46.95022" lon="10.32407"><ele>2614</ele></trkpt>
<trkpt lat="46.95012" lon="10.32403"><ele>2614</ele></trkpt>
<trkpt lat="46.9501" lon="10.324"><ele>2610</ele></trkpt>
<trkpt lat="46.95008" lon="10.32394"><ele>2610</ele></trkpt>
<trkpt lat="46.95006" lon="10.3238"><ele>2610</ele></trkpt>
<trkpt lat="46.95003" lon="10.32363"><ele>2610</ele></trkpt>
<trkpt lat="46.94999" lon="10.32354"><ele>2621</ele></trkpt>
<trkpt lat="46.94996" lon="10.32347"><ele>2621</ele></trkpt>
<trkpt lat="46.94984" lon="10.32337"><ele>2621</ele></trkpt>
<trkpt lat="46.94981" lon="10.32333"><ele>2621</ele></trkpt>
<trkpt lat="46.94974" lon="10.3233"><ele>2616</ele></trkpt>
<trkpt lat="46.94961" lon="10.32324"><ele>2616</ele></trkpt>
<trkpt lat="46.94955" lon="10.32318"><ele>2616</ele></trkpt>
<trkpt lat="46.94949" lon="10.32316"><ele>2616</ele></trkpt>
<trkpt lat="46.94931" lon="10.32307"><ele>2621</ele></trkpt>
<trkpt lat="46.94914" lon="10.32302"><ele>2621</ele></trkpt>
<trkpt lat="46.94906" lon="10.32297"><ele>2621</ele></trkpt>
<trkpt lat="46.949" lon="10.32292"><ele>2621</ele></trkpt>
<trkpt lat="46.949" lon="10.32292"><ele>2621</ele></trkpt>
<trkpt lat="46.949" lon="10.32292"><ele>2621</ele></trkpt>
<trkpt lat="46.94897" lon="10.32281"><ele>2614</ele></trkpt>
<trkpt lat="46.94895" lon="10.32266"><ele>2614</ele></trkpt>
<trkpt lat="46.94892" lon="10.32252"><ele>2614</ele></trkpt>
<trkpt lat="46.94892" lon="10.32232"><ele>2614</ele></trkpt>
<trkpt lat="46.94894" lon="10.32221"><ele>2610</ele></trkpt>
<trkpt lat="46.94894" lon="10.32217"><ele>2610</ele></trkpt>
<trkpt lat="46.94889" lon="10.32204"><ele>2610</ele></trkpt>
<trkpt lat="46.94884" lon="10.32193"><ele>2610</ele></trkpt>
<trkpt lat="46.94882" lon="10.3218"><ele>2599</ele></trkpt>
<trkpt lat="46.94884" lon="10.32152"><ele>2599</ele></trkpt>
<trkpt lat="46.94881" lon="10.32144"><ele>2599</ele></trkpt>
<trkpt lat="46.94879" lon="10.32114"><ele>2599</ele></trkpt>
<trkpt lat="46.94876" lon="10.32102"><ele>2593</ele></trkpt>
<trkpt lat="46.94875" lon="10.32096"><ele>2593</ele></trkpt>
<trkpt lat="46.94877" lon="10.3209"><ele>2593</ele></trkpt>
<trkpt lat="46.94877" lon="10.32067"><ele>2593</ele></trkpt>
<trkpt lat="46.94881" lon="10.32039"><ele>2589</ele></trkpt>
<trkpt lat="46.9488" lon="10.32024"><ele>2589</ele></trkpt>
<trkpt lat="46.9488" lon="10.32024"><ele>2589</ele></trkpt>
<trkpt lat="46.9488" lon="10.32024"><ele>2589</ele></trkpt>
<trkpt lat="46.9488" lon="10.32024"><ele>2589</ele></trkpt>
<trkpt lat="46.9488" lon="10.32024"><ele>2589</ele></trkpt>
<trkpt lat="46.9488" lon="10.32024"><ele>2589</ele></trkpt>
<trkpt lat="46.9488" lon="10.32024"><ele>2589</ele></trkpt>
<trkpt lat="46.9488" lon="10.32024"><ele>2589</ele></trkpt>
<trkpt lat="46.9488" lon="10.32024"><ele>2589</ele></trkpt>
<trkpt lat="46.9488" lon="10.32024"><ele>2589</ele></trkpt>
<trkpt lat="46.9488" lon="10.32024"><ele>2589</ele></trkpt>
<trkpt lat="46.9488" lon="10.32024"><ele>2589</ele></trkpt>
<trkpt lat="46.9488" lon="10.32024"><ele>2589</ele></trkpt>
<trkpt lat="46.9488" lon="10.32024"><ele>2589</ele></trkpt>
<trkpt lat="46.94878" lon="10.32004"><ele>2589</ele></trkpt>
<trkpt lat="46.94879" lon="10.3199"><ele>2585</ele></trkpt>
<trkpt lat="46.94875" lon="10.31968"><ele>2585</ele></trkpt>
<trkpt lat="46.94872" lon="10.31929"><ele>2585</ele></trkpt>
<trkpt lat="46.94865" lon="10.31897"><ele>2585</ele></trkpt>
<trkpt lat="46.94865" lon="10.3188"><ele>2567</ele></trkpt>
<trkpt lat="46.94865" lon="10.31854"><ele>2567</ele></trkpt>
<trkpt lat="46.94862" lon="10.31845"><ele>2567</ele></trkpt>
<trkpt lat="46.94851" lon="10.31817"><ele>2567</ele></trkpt>
<trkpt lat="46.94849" lon="10.31802"><ele>2569</ele></trkpt>
<trkpt lat="46.94851" lon="10.31795"><ele>2569</ele></trkpt>
<trkpt lat="46.94852" lon="10.3178"><ele>2569</ele></trkpt>
<trkpt lat="46.94852" lon="10.31767"><ele>2569</ele></trkpt>
<trkpt lat="46.94849" lon="10.31758"><ele>2569</ele></trkpt>
<trkpt lat="46.94849" lon="10.31752"><ele>2569</ele></trkpt>
<trkpt lat="46.9485" lon="10.31742"><ele>2569</ele></trkpt>
<trkpt lat="46.94849" lon="10.31733"><ele>2569</ele></trkpt>
<trkpt lat="46.94844" lon="10.31716"><ele>2565</ele></trkpt>
<trkpt lat="46.94842" lon="10.31703"><ele>2565</ele></trkpt>
<trkpt lat="46.94832" lon="10.31664"><ele>2565</ele></trkpt>
<trkpt lat="46.94827" lon="10.3165"><ele>2565</ele></trkpt>
<trkpt lat="46.94825" lon="10.31644"><ele>2558</ele></trkpt>
<trkpt lat="46.9482" lon="10.3164"><ele>2558</ele></trkpt>
<trkpt lat="46.94817" lon="10.3163"><ele>2558</ele></trkpt>
<trkpt lat="46.94815" lon="10.31617"><ele>2558</ele></trkpt>
<trkpt lat="46.94809" lon="10.316"><ele>2559</ele></trkpt>
<trkpt lat="46.94806" lon="10.31586"><ele>2559</ele></trkpt>
<trkpt lat="46.94802" lon="10.31581"><ele>2559</ele></trkpt>
<trkpt lat="46.948" lon="10.31578"><ele>2559</ele></trkpt>
<trkpt lat="46.948" lon="10.31565"><ele>2560</ele></trkpt>
<trkpt lat="46.94797" lon="10.31561"><ele>2560</ele></trkpt>
<trkpt lat="46.94797" lon="10.31561"><ele>2560</ele></trkpt>
<trkpt lat="46.94797" lon="10.31561"><ele>2560</ele></trkpt>
<trkpt lat="46.94795" lon="10.31559"><ele>2560</ele></trkpt>
<trkpt lat="46.9478" lon="10.31551"><ele>2560</ele></trkpt>
<trkpt lat="46.94771" lon="10.31551"><ele>2558</ele></trkpt>
<trkpt lat="46.94762" lon="10.31545"><ele>2558</ele></trkpt>
<trkpt lat="46.94753" lon="10.31541"><ele>2558</ele></trkpt>
<trkpt lat="46.94738" lon="10.31539"><ele>2558</ele></trkpt>
<trkpt lat="46.94732" lon="10.31536"><ele>2558</ele></trkpt>
<trkpt lat="46.94724" lon="10.31535"><ele>2558</ele></trkpt>
<trkpt lat="46.94713" lon="10.31533"><ele>2558</ele></trkpt>
<trkpt lat="46.94706" lon="10.31527"><ele>2558</ele></trkpt>
<trkpt lat="46.94699" lon="10.31513"><ele>2541</ele></trkpt>
<trkpt lat="46.94692" lon="10.315"><ele>2541</ele></trkpt>
<trkpt lat="46.94685" lon="10.31488"><ele>2541</ele></trkpt>
<trkpt lat="46.94679" lon="10.31485"><ele>2541</ele></trkpt>
<trkpt lat="46.9466" lon="10.31481"><ele>2538</ele></trkpt>
<trkpt lat="46.94653" lon="10.31481"><ele>2538</ele></trkpt>
<trkpt lat="46.94647" lon="10.3148"><ele>2538</ele></trkpt>
<trkpt lat="46.94641" lon="10.31473"><ele>2538</ele></trkpt>
<trkpt lat="46.94636" lon="10.3147"><ele>2540</ele></trkpt>
<trkpt lat="46.94631" lon="10.3146"><ele>2540</ele></trkpt>
<trkpt lat="46.94617" lon="10.31434"><ele>2540</ele></trkpt>
<trkpt lat="46.94611" lon="10.31426"><ele>2540</ele></trkpt>
<trkpt lat="46.94603" lon="10.31413"><ele>2544</ele></trkpt>
<trkpt lat="46.94602" lon="10.31405"><ele>2544</ele></trkpt>
<trkpt lat="46.946" lon="10.31396"><ele>2544</ele></trkpt>
<trkpt lat="46.94597" lon="10.3139"><ele>2544</ele></trkpt>
<trkpt lat="46.94582" lon="10.3138"><ele>2543</ele></trkpt>
<trkpt lat="46.94577" lon="10.31368"><ele>2543</ele></trkpt>
<trkpt lat="46.94568" lon="10.31354"><ele>2543</ele></trkpt>
<trkpt lat="46.94558" lon="10.31343"><ele>2543</ele></trkpt>
<trkpt lat="46.94546" lon="10.31333"><ele>2538</ele></trkpt>
<trkpt lat="46.94537" lon="10.3133"><ele>2538</ele></trkpt>
<trkpt lat="46.94531" lon="10.31321"><ele>2538</ele></trkpt>
<trkpt lat="46.94526" lon="10.3132"><ele>2538</ele></trkpt>
<trkpt lat="46.94522" lon="10.31315"><ele>2542</ele></trkpt>
<trkpt lat="46.94517" lon="10.3131"><ele>2542</ele></trkpt>
<trkpt lat="46.94516" lon="10.3131"><ele>2542</ele></trkpt>
<trkpt lat="46.94514" lon="10.31307"><ele>2542</ele></trkpt>
<trkpt lat="46.94514" lon="10.31307"><ele>2542</ele></trkpt>
<trkpt lat="46.94514" lon="10.31307"><ele>2542</ele></trkpt>
<trkpt lat="46.94511" lon="10.31307"><ele>2540</ele></trkpt>
<trkpt lat="46.9451" lon="10.31307"><ele>2540</ele></trkpt>
<trkpt lat="46.94507" lon="10.31307"><ele>2540</ele></trkpt>
<trkpt lat="46.94506" lon="10.31312"><ele>2540</ele></trkpt>
<trkpt lat="46.945" lon="10.31315"><ele>2540</ele></trkpt>
<trkpt lat="46.94496" lon="10.31317"><ele>2540</ele></trkpt>
<trkpt lat="46.94491" lon="10.31323"><ele>2540</ele></trkpt>
<trkpt lat="46.94485" lon="10.31324"><ele>2540</ele></trkpt>
<trkpt lat="46.94482" lon="10.31328"><ele>2540</ele></trkpt>
<trkpt lat="46.94474" lon="10.31333"><ele>2540</ele></trkpt>
<trkpt lat="46.94468" lon="10.31331"><ele>2540</ele></trkpt>
<trkpt lat="46.94464" lon="10.31335"><ele>2540</ele></trkpt>
<trkpt lat="46.94459" lon="10.31335"><ele>2531</ele></trkpt>
<trkpt lat="46.94453" lon="10.31334"><ele>2531</ele></trkpt>
<trkpt lat="46.94439" lon="10.3132"><ele>2531</ele></trkpt>
<trkpt lat="46.94431" lon="10.31298"><ele>2531</ele></trkpt>
<trkpt lat="46.94429" lon="10.31289"><ele>2533</ele></trkpt>
<trkpt lat="46.94427" lon="10.31286"><ele>2533</ele></trkpt>
<trkpt lat="46.94426" lon="10.31286"><ele>2533</ele></trkpt>
<trkpt lat="46.94424" lon="10.31286"><ele>2533</ele></trkpt>
<trkpt lat="46.94423" lon="10.31288"><ele>2533</ele></trkpt>
<trkpt lat="46.94423" lon="10.31288"><ele>2533</ele></trkpt>
<trkpt lat="46.94423" lon="10.31288"><ele>2533</ele></trkpt>
<trkpt lat="46.94423" lon="10.31288"><ele>2533</ele></trkpt>
<trkpt lat="46.94423" lon="10.31288"><ele>2533</ele></trkpt>
<trkpt lat="46.94423" lon="10.31288"><ele>2533</ele></trkpt>
<trkpt lat="46.94423" lon="10.31288"><ele>2533</ele></trkpt>
<trkpt lat="46.94423" lon="10.31288"><ele>2533</ele></trkpt>
<trkpt lat="46.94423" lon="10.31288"><ele>2533</ele></trkpt>
<trkpt lat="46.94423" lon="10.31288"><ele>2533</ele></trkpt>
<trkpt lat="46.94423" lon="10.31288"><ele>2533</ele></trkpt>
<trkpt lat="46.94423" lon="10.31288"><ele>2533</ele></trkpt>
<trkpt lat="46.94423" lon="10.31288"><ele>2533</ele></trkpt>
<trkpt lat="46.94423" lon="10.31288"><ele>2533</ele></trkpt>
<trkpt lat="46.94415" lon="10.31289"><ele>2533</ele></trkpt>
<trkpt lat="46.94408" lon="10.31284"><ele>2533</ele></trkpt>
<trkpt lat="46.94401" lon="10.31274"><ele>2529</ele></trkpt>
<trkpt lat="46.94398" lon="10.3127"><ele>2529</ele></trkpt>
<trkpt lat="46.94396" lon="10.31272"><ele>2529</ele></trkpt>
<trkpt lat="46.94394" lon="10.31272"><ele>2529</ele></trkpt>
<trkpt lat="46.94389" lon="10.31284"><ele>2526</ele></trkpt>
<trkpt lat="46.94384" lon="10.31291"><ele>2526</ele></trkpt>
<trkpt lat="46.94379" lon="10.31293"><ele>2526</ele></trkpt>
<trkpt lat="46.9437" lon="10.31293"><ele>2526</ele></trkpt>
<trkpt lat="46.94356" lon="10.31287"><ele>2522</ele></trkpt>
<trkpt lat="46.94348" lon="10.31278"><ele>2522</ele></trkpt>
<trkpt lat="46.94337" lon="10.31272"><ele>2522</ele></trkpt>
<trkpt lat="46.94312" lon="10.31265"><ele>2522</ele></trkpt>
<trkpt lat="46.94261" lon="10.31255"><ele>2507</ele></trkpt>
<trkpt lat="46.94238" lon="10.3125"><ele>2507</ele></trkpt>
<trkpt lat="46.94187" lon="10.31249"><ele>2507</ele></trkpt>
<trkpt lat="46.94181" lon="10.31249"><ele>2507</ele></trkpt>
<trkpt lat="46.94174" lon="10.31253"><ele>2498</ele></trkpt>
<trkpt lat="46.94169" lon="10.31254"><ele>2498</ele></trkpt>
<trkpt lat="46.94151" lon="10.31259"><ele>2498</ele></trkpt>
<trkpt lat="46.94138" lon="10.31267"><ele>2498</ele></trkpt>
<trkpt lat="46.94129" lon="10.31267"><ele>2496</ele></trkpt>
<trkpt lat="46.94122" lon="10.31265"><ele>2496</ele></trkpt>
<trkpt lat="46.94117" lon="10.31267"><ele>2496</ele></trkpt>
<trkpt lat="46.94115" lon="10.3127"><ele>2496</ele></trkpt>
<trkpt lat="46.94112" lon="10.31279"><ele>2490</ele></trkpt>
<trkpt lat="46.94109" lon="10.31284"><ele>2490</ele></trkpt>
<trkpt lat="46.94096" lon="10.31284"><ele>2490</ele></trkpt>
<trkpt lat="46.94079" lon="10.31279"><ele>2490</ele></trkpt>
<trkpt lat="46.94074" lon="10.31276"><ele>2489</ele></trkpt>
<trkpt lat="46.94063" lon="10.31273"><ele>2489</ele></trkpt>
<trkpt lat="46.94042" lon="10.3127"><ele>2489</ele></trkpt>
<trkpt lat="46.94037" lon="10.31268"><ele>2489</ele></trkpt>
<trkpt lat="46.94032" lon="10.3127"><ele>2487</ele></trkpt>
<trkpt lat="46.94023" lon="10.3127"><ele>2487</ele></trkpt>
<trkpt lat="46.9401" lon="10.31269"><ele>2487</ele></trkpt>
<trkpt lat="46.9401" lon="10.31269"><ele>2487</ele></trkpt>
<trkpt lat="46.9401" lon="10.31269"><ele>2487</ele></trkpt>
<trkpt lat="46.94001" lon="10.31242"><ele>2487</ele></trkpt>
<trkpt lat="46.9399" lon="10.31217"><ele>2493</ele></trkpt>
<trkpt lat="46.93979" lon="10.31195"><ele>2493</ele></trkpt>
<trkpt lat="46.93957" lon="10.31171"><ele>2493</ele></trkpt>
<trkpt lat="46.93946" lon="10.31159"><ele>2493</ele></trkpt>
<trkpt lat="46.93942" lon="10.31151"><ele>2499</ele></trkpt>
<trkpt lat="46.9394" lon="10.31142"><ele>2499</ele></trkpt>
<trkpt lat="46.93939" lon="10.31129"><ele>2499</ele></trkpt>
<trkpt lat="46.93938" lon="10.31123"><ele>2499</ele></trkpt>
<trkpt lat="46.93933" lon="10.31112"><ele>2506</ele></trkpt>
<trkpt lat="46.93921" lon="10.31091"><ele>2506</ele></trkpt>
<trkpt lat="46.9389" lon="10.31054"><ele>2506</ele></trkpt>
<trkpt lat="46.93884" lon="10.31049"><ele>2506</ele></trkpt>
<trkpt lat="46.93865" lon="10.31037"><ele>2516</ele></trkpt>
<trkpt lat="46.93859" lon="10.31026"><ele>2516</ele></trkpt>
<trkpt lat="46.93859" lon="10.31026"><ele>2516</ele></trkpt>
<trkpt lat="46.93859" lon="10.31026"><ele>2516</ele></trkpt>
<trkpt lat="46.93859" lon="10.31026"><ele>2520</ele></trkpt>
<trkpt lat="46.93859" lon="10.31026"><ele>2520</ele></trkpt>
<trkpt lat="46.93859" lon="10.31026"><ele>2520</ele></trkpt>
<trkpt lat="46.93859" lon="10.31026"><ele>2520</ele></trkpt>
<trkpt lat="46.93859" lon="10.31026"><ele>2520</ele></trkpt>
<trkpt lat="46.93859" lon="10.31026"><ele>2520</ele></trkpt>
<trkpt lat="46.93854" lon="10.31012"><ele>2520</ele></trkpt>
<trkpt lat="46.93848" lon="10.31001"><ele>2520</ele></trkpt>
<trkpt lat="46.9384" lon="10.3099"><ele>2525</ele></trkpt>
<trkpt lat="46.93825" lon="10.30973"><ele>2525</ele></trkpt>
<trkpt lat="46.93818" lon="10.30955"><ele>2525</ele></trkpt>
<trkpt lat="46.93811" lon="10.30941"><ele>2525</ele></trkpt>
<trkpt lat="46.93808" lon="10.30932"><ele>2532</ele></trkpt>
<trkpt lat="46.93807" lon="10.3092"><ele>2532</ele></trkpt>
<trkpt lat="46.93791" lon="10.3091"><ele>2532</ele></trkpt>
<trkpt lat="46.93765" lon="10.30904"><ele>2532</ele></trkpt>
<trkpt lat="46.93763" lon="10.30903"><ele>2537</ele></trkpt>
<trkpt lat="46.93759" lon="10.30898"><ele>2537</ele></trkpt>
<trkpt lat="46.9375" lon="10.30883"><ele>2537</ele></trkpt>
<trkpt lat="46.93749" lon="10.3088"><ele>2537</ele></trkpt>
<trkpt lat="46.93741" lon="10.3086"><ele>2538</ele></trkpt>
<trkpt lat="46.93731" lon="10.30848"><ele>2538</ele></trkpt>
<trkpt lat="46.93725" lon="10.30829"><ele>2538</ele></trkpt>
<trkpt lat="46.93724" lon="10.30822"><ele>2538</ele></trkpt>
<trkpt lat="46.93721" lon="10.30818"><ele>2530</ele></trkpt>
<trkpt lat="46.93721" lon="10.30818"><ele>2530</ele></trkpt>
<trkpt lat="46.93721" lon="10.30818"><ele>2530</ele></trkpt>
<trkpt lat="46.93713" lon="10.30816"><ele>2530</ele></trkpt>
<trkpt lat="46.93706" lon="10.30814"><ele>2530</ele></trkpt>
<trkpt lat="46.93705" lon="10.3081"><ele>2530</ele></trkpt>
<trkpt lat="46.93698" lon="10.30804"><ele>2518</ele></trkpt>
<trkpt lat="46.93698" lon="10.30804"><ele>2518</ele></trkpt>
<trkpt lat="46.93693" lon="10.30805"><ele>2518</ele></trkpt>
<trkpt lat="46.93687" lon="10.30802"><ele>2518</ele></trkpt>
<trkpt lat="46.93684" lon="10.30799"><ele>2514</ele></trkpt>
<trkpt lat="46.93679" lon="10.30801"><ele>2514</ele></trkpt>
<trkpt lat="46.93673" lon="10.30801"><ele>2514</ele></trkpt>
<trkpt lat="46.9367" lon="10.30796"><ele>2514</ele></trkpt>
<trkpt lat="46.93658" lon="10.3079"><ele>2509</ele></trkpt>
<trkpt lat="46.93645" lon="10.30785"><ele>2509</ele></trkpt>
<trkpt lat="46.93631" lon="10.30781"><ele>2509</ele></trkpt>
<trkpt lat="46.93624" lon="10.30775"><ele>2509</ele></trkpt>
<trkpt lat="46.9362" lon="10.30774"><ele>2493</ele></trkpt>
<trkpt lat="46.93611" lon="10.30763"><ele>2493</ele></trkpt>
<trkpt lat="46.93608" lon="10.3076"><ele>2493</ele></trkpt>
<trkpt lat="46.936" lon="10.30758"><ele>2493</ele></trkpt>
<trkpt lat="46.93583" lon="10.30768"><ele>2496</ele></trkpt>
<trkpt lat="46.93574" lon="10.30767"><ele>2496</ele></trkpt>
<trkpt lat="46.93557" lon="10.3076"><ele>2496</ele></trkpt>
<trkpt lat="46.93543" lon="10.30747"><ele>2496</ele></trkpt>
<trkpt lat="46.93532" lon="10.30743"><ele>2490</ele></trkpt>
<trkpt lat="46.9351" lon="10.30715"><ele>2490</ele></trkpt>
<trkpt lat="46.93479" lon="10.30693"><ele>2490</ele></trkpt>
<trkpt lat="46.93471" lon="10.30685"><ele>2490</ele></trkpt>
<trkpt lat="46.93465" lon="10.30688"><ele>2480</ele></trkpt>
<trkpt lat="46.9346" lon="10.30687"><ele>2480</ele></trkpt>
<trkpt lat="46.93443" lon="10.30666"><ele>2480</ele></trkpt>
<trkpt lat="46.93436" lon="10.30662"><ele>2480</ele></trkpt>
<trkpt lat="46.93431" lon="10.3066"><ele>2473</ele></trkpt>
<trkpt lat="46.93424" lon="10.30655"><ele>2473</ele></trkpt>
<trkpt lat="46.93419" lon="10.30652"><ele>2473</ele></trkpt>
<trkpt lat="46.93413" lon="10.30652"><ele>2473</ele></trkpt>
<trkpt lat="46.93401" lon="10.30646"><ele>2474</ele></trkpt>
<trkpt lat="46.93371" lon="10.30652"><ele>2474</ele></trkpt>
<trkpt lat="46.93346" lon="10.3066"><ele>2474</ele></trkpt>
<trkpt lat="46.93342" lon="10.30659"><ele>2474</ele></trkpt>
<trkpt lat="46.9333" lon="10.30649"><ele>2473</ele></trkpt>
<trkpt lat="46.93311" lon="10.30636"><ele>2473</ele></trkpt>
<trkpt lat="46.93298" lon="10.30627"><ele>2473</ele></trkpt>
<trkpt lat="46.93284" lon="10.3062"><ele>2473</ele></trkpt>
<trkpt lat="46.9327" lon="10.30602"><ele>2464</ele></trkpt>
<trkpt lat="46.9326" lon="10.30593"><ele>2464</ele></trkpt>
<trkpt lat="46.93256" lon="10.30585"><ele>2464</ele></trkpt>
<trkpt lat="46.93242" lon="10.30578"><ele>2464</ele></trkpt>
<trkpt lat="46.93228" lon="10.30565"><ele>2465</ele></trkpt>
<trkpt lat="46.93213" lon="10.30547"><ele>2465</ele></trkpt>
<trkpt lat="46.93202" lon="10.30538"><ele>2465</ele></trkpt>
<trkpt lat="46.93191" lon="10.30527"><ele>2465</ele></trkpt>
<trkpt lat="46.93191" lon="10.30527"><ele>2465</ele></trkpt>
<trkpt lat="46.93191" lon="10.30527"><ele>2465</ele></trkpt>
<trkpt lat="46.93188" lon="10.30504"><ele>2473</ele></trkpt>
<trkpt lat="46.93188" lon="10.30497"><ele>2473</ele></trkpt>
<trkpt lat="46.93185" lon="10.30491"><ele>2473</ele></trkpt>
<trkpt lat="46.93159" lon="10.30439"><ele>2473</ele></trkpt>
<trkpt lat="46.93144" lon="10.30416"><ele>2480</ele></trkpt>
<trkpt lat="46.93136" lon="10.30397"><ele>2480</ele></trkpt>
<trkpt lat="46.93121" lon="10.3038"><ele>2480</ele></trkpt>
<trkpt lat="46.93094" lon="10.3035"><ele>2480</ele></trkpt>
<trkpt lat="46.93088" lon="10.30333"><ele>2494</ele></trkpt>
<trkpt lat="46.93078" lon="10.30312"><ele>2494</ele></trkpt>
<trkpt lat="46.93077" lon="10.303"><ele>2494</ele></trkpt>
<trkpt lat="46.93073" lon="10.30294"><ele>2494</ele></trkpt>
<trkpt lat="46.93073" lon="10.30286"><ele>2500</ele></trkpt>
<trkpt lat="46.93067" lon="10.3027"><ele>2500</ele></trkpt>
<trkpt lat="46.93064" lon="10.30253"><ele>2500</ele></trkpt>
<trkpt lat="46.9306" lon="10.30247"><ele>2500</ele></trkpt>
<trkpt lat="46.93037" lon="10.3016"><ele>2497</ele></trkpt>
<trkpt lat="46.93011" lon="10.30118"><ele>2497</ele></trkpt>
<trkpt lat="46.93005" lon="10.3011"><ele>2497</ele></trkpt>
<trkpt lat="46.92979" lon="10.30043"><ele>2497</ele></trkpt>
<trkpt lat="46.92961" lon="10.29993"><ele>2519</ele></trkpt>
<trkpt lat="46.92964" lon="10.2996"><ele>2519</ele></trkpt>
<trkpt lat="46.92967" lon="10.29946"><ele>2519</ele></trkpt>
<trkpt lat="46.92966" lon="10.2994"><ele>2519</ele></trkpt>
<trkpt lat="46.92964" lon="10.29937"><ele>2527</ele></trkpt>
<trkpt lat="46.92964" lon="10.29934"><ele>2527</ele></trkpt>
<trkpt lat="46.92964" lon="10.29926"><ele>2527</ele></trkpt>
<trkpt lat="46.92962" lon="10.29916"><ele>2527</ele></trkpt>
<trkpt lat="46.92957" lon="10.29911"><ele>2533</ele></trkpt>
<trkpt lat="46.92955" lon="10.29901"><ele>2533</ele></trkpt>
<trkpt lat="46.92948" lon="10.2989"><ele>2533</ele></trkpt>
<trkpt lat="46.92933" lon="10.29876"><ele>2533</ele></trkpt>
<trkpt lat="46.92923" lon="10.29865"><ele>2540</ele></trkpt>
<trkpt lat="46.9292" lon="10.29859"><ele>2540</ele></trkpt>
<trkpt lat="46.92904" lon="10.2984"><ele>2540</ele></trkpt>
<trkpt lat="46.92895" lon="10.2982"><ele>2540</ele></trkpt>
<trkpt lat="46.92884" lon="10.29805"><ele>2545</ele></trkpt>
<trkpt lat="46.92879" lon="10.29796"><ele>2545</ele></trkpt>
<trkpt lat="46.92875" lon="10.29784"><ele>2545</ele></trkpt>
<trkpt lat="46.92877" lon="10.29778"><ele>2545</ele></trkpt>
<trkpt lat="46.92877" lon="10.29771"><ele>2546</ele></trkpt>
<trkpt lat="46.92876" lon="10.29764"><ele>2546</ele></trkpt>
<trkpt lat="46.92872" lon="10.29759"><ele>2546</ele></trkpt>
<trkpt lat="46.92868" lon="10.29754"><ele>2546</ele></trkpt>
<trkpt lat="46.92861" lon="10.29744"><ele>2552</ele></trkpt>
<trkpt lat="46.92856" lon="10.29731"><ele>2552</ele></trkpt>
<trkpt lat="46.92855" lon="10.29721"><ele>2552</ele></trkpt>
<trkpt lat="46.92852" lon="10.29717"><ele>2552</ele></trkpt>
<trkpt lat="46.92852" lon="10.29717"><ele>2552</ele></trkpt>
<trkpt lat="46.92852" lon="10.29717"><ele>2552</ele></trkpt>
<trkpt lat="46.92838" lon="10.29709"><ele>2556</ele></trkpt>
<trkpt lat="46.92828" lon="10.29707"><ele>2556</ele></trkpt>
<trkpt lat="46.9282" lon="10.29701"><ele>2556</ele></trkpt>
<trkpt lat="46.92806" lon="10.29697"><ele>2556</ele></trkpt>
<trkpt lat="46.92801" lon="10.29691"><ele>2567</ele></trkpt>
<trkpt lat="46.9279" lon="10.29679"><ele>2567</ele></trkpt>
<trkpt lat="46.92779" lon="10.29667"><ele>2567</ele></trkpt>
<trkpt lat="46.92772" lon="10.29662"><ele>2567</ele></trkpt>
<trkpt lat="46.9277" lon="10.29658"><ele>2575</ele></trkpt>
<trkpt lat="46.92757" lon="10.2964"><ele>2575</ele></trkpt>
<trkpt lat="46.92751" lon="10.29637"><ele>2575</ele></trkpt>
<trkpt lat="46.92738" lon="10.29628"><ele>2575</ele></trkpt>
<trkpt lat="46.92727" lon="10.29615"><ele>2591</ele></trkpt>
<trkpt lat="46.92723" lon="10.29617"><ele>2591</ele></trkpt>
<trkpt lat="46.9272" lon="10.29618"><ele>2591</ele></trkpt>
<trkpt lat="46.92715" lon="10.29613"><ele>2591</ele></trkpt>
<trkpt lat="46.92715" lon="10.29613"><ele>2591</ele></trkpt>
<trkpt lat="46.92715" lon="10.29613"><ele>2591</ele></trkpt>
<trkpt lat="46.92713" lon="10.29615"><ele>2597</ele></trkpt>
<trkpt lat="46.9271" lon="10.29623"><ele>2597</ele></trkpt>
<trkpt lat="46.92707" lon="10.29628"><ele>2597</ele></trkpt>
<trkpt lat="46.92703" lon="10.29623"><ele>2597</ele></trkpt>
<trkpt lat="46.92698" lon="10.29623"><ele>2603</ele></trkpt>
<trkpt lat="46.92696" lon="10.2963"><ele>2603</ele></trkpt>
<trkpt lat="46.92692" lon="10.29628"><ele>2603</ele></trkpt>
<trkpt lat="46.92689" lon="10.29639"><ele>2603</ele></trkpt>
<trkpt lat="46.92685" lon="10.29639"><ele>2612</ele></trkpt>
<trkpt lat="46.92667" lon="10.2965"><ele>2612</ele></trkpt>
<trkpt lat="46.92649" lon="10.2967"><ele>2612</ele></trkpt>
<trkpt lat="46.92642" lon="10.29684"><ele>2612</ele></trkpt>
<trkpt lat="46.92637" lon="10.29688"><ele>2630</ele></trkpt>
<trkpt lat="46.92632" lon="10.29698"><ele>2630</ele></trkpt>
<trkpt lat="46.92627" lon="10.29703"><ele>2630</ele></trkpt>
<trkpt lat="46.92622" lon="10.29704"><ele>2630</ele></trkpt>
<trkpt lat="46.92607" lon="10.29698"><ele>2636</ele></trkpt>
<trkpt lat="46.926" lon="10.29698"><ele>2636</ele></trkpt>
<trkpt lat="46.92578" lon="10.29696"><ele>2636</ele></trkpt>
<trkpt lat="46.92573" lon="10.29692"><ele>2636</ele></trkpt>
<trkpt lat="46.92567" lon="10.29691"><ele>2649</ele></trkpt>
<trkpt lat="46.92567" lon="10.29691"><ele>2649</ele></trkpt>
<trkpt lat="46.92567" lon="10.29691"><ele>2649</ele></trkpt>
<trkpt lat="46.92564" lon="10.29682"><ele>2649</ele></trkpt>
<trkpt lat="46.9255" lon="10.29667"><ele>2649</ele></trkpt>
<trkpt lat="46.92531" lon="10.29642"><ele>2649</ele></trkpt>
<trkpt lat="46.92522" lon="10.29636"><ele>2658</ele></trkpt>
<trkpt lat="46.9249" lon="10.29598"><ele>2658</ele></trkpt>
<trkpt lat="46.92448" lon="10.29556"><ele>2658</ele></trkpt>
<trkpt lat="46.9241" lon="10.29521"><ele>2658</ele></trkpt>
<trkpt lat="46.92377" lon="10.29487"><ele>2705</ele></trkpt>
<trkpt lat="46.92326" lon="10.29448"><ele>2705</ele></trkpt>
<trkpt lat="46.92309" lon="10.29432"><ele>2705</ele></trkpt>
<trkpt lat="46.92291" lon="10.2943"><ele>2705</ele></trkpt>
<trkpt lat="46.92268" lon="10.29412"><ele>2739</ele></trkpt>
<trkpt lat="46.92249" lon="10.29399"><ele>2739</ele></trkpt>
<trkpt lat="46.92188" lon="10.29351"><ele>2739</ele></trkpt>
<trkpt lat="46.92188" lon="10.29351"><ele>2739</ele></trkpt>
<trkpt lat="46.92188" lon="10.29351"><ele>2756</ele></trkpt>
<trkpt lat="46.92188" lon="10.29351"><ele>2756</ele></trkpt>
<trkpt lat="46.92174" lon="10.29341"><ele>2756</ele></trkpt>
<trkpt lat="46.92159" lon="10.29321"><ele>2756</ele></trkpt>
<trkpt lat="46.92132" lon="10.29277"><ele>2747</ele></trkpt>
<trkpt lat="46.92132" lon="10.29277"><ele>2747</ele></trkpt>
<trkpt lat="46.92132" lon="10.29277"><ele>2747</ele></trkpt>
<trkpt lat="46.92125" lon="10.29263"><ele>2747</ele></trkpt>
<trkpt lat="46.92118" lon="10.29241"><ele>2747</ele></trkpt>
<trkpt lat="46.92102" lon="10.29207"><ele>2747</ele></trkpt>
<trkpt lat="46.9209" lon="10.29186"><ele>2741</ele></trkpt>
<trkpt lat="46.92079" lon="10.29158"><ele>2741</ele></trkpt>
<trkpt lat="46.9207" lon="10.2913"><ele>2741</ele></trkpt>
<trkpt lat="46.92063" lon="10.29099"><ele>2741</ele></trkpt>
<trkpt lat="46.92062" lon="10.2908"><ele>2732</ele></trkpt>
<trkpt lat="46.92058" lon="10.29055"><ele>2732</ele></trkpt>
<trkpt lat="46.92057" lon="10.29033"><ele>2732</ele></trkpt>
<trkpt lat="46.92055" lon="10.29019"><ele>2732</ele></trkpt>
<trkpt lat="46.92049" lon="10.28994"><ele>2732</ele></trkpt>
<trkpt lat="46.92048" lon="10.28982"><ele>2732</ele></trkpt>
<trkpt lat="46.92045" lon="10.28975"><ele>2732</ele></trkpt>
<trkpt lat="46.92043" lon="10.28961"><ele>2732</ele></trkpt>
<trkpt lat="46.92042" lon="10.28946"><ele>2721</ele></trkpt>
<trkpt lat="46.92037" lon="10.28924"><ele>2721</ele></trkpt>
<trkpt lat="46.92037" lon="10.28916"><ele>2721</ele></trkpt>
<trkpt lat="46.92032" lon="10.28902"><ele>2721</ele></trkpt>
<trkpt lat="46.92024" lon="10.28875"><ele>2711</ele></trkpt>
<trkpt lat="46.92006" lon="10.28795"><ele>2711</ele></trkpt>
<trkpt lat="46.92004" lon="10.28778"><ele>2711</ele></trkpt>
<trkpt lat="46.92001" lon="10.28764"><ele>2711</ele></trkpt>
<trkpt lat="46.91997" lon="10.2874"><ele>2699</ele></trkpt>
<trkpt lat="46.91997" lon="10.28734"><ele>2699</ele></trkpt>
<trkpt lat="46.91995" lon="10.28728"><ele>2699</ele></trkpt>
<trkpt lat="46.91995" lon="10.28728"><ele>2699</ele></trkpt>
<trkpt lat="46.91995" lon="10.28728"><ele>2699</ele></trkpt>
<trkpt lat="46.91988" lon="10.28714"><ele>2699</ele></trkpt>
<trkpt lat="46.91982" lon="10.287"><ele>2692</ele></trkpt>
<trkpt lat="46.91972" lon="10.2868"><ele>2692</ele></trkpt>
<trkpt lat="46.91967" lon="10.28673"><ele>2692</ele></trkpt>
<trkpt lat="46.91963" lon="10.28661"><ele>2692</ele></trkpt>
<trkpt lat="46.91959" lon="10.28658"><ele>2685</ele></trkpt>
<trkpt lat="46.9195" lon="10.28655"><ele>2685</ele></trkpt>
<trkpt lat="46.91948" lon="10.28651"><ele>2685</ele></trkpt>
<trkpt lat="46.91946" lon="10.28647"><ele>2685</ele></trkpt>
<trkpt lat="46.91944" lon="10.28642"><ele>2683</ele></trkpt>
<trkpt lat="46.91938" lon="10.28635"><ele>2683</ele></trkpt>
<trkpt lat="46.91931" lon="10.28621"><ele>2683</ele></trkpt>
<trkpt lat="46.9192" lon="10.28609"><ele>2683</ele></trkpt>
<trkpt lat="46.91907" lon="10.28595"><ele>2679</ele></trkpt>
<trkpt lat="46.91899" lon="10.28584"><ele>2679</ele></trkpt>
<trkpt lat="46.91893" lon="10.28576"><ele>2679</ele></trkpt>
<trkpt lat="46.91881" lon="10.28562"><ele>2679</ele></trkpt>
<trkpt lat="46.91876" lon="10.28553"><ele>2677</ele></trkpt>
<trkpt lat="46.91874" lon="10.28542"><ele>2677</ele></trkpt>
<trkpt lat="46.91875" lon="10.28527"><ele>2677</ele></trkpt>
<trkpt lat="46.91877" lon="10.28514"><ele>2677</ele></trkpt>
<trkpt lat="46.91877" lon="10.28506"><ele>2679</ele></trkpt>
<trkpt lat="46.91876" lon="10.28492"><ele>2679</ele></trkpt>
<trkpt lat="46.91871" lon="10.28477"><ele>2679</ele></trkpt>
<trkpt lat="46.91866" lon="10.28473"><ele>2679</ele></trkpt>
<trkpt lat="46.91862" lon="10.28459"><ele>2682</ele></trkpt>
<trkpt lat="46.9186" lon="10.28452"><ele>2682</ele></trkpt>
<trkpt lat="46.91852" lon="10.2844"><ele>2682</ele></trkpt>
<trkpt lat="46.91826" lon="10.2841"><ele>2682</ele></trkpt>
<trkpt lat="46.91789" lon="10.28402"><ele>2687</ele></trkpt>
<trkpt lat="46.9178" lon="10.28396"><ele>2687</ele></trkpt>
<trkpt lat="46.9176" lon="10.28389"><ele>2687</ele></trkpt>
<trkpt lat="46.91756" lon="10.28384"><ele>2687</ele></trkpt>
<trkpt lat="46.91751" lon="10.28383"><ele>2679</ele></trkpt>
<trkpt lat="46.91749" lon="10.28379"><ele>2679</ele></trkpt>
<trkpt lat="46.9174" lon="10.28375"><ele>2679</ele></trkpt>
<trkpt lat="46.91738" lon="10.2837"><ele>2679</ele></trkpt>
<trkpt lat="46.91733" lon="10.2837"><ele>2681</ele></trkpt>
<trkpt lat="46.91729" lon="10.28367"><ele>2681</ele></trkpt>
<trkpt lat="46.9172" lon="10.28364"><ele>2681</ele></trkpt>
<trkpt lat="46.91714" lon="10.28359"><ele>2681</ele></trkpt>
<trkpt lat="46.91707" lon="10.28356"><ele>2676</ele></trkpt>
<trkpt lat="46.91704" lon="10.28353"><ele>2676</ele></trkpt>
<trkpt lat="46.91701" lon="10.28345"><ele>2676</ele></trkpt>
<trkpt lat="46.91687" lon="10.28314"><ele>2676</ele></trkpt>
<trkpt lat="46.91687" lon="10.28314"><ele>2676</ele></trkpt>
<trkpt lat="46.91687" lon="10.28314"><ele>2676</ele></trkpt>
<trkpt lat="46.91684" lon="10.283"><ele>2672</ele></trkpt>
<trkpt lat="46.91685" lon="10.2829"><ele>2672</ele></trkpt>
<trkpt lat="46.91683" lon="10.2828"><ele>2672</ele></trkpt>
<trkpt lat="46.91681" lon="10.28275"><ele>2672</ele></trkpt>
<trkpt lat="46.91678" lon="10.28266"><ele>2670</ele></trkpt>
<trkpt lat="46.91677" lon="10.28259"><ele>2670</ele></trkpt>
<trkpt lat="46.91673" lon="10.28255"><ele>2670</ele></trkpt>
<trkpt lat="46.91673" lon="10.28251"><ele>2670</ele></trkpt>
<trkpt lat="46.91673" lon="10.28245"><ele>2659</ele></trkpt>
<trkpt lat="46.91671" lon="10.28241"><ele>2659</ele></trkpt>
<trkpt lat="46.91671" lon="10.28228"><ele>2659</ele></trkpt>
<trkpt lat="46.91668" lon="10.28213"><ele>2659</ele></trkpt>
<trkpt lat="46.91664" lon="10.28206"><ele>2656</ele></trkpt>
<trkpt lat="46.91662" lon="10.28201"><ele>2656</ele></trkpt>
<trkpt lat="46.91661" lon="10.28196"><ele>2656</ele></trkpt>
<trkpt lat="46.91652" lon="10.28172"><ele>2656</ele></trkpt>
<trkpt lat="46.91644" lon="10.28143"><ele>2650</ele></trkpt>
<trkpt lat="46.91636" lon="10.2813"><ele>2650</ele></trkpt>
<trkpt lat="46.91634" lon="10.28118"><ele>2650</ele></trkpt>
<trkpt lat="46.91629" lon="10.28103"><ele>2650</ele></trkpt>
<trkpt lat="46.91625" lon="10.28093"><ele>2651</ele></trkpt>
<trkpt lat="46.91623" lon="10.28074"><ele>2651</ele></trkpt>
<trkpt lat="46.9162" lon="10.28059"><ele>2651</ele></trkpt>
<trkpt lat="46.91617" lon="10.28034"><ele>2651</ele></trkpt>
<trkpt lat="46.91614" lon="10.28017"><ele>2655</ele></trkpt>
<trkpt lat="46.91612" lon="10.28007"><ele>2655</ele></trkpt>
<trkpt lat="46.91611" lon="10.27996"><ele>2655</ele></trkpt>
<trkpt lat="46.91609" lon="10.27976"><ele>2655</ele></trkpt>
<trkpt lat="46.91611" lon="10.2797"><ele>2650</ele></trkpt>
<trkpt lat="46.91613" lon="10.27957"><ele>2650</ele></trkpt>
<trkpt lat="46.9161" lon="10.27952"><ele>2650</ele></trkpt>
<trkpt lat="46.91605" lon="10.27933"><ele>2650</ele></trkpt>
<trkpt lat="46.91605" lon="10.27927"><ele>2648</ele></trkpt>
<trkpt lat="46.91605" lon="10.27922"><ele>2648</ele></trkpt>
<trkpt lat="46.91602" lon="10.27915"><ele>2648</ele></trkpt>
<trkpt lat="46.91601" lon="10.27909"><ele>2648</ele></trkpt>
<trkpt lat="46.91601" lon="10.27904"><ele>2645</ele></trkpt>
<trkpt lat="46.916" lon="10.27894"><ele>2645</ele></trkpt>
<trkpt lat="46.91596" lon="10.27885"><ele>2645</ele></trkpt>
<trkpt lat="46.91592" lon="10.2787"><ele>2645</ele></trkpt>
<trkpt lat="46.91593" lon="10.27866"><ele>2650</ele></trkpt>
<trkpt lat="46.91594" lon="10.27857"><ele>2650</ele></trkpt>
<trkpt lat="46.91591" lon="10.27847"><ele>2650</ele></trkpt>
<trkpt lat="46.91588" lon="10.27835"><ele>2650</ele></trkpt>
<trkpt lat="46.91588" lon="10.27829"><ele>2644</ele></trkpt>
<trkpt lat="46.91588" lon="10.27821"><ele>2644</ele></trkpt>
<trkpt lat="46.91584" lon="10.27802"><ele>2644</ele></trkpt>
<trkpt lat="46.91579" lon="10.27776"><ele>2644</ele></trkpt>
<trkpt lat="46.91574" lon="10.27764"><ele>2637</ele></trkpt>
<trkpt lat="46.91559" lon="10.27731"><ele>2637</ele></trkpt>
<trkpt lat="46.91554" lon="10.27723"><ele>2637</ele></trkpt>
<trkpt lat="46.91554" lon="10.27723"><ele>2637</ele></trkpt>
<trkpt lat="46.91554" lon="10.27723"><ele>2637</ele></trkpt>
<trkpt lat="46.91552" lon="10.27723"><ele>2637</ele></trkpt>
<trkpt lat="46.91548" lon="10.27723"><ele>2634</ele></trkpt>
<trkpt lat="46.91538" lon="10.27713"><ele>2634</ele></trkpt>
<trkpt lat="46.91529" lon="10.27703"><ele>2634</ele></trkpt>
<trkpt lat="46.91515" lon="10.2769"><ele>2634</ele></trkpt>
<trkpt lat="46.91507" lon="10.2768"><ele>2610</ele></trkpt>
<trkpt lat="46.91503" lon="10.2768"><ele>2610</ele></trkpt>
<trkpt lat="46.91502" lon="10.27676"><ele>2610</ele></trkpt>
<trkpt lat="46.91501" lon="10.27673"><ele>2610</ele></trkpt>
<trkpt lat="46.91495" lon="10.27673"><ele>2610</ele></trkpt>
<trkpt lat="46.91486" lon="10.27666"><ele>2610</ele></trkpt>
<trkpt lat="46.91481" lon="10.27666"><ele>2610</ele></trkpt>
<trkpt lat="46.91475" lon="10.27666"><ele>2610</ele></trkpt>
<trkpt lat="46.91472" lon="10.27665"><ele>2607</ele></trkpt>
<trkpt lat="46.9146" lon="10.27663"><ele>2607</ele></trkpt>
<trkpt lat="46.91458" lon="10.2766"><ele>2607</ele></trkpt>
<trkpt lat="46.91453" lon="10.27662"><ele>2607</ele></trkpt>
<trkpt lat="46.91443" lon="10.27666"><ele>2604</ele></trkpt>
<trkpt lat="46.91436" lon="10.27665"><ele>2604</ele></trkpt>
<trkpt lat="46.91426" lon="10.27654"><ele>2604</ele></trkpt>
<trkpt lat="46.91421" lon="10.2765"><ele>2604</ele></trkpt>
<trkpt lat="46.91409" lon="10.27647"><ele>2598</ele></trkpt>
<trkpt lat="46.91401" lon="10.27643"><ele>2598</ele></trkpt>
<trkpt lat="46.91383" lon="10.27633"><ele>2598</ele></trkpt>
<trkpt lat="46.91378" lon="10.27629"><ele>2598</ele></trkpt>
<trkpt lat="46.91373" lon="10.27619"><ele>2592</ele></trkpt>
<trkpt lat="46.91366" lon="10.27619"><ele>2592</ele></trkpt>
<trkpt lat="46.91364" lon="10.27618"><ele>2592</ele></trkpt>
<trkpt lat="46.9136" lon="10.27616"><ele>2592</ele></trkpt>
<trkpt lat="46.91357" lon="10.2761"><ele>2593</ele></trkpt>
<trkpt lat="46.9135" lon="10.27601"><ele>2593</ele></trkpt>
<trkpt lat="46.91346" lon="10.276"><ele>2593</ele></trkpt>
<trkpt lat="46.91341" lon="10.2759"><ele>2593</ele></trkpt>
<trkpt lat="46.91334" lon="10.27582"><ele>2589</ele></trkpt>
<trkpt lat="46.91331" lon="10.27577"><ele>2589</ele></trkpt>
<trkpt lat="46.91323" lon="10.27572"><ele>2589</ele></trkpt>
<trkpt lat="46.91321" lon="10.2757"><ele>2589</ele></trkpt>
<trkpt lat="46.91319" lon="10.27563"><ele>2591</ele></trkpt>
<trkpt lat="46.91317" lon="10.27558"><ele>2591</ele></trkpt>
<trkpt lat="46.91307" lon="10.27548"><ele>2591</ele></trkpt>
<trkpt lat="46.913" lon="10.27544"><ele>2591</ele></trkpt>
<trkpt lat="46.91296" lon="10.27544"><ele>2584</ele></trkpt>
<trkpt lat="46.91294" lon="10.27543"><ele>2584</ele></trkpt>
<trkpt lat="46.91292" lon="10.2754"><ele>2584</ele></trkpt>
<trkpt lat="46.91286" lon="10.27539"><ele>2584</ele></trkpt>
<trkpt lat="46.91283" lon="10.27534"><ele>2584</ele></trkpt>
<trkpt lat="46.91272" lon="10.27529"><ele>2584</ele></trkpt>
<trkpt lat="46.91266" lon="10.27525"><ele>2584</ele></trkpt>
<trkpt lat="46.91259" lon="10.27519"><ele>2584</ele></trkpt>
<trkpt lat="46.91254" lon="10.27518"><ele>2574</ele></trkpt>
<trkpt lat="46.91254" lon="10.27518"><ele>2574</ele></trkpt>
<trkpt lat="46.91254" lon="10.27518"><ele>2574</ele></trkpt>
<trkpt lat="46.91248" lon="10.27518"><ele>2574</ele></trkpt>
<trkpt lat="46.91244" lon="10.27521"><ele>2574</ele></trkpt>
<trkpt lat="46.91236" lon="10.27527"><ele>2574</ele></trkpt>
<trkpt lat="46.91232" lon="10.27528"><ele>2570</ele></trkpt>
<trkpt lat="46.91229" lon="10.27528"><ele>2570</ele></trkpt>
<trkpt lat="46.91226" lon="10.27533"><ele>2570</ele></trkpt>
<trkpt lat="46.91224" lon="10.27533"><ele>2570</ele></trkpt>
<trkpt lat="46.9122" lon="10.27532"><ele>2572</ele></trkpt>
<trkpt lat="46.91216" lon="10.27533"><ele>2572</ele></trkpt>
<trkpt lat="46.91213" lon="10.27533"><ele>2572</ele></trkpt>
<trkpt lat="46.91203" lon="10.27539"><ele>2572</ele></trkpt>
<trkpt lat="46.912" lon="10.27543"><ele>2565</ele></trkpt>
<trkpt lat="46.91198" lon="10.27544"><ele>2565</ele></trkpt>
<trkpt lat="46.91195" lon="10.27544"><ele>2565</ele></trkpt>
<trkpt lat="46.91189" lon="10.27549"><ele>2565</ele></trkpt>
<trkpt lat="46.91184" lon="10.27552"><ele>2565</ele></trkpt>
<trkpt lat="46.91179" lon="10.27558"><ele>2565</ele></trkpt>
<trkpt lat="46.91174" lon="10.27561"><ele>2565</ele></trkpt>
<trkpt lat="46.9117" lon="10.27565"><ele>2565</ele></trkpt>
<trkpt lat="46.91166" lon="10.27563"><ele>2567</ele></trkpt>
<trkpt lat="46.91162" lon="10.27567"><ele>2567</ele></trkpt>
<trkpt lat="46.91161" lon="10.27572"><ele>2567</ele></trkpt>
<trkpt lat="46.91158" lon="10.27575"><ele>2567</ele></trkpt>
<trkpt lat="46.91155" lon="10.27574"><ele>2562</ele></trkpt>
<trkpt lat="46.91153" lon="10.27576"><ele>2562</ele></trkpt>
<trkpt lat="46.9114" lon="10.27591"><ele>2562</ele></trkpt>
<trkpt lat="46.91132" lon="10.27603"><ele>2562</ele></trkpt>
<trkpt lat="46.91129" lon="10.27608"><ele>2563</ele></trkpt>
<trkpt lat="46.91122" lon="10.27612"><ele>2563</ele></trkpt>
<trkpt lat="46.9112" lon="10.27617"><ele>2563</ele></trkpt>
<trkpt lat="46.91113" lon="10.27623"><ele>2563</ele></trkpt>
<trkpt lat="46.9111" lon="10.27623"><ele>2563</ele></trkpt>
<trkpt lat="46.91104" lon="10.27623"><ele>2563</ele></trkpt>
<trkpt lat="46.911" lon="10.27624"><ele>2563</ele></trkpt>
<trkpt lat="46.91094" lon="10.27624"><ele>2563</ele></trkpt>
<trkpt lat="46.91087" lon="10.27623"><ele>2557</ele></trkpt>
<trkpt lat="46.9108" lon="10.27619"><ele>2557</ele></trkpt>
<trkpt lat="46.91077" lon="10.27618"><ele>2557</ele></trkpt>
<trkpt lat="46.91072" lon="10.27619"><ele>2557</ele></trkpt>
<trkpt lat="46.9107" lon="10.27621"><ele>2547</ele></trkpt>
<trkpt lat="46.91067" lon="10.27627"><ele>2547</ele></trkpt>
<trkpt lat="46.91064" lon="10.2763"><ele>2547</ele></trkpt>
<trkpt lat="46.91061" lon="10.2763"><ele>2547</ele></trkpt>
<trkpt lat="46.91061" lon="10.2763"><ele>2547</ele></trkpt>
<trkpt lat="46.91061" lon="10.2763"><ele>2547</ele></trkpt>
<trkpt lat="46.91061" lon="10.2763"><ele>2554</ele></trkpt>
<trkpt lat="46.91061" lon="10.27627"><ele>2554</ele></trkpt>
<trkpt lat="46.91059" lon="10.27621"><ele>2554</ele></trkpt>
<trkpt lat="46.91054" lon="10.2761"><ele>2554</ele></trkpt>
<trkpt lat="46.91048" lon="10.27596"><ele>2543</ele></trkpt>
<trkpt lat="46.91044" lon="10.27584"><ele>2543</ele></trkpt>
<trkpt lat="46.9104" lon="10.27562"><ele>2543</ele></trkpt>
<trkpt lat="46.91034" lon="10.27544"><ele>2543</ele></trkpt>
<trkpt lat="46.91031" lon="10.27527"><ele>2519</ele></trkpt>
<trkpt lat="46.91028" lon="10.27515"><ele>2519</ele></trkpt>
<trkpt lat="46.91028" lon="10.27502"><ele>2519</ele></trkpt>
<trkpt lat="46.91027" lon="10.27494"><ele>2519</ele></trkpt>
<trkpt lat="46.91029" lon="10.27488"><ele>2513</ele></trkpt>
<trkpt lat="46.91026" lon="10.27476"><ele>2513</ele></trkpt>
<trkpt lat="46.91026" lon="10.27469"><ele>2513</ele></trkpt>
<trkpt lat="46.91025" lon="10.27464"><ele>2513</ele></trkpt>
<trkpt lat="46.91026" lon="10.27459"><ele>2507</ele></trkpt>
<trkpt lat="46.91029" lon="10.27449"><ele>2507</ele></trkpt>
<trkpt lat="46.91029" lon="10.27434"><ele>2507</ele></trkpt>
<trkpt lat="46.91029" lon="10.27408"><ele>2507</ele></trkpt>
<trkpt lat="46.91033" lon="10.27388"><ele>2496</ele></trkpt>
<trkpt lat="46.91029" lon="10.27377"><ele>2496</ele></trkpt>
<trkpt lat="46.9103" lon="10.27358"><ele>2496</ele></trkpt>
<trkpt lat="46.91029" lon="10.27314"><ele>2496</ele></trkpt>
<trkpt lat="46.91027" lon="10.27298"><ele>2481</ele></trkpt>
<trkpt lat="46.91026" lon="10.27284"><ele>2481</ele></trkpt>
<trkpt lat="46.9103" lon="10.2727"><ele>2481</ele></trkpt>
<trkpt lat="46.91032" lon="10.27264"><ele>2481</ele></trkpt>
<trkpt lat="46.91031" lon="10.27258"><ele>2472</ele></trkpt>
<trkpt lat="46.91031" lon="10.27258"><ele>2472</ele></trkpt>
<trkpt lat="46.91031" lon="10.27258"><ele>2472</ele></trkpt>
<trkpt lat="46.91025" lon="10.2725"><ele>2472</ele></trkpt>
<trkpt lat="46.91021" lon="10.27239"><ele>2472</ele></trkpt>
<trkpt lat="46.91017" lon="10.27239"><ele>2472</ele></trkpt>
<trkpt lat="46.91011" lon="10.27238"><ele>2473</ele></trkpt>
<trkpt lat="46.9101" lon="10.27235"><ele>2473</ele></trkpt>
<trkpt lat="46.9101" lon="10.2723"><ele>2473</ele></trkpt>
<trkpt lat="46.91012" lon="10.27228"><ele>2473</ele></trkpt>
<trkpt lat="46.91012" lon="10.27225"><ele>2468</ele></trkpt>
<trkpt lat="46.91008" lon="10.27222"><ele>2468</ele></trkpt>
<trkpt lat="46.91006" lon="10.2722"><ele>2468</ele></trkpt>
<trkpt lat="46.91005" lon="10.27213"><ele>2468</ele></trkpt>
<trkpt lat="46.91004" lon="10.27211"><ele>2468</ele></trkpt>
<trkpt lat="46.91002" lon="10.27202"><ele>2468</ele></trkpt>
<trkpt lat="46.90998" lon="10.27178"><ele>2468</ele></trkpt>
<trkpt lat="46.90991" lon="10.27153"><ele>2468</ele></trkpt>
<trkpt lat="46.90984" lon="10.27129"><ele>2454</ele></trkpt>
<trkpt lat="46.90976" lon="10.27108"><ele>2454</ele></trkpt>
<trkpt lat="46.90973" lon="10.271"><ele>2454</ele></trkpt>
<trkpt lat="46.90968" lon="10.27098"><ele>2454</ele></trkpt>
<trkpt lat="46.90967" lon="10.27096"><ele>2450</ele></trkpt>
<trkpt lat="46.90968" lon="10.27092"><ele>2450</ele></trkpt>
<trkpt lat="46.90968" lon="10.27089"><ele>2450</ele></trkpt>
<trkpt lat="46.90965" lon="10.27087"><ele>2450</ele></trkpt>
<trkpt lat="46.9096" lon="10.27081"><ele>2450</ele></trkpt>
<trkpt lat="46.90957" lon="10.27072"><ele>2450</ele></trkpt>
<trkpt lat="46.9095" lon="10.27065"><ele>2450</ele></trkpt>
<trkpt lat="46.90945" lon="10.27051"><ele>2450</ele></trkpt>
<trkpt lat="46.90938" lon="10.27023"><ele>2444</ele></trkpt>
<trkpt lat="46.90933" lon="10.27009"><ele>2444</ele></trkpt>
<trkpt lat="46.90928" lon="10.27005"><ele>2444</ele></trkpt>
<trkpt lat="46.90921" lon="10.26981"><ele>2444</ele></trkpt>
<trkpt lat="46.90921" lon="10.26972"><ele>2436</ele></trkpt>
<trkpt lat="46.90921" lon="10.26969"><ele>2436</ele></trkpt>
<trkpt lat="46.90918" lon="10.26966"><ele>2436</ele></trkpt>
<trkpt lat="46.90916" lon="10.26964"><ele>2436</ele></trkpt>
<trkpt lat="46.90915" lon="10.26958"><ele>2432</ele></trkpt>
<trkpt lat="46.90916" lon="10.2695"><ele>2432</ele></trkpt>
<trkpt lat="46.90916" lon="10.26945"><ele>2432</ele></trkpt>
<trkpt lat="46.90917" lon="10.26943"><ele>2432</ele></trkpt>
<trkpt lat="46.90919" lon="10.26936"><ele>2432</ele></trkpt>
<trkpt lat="46.90918" lon="10.26929"><ele>2432</ele></trkpt>
<trkpt lat="46.90914" lon="10.26914"><ele>2432</ele></trkpt>
<trkpt lat="46.9091" lon="10.26909"><ele>2432</ele></trkpt>
<trkpt lat="46.90905" lon="10.26903"><ele>2427</ele></trkpt>
<trkpt lat="46.909" lon="10.26903"><ele>2427</ele></trkpt>
<trkpt lat="46.90895" lon="10.269"><ele>2427</ele></trkpt>
<trkpt lat="46.90888" lon="10.269"><ele>2427</ele></trkpt>
<trkpt lat="46.90883" lon="10.26901"><ele>2425</ele></trkpt>
<trkpt lat="46.9088" lon="10.26901"><ele>2425</ele></trkpt>
<trkpt lat="46.90873" lon="10.26898"><ele>2425</ele></trkpt>
<trkpt lat="46.90871" lon="10.26892"><ele>2425</ele></trkpt>
<trkpt lat="46.90871" lon="10.26886"><ele>2417</ele></trkpt>
<trkpt lat="46.90871" lon="10.26883"><ele>2417</ele></trkpt>
<trkpt lat="46.90865" lon="10.26872"><ele>2417</ele></trkpt>
<trkpt lat="46.90858" lon="10.26861"><ele>2417</ele></trkpt>
<trkpt lat="46.90852" lon="10.26854"><ele>2412</ele></trkpt>
<trkpt lat="46.90848" lon="10.26847"><ele>2412</ele></trkpt>
<trkpt lat="46.9084" lon="10.26831"><ele>2412</ele></trkpt>
<trkpt lat="46.90829" lon="10.26815"><ele>2412</ele></trkpt>
<trkpt lat="46.90823" lon="10.26803"><ele>2405</ele></trkpt>
<trkpt lat="46.9082" lon="10.26789"><ele>2405</ele></trkpt>
<trkpt lat="46.90816" lon="10.26782"><ele>2405</ele></trkpt>
<trkpt lat="46.90815" lon="10.26775"><ele>2405</ele></trkpt>
<trkpt lat="46.90814" lon="10.26765"><ele>2401</ele></trkpt>
<trkpt lat="46.90814" lon="10.26758"><ele>2401</ele></trkpt>
<trkpt lat="46.90812" lon="10.26753"><ele>2401</ele></trkpt>
<trkpt lat="46.9081" lon="10.26742"><ele>2401</ele></trkpt>
<trkpt lat="46.9081" lon="10.26742"><ele>2401</ele></trkpt>
<trkpt lat="46.9081" lon="10.26742"><ele>2401</ele></trkpt>
<trkpt lat="46.90813" lon="10.26737"><ele>2395</ele></trkpt>
<trkpt lat="46.90819" lon="10.26727"><ele>2395</ele></trkpt>
<trkpt lat="46.90823" lon="10.26712"><ele>2395</ele></trkpt>
<trkpt lat="46.90829" lon="10.2668"><ele>2395</ele></trkpt>
<trkpt lat="46.90837" lon="10.26673"><ele>2381</ele></trkpt>
<trkpt lat="46.90837" lon="10.26673"><ele>2381</ele></trkpt>
<trkpt lat="46.9084" lon="10.2667"><ele>2381</ele></trkpt>
<trkpt lat="46.90843" lon="10.26662"><ele>2381</ele></trkpt>
<trkpt lat="46.90843" lon="10.26655"><ele>2372</ele></trkpt>
<trkpt lat="46.90842" lon="10.26651"><ele>2372</ele></trkpt>
<trkpt lat="46.90842" lon="10.26647"><ele>2372</ele></trkpt>
<trkpt lat="46.90844" lon="10.26647"><ele>2372</ele></trkpt>
<trkpt lat="46.90848" lon="10.26641"><ele>2372</ele></trkpt>
<trkpt lat="46.90852" lon="10.26638"><ele>2372</ele></trkpt>
<trkpt lat="46.90858" lon="10.26632"><ele>2372</ele></trkpt>
<trkpt lat="46.9086" lon="10.26627"><ele>2372</ele></trkpt>
<trkpt lat="46.90862" lon="10.26615"><ele>2364</ele></trkpt>
<trkpt lat="46.90867" lon="10.26606"><ele>2364</ele></trkpt>
<trkpt lat="46.90873" lon="10.26595"><ele>2364</ele></trkpt>
<trkpt lat="46.90878" lon="10.26591"><ele>2364</ele></trkpt>
<trkpt lat="46.90879" lon="10.26587"><ele>2358</ele></trkpt>
<trkpt lat="46.90882" lon="10.26585"><ele>2358</ele></trkpt>
<trkpt lat="46.90887" lon="10.26584"><ele>2358</ele></trkpt>
<trkpt lat="46.9089" lon="10.26582"><ele>2358</ele></trkpt>
<trkpt lat="46.90893" lon="10.26579"><ele>2358</ele></trkpt>
<trkpt lat="46.90901" lon="10.26573"><ele>2358</ele></trkpt>
<trkpt lat="46.90908" lon="10.26565"><ele>2358</ele></trkpt>
<trkpt lat="46.90914" lon="10.26554"><ele>2358</ele></trkpt>
<trkpt lat="46.90917" lon="10.2654"><ele>2346</ele></trkpt>
<trkpt lat="46.90916" lon="10.26528"><ele>2346</ele></trkpt>
<trkpt lat="46.90919" lon="10.26525"><ele>2346</ele></trkpt>
<trkpt lat="46.90922" lon="10.26524"><ele>2346</ele></trkpt>
<trkpt lat="46.90925" lon="10.26521"><ele>2340</ele></trkpt>
<trkpt lat="46.9093" lon="10.26519"><ele>2340</ele></trkpt>
<trkpt lat="46.90938" lon="10.26507"><ele>2340</ele></trkpt>
<trkpt lat="46.90943" lon="10.26506"><ele>2340</ele></trkpt>
<trkpt lat="46.9095" lon="10.26506"><ele>2332</ele></trkpt>
<trkpt lat="46.90953" lon="10.26501"><ele>2332</ele></trkpt>
<trkpt lat="46.90955" lon="10.26495"><ele>2332</ele></trkpt>
<trkpt lat="46.90955" lon="10.26495"><ele>2332</ele></trkpt>
<trkpt lat="46.90955" lon="10.26495"><ele>2332</ele></trkpt>
<trkpt lat="46.90955" lon="10.26488"><ele>2332</ele></trkpt>
<trkpt lat="46.90955" lon="10.26483"><ele>2332</ele></trkpt>
<trkpt lat="46.90955" lon="10.26477"><ele>2332</ele></trkpt>
<trkpt lat="46.90953" lon="10.26469"><ele>2332</ele></trkpt>
<trkpt lat="46.90954" lon="10.2646"><ele>2332</ele></trkpt>
<trkpt lat="46.90952" lon="10.26451"><ele>2324</ele></trkpt>
<trkpt lat="46.9095" lon="10.26445"><ele>2324</ele></trkpt>
<trkpt lat="46.90952" lon="10.2644"><ele>2324</ele></trkpt>
<trkpt lat="46.90958" lon="10.26427"><ele>2324</ele></trkpt>
<trkpt lat="46.90959" lon="10.26421"><ele>2318</ele></trkpt>
<trkpt lat="46.90964" lon="10.26417"><ele>2318</ele></trkpt>
<trkpt lat="46.90964" lon="10.26417"><ele>2318</ele></trkpt>
<trkpt lat="46.90944" lon="10.26407"><ele>2318</ele></trkpt>
<trkpt lat="46.90936" lon="10.26401"><ele>2312</ele></trkpt>
<trkpt lat="46.90934" lon="10.26397"><ele>2312</ele></trkpt>
<trkpt lat="46.90933" lon="10.26376"><ele>2312</ele></trkpt>
<trkpt lat="46.90929" lon="10.26359"><ele>2312</ele></trkpt>
<trkpt lat="46.90927" lon="10.26331"><ele>2303</ele></trkpt>
<trkpt lat="46.9093" lon="10.26301"><ele>2303</ele></trkpt>
<trkpt lat="46.90932" lon="10.26291"><ele>2303</ele></trkpt>
<trkpt lat="46.90956" lon="10.26258"><ele>2303</ele></trkpt>
<trkpt lat="46.90961" lon="10.26247"><ele>2285</ele></trkpt>
<trkpt lat="46.90965" lon="10.26233"><ele>2285</ele></trkpt>
<trkpt lat="46.90966" lon="10.26229"><ele>2285</ele></trkpt>
<trkpt lat="46.90967" lon="10.26219"><ele>2285</ele></trkpt>
<trkpt lat="46.90963" lon="10.26209"><ele>2281</ele></trkpt>
<trkpt lat="46.90954" lon="10.26197"><ele>2281</ele></trkpt>
<trkpt lat="46.90955" lon="10.26183"><ele>2281</ele></trkpt>
<trkpt lat="46.90952" lon="10.26174"><ele>2281</ele></trkpt>
<trkpt lat="46.90949" lon="10.26165"><ele>2270</ele></trkpt>
<trkpt lat="46.9095" lon="10.26155"><ele>2270</ele></trkpt>
<trkpt lat="46.90952" lon="10.26149"><ele>2270</ele></trkpt>
<trkpt lat="46.90957" lon="10.26139"><ele>2270</ele></trkpt>
<trkpt lat="46.90957" lon="10.26134"><ele>2264</ele></trkpt>
<trkpt lat="46.90956" lon="10.26129"><ele>2264</ele></trkpt>
<trkpt lat="46.90952" lon="10.26122"><ele>2264</ele></trkpt>
<trkpt lat="46.90948" lon="10.26108"><ele>2264</ele></trkpt>
<trkpt lat="46.90952" lon="10.26096"><ele>2271</ele></trkpt>
<trkpt lat="46.90962" lon="10.26085"><ele>2271</ele></trkpt>
<trkpt lat="46.90968" lon="10.2606"><ele>2271</ele></trkpt>
<trkpt lat="46.90969" lon="10.26052"><ele>2271</ele></trkpt>
<trkpt lat="46.90969" lon="10.26042"><ele>2277</ele></trkpt>
<trkpt lat="46.90964" lon="10.26015"><ele>2277</ele></trkpt>
<trkpt lat="46.90964" lon="10.26015"><ele>2277</ele></trkpt>
<trkpt lat="46.90979" lon="10.26002"><ele>2277</ele></trkpt>
<trkpt lat="46.90983" lon="10.25991"><ele>2273</ele></trkpt>
<trkpt lat="46.90987" lon="10.25977"><ele>2273</ele></trkpt>

                    </trkseg>
              </trk>
            </gpx>