<?xml version="1.0" encoding="utf-8"?>
            <gpx xmlns="http://www.topografix.com/GPX/1/1" xmlns:xsd="http://www.w3.org/2001/XMLSchema" xmlns:xsi="http://www.w3.org/2001/XMLSchema-instance" version="1.1" creator="Fugawi 4,5,14,1696 http://www.fugawi.com/" xsi:schemaLocation="http://www.topografix.com/GPX/1/1 http://www.topografix.com/GPX/1/1/gpx.xsd">
                <trk>
                    <name>7151  Neue Ried Trail</name>
                    <desc></desc>
                    <trkseg>
                        <trkpt lat="47.00357" lon="10.2982"><ele>1582</ele></trkpt>
<trkpt lat="47.00368" lon="10.29811"><ele>1578</ele></trkpt>
<trkpt lat="47.00414" lon="10.29767"><ele>1578</ele></trkpt>
<trkpt lat="47.00445" lon="10.29745"><ele>1577</ele></trkpt>
<trkpt lat="47.00445" lon="10.29745"><ele>1577</ele></trkpt>
<trkpt lat="47.00454" lon="10.29745"><ele>1570</ele></trkpt>
<trkpt lat="47.0048" lon="10.29731"><ele>1566</ele></trkpt>
<trkpt lat="47.00508" lon="10.29711"><ele>1556</ele></trkpt>
<trkpt lat="47.00523" lon="10.29695"><ele>1558</ele></trkpt>
<trkpt lat="47.00536" lon="10.29687"><ele>1553</ele></trkpt>
<trkpt lat="47.00551" lon="10.29669"><ele>1552</ele></trkpt>
<trkpt lat="47.00562" lon="10.29655"><ele>1551</ele></trkpt>
<trkpt lat="47.00584" lon="10.29637"><ele>1547</ele></trkpt>
<trkpt lat="47.006" lon="10.29626"><ele>1544</ele></trkpt>
<trkpt lat="47.00665" lon="10.29568"><ele>1533</ele></trkpt>
<trkpt lat="47.00681" lon="10.29557"><ele>1530</ele></trkpt>
<trkpt lat="47.00689" lon="10.29548"><ele>1532</ele></trkpt>
<trkpt lat="47.00696" lon="10.29538"><ele>1529</ele></trkpt>
<trkpt lat="47.00706" lon="10.29527"><ele>1528</ele></trkpt>
<trkpt lat="47.0071" lon="10.29518"><ele>1525</ele></trkpt>
<trkpt lat="47.0071" lon="10.29518"><ele>1525</ele></trkpt>
<trkpt lat="47.0071" lon="10.29518"><ele>1525</ele></trkpt>
<trkpt lat="47.0071" lon="10.29518"><ele>1525</ele></trkpt>
<trkpt lat="47.0071" lon="10.29518"><ele>1525</ele></trkpt>
<trkpt lat="47.0071" lon="10.29518"><ele>1525</ele></trkpt>
<trkpt lat="47.0071" lon="10.29518"><ele>1525</ele></trkpt>
<trkpt lat="47.0071" lon="10.29518"><ele>1525</ele></trkpt>
<trkpt lat="47.00718" lon="10.29496"><ele>1524</ele></trkpt>
<trkpt lat="47.00722" lon="10.29489"><ele>1527</ele></trkpt>
<trkpt lat="47.00729" lon="10.29482"><ele>1523</ele></trkpt>
<trkpt lat="47.00732" lon="10.29479"><ele>1523</ele></trkpt>
<trkpt lat="47.00736" lon="10.29472"><ele>1523</ele></trkpt>
<trkpt lat="47.00742" lon="10.29462"><ele>1524</ele></trkpt>
<trkpt lat="47.00747" lon="10.29459"><ele>1524</ele></trkpt>
<trkpt lat="47.00757" lon="10.29454"><ele>1521</ele></trkpt>
<trkpt lat="47.00759" lon="10.29453"><ele>1518</ele></trkpt>
<trkpt lat="47.00765" lon="10.29445"><ele>1522</ele></trkpt>
<trkpt lat="47.00785" lon="10.29421"><ele>1516</ele></trkpt>
<trkpt lat="47.00786" lon="10.29419"><ele>1516</ele></trkpt>
<trkpt lat="47.00788" lon="10.29415"><ele>1516</ele></trkpt>
<trkpt lat="47.00789" lon="10.2941"><ele>1517</ele></trkpt>
<trkpt lat="47.00791" lon="10.29407"><ele>1517</ele></trkpt>
<trkpt lat="47.00794" lon="10.29407"><ele>1515</ele></trkpt>
<trkpt lat="47.00799" lon="10.2941"><ele>1515</ele></trkpt>
<trkpt lat="47.00801" lon="10.29407"><ele>1515</ele></trkpt>
<trkpt lat="47.00803" lon="10.29407"><ele>1511</ele></trkpt>
<trkpt lat="47.00815" lon="10.29392"><ele>1509</ele></trkpt>
<trkpt lat="47.00817" lon="10.29392"><ele>1509</ele></trkpt>
<trkpt lat="47.00818" lon="10.29393"><ele>1509</ele></trkpt>
<trkpt lat="47.0082" lon="10.29399"><ele>1507</ele></trkpt>
<trkpt lat="47.00821" lon="10.29409"><ele>1506</ele></trkpt>
<trkpt lat="47.00821" lon="10.29409"><ele>1506</ele></trkpt>
<trkpt lat="47.00825" lon="10.29411"><ele>1506</ele></trkpt>
<trkpt lat="47.00831" lon="10.29405"><ele>1504</ele></trkpt>
<trkpt lat="47.00834" lon="10.29401"><ele>1505</ele></trkpt>
<trkpt lat="47.00834" lon="10.29401"><ele>1505</ele></trkpt>
<trkpt lat="47.00834" lon="10.29401"><ele>1505</ele></trkpt>
<trkpt lat="47.00834" lon="10.29401"><ele>1505</ele></trkpt>
<trkpt lat="47.00834" lon="10.29401"><ele>1505</ele></trkpt>
<trkpt lat="47.00834" lon="10.29401"><ele>1505</ele></trkpt>
<trkpt lat="47.00837" lon="10.29398"><ele>1505</ele></trkpt>
<trkpt lat="47.00841" lon="10.29396"><ele>1502</ele></trkpt>
<trkpt lat="47.00841" lon="10.29392"><ele>1502</ele></trkpt>
<trkpt lat="47.00838" lon="10.29349"><ele>1497</ele></trkpt>
<trkpt lat="47.00837" lon="10.29338"><ele>1503</ele></trkpt>
<trkpt lat="47.00837" lon="10.29325"><ele>1501</ele></trkpt>
<trkpt lat="47.00841" lon="10.29289"><ele>1489</ele></trkpt>
<trkpt lat="47.00842" lon="10.29266"><ele>1485</ele></trkpt>
<trkpt lat="47.00841" lon="10.29259"><ele>1483</ele></trkpt>
<trkpt lat="47.00836" lon="10.29237"><ele>1485</ele></trkpt>
<trkpt lat="47.00801" lon="10.29116"><ele>1465</ele></trkpt>
<trkpt lat="47.00792" lon="10.29087"><ele>1462</ele></trkpt>
<trkpt lat="47.00782" lon="10.29055"><ele>1453</ele></trkpt>
<trkpt lat="47.0077" lon="10.2903"><ele>1449</ele></trkpt>
<trkpt lat="47.0077" lon="10.29025"><ele>1449</ele></trkpt>
<trkpt lat="47.0077" lon="10.29025"><ele>1449</ele></trkpt>
<trkpt lat="47.00773" lon="10.29026"><ele>1449</ele></trkpt>
<trkpt lat="47.00796" lon="10.29039"><ele>1442</ele></trkpt>
<trkpt lat="47.00811" lon="10.2905"><ele>1439</ele></trkpt>
<trkpt lat="47.0082" lon="10.29066"><ele>1439</ele></trkpt>
<trkpt lat="47.00823" lon="10.29071"><ele>1441</ele></trkpt>
<trkpt lat="47.00823" lon="10.29071"><ele>1441</ele></trkpt>
<trkpt lat="47.00823" lon="10.29071"><ele>1441</ele></trkpt>

                    </trkseg>
              </trk>
            </gpx>