<?xml version="1.0" encoding="utf-8"?>
            <gpx xmlns="http://www.topografix.com/GPX/1/1" xmlns:xsd="http://www.w3.org/2001/XMLSchema" xmlns:xsi="http://www.w3.org/2001/XMLSchema-instance" version="1.1" creator="Fugawi 4,5,14,1696 http://www.fugawi.com/" xsi:schemaLocation="http://www.topografix.com/GPX/1/1 http://www.topografix.com/GPX/1/1/gpx.xsd">
                <trk>
                    <name>7160 Alpkogel Trail</name>
                    <desc></desc>
                    <trkseg>
                        <trkpt lat="46.96685" lon="10.14366"><ele>1969</ele></trkpt>
<trkpt lat="46.96676" lon="10.14383"><ele>1969</ele></trkpt>
<trkpt lat="46.96671" lon="10.14406"><ele>1969</ele></trkpt>
<trkpt lat="46.9667" lon="10.1441"><ele>1969</ele></trkpt>
<trkpt lat="46.96667" lon="10.14413"><ele>1970</ele></trkpt>
<trkpt lat="46.96667" lon="10.14415"><ele>1970</ele></trkpt>
<trkpt lat="46.96667" lon="10.14419"><ele>1970</ele></trkpt>
<trkpt lat="46.96666" lon="10.14423"><ele>1970</ele></trkpt>
<trkpt lat="46.96664" lon="10.14429"><ele>1969</ele></trkpt>
<trkpt lat="46.96665" lon="10.14432"><ele>1969</ele></trkpt>
<trkpt lat="46.96666" lon="10.14433"><ele>1969</ele></trkpt>
<trkpt lat="46.96667" lon="10.14434"><ele>1969</ele></trkpt>
<trkpt lat="46.96668" lon="10.14438"><ele>1968</ele></trkpt>
<trkpt lat="46.96667" lon="10.14442"><ele>1968</ele></trkpt>
<trkpt lat="46.96668" lon="10.14444"><ele>1968</ele></trkpt>
<trkpt lat="46.96669" lon="10.14445"><ele>1968</ele></trkpt>
<trkpt lat="46.9667" lon="10.14445"><ele>1968</ele></trkpt>
<trkpt lat="46.96675" lon="10.14445"><ele>1968</ele></trkpt>
<trkpt lat="46.96679" lon="10.14445"><ele>1968</ele></trkpt>
<trkpt lat="46.96683" lon="10.14443"><ele>1968</ele></trkpt>
<trkpt lat="46.96686" lon="10.14442"><ele>1968</ele></trkpt>
<trkpt lat="46.96687" lon="10.14439"><ele>1968</ele></trkpt>
<trkpt lat="46.96689" lon="10.14437"><ele>1968</ele></trkpt>
<trkpt lat="46.96692" lon="10.14436"><ele>1968</ele></trkpt>
<trkpt lat="46.96693" lon="10.14437"><ele>1966</ele></trkpt>
<trkpt lat="46.96694" lon="10.14439"><ele>1966</ele></trkpt>
<trkpt lat="46.96693" lon="10.14443"><ele>1966</ele></trkpt>
<trkpt lat="46.9669" lon="10.14445"><ele>1966</ele></trkpt>
<trkpt lat="46.96686" lon="10.14448"><ele>1966</ele></trkpt>
<trkpt lat="46.96683" lon="10.14448"><ele>1966</ele></trkpt>
<trkpt lat="46.9668" lon="10.1445"><ele>1966</ele></trkpt>
<trkpt lat="46.96678" lon="10.1445"><ele>1966</ele></trkpt>
<trkpt lat="46.96673" lon="10.14451"><ele>1966</ele></trkpt>
<trkpt lat="46.96671" lon="10.14451"><ele>1966</ele></trkpt>
<trkpt lat="46.9667" lon="10.14453"><ele>1966</ele></trkpt>
<trkpt lat="46.96671" lon="10.14455"><ele>1966</ele></trkpt>
<trkpt lat="46.96672" lon="10.14456"><ele>1966</ele></trkpt>
<trkpt lat="46.96675" lon="10.14457"><ele>1966</ele></trkpt>
<trkpt lat="46.96679" lon="10.14457"><ele>1966</ele></trkpt>
<trkpt lat="46.96685" lon="10.14456"><ele>1966</ele></trkpt>
<trkpt lat="46.96687" lon="10.14456"><ele>1966</ele></trkpt>
<trkpt lat="46.96696" lon="10.14452"><ele>1966</ele></trkpt>
<trkpt lat="46.96702" lon="10.14448"><ele>1966</ele></trkpt>
<trkpt lat="46.96709" lon="10.14442"><ele>1966</ele></trkpt>
<trkpt lat="46.96713" lon="10.14436"><ele>1963</ele></trkpt>
<trkpt lat="46.96714" lon="10.14432"><ele>1963</ele></trkpt>
<trkpt lat="46.96713" lon="10.14423"><ele>1963</ele></trkpt>
<trkpt lat="46.96714" lon="10.14415"><ele>1963</ele></trkpt>
<trkpt lat="46.96713" lon="10.14408"><ele>1965</ele></trkpt>
<trkpt lat="46.96714" lon="10.14406"><ele>1965</ele></trkpt>
<trkpt lat="46.96715" lon="10.14405"><ele>1965</ele></trkpt>
<trkpt lat="46.96717" lon="10.14405"><ele>1965</ele></trkpt>
<trkpt lat="46.96717" lon="10.14406"><ele>1963</ele></trkpt>
<trkpt lat="46.96717" lon="10.14409"><ele>1963</ele></trkpt>
<trkpt lat="46.96718" lon="10.14411"><ele>1963</ele></trkpt>
<trkpt lat="46.96719" lon="10.14414"><ele>1963</ele></trkpt>
<trkpt lat="46.9672" lon="10.14415"><ele>1963</ele></trkpt>
<trkpt lat="46.96721" lon="10.14415"><ele>1963</ele></trkpt>
<trkpt lat="46.96723" lon="10.14414"><ele>1963</ele></trkpt>
<trkpt lat="46.96723" lon="10.14411"><ele>1963</ele></trkpt>
<trkpt lat="46.96723" lon="10.14409"><ele>1963</ele></trkpt>
<trkpt lat="46.96722" lon="10.14406"><ele>1963</ele></trkpt>
<trkpt lat="46.96721" lon="10.14405"><ele>1963</ele></trkpt>
<trkpt lat="46.9672" lon="10.14401"><ele>1963</ele></trkpt>
<trkpt lat="46.96721" lon="10.144"><ele>1963</ele></trkpt>
<trkpt lat="46.96723" lon="10.14399"><ele>1963</ele></trkpt>
<trkpt lat="46.96724" lon="10.144"><ele>1963</ele></trkpt>
<trkpt lat="46.96724" lon="10.14401"><ele>1963</ele></trkpt>
<trkpt lat="46.96725" lon="10.14404"><ele>1963</ele></trkpt>
<trkpt lat="46.96726" lon="10.14404"><ele>1963</ele></trkpt>
<trkpt lat="46.96727" lon="10.14401"><ele>1963</ele></trkpt>
<trkpt lat="46.96728" lon="10.144"><ele>1963</ele></trkpt>
<trkpt lat="46.96727" lon="10.14394"><ele>1960</ele></trkpt>
<trkpt lat="46.96727" lon="10.1439"><ele>1960</ele></trkpt>
<trkpt lat="46.96728" lon="10.14384"><ele>1960</ele></trkpt>
<trkpt lat="46.9673" lon="10.14373"><ele>1960</ele></trkpt>
<trkpt lat="46.96732" lon="10.1437"><ele>1961</ele></trkpt>
<trkpt lat="46.96733" lon="10.14357"><ele>1961</ele></trkpt>
<trkpt lat="46.96734" lon="10.14354"><ele>1961</ele></trkpt>
<trkpt lat="46.96734" lon="10.1435"><ele>1961</ele></trkpt>
<trkpt lat="46.96735" lon="10.14349"><ele>1959</ele></trkpt>
<trkpt lat="46.96738" lon="10.1435"><ele>1959</ele></trkpt>
<trkpt lat="46.96738" lon="10.1435"><ele>1959</ele></trkpt>
<trkpt lat="46.96738" lon="10.14353"><ele>1959</ele></trkpt>
<trkpt lat="46.96738" lon="10.14357"><ele>1959</ele></trkpt>
<trkpt lat="46.96737" lon="10.14359"><ele>1959</ele></trkpt>
<trkpt lat="46.96737" lon="10.14364"><ele>1959</ele></trkpt>
<trkpt lat="46.96736" lon="10.14378"><ele>1959</ele></trkpt>
<trkpt lat="46.96733" lon="10.1439"><ele>1960</ele></trkpt>
<trkpt lat="46.96732" lon="10.14395"><ele>1960</ele></trkpt>
<trkpt lat="46.96733" lon="10.14398"><ele>1960</ele></trkpt>
<trkpt lat="46.96734" lon="10.14401"><ele>1960</ele></trkpt>
<trkpt lat="46.96736" lon="10.14401"><ele>1956</ele></trkpt>
<trkpt lat="46.96738" lon="10.14401"><ele>1956</ele></trkpt>
<trkpt lat="46.96742" lon="10.14389"><ele>1956</ele></trkpt>
<trkpt lat="46.96748" lon="10.14377"><ele>1956</ele></trkpt>
<trkpt lat="46.96757" lon="10.14367"><ele>1956</ele></trkpt>
<trkpt lat="46.96781" lon="10.14345"><ele>1956</ele></trkpt>
<trkpt lat="46.968" lon="10.14336"><ele>1956</ele></trkpt>
<trkpt lat="46.96823" lon="10.14324"><ele>1956</ele></trkpt>
<trkpt lat="46.96832" lon="10.14317"><ele>1953</ele></trkpt>
<trkpt lat="46.96839" lon="10.14312"><ele>1953</ele></trkpt>
<trkpt lat="46.96842" lon="10.14307"><ele>1953</ele></trkpt>
<trkpt lat="46.96843" lon="10.14303"><ele>1953</ele></trkpt>
<trkpt lat="46.96845" lon="10.143"><ele>1954</ele></trkpt>
<trkpt lat="46.96847" lon="10.143"><ele>1954</ele></trkpt>
<trkpt lat="46.96847" lon="10.14302"><ele>1954</ele></trkpt>
<trkpt lat="46.96845" lon="10.14308"><ele>1954</ele></trkpt>
<trkpt lat="46.96842" lon="10.14316"><ele>1951</ele></trkpt>
<trkpt lat="46.96835" lon="10.14326"><ele>1951</ele></trkpt>
<trkpt lat="46.96833" lon="10.14331"><ele>1951</ele></trkpt>
<trkpt lat="46.9683" lon="10.14331"><ele>1951</ele></trkpt>
<trkpt lat="46.96829" lon="10.14334"><ele>1950</ele></trkpt>
<trkpt lat="46.96829" lon="10.14337"><ele>1950</ele></trkpt>
<trkpt lat="46.96831" lon="10.14338"><ele>1950</ele></trkpt>
<trkpt lat="46.96832" lon="10.14338"><ele>1950</ele></trkpt>
<trkpt lat="46.96835" lon="10.14335"><ele>1949</ele></trkpt>
<trkpt lat="46.96838" lon="10.1433"><ele>1949</ele></trkpt>
<trkpt lat="46.96846" lon="10.14319"><ele>1949</ele></trkpt>
<trkpt lat="46.96857" lon="10.14309"><ele>1949</ele></trkpt>
<trkpt lat="46.96864" lon="10.14305"><ele>1950</ele></trkpt>
<trkpt lat="46.96871" lon="10.14303"><ele>1950</ele></trkpt>
<trkpt lat="46.96876" lon="10.143"><ele>1950</ele></trkpt>
<trkpt lat="46.96882" lon="10.143"><ele>1950</ele></trkpt>
<trkpt lat="46.96888" lon="10.14297"><ele>1946</ele></trkpt>
<trkpt lat="46.96894" lon="10.14297"><ele>1946</ele></trkpt>
<trkpt lat="46.96902" lon="10.14295"><ele>1946</ele></trkpt>
<trkpt lat="46.96908" lon="10.14297"><ele>1946</ele></trkpt>
<trkpt lat="46.96916" lon="10.143"><ele>1946</ele></trkpt>
<trkpt lat="46.96923" lon="10.143"><ele>1946</ele></trkpt>
<trkpt lat="46.96931" lon="10.14301"><ele>1946</ele></trkpt>
<trkpt lat="46.96935" lon="10.14301"><ele>1946</ele></trkpt>
<trkpt lat="46.96937" lon="10.14301"><ele>1946</ele></trkpt>
<trkpt lat="46.96937" lon="10.14303"><ele>1946</ele></trkpt>
<trkpt lat="46.96935" lon="10.14303"><ele>1946</ele></trkpt>
<trkpt lat="46.96932" lon="10.14305"><ele>1946</ele></trkpt>
<trkpt lat="46.96924" lon="10.14309"><ele>1943</ele></trkpt>
<trkpt lat="46.96887" lon="10.14326"><ele>1943</ele></trkpt>
<trkpt lat="46.96869" lon="10.14334"><ele>1943</ele></trkpt>
<trkpt lat="46.96861" lon="10.1434"><ele>1943</ele></trkpt>
<trkpt lat="46.96854" lon="10.1434"><ele>1944</ele></trkpt>
<trkpt lat="46.96851" lon="10.14342"><ele>1944</ele></trkpt>
<trkpt lat="46.96848" lon="10.14345"><ele>1944</ele></trkpt>
<trkpt lat="46.9685" lon="10.1435"><ele>1944</ele></trkpt>
<trkpt lat="46.96853" lon="10.14352"><ele>1941</ele></trkpt>
<trkpt lat="46.96857" lon="10.1435"><ele>1941</ele></trkpt>
<trkpt lat="46.96871" lon="10.1435"><ele>1941</ele></trkpt>
<trkpt lat="46.96882" lon="10.14348"><ele>1941</ele></trkpt>
<trkpt lat="46.96895" lon="10.14347"><ele>1936</ele></trkpt>
<trkpt lat="46.9691" lon="10.14345"><ele>1936</ele></trkpt>
<trkpt lat="46.9692" lon="10.14345"><ele>1936</ele></trkpt>
<trkpt lat="46.96927" lon="10.14345"><ele>1936</ele></trkpt>
<trkpt lat="46.96937" lon="10.14344"><ele>1935</ele></trkpt>
<trkpt lat="46.96938" lon="10.14345"><ele>1935</ele></trkpt>
<trkpt lat="46.9694" lon="10.14349"><ele>1935</ele></trkpt>
<trkpt lat="46.96939" lon="10.14354"><ele>1935</ele></trkpt>
<trkpt lat="46.96936" lon="10.14358"><ele>1933</ele></trkpt>
<trkpt lat="46.96927" lon="10.14361"><ele>1933</ele></trkpt>
<trkpt lat="46.96908" lon="10.14364"><ele>1933</ele></trkpt>
<trkpt lat="46.96891" lon="10.14368"><ele>1933</ele></trkpt>
<trkpt lat="46.96877" lon="10.14375"><ele>1931</ele></trkpt>
<trkpt lat="46.96866" lon="10.14381"><ele>1931</ele></trkpt>
<trkpt lat="46.96858" lon="10.14387"><ele>1931</ele></trkpt>
<trkpt lat="46.96853" lon="10.14395"><ele>1931</ele></trkpt>
<trkpt lat="46.96846" lon="10.14404"><ele>1932</ele></trkpt>
<trkpt lat="46.96836" lon="10.14413"><ele>1932</ele></trkpt>
<trkpt lat="46.96828" lon="10.14422"><ele>1932</ele></trkpt>
<trkpt lat="46.96822" lon="10.14429"><ele>1932</ele></trkpt>
<trkpt lat="46.96806" lon="10.14438"><ele>1927</ele></trkpt>
<trkpt lat="46.96793" lon="10.1445"><ele>1927</ele></trkpt>
<trkpt lat="46.96786" lon="10.14467"><ele>1927</ele></trkpt>
<trkpt lat="46.96781" lon="10.14476"><ele>1927</ele></trkpt>
<trkpt lat="46.96774" lon="10.14486"><ele>1924</ele></trkpt>
<trkpt lat="46.96772" lon="10.14491"><ele>1924</ele></trkpt>
<trkpt lat="46.96771" lon="10.14494"><ele>1924</ele></trkpt>
<trkpt lat="46.96771" lon="10.14497"><ele>1924</ele></trkpt>
<trkpt lat="46.9677" lon="10.14504"><ele>1921</ele></trkpt>
<trkpt lat="46.96769" lon="10.14509"><ele>1921</ele></trkpt>
<trkpt lat="46.96765" lon="10.14519"><ele>1921</ele></trkpt>
<trkpt lat="46.96762" lon="10.14523"><ele>1921</ele></trkpt>
<trkpt lat="46.96761" lon="10.14528"><ele>1920</ele></trkpt>
<trkpt lat="46.96759" lon="10.14532"><ele>1920</ele></trkpt>
<trkpt lat="46.96754" lon="10.14537"><ele>1920</ele></trkpt>
<trkpt lat="46.96738" lon="10.14556"><ele>1920</ele></trkpt>
<trkpt lat="46.96735" lon="10.1456"><ele>1923</ele></trkpt>
<trkpt lat="46.96734" lon="10.14561"><ele>1923</ele></trkpt>
<trkpt lat="46.96733" lon="10.14565"><ele>1923</ele></trkpt>
<trkpt lat="46.96731" lon="10.14566"><ele>1923</ele></trkpt>
<trkpt lat="46.96725" lon="10.14572"><ele>1924</ele></trkpt>
<trkpt lat="46.96716" lon="10.14578"><ele>1924</ele></trkpt>
<trkpt lat="46.96711" lon="10.14579"><ele>1924</ele></trkpt>
<trkpt lat="46.96706" lon="10.14581"><ele>1924</ele></trkpt>
<trkpt lat="46.96703" lon="10.14584"><ele>1923</ele></trkpt>
<trkpt lat="46.96701" lon="10.14584"><ele>1923</ele></trkpt>
<trkpt lat="46.96699" lon="10.14584"><ele>1923</ele></trkpt>
<trkpt lat="46.96698" lon="10.14586"><ele>1923</ele></trkpt>
<trkpt lat="46.96698" lon="10.14588"><ele>1921</ele></trkpt>
<trkpt lat="46.96698" lon="10.14591"><ele>1921</ele></trkpt>
<trkpt lat="46.967" lon="10.14591"><ele>1921</ele></trkpt>
<trkpt lat="46.96703" lon="10.14589"><ele>1921</ele></trkpt>
<trkpt lat="46.96713" lon="10.14588"><ele>1918</ele></trkpt>
<trkpt lat="46.96722" lon="10.14582"><ele>1918</ele></trkpt>
<trkpt lat="46.96726" lon="10.1458"><ele>1918</ele></trkpt>
<trkpt lat="46.96732" lon="10.14574"><ele>1918</ele></trkpt>
<trkpt lat="46.96742" lon="10.14569"><ele>1919</ele></trkpt>
<trkpt lat="46.96745" lon="10.14564"><ele>1919</ele></trkpt>
<trkpt lat="46.96748" lon="10.14563"><ele>1919</ele></trkpt>
<trkpt lat="46.96753" lon="10.14555"><ele>1919</ele></trkpt>
<trkpt lat="46.96757" lon="10.14552"><ele>1917</ele></trkpt>
<trkpt lat="46.96759" lon="10.14551"><ele>1917</ele></trkpt>
<trkpt lat="46.9676" lon="10.14552"><ele>1917</ele></trkpt>
<trkpt lat="46.9676" lon="10.14555"><ele>1917</ele></trkpt>
<trkpt lat="46.9676" lon="10.1456"><ele>1914</ele></trkpt>
<trkpt lat="46.96758" lon="10.14566"><ele>1914</ele></trkpt>
<trkpt lat="46.96751" lon="10.14574"><ele>1914</ele></trkpt>
<trkpt lat="46.96747" lon="10.14575"><ele>1914</ele></trkpt>
<trkpt lat="46.96742" lon="10.14584"><ele>1916</ele></trkpt>
<trkpt lat="46.96739" lon="10.14586"><ele>1916</ele></trkpt>
<trkpt lat="46.96735" lon="10.14588"><ele>1916</ele></trkpt>
<trkpt lat="46.9673" lon="10.14591"><ele>1916</ele></trkpt>
<trkpt lat="46.96729" lon="10.14591"><ele>1914</ele></trkpt>
<trkpt lat="46.96728" lon="10.14592"><ele>1914</ele></trkpt>
<trkpt lat="46.96726" lon="10.14592"><ele>1914</ele></trkpt>
<trkpt lat="46.96724" lon="10.14592"><ele>1914</ele></trkpt>
<trkpt lat="46.96723" lon="10.14594"><ele>1916</ele></trkpt>
<trkpt lat="46.96723" lon="10.14596"><ele>1916</ele></trkpt>
<trkpt lat="46.96724" lon="10.14598"><ele>1916</ele></trkpt>
<trkpt lat="46.96726" lon="10.14598"><ele>1916</ele></trkpt>
<trkpt lat="46.96731" lon="10.14594"><ele>1914</ele></trkpt>
<trkpt lat="46.96734" lon="10.14594"><ele>1914</ele></trkpt>
<trkpt lat="46.96742" lon="10.14589"><ele>1914</ele></trkpt>
<trkpt lat="46.96743" lon="10.14588"><ele>1914</ele></trkpt>
<trkpt lat="46.9675" lon="10.14583"><ele>1913</ele></trkpt>
<trkpt lat="46.96756" lon="10.14577"><ele>1913</ele></trkpt>
<trkpt lat="46.96759" lon="10.14573"><ele>1913</ele></trkpt>
<trkpt lat="46.9676" lon="10.14572"><ele>1913</ele></trkpt>
<trkpt lat="46.96762" lon="10.1457"><ele>1911</ele></trkpt>
<trkpt lat="46.96763" lon="10.14572"><ele>1911</ele></trkpt>
<trkpt lat="46.96764" lon="10.14575"><ele>1911</ele></trkpt>
<trkpt lat="46.96763" lon="10.14578"><ele>1911</ele></trkpt>
<trkpt lat="46.96762" lon="10.1458"><ele>1908</ele></trkpt>
<trkpt lat="46.96754" lon="10.14589"><ele>1908</ele></trkpt>
<trkpt lat="46.96741" lon="10.146"><ele>1908</ele></trkpt>
<trkpt lat="46.96736" lon="10.14603"><ele>1908</ele></trkpt>
<trkpt lat="46.96733" lon="10.14608"><ele>1910</ele></trkpt>
<trkpt lat="46.96729" lon="10.1461"><ele>1910</ele></trkpt>
<trkpt lat="46.96729" lon="10.14611"><ele>1910</ele></trkpt>
<trkpt lat="46.96729" lon="10.14613"><ele>1910</ele></trkpt>
<trkpt lat="46.96729" lon="10.14613"><ele>1906</ele></trkpt>
<trkpt lat="46.9673" lon="10.14614"><ele>1906</ele></trkpt>
<trkpt lat="46.96732" lon="10.14613"><ele>1906</ele></trkpt>
<trkpt lat="46.96739" lon="10.14608"><ele>1906</ele></trkpt>
<trkpt lat="46.96747" lon="10.14605"><ele>1906</ele></trkpt>
<trkpt lat="46.9675" lon="10.14603"><ele>1906</ele></trkpt>
<trkpt lat="46.96756" lon="10.14601"><ele>1906</ele></trkpt>
<trkpt lat="46.96759" lon="10.14598"><ele>1906</ele></trkpt>
<trkpt lat="46.96762" lon="10.14594"><ele>1905</ele></trkpt>
<trkpt lat="46.96767" lon="10.14588"><ele>1905</ele></trkpt>
<trkpt lat="46.96771" lon="10.14583"><ele>1905</ele></trkpt>
<trkpt lat="46.96774" lon="10.14577"><ele>1905</ele></trkpt>
<trkpt lat="46.96778" lon="10.1457"><ele>1904</ele></trkpt>
<trkpt lat="46.96784" lon="10.14564"><ele>1904</ele></trkpt>
<trkpt lat="46.96786" lon="10.1456"><ele>1904</ele></trkpt>
<trkpt lat="46.96788" lon="10.14558"><ele>1904</ele></trkpt>
<trkpt lat="46.96789" lon="10.14556"><ele>1904</ele></trkpt>
<trkpt lat="46.96791" lon="10.14549"><ele>1904</ele></trkpt>
<trkpt lat="46.96794" lon="10.14546"><ele>1904</ele></trkpt>
<trkpt lat="46.96796" lon="10.14544"><ele>1904</ele></trkpt>
<trkpt lat="46.96799" lon="10.14542"><ele>1906</ele></trkpt>
<trkpt lat="46.96801" lon="10.14544"><ele>1906</ele></trkpt>
<trkpt lat="46.96802" lon="10.14547"><ele>1906</ele></trkpt>
<trkpt lat="46.96803" lon="10.1455"><ele>1906</ele></trkpt>
<trkpt lat="46.96802" lon="10.14552"><ele>1903</ele></trkpt>
<trkpt lat="46.96801" lon="10.14555"><ele>1903</ele></trkpt>
<trkpt lat="46.96799" lon="10.14556"><ele>1903</ele></trkpt>
<trkpt lat="46.96794" lon="10.14564"><ele>1903</ele></trkpt>
<trkpt lat="46.96786" lon="10.14573"><ele>1904</ele></trkpt>
<trkpt lat="46.96782" lon="10.14578"><ele>1904</ele></trkpt>
<trkpt lat="46.96773" lon="10.14594"><ele>1904</ele></trkpt>
<trkpt lat="46.96769" lon="10.14598"><ele>1904</ele></trkpt>
<trkpt lat="46.96766" lon="10.14602"><ele>1901</ele></trkpt>
<trkpt lat="46.96764" lon="10.14605"><ele>1901</ele></trkpt>
<trkpt lat="46.96763" lon="10.14607"><ele>1901</ele></trkpt>
<trkpt lat="46.96763" lon="10.14608"><ele>1901</ele></trkpt>
<trkpt lat="46.96764" lon="10.1461"><ele>1901</ele></trkpt>
<trkpt lat="46.96766" lon="10.1461"><ele>1901</ele></trkpt>
<trkpt lat="46.96768" lon="10.14607"><ele>1901</ele></trkpt>
<trkpt lat="46.9677" lon="10.14603"><ele>1901</ele></trkpt>
<trkpt lat="46.96776" lon="10.14596"><ele>1901</ele></trkpt>
<trkpt lat="46.96779" lon="10.14589"><ele>1901</ele></trkpt>
<trkpt lat="46.96782" lon="10.14584"><ele>1901</ele></trkpt>
<trkpt lat="46.96786" lon="10.14581"><ele>1901</ele></trkpt>
<trkpt lat="46.96788" lon="10.14583"><ele>1899</ele></trkpt>
<trkpt lat="46.96788" lon="10.14584"><ele>1899</ele></trkpt>
<trkpt lat="46.96786" lon="10.14589"><ele>1899</ele></trkpt>
<trkpt lat="46.96784" lon="10.14591"><ele>1899</ele></trkpt>
<trkpt lat="46.96781" lon="10.14594"><ele>1898</ele></trkpt>
<trkpt lat="46.96774" lon="10.14606"><ele>1898</ele></trkpt>
<trkpt lat="46.96775" lon="10.14608"><ele>1898</ele></trkpt>
<trkpt lat="46.96778" lon="10.14608"><ele>1898</ele></trkpt>
<trkpt lat="46.96784" lon="10.14601"><ele>1896</ele></trkpt>
<trkpt lat="46.96787" lon="10.14597"><ele>1896</ele></trkpt>
<trkpt lat="46.96789" lon="10.14596"><ele>1896</ele></trkpt>
<trkpt lat="46.96791" lon="10.14596"><ele>1896</ele></trkpt>
<trkpt lat="46.96792" lon="10.146"><ele>1894</ele></trkpt>
<trkpt lat="46.96791" lon="10.14603"><ele>1894</ele></trkpt>
<trkpt lat="46.96782" lon="10.14612"><ele>1894</ele></trkpt>
<trkpt lat="46.96779" lon="10.1462"><ele>1894</ele></trkpt>
<trkpt lat="46.96777" lon="10.14622"><ele>1896</ele></trkpt>
<trkpt lat="46.96771" lon="10.14631"><ele>1896</ele></trkpt>
<trkpt lat="46.96761" lon="10.14641"><ele>1896</ele></trkpt>
<trkpt lat="46.96752" lon="10.14647"><ele>1896</ele></trkpt>
<trkpt lat="46.96749" lon="10.14649"><ele>1896</ele></trkpt>
<trkpt lat="46.96747" lon="10.1465"><ele>1896</ele></trkpt>
<trkpt lat="46.96743" lon="10.14652"><ele>1896</ele></trkpt>
<trkpt lat="46.96743" lon="10.14654"><ele>1896</ele></trkpt>
<trkpt lat="46.96743" lon="10.14657"><ele>1893</ele></trkpt>
<trkpt lat="46.96745" lon="10.14657"><ele>1893</ele></trkpt>
<trkpt lat="46.96747" lon="10.14655"><ele>1893</ele></trkpt>
<trkpt lat="46.96748" lon="10.14655"><ele>1893</ele></trkpt>
<trkpt lat="46.9675" lon="10.14654"><ele>1893</ele></trkpt>
<trkpt lat="46.96755" lon="10.1465"><ele>1893</ele></trkpt>
<trkpt lat="46.96764" lon="10.14647"><ele>1893</ele></trkpt>
<trkpt lat="46.96774" lon="10.14639"><ele>1893</ele></trkpt>
<trkpt lat="46.96784" lon="10.14634"><ele>1891</ele></trkpt>
<trkpt lat="46.96791" lon="10.14628"><ele>1891</ele></trkpt>
<trkpt lat="46.96798" lon="10.14622"><ele>1891</ele></trkpt>
<trkpt lat="46.968" lon="10.1462"><ele>1891</ele></trkpt>
<trkpt lat="46.96804" lon="10.14616"><ele>1889</ele></trkpt>
<trkpt lat="46.96806" lon="10.14617"><ele>1889</ele></trkpt>
<trkpt lat="46.96806" lon="10.1462"><ele>1889</ele></trkpt>
<trkpt lat="46.96806" lon="10.14622"><ele>1889</ele></trkpt>
<trkpt lat="46.96801" lon="10.14627"><ele>1888</ele></trkpt>
<trkpt lat="46.96798" lon="10.14628"><ele>1888</ele></trkpt>
<trkpt lat="46.96797" lon="10.1463"><ele>1888</ele></trkpt>
<trkpt lat="46.96796" lon="10.14634"><ele>1888</ele></trkpt>
<trkpt lat="46.96798" lon="10.14635"><ele>1888</ele></trkpt>
<trkpt lat="46.96799" lon="10.14635"><ele>1888</ele></trkpt>
<trkpt lat="46.96801" lon="10.14634"><ele>1888</ele></trkpt>
<trkpt lat="46.96805" lon="10.1463"><ele>1888</ele></trkpt>
<trkpt lat="46.96809" lon="10.14627"><ele>1886</ele></trkpt>
<trkpt lat="46.96811" lon="10.14625"><ele>1886</ele></trkpt>
<trkpt lat="46.96814" lon="10.14622"><ele>1886</ele></trkpt>
<trkpt lat="46.96822" lon="10.14621"><ele>1886</ele></trkpt>
<trkpt lat="46.96824" lon="10.14619"><ele>1887</ele></trkpt>
<trkpt lat="46.96826" lon="10.14619"><ele>1887</ele></trkpt>
<trkpt lat="46.96828" lon="10.14619"><ele>1887</ele></trkpt>
<trkpt lat="46.96829" lon="10.14621"><ele>1887</ele></trkpt>
<trkpt lat="46.96828" lon="10.14624"><ele>1887</ele></trkpt>
<trkpt lat="46.96827" lon="10.14626"><ele>1887</ele></trkpt>
<trkpt lat="46.96814" lon="10.1463"><ele>1887</ele></trkpt>
<trkpt lat="46.96793" lon="10.14654"><ele>1887</ele></trkpt>
<trkpt lat="46.96792" lon="10.14655"><ele>1883</ele></trkpt>
<trkpt lat="46.9679" lon="10.14659"><ele>1883</ele></trkpt>
<trkpt lat="46.96785" lon="10.14667"><ele>1883</ele></trkpt>
<trkpt lat="46.96783" lon="10.14669"><ele>1883</ele></trkpt>
<trkpt lat="46.96782" lon="10.14671"><ele>1882</ele></trkpt>
<trkpt lat="46.9678" lon="10.14671"><ele>1882</ele></trkpt>
<trkpt lat="46.96778" lon="10.14669"><ele>1882</ele></trkpt>
<trkpt lat="46.96777" lon="10.14669"><ele>1882</ele></trkpt>
<trkpt lat="46.96774" lon="10.14671"><ele>1884</ele></trkpt>
<trkpt lat="46.96773" lon="10.14672"><ele>1884</ele></trkpt>
<trkpt lat="46.96771" lon="10.14673"><ele>1884</ele></trkpt>
<trkpt lat="46.9677" lon="10.14673"><ele>1884</ele></trkpt>
<trkpt lat="46.96766" lon="10.14678"><ele>1882</ele></trkpt>
<trkpt lat="46.96731" lon="10.14708"><ele>1882</ele></trkpt>
<trkpt lat="46.96673" lon="10.14767"><ele>1882</ele></trkpt>
<trkpt lat="46.96667" lon="10.14775"><ele>1882</ele></trkpt>
<trkpt lat="46.96665" lon="10.14777"><ele>1877</ele></trkpt>
<trkpt lat="46.96665" lon="10.1478"><ele>1877</ele></trkpt>
<trkpt lat="46.96666" lon="10.14783"><ele>1877</ele></trkpt>
<trkpt lat="46.96668" lon="10.14784"><ele>1877</ele></trkpt>
<trkpt lat="46.96669" lon="10.14784"><ele>1874</ele></trkpt>
<trkpt lat="46.96671" lon="10.14781"><ele>1874</ele></trkpt>
<trkpt lat="46.96677" lon="10.14775"><ele>1874</ele></trkpt>
<trkpt lat="46.96702" lon="10.14756"><ele>1874</ele></trkpt>
<trkpt lat="46.96723" lon="10.14738"><ele>1874</ele></trkpt>
<trkpt lat="46.96732" lon="10.1473"><ele>1874</ele></trkpt>
<trkpt lat="46.96735" lon="10.14729"><ele>1874</ele></trkpt>
<trkpt lat="46.96737" lon="10.14728"><ele>1874</ele></trkpt>
<trkpt lat="46.96738" lon="10.1473"><ele>1871</ele></trkpt>
<trkpt lat="46.96739" lon="10.14733"><ele>1871</ele></trkpt>
<trkpt lat="46.96738" lon="10.14736"><ele>1871</ele></trkpt>
<trkpt lat="46.96735" lon="10.14738"><ele>1871</ele></trkpt>
<trkpt lat="46.96728" lon="10.14746"><ele>1869</ele></trkpt>
<trkpt lat="46.96723" lon="10.14749"><ele>1869</ele></trkpt>
<trkpt lat="46.96677" lon="10.14791"><ele>1869</ele></trkpt>
<trkpt lat="46.96675" lon="10.14795"><ele>1869</ele></trkpt>
<trkpt lat="46.9667" lon="10.148"><ele>1871</ele></trkpt>
<trkpt lat="46.9667" lon="10.14804"><ele>1871</ele></trkpt>
<trkpt lat="46.96671" lon="10.14805"><ele>1871</ele></trkpt>
<trkpt lat="46.96672" lon="10.14807"><ele>1871</ele></trkpt>
<trkpt lat="46.96674" lon="10.14805"><ele>1865</ele></trkpt>
<trkpt lat="46.96675" lon="10.148"><ele>1865</ele></trkpt>
<trkpt lat="46.96677" lon="10.14797"><ele>1865</ele></trkpt>
<trkpt lat="46.96682" lon="10.14793"><ele>1865</ele></trkpt>
<trkpt lat="46.96688" lon="10.14791"><ele>1866</ele></trkpt>
<trkpt lat="46.96696" lon="10.14784"><ele>1866</ele></trkpt>
<trkpt lat="46.96703" lon="10.14779"><ele>1866</ele></trkpt>
<trkpt lat="46.96709" lon="10.14774"><ele>1866</ele></trkpt>
<trkpt lat="46.96718" lon="10.14769"><ele>1864</ele></trkpt>
<trkpt lat="46.96726" lon="10.14765"><ele>1864</ele></trkpt>
<trkpt lat="46.96738" lon="10.14762"><ele>1864</ele></trkpt>
<trkpt lat="46.96741" lon="10.14761"><ele>1864</ele></trkpt>
<trkpt lat="46.96744" lon="10.1476"><ele>1866</ele></trkpt>
<trkpt lat="46.96747" lon="10.14757"><ele>1866</ele></trkpt>
<trkpt lat="46.96747" lon="10.14755"><ele>1866</ele></trkpt>
<trkpt lat="46.96748" lon="10.14753"><ele>1866</ele></trkpt>
<trkpt lat="46.9675" lon="10.14753"><ele>1866</ele></trkpt>
<trkpt lat="46.96751" lon="10.14753"><ele>1866</ele></trkpt>
<trkpt lat="46.96752" lon="10.14753"><ele>1866</ele></trkpt>
<trkpt lat="46.96752" lon="10.14758"><ele>1866</ele></trkpt>
<trkpt lat="46.96751" lon="10.1476"><ele>1866</ele></trkpt>
<trkpt lat="46.96749" lon="10.14763"><ele>1866</ele></trkpt>
<trkpt lat="46.96748" lon="10.14763"><ele>1866</ele></trkpt>
<trkpt lat="46.96746" lon="10.14764"><ele>1866</ele></trkpt>
<trkpt lat="46.96744" lon="10.14764"><ele>1866</ele></trkpt>
<trkpt lat="46.96743" lon="10.14765"><ele>1866</ele></trkpt>
<trkpt lat="46.96743" lon="10.14767"><ele>1866</ele></trkpt>
<trkpt lat="46.96743" lon="10.14769"><ele>1866</ele></trkpt>
<trkpt lat="46.96745" lon="10.14771"><ele>1863</ele></trkpt>
<trkpt lat="46.96746" lon="10.1477"><ele>1863</ele></trkpt>
<trkpt lat="46.96748" lon="10.1477"><ele>1863</ele></trkpt>
<trkpt lat="46.96749" lon="10.1477"><ele>1863</ele></trkpt>
<trkpt lat="46.9675" lon="10.1477"><ele>1863</ele></trkpt>
<trkpt lat="46.96755" lon="10.14769"><ele>1863</ele></trkpt>
<trkpt lat="46.96762" lon="10.14765"><ele>1863</ele></trkpt>
<trkpt lat="46.9677" lon="10.14763"><ele>1863</ele></trkpt>
<trkpt lat="46.9678" lon="10.14758"><ele>1859</ele></trkpt>
<trkpt lat="46.96784" lon="10.14756"><ele>1859</ele></trkpt>
<trkpt lat="46.96784" lon="10.14756"><ele>1859</ele></trkpt>
<trkpt lat="46.96787" lon="10.14753"><ele>1859</ele></trkpt>
<trkpt lat="46.96789" lon="10.14753"><ele>1857</ele></trkpt>
<trkpt lat="46.9679" lon="10.14753"><ele>1857</ele></trkpt>
<trkpt lat="46.96791" lon="10.14753"><ele>1857</ele></trkpt>
<trkpt lat="46.96792" lon="10.14755"><ele>1857</ele></trkpt>
<trkpt lat="46.96791" lon="10.14757"><ele>1857</ele></trkpt>
<trkpt lat="46.9679" lon="10.14758"><ele>1857</ele></trkpt>
<trkpt lat="46.96789" lon="10.14758"><ele>1857</ele></trkpt>
<trkpt lat="46.96786" lon="10.14761"><ele>1857</ele></trkpt>
<trkpt lat="46.96784" lon="10.14763"><ele>1859</ele></trkpt>
<trkpt lat="46.96756" lon="10.14791"><ele>1859</ele></trkpt>
<trkpt lat="46.96746" lon="10.14796"><ele>1859</ele></trkpt>
<trkpt lat="46.96744" lon="10.14798"><ele>1859</ele></trkpt>
<trkpt lat="46.96744" lon="10.148"><ele>1856</ele></trkpt>
<trkpt lat="46.96746" lon="10.14803"><ele>1856</ele></trkpt>
<trkpt lat="46.96749" lon="10.14803"><ele>1856</ele></trkpt>
<trkpt lat="46.96753" lon="10.14802"><ele>1856</ele></trkpt>
<trkpt lat="46.96762" lon="10.14799"><ele>1853</ele></trkpt>
<trkpt lat="46.96772" lon="10.14791"><ele>1853</ele></trkpt>
<trkpt lat="46.96785" lon="10.14784"><ele>1853</ele></trkpt>
<trkpt lat="46.96793" lon="10.14774"><ele>1853</ele></trkpt>
<trkpt lat="46.96798" lon="10.1477"><ele>1852</ele></trkpt>
<trkpt lat="46.968" lon="10.14769"><ele>1852</ele></trkpt>
<trkpt lat="46.96801" lon="10.1477"><ele>1852</ele></trkpt>
<trkpt lat="46.96801" lon="10.14771"><ele>1852</ele></trkpt>
<trkpt lat="46.96801" lon="10.14772"><ele>1852</ele></trkpt>
<trkpt lat="46.96796" lon="10.14777"><ele>1852</ele></trkpt>
<trkpt lat="46.96783" lon="10.14798"><ele>1852</ele></trkpt>
<trkpt lat="46.96779" lon="10.14805"><ele>1852</ele></trkpt>
<trkpt lat="46.96769" lon="10.14814"><ele>1848</ele></trkpt>
<trkpt lat="46.96763" lon="10.14817"><ele>1848</ele></trkpt>
<trkpt lat="46.96757" lon="10.14819"><ele>1848</ele></trkpt>
<trkpt lat="46.96756" lon="10.14822"><ele>1848</ele></trkpt>
<trkpt lat="46.96756" lon="10.14824"><ele>1848</ele></trkpt>
<trkpt lat="46.96757" lon="10.14826"><ele>1848</ele></trkpt>
<trkpt lat="46.96757" lon="10.14828"><ele>1848</ele></trkpt>
<trkpt lat="46.96759" lon="10.14828"><ele>1848</ele></trkpt>
<trkpt lat="46.96762" lon="10.14823"><ele>1846</ele></trkpt>
<trkpt lat="46.96782" lon="10.14809"><ele>1846</ele></trkpt>
<trkpt lat="46.96794" lon="10.14803"><ele>1846</ele></trkpt>
<trkpt lat="46.968" lon="10.14797"><ele>1846</ele></trkpt>
<trkpt lat="46.96801" lon="10.14796"><ele>1845</ele></trkpt>
<trkpt lat="46.96802" lon="10.14797"><ele>1845</ele></trkpt>
<trkpt lat="46.96803" lon="10.14799"><ele>1845</ele></trkpt>
<trkpt lat="46.96802" lon="10.14803"><ele>1845</ele></trkpt>
<trkpt lat="46.96796" lon="10.14808"><ele>1842</ele></trkpt>
<trkpt lat="46.9678" lon="10.14816"><ele>1842</ele></trkpt>
<trkpt lat="46.96772" lon="10.14823"><ele>1842</ele></trkpt>
<trkpt lat="46.96764" lon="10.14832"><ele>1842</ele></trkpt>
<trkpt lat="46.96761" lon="10.14833"><ele>1843</ele></trkpt>
<trkpt lat="46.9676" lon="10.14836"><ele>1843</ele></trkpt>
<trkpt lat="46.9676" lon="10.14838"><ele>1843</ele></trkpt>
<trkpt lat="46.9676" lon="10.1484"><ele>1843</ele></trkpt>
<trkpt lat="46.96762" lon="10.1484"><ele>1843</ele></trkpt>
<trkpt lat="46.96764" lon="10.14838"><ele>1843</ele></trkpt>
<trkpt lat="46.96767" lon="10.14836"><ele>1843</ele></trkpt>
<trkpt lat="46.96778" lon="10.14832"><ele>1843</ele></trkpt>
<trkpt lat="46.96786" lon="10.14826"><ele>1842</ele></trkpt>
<trkpt lat="46.96787" lon="10.14824"><ele>1842</ele></trkpt>
<trkpt lat="46.96788" lon="10.14823"><ele>1842</ele></trkpt>
<trkpt lat="46.9679" lon="10.14824"><ele>1842</ele></trkpt>
<trkpt lat="46.9679" lon="10.14826"><ele>1840</ele></trkpt>
<trkpt lat="46.9679" lon="10.14828"><ele>1840</ele></trkpt>
<trkpt lat="46.96787" lon="10.14832"><ele>1840</ele></trkpt>
<trkpt lat="46.96781" lon="10.14836"><ele>1840</ele></trkpt>
<trkpt lat="46.96777" lon="10.14838"><ele>1841</ele></trkpt>
<trkpt lat="46.96775" lon="10.1484"><ele>1841</ele></trkpt>
<trkpt lat="46.96776" lon="10.14842"><ele>1841</ele></trkpt>
<trkpt lat="46.96778" lon="10.14844"><ele>1841</ele></trkpt>
<trkpt lat="46.96781" lon="10.14844"><ele>1836</ele></trkpt>
<trkpt lat="46.96786" lon="10.14838"><ele>1836</ele></trkpt>
<trkpt lat="46.96793" lon="10.14838"><ele>1836</ele></trkpt>
<trkpt lat="46.96811" lon="10.14826"><ele>1836</ele></trkpt>
<trkpt lat="46.96839" lon="10.14808"><ele>1835</ele></trkpt>
<trkpt lat="46.96842" lon="10.14807"><ele>1835</ele></trkpt>
<trkpt lat="46.96848" lon="10.14808"><ele>1835</ele></trkpt>
<trkpt lat="46.96851" lon="10.14805"><ele>1835</ele></trkpt>
<trkpt lat="46.96855" lon="10.14803"><ele>1836</ele></trkpt>
<trkpt lat="46.96857" lon="10.14802"><ele>1836</ele></trkpt>
<trkpt lat="46.96862" lon="10.14802"><ele>1836</ele></trkpt>
<trkpt lat="46.96866" lon="10.148"><ele>1836</ele></trkpt>
<trkpt lat="46.96872" lon="10.148"><ele>1835</ele></trkpt>
<trkpt lat="46.96876" lon="10.148"><ele>1835</ele></trkpt>
<trkpt lat="46.9688" lon="10.148"><ele>1835</ele></trkpt>
<trkpt lat="46.96882" lon="10.148"><ele>1835</ele></trkpt>
<trkpt lat="46.96892" lon="10.14797"><ele>1833</ele></trkpt>
<trkpt lat="46.96907" lon="10.14786"><ele>1833</ele></trkpt>
<trkpt lat="46.96919" lon="10.14779"><ele>1833</ele></trkpt>
<trkpt lat="46.96936" lon="10.14757"><ele>1833</ele></trkpt>
<trkpt lat="46.96939" lon="10.14753"><ele>1830</ele></trkpt>
<trkpt lat="46.96943" lon="10.14753"><ele>1830</ele></trkpt>
<trkpt lat="46.96951" lon="10.14753"><ele>1830</ele></trkpt>
<trkpt lat="46.96953" lon="10.14752"><ele>1830</ele></trkpt>
<trkpt lat="46.96956" lon="10.14748"><ele>1830</ele></trkpt>
<trkpt lat="46.96962" lon="10.14739"><ele>1830</ele></trkpt>
<trkpt lat="46.96964" lon="10.14737"><ele>1830</ele></trkpt>
<trkpt lat="46.96966" lon="10.14736"><ele>1830</ele></trkpt>
<trkpt lat="46.96967" lon="10.14738"><ele>1831</ele></trkpt>
<trkpt lat="46.96968" lon="10.14739"><ele>1831</ele></trkpt>
<trkpt lat="46.96967" lon="10.14746"><ele>1831</ele></trkpt>
<trkpt lat="46.96964" lon="10.14755"><ele>1831</ele></trkpt>
<trkpt lat="46.96948" lon="10.14777"><ele>1827</ele></trkpt>
<trkpt lat="46.96936" lon="10.14794"><ele>1827</ele></trkpt>
<trkpt lat="46.96929" lon="10.14805"><ele>1827</ele></trkpt>
<trkpt lat="46.96928" lon="10.14812"><ele>1827</ele></trkpt>
<trkpt lat="46.96928" lon="10.14817"><ele>1822</ele></trkpt>
<trkpt lat="46.96929" lon="10.14819"><ele>1822</ele></trkpt>
<trkpt lat="46.9693" lon="10.14819"><ele>1822</ele></trkpt>
<trkpt lat="46.96932" lon="10.14819"><ele>1822</ele></trkpt>
<trkpt lat="46.96933" lon="10.14818"><ele>1822</ele></trkpt>
<trkpt lat="46.96936" lon="10.14813"><ele>1822</ele></trkpt>
<trkpt lat="46.96945" lon="10.148"><ele>1822</ele></trkpt>
<trkpt lat="46.96955" lon="10.1479"><ele>1822</ele></trkpt>
<trkpt lat="46.96967" lon="10.14777"><ele>1824</ele></trkpt>
<trkpt lat="46.96982" lon="10.14763"><ele>1824</ele></trkpt>
<trkpt lat="46.96989" lon="10.14758"><ele>1824</ele></trkpt>
<trkpt lat="46.96994" lon="10.14753"><ele>1824</ele></trkpt>
<trkpt lat="46.96995" lon="10.14752"><ele>1824</ele></trkpt>
<trkpt lat="46.96996" lon="10.1475"><ele>1824</ele></trkpt>
<trkpt lat="46.96997" lon="10.14744"><ele>1824</ele></trkpt>
<trkpt lat="46.96998" lon="10.14741"><ele>1824</ele></trkpt>
<trkpt lat="46.97" lon="10.14739"><ele>1824</ele></trkpt>
<trkpt lat="46.97003" lon="10.14741"><ele>1824</ele></trkpt>
<trkpt lat="46.97005" lon="10.14741"><ele>1824</ele></trkpt>
<trkpt lat="46.97007" lon="10.14739"><ele>1824</ele></trkpt>
<trkpt lat="46.97009" lon="10.14735"><ele>1823</ele></trkpt>
<trkpt lat="46.9701" lon="10.14734"><ele>1823</ele></trkpt>
<trkpt lat="46.97012" lon="10.14733"><ele>1823</ele></trkpt>
<trkpt lat="46.97012" lon="10.1473"><ele>1823</ele></trkpt>
<trkpt lat="46.97013" lon="10.14728"><ele>1822</ele></trkpt>
<trkpt lat="46.97013" lon="10.14725"><ele>1822</ele></trkpt>
<trkpt lat="46.97014" lon="10.14724"><ele>1822</ele></trkpt>
<trkpt lat="46.97016" lon="10.14727"><ele>1822</ele></trkpt>
<trkpt lat="46.97017" lon="10.14732"><ele>1822</ele></trkpt>
<trkpt lat="46.97018" lon="10.14756"><ele>1822</ele></trkpt>
<trkpt lat="46.97016" lon="10.14762"><ele>1822</ele></trkpt>
<trkpt lat="46.97016" lon="10.14766"><ele>1822</ele></trkpt>
<trkpt lat="46.97018" lon="10.14772"><ele>1820</ele></trkpt>
<trkpt lat="46.97018" lon="10.14777"><ele>1820</ele></trkpt>
<trkpt lat="46.97017" lon="10.14781"><ele>1820</ele></trkpt>
<trkpt lat="46.97015" lon="10.14788"><ele>1820</ele></trkpt>
<trkpt lat="46.97013" lon="10.14793"><ele>1818</ele></trkpt>
<trkpt lat="46.97012" lon="10.14797"><ele>1818</ele></trkpt>
<trkpt lat="46.97011" lon="10.148"><ele>1818</ele></trkpt>
<trkpt lat="46.97009" lon="10.14802"><ele>1818</ele></trkpt>
<trkpt lat="46.97003" lon="10.14805"><ele>1818</ele></trkpt>
<trkpt lat="46.97" lon="10.14808"><ele>1818</ele></trkpt>
<trkpt lat="46.96998" lon="10.14809"><ele>1818</ele></trkpt>
<trkpt lat="46.96994" lon="10.14814"><ele>1818</ele></trkpt>
<trkpt lat="46.96991" lon="10.14821"><ele>1816</ele></trkpt>
<trkpt lat="46.96988" lon="10.14825"><ele>1816</ele></trkpt>
<trkpt lat="46.9698" lon="10.14833"><ele>1816</ele></trkpt>
<trkpt lat="46.96973" lon="10.1484"><ele>1816</ele></trkpt>
<trkpt lat="46.96971" lon="10.14842"><ele>1814</ele></trkpt>
<trkpt lat="46.96969" lon="10.14847"><ele>1814</ele></trkpt>
<trkpt lat="46.9696" lon="10.14861"><ele>1814</ele></trkpt>
<trkpt lat="46.96957" lon="10.14864"><ele>1814</ele></trkpt>
<trkpt lat="46.96951" lon="10.14866"><ele>1815</ele></trkpt>
<trkpt lat="46.96941" lon="10.14871"><ele>1815</ele></trkpt>
<trkpt lat="46.96939" lon="10.14874"><ele>1815</ele></trkpt>
<trkpt lat="46.96935" lon="10.14879"><ele>1815</ele></trkpt>
<trkpt lat="46.96932" lon="10.14883"><ele>1813</ele></trkpt>
<trkpt lat="46.96929" lon="10.14889"><ele>1813</ele></trkpt>
<trkpt lat="46.96929" lon="10.14894"><ele>1813</ele></trkpt>
<trkpt lat="46.96928" lon="10.14896"><ele>1813</ele></trkpt>
<trkpt lat="46.96922" lon="10.14903"><ele>1812</ele></trkpt>
<trkpt lat="46.96921" lon="10.14905"><ele>1812</ele></trkpt>
<trkpt lat="46.96919" lon="10.14913"><ele>1812</ele></trkpt>
<trkpt lat="46.96916" lon="10.14925"><ele>1812</ele></trkpt>
<trkpt lat="46.96914" lon="10.14933"><ele>1810</ele></trkpt>
<trkpt lat="46.96912" lon="10.14943"><ele>1810</ele></trkpt>
<trkpt lat="46.96911" lon="10.14953"><ele>1810</ele></trkpt>
<trkpt lat="46.96907" lon="10.14962"><ele>1810</ele></trkpt>
<trkpt lat="46.96905" lon="10.14968"><ele>1811</ele></trkpt>
<trkpt lat="46.96903" lon="10.14969"><ele>1811</ele></trkpt>
<trkpt lat="46.96902" lon="10.14972"><ele>1811</ele></trkpt>
<trkpt lat="46.96902" lon="10.14974"><ele>1811</ele></trkpt>
<trkpt lat="46.96902" lon="10.14977"><ele>1811</ele></trkpt>
<trkpt lat="46.96901" lon="10.1498"><ele>1811</ele></trkpt>
<trkpt lat="46.96897" lon="10.14988"><ele>1811</ele></trkpt>
<trkpt lat="46.96895" lon="10.14996"><ele>1811</ele></trkpt>
<trkpt lat="46.96893" lon="10.15001"><ele>1810</ele></trkpt>
<trkpt lat="46.96889" lon="10.15021"><ele>1810</ele></trkpt>
<trkpt lat="46.96888" lon="10.15023"><ele>1810</ele></trkpt>
<trkpt lat="46.96885" lon="10.15023"><ele>1810</ele></trkpt>
<trkpt lat="46.96884" lon="10.15024"><ele>1807</ele></trkpt>
<trkpt lat="46.96882" lon="10.15027"><ele>1807</ele></trkpt>
<trkpt lat="46.96882" lon="10.15029"><ele>1807</ele></trkpt>
<trkpt lat="46.96881" lon="10.1503"><ele>1807</ele></trkpt>
<trkpt lat="46.9688" lon="10.15032"><ele>1807</ele></trkpt>
<trkpt lat="46.9688" lon="10.15033"><ele>1807</ele></trkpt>
<trkpt lat="46.96879" lon="10.15033"><ele>1807</ele></trkpt>
<trkpt lat="46.96878" lon="10.15035"><ele>1807</ele></trkpt>
<trkpt lat="46.96878" lon="10.15038"><ele>1805</ele></trkpt>
<trkpt lat="46.96878" lon="10.15039"><ele>1805</ele></trkpt>
<trkpt lat="46.96877" lon="10.1504"><ele>1805</ele></trkpt>
<trkpt lat="46.96876" lon="10.15041"><ele>1805</ele></trkpt>
<trkpt lat="46.96876" lon="10.15043"><ele>1805</ele></trkpt>
<trkpt lat="46.96875" lon="10.15044"><ele>1805</ele></trkpt>
<trkpt lat="46.96874" lon="10.15044"><ele>1805</ele></trkpt>
<trkpt lat="46.96873" lon="10.15047"><ele>1805</ele></trkpt>
<trkpt lat="46.9687" lon="10.15049"><ele>1805</ele></trkpt>
<trkpt lat="46.96859" lon="10.15058"><ele>1805</ele></trkpt>
<trkpt lat="46.96851" lon="10.15069"><ele>1805</ele></trkpt>
<trkpt lat="46.96839" lon="10.15082"><ele>1805</ele></trkpt>
<trkpt lat="46.96832" lon="10.15089"><ele>1803</ele></trkpt>
<trkpt lat="46.96827" lon="10.15091"><ele>1803</ele></trkpt>
<trkpt lat="46.96821" lon="10.15091"><ele>1803</ele></trkpt>
<trkpt lat="46.96817" lon="10.15096"><ele>1803</ele></trkpt>
<trkpt lat="46.96814" lon="10.15096"><ele>1803</ele></trkpt>
<trkpt lat="46.96807" lon="10.15096"><ele>1803</ele></trkpt>
<trkpt lat="46.96805" lon="10.15098"><ele>1803</ele></trkpt>
<trkpt lat="46.96802" lon="10.15101"><ele>1803</ele></trkpt>
<trkpt lat="46.968" lon="10.15103"><ele>1802</ele></trkpt>
<trkpt lat="46.96795" lon="10.15102"><ele>1802</ele></trkpt>
<trkpt lat="46.96791" lon="10.15103"><ele>1802</ele></trkpt>
<trkpt lat="46.96775" lon="10.15104"><ele>1802</ele></trkpt>
<trkpt lat="46.96766" lon="10.15104"><ele>1797</ele></trkpt>
<trkpt lat="46.96755" lon="10.15105"><ele>1797</ele></trkpt>
<trkpt lat="46.96747" lon="10.15105"><ele>1797</ele></trkpt>
<trkpt lat="46.96741" lon="10.15103"><ele>1797</ele></trkpt>
<trkpt lat="46.96738" lon="10.15104"><ele>1795</ele></trkpt>
<trkpt lat="46.96735" lon="10.15105"><ele>1795</ele></trkpt>
<trkpt lat="46.96733" lon="10.15108"><ele>1795</ele></trkpt>
<trkpt lat="46.96731" lon="10.15109"><ele>1795</ele></trkpt>
<trkpt lat="46.96729" lon="10.15109"><ele>1795</ele></trkpt>
<trkpt lat="46.96726" lon="10.15108"><ele>1795</ele></trkpt>
<trkpt lat="46.96724" lon="10.15109"><ele>1795</ele></trkpt>
<trkpt lat="46.96723" lon="10.1511"><ele>1795</ele></trkpt>
<trkpt lat="46.96723" lon="10.15114"><ele>1793</ele></trkpt>
<trkpt lat="46.96724" lon="10.15116"><ele>1793</ele></trkpt>
<trkpt lat="46.96726" lon="10.15117"><ele>1793</ele></trkpt>
<trkpt lat="46.96731" lon="10.15117"><ele>1793</ele></trkpt>
<trkpt lat="46.96734" lon="10.15116"><ele>1793</ele></trkpt>
<trkpt lat="46.96735" lon="10.15117"><ele>1793</ele></trkpt>
<trkpt lat="46.96736" lon="10.15118"><ele>1793</ele></trkpt>
<trkpt lat="46.96737" lon="10.15119"><ele>1793</ele></trkpt>
<trkpt lat="46.96736" lon="10.15123"><ele>1792</ele></trkpt>
<trkpt lat="46.96735" lon="10.15124"><ele>1792</ele></trkpt>
<trkpt lat="46.96734" lon="10.15124"><ele>1792</ele></trkpt>
<trkpt lat="46.96733" lon="10.15124"><ele>1792</ele></trkpt>
<trkpt lat="46.96729" lon="10.15124"><ele>1792</ele></trkpt>
<trkpt lat="46.96726" lon="10.15126"><ele>1792</ele></trkpt>
<trkpt lat="46.96725" lon="10.15126"><ele>1792</ele></trkpt>
<trkpt lat="46.96724" lon="10.15127"><ele>1792</ele></trkpt>
<trkpt lat="46.96723" lon="10.1513"><ele>1791</ele></trkpt>
<trkpt lat="46.96722" lon="10.15131"><ele>1791</ele></trkpt>
<trkpt lat="46.9672" lon="10.15131"><ele>1791</ele></trkpt>
<trkpt lat="46.96716" lon="10.15131"><ele>1791</ele></trkpt>
<trkpt lat="46.96712" lon="10.15135"><ele>1791</ele></trkpt>
<trkpt lat="46.96702" lon="10.15147"><ele>1791</ele></trkpt>
<trkpt lat="46.96676" lon="10.15169"><ele>1791</ele></trkpt>
<trkpt lat="46.96668" lon="10.15174"><ele>1791</ele></trkpt>
<trkpt lat="46.9666" lon="10.15182"><ele>1787</ele></trkpt>
<trkpt lat="46.96655" lon="10.15189"><ele>1787</ele></trkpt>
<trkpt lat="46.96651" lon="10.15192"><ele>1787</ele></trkpt>
<trkpt lat="46.9665" lon="10.15194"><ele>1787</ele></trkpt>
<trkpt lat="46.96651" lon="10.15201"><ele>1785</ele></trkpt>
<trkpt lat="46.96653" lon="10.15203"><ele>1785</ele></trkpt>
<trkpt lat="46.96656" lon="10.15204"><ele>1785</ele></trkpt>
<trkpt lat="46.96662" lon="10.15203"><ele>1785</ele></trkpt>
<trkpt lat="46.96665" lon="10.15203"><ele>1784</ele></trkpt>
<trkpt lat="46.96666" lon="10.15204"><ele>1784</ele></trkpt>
<trkpt lat="46.96667" lon="10.15206"><ele>1784</ele></trkpt>
<trkpt lat="46.96667" lon="10.15208"><ele>1784</ele></trkpt>
<trkpt lat="46.96666" lon="10.1521"><ele>1784</ele></trkpt>
<trkpt lat="46.96663" lon="10.15212"><ele>1784</ele></trkpt>
<trkpt lat="46.96658" lon="10.15215"><ele>1784</ele></trkpt>
<trkpt lat="46.96654" lon="10.15218"><ele>1784</ele></trkpt>
<trkpt lat="46.96654" lon="10.15224"><ele>1784</ele></trkpt>
<trkpt lat="46.96657" lon="10.1523"><ele>1784</ele></trkpt>
<trkpt lat="46.96659" lon="10.15231"><ele>1784</ele></trkpt>
<trkpt lat="46.96662" lon="10.15232"><ele>1784</ele></trkpt>
<trkpt lat="46.96663" lon="10.15236"><ele>1783</ele></trkpt>
<trkpt lat="46.96662" lon="10.15239"><ele>1783</ele></trkpt>
<trkpt lat="46.96661" lon="10.15241"><ele>1783</ele></trkpt>
<trkpt lat="46.96659" lon="10.15241"><ele>1783</ele></trkpt>
<trkpt lat="46.96658" lon="10.15246"><ele>1782</ele></trkpt>
<trkpt lat="46.96659" lon="10.15248"><ele>1782</ele></trkpt>
<trkpt lat="46.96661" lon="10.15249"><ele>1782</ele></trkpt>
<trkpt lat="46.96664" lon="10.15249"><ele>1782</ele></trkpt>
<trkpt lat="46.9667" lon="10.1525"><ele>1781</ele></trkpt>
<trkpt lat="46.96674" lon="10.15251"><ele>1781</ele></trkpt>
<trkpt lat="46.96675" lon="10.15253"><ele>1781</ele></trkpt>
<trkpt lat="46.96676" lon="10.15255"><ele>1781</ele></trkpt>
<trkpt lat="46.96676" lon="10.15258"><ele>1779</ele></trkpt>
<trkpt lat="46.96674" lon="10.15264"><ele>1779</ele></trkpt>
<trkpt lat="46.96671" lon="10.15271"><ele>1779</ele></trkpt>
<trkpt lat="46.96667" lon="10.15283"><ele>1779</ele></trkpt>
<trkpt lat="46.96667" lon="10.15286"><ele>1778</ele></trkpt>
<trkpt lat="46.96667" lon="10.15291"><ele>1778</ele></trkpt>
<trkpt lat="46.96666" lon="10.15296"><ele>1778</ele></trkpt>
<trkpt lat="46.96667" lon="10.15301"><ele>1778</ele></trkpt>
<trkpt lat="46.96668" lon="10.15307"><ele>1777</ele></trkpt>
<trkpt lat="46.96668" lon="10.15314"><ele>1777</ele></trkpt>
<trkpt lat="46.96668" lon="10.15318"><ele>1777</ele></trkpt>
<trkpt lat="46.96666" lon="10.15324"><ele>1777</ele></trkpt>
<trkpt lat="46.96665" lon="10.15326"><ele>1777</ele></trkpt>
<trkpt lat="46.96664" lon="10.15329"><ele>1777</ele></trkpt>
<trkpt lat="46.96662" lon="10.15332"><ele>1777</ele></trkpt>
<trkpt lat="46.96661" lon="10.15335"><ele>1777</ele></trkpt>
<trkpt lat="46.96662" lon="10.15338"><ele>1777</ele></trkpt>
<trkpt lat="46.96662" lon="10.1534"><ele>1777</ele></trkpt>
<trkpt lat="46.96663" lon="10.1534"><ele>1777</ele></trkpt>
<trkpt lat="46.96662" lon="10.15342"><ele>1777</ele></trkpt>
<trkpt lat="46.96662" lon="10.15343"><ele>1776</ele></trkpt>
<trkpt lat="46.96663" lon="10.15344"><ele>1776</ele></trkpt>
<trkpt lat="46.96663" lon="10.15345"><ele>1776</ele></trkpt>
<trkpt lat="46.96663" lon="10.15346"><ele>1776</ele></trkpt>
<trkpt lat="46.96662" lon="10.15346"><ele>1776</ele></trkpt>
<trkpt lat="46.96661" lon="10.15347"><ele>1776</ele></trkpt>
<trkpt lat="46.96659" lon="10.15348"><ele>1776</ele></trkpt>
<trkpt lat="46.96657" lon="10.15349"><ele>1776</ele></trkpt>
<trkpt lat="46.96655" lon="10.15349"><ele>1776</ele></trkpt>
<trkpt lat="46.96653" lon="10.15351"><ele>1776</ele></trkpt>
<trkpt lat="46.96652" lon="10.15352"><ele>1776</ele></trkpt>
<trkpt lat="46.96651" lon="10.15354"><ele>1776</ele></trkpt>
<trkpt lat="46.96651" lon="10.15357"><ele>1774</ele></trkpt>
<trkpt lat="46.96653" lon="10.15357"><ele>1774</ele></trkpt>
<trkpt lat="46.96656" lon="10.15356"><ele>1774</ele></trkpt>
<trkpt lat="46.96659" lon="10.15354"><ele>1774</ele></trkpt>
<trkpt lat="46.96662" lon="10.15353"><ele>1773</ele></trkpt>
<trkpt lat="46.96663" lon="10.15354"><ele>1773</ele></trkpt>
<trkpt lat="46.96665" lon="10.15353"><ele>1773</ele></trkpt>
<trkpt lat="46.96666" lon="10.15353"><ele>1773</ele></trkpt>
<trkpt lat="46.96666" lon="10.15353"><ele>1772</ele></trkpt>
<trkpt lat="46.96667" lon="10.15354"><ele>1772</ele></trkpt>
<trkpt lat="46.96667" lon="10.15357"><ele>1772</ele></trkpt>
<trkpt lat="46.96667" lon="10.15358"><ele>1772</ele></trkpt>
<trkpt lat="46.96666" lon="10.15359"><ele>1772</ele></trkpt>
<trkpt lat="46.96663" lon="10.1536"><ele>1772</ele></trkpt>
<trkpt lat="46.96659" lon="10.15362"><ele>1772</ele></trkpt>
<trkpt lat="46.96658" lon="10.15363"><ele>1772</ele></trkpt>
<trkpt lat="46.96655" lon="10.15367"><ele>1772</ele></trkpt>
<trkpt lat="46.96654" lon="10.15368"><ele>1772</ele></trkpt>
<trkpt lat="46.96651" lon="10.15368"><ele>1772</ele></trkpt>
<trkpt lat="46.96651" lon="10.15368"><ele>1772</ele></trkpt>
<trkpt lat="46.9665" lon="10.1537"><ele>1772</ele></trkpt>
<trkpt lat="46.96651" lon="10.15372"><ele>1772</ele></trkpt>
<trkpt lat="46.9665" lon="10.15374"><ele>1772</ele></trkpt>
<trkpt lat="46.96649" lon="10.15376"><ele>1772</ele></trkpt>
<trkpt lat="46.96648" lon="10.15377"><ele>1772</ele></trkpt>
<trkpt lat="46.96645" lon="10.15379"><ele>1772</ele></trkpt>
<trkpt lat="46.96644" lon="10.1538"><ele>1772</ele></trkpt>
<trkpt lat="46.96643" lon="10.15381"><ele>1772</ele></trkpt>
<trkpt lat="46.96643" lon="10.15384"><ele>1771</ele></trkpt>
<trkpt lat="46.96643" lon="10.15387"><ele>1771</ele></trkpt>
<trkpt lat="46.96643" lon="10.15389"><ele>1771</ele></trkpt>
<trkpt lat="46.96644" lon="10.15391"><ele>1771</ele></trkpt>
<trkpt lat="46.96646" lon="10.15391"><ele>1771</ele></trkpt>
<trkpt lat="46.96647" lon="10.15393"><ele>1771</ele></trkpt>
<trkpt lat="46.96649" lon="10.15391"><ele>1771</ele></trkpt>
<trkpt lat="46.96654" lon="10.15382"><ele>1771</ele></trkpt>
<trkpt lat="46.9666" lon="10.15377"><ele>1770</ele></trkpt>
<trkpt lat="46.96667" lon="10.15373"><ele>1770</ele></trkpt>
<trkpt lat="46.96675" lon="10.15368"><ele>1770</ele></trkpt>
<trkpt lat="46.96682" lon="10.15359"><ele>1770</ele></trkpt>
<trkpt lat="46.96687" lon="10.15353"><ele>1766</ele></trkpt>
<trkpt lat="46.96689" lon="10.15349"><ele>1766</ele></trkpt>
<trkpt lat="46.96694" lon="10.15342"><ele>1766</ele></trkpt>
<trkpt lat="46.96697" lon="10.15337"><ele>1766</ele></trkpt>
<trkpt lat="46.96698" lon="10.15332"><ele>1767</ele></trkpt>
<trkpt lat="46.967" lon="10.15329"><ele>1767</ele></trkpt>
<trkpt lat="46.96702" lon="10.15328"><ele>1767</ele></trkpt>
<trkpt lat="46.96705" lon="10.15329"><ele>1767</ele></trkpt>
<trkpt lat="46.96707" lon="10.1533"><ele>1765</ele></trkpt>
<trkpt lat="46.9671" lon="10.1533"><ele>1765</ele></trkpt>
<trkpt lat="46.96714" lon="10.15329"><ele>1765</ele></trkpt>
<trkpt lat="46.96717" lon="10.15328"><ele>1765</ele></trkpt>
<trkpt lat="46.96718" lon="10.15328"><ele>1765</ele></trkpt>
<trkpt lat="46.96719" lon="10.1533"><ele>1765</ele></trkpt>
<trkpt lat="46.9672" lon="10.1533"><ele>1765</ele></trkpt>
<trkpt lat="46.96719" lon="10.15334"><ele>1765</ele></trkpt>
<trkpt lat="46.96718" lon="10.15335"><ele>1765</ele></trkpt>
<trkpt lat="46.96716" lon="10.15337"><ele>1765</ele></trkpt>
<trkpt lat="46.96714" lon="10.15337"><ele>1765</ele></trkpt>
<trkpt lat="46.96712" lon="10.15338"><ele>1765</ele></trkpt>
<trkpt lat="46.9671" lon="10.15339"><ele>1764</ele></trkpt>
<trkpt lat="46.96709" lon="10.1534"><ele>1764</ele></trkpt>
<trkpt lat="46.96711" lon="10.15343"><ele>1764</ele></trkpt>
<trkpt lat="46.96712" lon="10.15343"><ele>1764</ele></trkpt>
<trkpt lat="46.96714" lon="10.15343"><ele>1762</ele></trkpt>
<trkpt lat="46.96716" lon="10.15342"><ele>1762</ele></trkpt>
<trkpt lat="46.96717" lon="10.15343"><ele>1762</ele></trkpt>
<trkpt lat="46.96717" lon="10.15345"><ele>1762</ele></trkpt>
<trkpt lat="46.96716" lon="10.15347"><ele>1762</ele></trkpt>
<trkpt lat="46.96714" lon="10.15347"><ele>1762</ele></trkpt>
<trkpt lat="46.96712" lon="10.15348"><ele>1762</ele></trkpt>
<trkpt lat="46.96711" lon="10.15349"><ele>1762</ele></trkpt>
<trkpt lat="46.96711" lon="10.15351"><ele>1762</ele></trkpt>
<trkpt lat="46.96712" lon="10.15352"><ele>1762</ele></trkpt>
<trkpt lat="46.96713" lon="10.15352"><ele>1762</ele></trkpt>
<trkpt lat="46.96714" lon="10.15351"><ele>1762</ele></trkpt>
<trkpt lat="46.96716" lon="10.15352"><ele>1762</ele></trkpt>
<trkpt lat="46.96716" lon="10.15354"><ele>1762</ele></trkpt>
<trkpt lat="46.96715" lon="10.15356"><ele>1762</ele></trkpt>
<trkpt lat="46.96713" lon="10.15357"><ele>1762</ele></trkpt>
<trkpt lat="46.96712" lon="10.15356"><ele>1760</ele></trkpt>
<trkpt lat="46.96711" lon="10.15356"><ele>1760</ele></trkpt>
<trkpt lat="46.9671" lon="10.15357"><ele>1760</ele></trkpt>
<trkpt lat="46.9671" lon="10.15359"><ele>1760</ele></trkpt>
<trkpt lat="46.96711" lon="10.15361"><ele>1760</ele></trkpt>
<trkpt lat="46.96715" lon="10.15363"><ele>1760</ele></trkpt>
<trkpt lat="46.96717" lon="10.15365"><ele>1760</ele></trkpt>
<trkpt lat="46.96718" lon="10.15366"><ele>1760</ele></trkpt>
<trkpt lat="46.96719" lon="10.15368"><ele>1760</ele></trkpt>
<trkpt lat="46.96719" lon="10.15371"><ele>1760</ele></trkpt>
<trkpt lat="46.96719" lon="10.15373"><ele>1760</ele></trkpt>
<trkpt lat="46.96719" lon="10.15373"><ele>1760</ele></trkpt>
<trkpt lat="46.96719" lon="10.15375"><ele>1760</ele></trkpt>
<trkpt lat="46.96719" lon="10.15376"><ele>1760</ele></trkpt>
<trkpt lat="46.96719" lon="10.15377"><ele>1760</ele></trkpt>
<trkpt lat="46.96719" lon="10.15379"><ele>1760</ele></trkpt>
<trkpt lat="46.96719" lon="10.1538"><ele>1758</ele></trkpt>
<trkpt lat="46.96719" lon="10.15382"><ele>1758</ele></trkpt>
<trkpt lat="46.96719" lon="10.15385"><ele>1758</ele></trkpt>
<trkpt lat="46.9672" lon="10.15387"><ele>1758</ele></trkpt>
<trkpt lat="46.9672" lon="10.1539"><ele>1758</ele></trkpt>
<trkpt lat="46.96721" lon="10.15391"><ele>1758</ele></trkpt>
<trkpt lat="46.96721" lon="10.15393"><ele>1758</ele></trkpt>
<trkpt lat="46.96721" lon="10.15395"><ele>1758</ele></trkpt>
<trkpt lat="46.96721" lon="10.15396"><ele>1756</ele></trkpt>
<trkpt lat="46.96722" lon="10.15398"><ele>1756</ele></trkpt>
<trkpt lat="46.96722" lon="10.154"><ele>1756</ele></trkpt>
<trkpt lat="46.96723" lon="10.15401"><ele>1756</ele></trkpt>
<trkpt lat="46.96723" lon="10.15401"><ele>1756</ele></trkpt>
<trkpt lat="46.96725" lon="10.15401"><ele>1756</ele></trkpt>
<trkpt lat="46.96726" lon="10.15405"><ele>1756</ele></trkpt>
<trkpt lat="46.96729" lon="10.15407"><ele>1756</ele></trkpt>
<trkpt lat="46.96731" lon="10.15408"><ele>1755</ele></trkpt>
<trkpt lat="46.96734" lon="10.15409"><ele>1755</ele></trkpt>
<trkpt lat="46.96737" lon="10.1541"><ele>1755</ele></trkpt>
<trkpt lat="46.96741" lon="10.15413"><ele>1755</ele></trkpt>
<trkpt lat="46.96744" lon="10.15413"><ele>1754</ele></trkpt>
<trkpt lat="46.96752" lon="10.1541"><ele>1754</ele></trkpt>
<trkpt lat="46.96754" lon="10.15409"><ele>1754</ele></trkpt>
<trkpt lat="46.96761" lon="10.15403"><ele>1754</ele></trkpt>
<trkpt lat="46.96777" lon="10.15395"><ele>1753</ele></trkpt>
<trkpt lat="46.96779" lon="10.15394"><ele>1753</ele></trkpt>
<trkpt lat="46.9678" lon="10.15394"><ele>1753</ele></trkpt>
<trkpt lat="46.96781" lon="10.15393"><ele>1753</ele></trkpt>
<trkpt lat="46.96783" lon="10.15393"><ele>1752</ele></trkpt>
<trkpt lat="46.96785" lon="10.15391"><ele>1752</ele></trkpt>
<trkpt lat="46.96788" lon="10.15393"><ele>1752</ele></trkpt>
<trkpt lat="46.9679" lon="10.15391"><ele>1752</ele></trkpt>
<trkpt lat="46.96795" lon="10.15393"><ele>1750</ele></trkpt>
<trkpt lat="46.96797" lon="10.15393"><ele>1750</ele></trkpt>
<trkpt lat="46.96798" lon="10.15393"><ele>1750</ele></trkpt>
<trkpt lat="46.96806" lon="10.1539"><ele>1750</ele></trkpt>
<trkpt lat="46.96809" lon="10.15387"><ele>1754</ele></trkpt>
<trkpt lat="46.9681" lon="10.15387"><ele>1754</ele></trkpt>
<trkpt lat="46.96811" lon="10.15387"><ele>1754</ele></trkpt>
<trkpt lat="46.96811" lon="10.15389"><ele>1754</ele></trkpt>
<trkpt lat="46.96811" lon="10.1539"><ele>1754</ele></trkpt>
<trkpt lat="46.9681" lon="10.15391"><ele>1754</ele></trkpt>
<trkpt lat="46.96809" lon="10.15391"><ele>1754</ele></trkpt>
<trkpt lat="46.96807" lon="10.15393"><ele>1754</ele></trkpt>
<trkpt lat="46.96804" lon="10.15395"><ele>1749</ele></trkpt>
<trkpt lat="46.96803" lon="10.15396"><ele>1749</ele></trkpt>
<trkpt lat="46.96802" lon="10.15396"><ele>1749</ele></trkpt>
<trkpt lat="46.96799" lon="10.15396"><ele>1749</ele></trkpt>
<trkpt lat="46.96796" lon="10.15396"><ele>1750</ele></trkpt>
<trkpt lat="46.96793" lon="10.15398"><ele>1750</ele></trkpt>
<trkpt lat="46.96791" lon="10.15399"><ele>1750</ele></trkpt>
<trkpt lat="46.96789" lon="10.15399"><ele>1750</ele></trkpt>
<trkpt lat="46.96787" lon="10.15398"><ele>1751</ele></trkpt>
<trkpt lat="46.96785" lon="10.15399"><ele>1751</ele></trkpt>
<trkpt lat="46.96785" lon="10.154"><ele>1751</ele></trkpt>
<trkpt lat="46.96785" lon="10.15401"><ele>1751</ele></trkpt>
<trkpt lat="46.96786" lon="10.15401"><ele>1752</ele></trkpt>
<trkpt lat="46.96788" lon="10.15401"><ele>1752</ele></trkpt>
<trkpt lat="46.96792" lon="10.15403"><ele>1752</ele></trkpt>
<trkpt lat="46.96796" lon="10.15401"><ele>1752</ele></trkpt>
<trkpt lat="46.968" lon="10.15401"><ele>1750</ele></trkpt>
<trkpt lat="46.96805" lon="10.15401"><ele>1750</ele></trkpt>
<trkpt lat="46.96808" lon="10.154"><ele>1750</ele></trkpt>
<trkpt lat="46.96813" lon="10.15396"><ele>1750</ele></trkpt>
<trkpt lat="46.96816" lon="10.15395"><ele>1748</ele></trkpt>
<trkpt lat="46.96817" lon="10.15394"><ele>1748</ele></trkpt>
<trkpt lat="46.96818" lon="10.15393"><ele>1748</ele></trkpt>
<trkpt lat="46.9682" lon="10.15395"><ele>1748</ele></trkpt>
<trkpt lat="46.9682" lon="10.15396"><ele>1748</ele></trkpt>
<trkpt lat="46.96819" lon="10.15399"><ele>1748</ele></trkpt>
<trkpt lat="46.96816" lon="10.15401"><ele>1748</ele></trkpt>
<trkpt lat="46.96807" lon="10.15409"><ele>1748</ele></trkpt>
<trkpt lat="46.96801" lon="10.1541"><ele>1745</ele></trkpt>
<trkpt lat="46.96796" lon="10.1541"><ele>1745</ele></trkpt>
<trkpt lat="46.96794" lon="10.1541"><ele>1745</ele></trkpt>
<trkpt lat="46.96794" lon="10.15413"><ele>1745</ele></trkpt>
<trkpt lat="46.96794" lon="10.15415"><ele>1746</ele></trkpt>
<trkpt lat="46.96795" lon="10.15415"><ele>1746</ele></trkpt>
<trkpt lat="46.96799" lon="10.15415"><ele>1746</ele></trkpt>
<trkpt lat="46.96801" lon="10.15415"><ele>1746</ele></trkpt>
<trkpt lat="46.96804" lon="10.15415"><ele>1745</ele></trkpt>
<trkpt lat="46.96811" lon="10.15415"><ele>1745</ele></trkpt>
<trkpt lat="46.96813" lon="10.15414"><ele>1745</ele></trkpt>
<trkpt lat="46.96814" lon="10.15412"><ele>1745</ele></trkpt>
<trkpt lat="46.96815" lon="10.1541"><ele>1744</ele></trkpt>
<trkpt lat="46.96816" lon="10.15409"><ele>1744</ele></trkpt>
<trkpt lat="46.96817" lon="10.1541"><ele>1744</ele></trkpt>
<trkpt lat="46.96817" lon="10.15412"><ele>1744</ele></trkpt>
<trkpt lat="46.96817" lon="10.15413"><ele>1744</ele></trkpt>
<trkpt lat="46.96816" lon="10.15415"><ele>1744</ele></trkpt>
<trkpt lat="46.96813" lon="10.15418"><ele>1744</ele></trkpt>
<trkpt lat="46.96811" lon="10.1542"><ele>1744</ele></trkpt>
<trkpt lat="46.9681" lon="10.15421"><ele>1741</ele></trkpt>
<trkpt lat="46.96803" lon="10.1542"><ele>1741</ele></trkpt>
<trkpt lat="46.968" lon="10.15421"><ele>1741</ele></trkpt>
<trkpt lat="46.968" lon="10.15422"><ele>1741</ele></trkpt>
<trkpt lat="46.96799" lon="10.15424"><ele>1742</ele></trkpt>
<trkpt lat="46.968" lon="10.15426"><ele>1742</ele></trkpt>
<trkpt lat="46.96802" lon="10.15427"><ele>1742</ele></trkpt>
<trkpt lat="46.96809" lon="10.15426"><ele>1742</ele></trkpt>
<trkpt lat="46.96819" lon="10.15422"><ele>1740</ele></trkpt>
<trkpt lat="46.96829" lon="10.15414"><ele>1740</ele></trkpt>
<trkpt lat="46.96831" lon="10.15413"><ele>1740</ele></trkpt>
<trkpt lat="46.96832" lon="10.15413"><ele>1740</ele></trkpt>
<trkpt lat="46.96833" lon="10.15415"><ele>1741</ele></trkpt>
<trkpt lat="46.96834" lon="10.15417"><ele>1741</ele></trkpt>
<trkpt lat="46.96833" lon="10.1542"><ele>1741</ele></trkpt>
<trkpt lat="46.96829" lon="10.15424"><ele>1741</ele></trkpt>
<trkpt lat="46.9682" lon="10.15429"><ele>1740</ele></trkpt>
<trkpt lat="46.96817" lon="10.15432"><ele>1740</ele></trkpt>
<trkpt lat="46.96814" lon="10.15433"><ele>1740</ele></trkpt>
<trkpt lat="46.96812" lon="10.15435"><ele>1740</ele></trkpt>
<trkpt lat="46.96809" lon="10.15437"><ele>1738</ele></trkpt>
<trkpt lat="46.96807" lon="10.1544"><ele>1738</ele></trkpt>
<trkpt lat="46.96804" lon="10.15443"><ele>1738</ele></trkpt>
<trkpt lat="46.968" lon="10.15448"><ele>1738</ele></trkpt>
<trkpt lat="46.96796" lon="10.15454"><ele>1736</ele></trkpt>
<trkpt lat="46.96793" lon="10.15457"><ele>1736</ele></trkpt>
<trkpt lat="46.96789" lon="10.15464"><ele>1736</ele></trkpt>
<trkpt lat="46.96787" lon="10.15469"><ele>1736</ele></trkpt>
<trkpt lat="46.96786" lon="10.15473"><ele>1734</ele></trkpt>
<trkpt lat="46.96783" lon="10.15475"><ele>1734</ele></trkpt>
<trkpt lat="46.96781" lon="10.15476"><ele>1734</ele></trkpt>
<trkpt lat="46.96778" lon="10.15476"><ele>1734</ele></trkpt>
<trkpt lat="46.96776" lon="10.15476"><ele>1735</ele></trkpt>
<trkpt lat="46.96774" lon="10.15479"><ele>1735</ele></trkpt>
<trkpt lat="46.96774" lon="10.15483"><ele>1735</ele></trkpt>
<trkpt lat="46.96774" lon="10.15487"><ele>1735</ele></trkpt>
<trkpt lat="46.96775" lon="10.15488"><ele>1733</ele></trkpt>
<trkpt lat="46.96777" lon="10.15488"><ele>1733</ele></trkpt>
<trkpt lat="46.96779" lon="10.15487"><ele>1733</ele></trkpt>
<trkpt lat="46.9678" lon="10.15485"><ele>1733</ele></trkpt>
<trkpt lat="46.96781" lon="10.15485"><ele>1732</ele></trkpt>
<trkpt lat="46.96783" lon="10.15485"><ele>1732</ele></trkpt>
<trkpt lat="46.96784" lon="10.15488"><ele>1732</ele></trkpt>
<trkpt lat="46.96784" lon="10.1549"><ele>1732</ele></trkpt>
<trkpt lat="46.96784" lon="10.15492"><ele>1732</ele></trkpt>
<trkpt lat="46.96783" lon="10.15494"><ele>1732</ele></trkpt>
<trkpt lat="46.96779" lon="10.15497"><ele>1732</ele></trkpt>
<trkpt lat="46.96777" lon="10.15499"><ele>1732</ele></trkpt>
<trkpt lat="46.96776" lon="10.15504"><ele>1731</ele></trkpt>
<trkpt lat="46.96776" lon="10.15509"><ele>1731</ele></trkpt>
<trkpt lat="46.96779" lon="10.15511"><ele>1731</ele></trkpt>
<trkpt lat="46.96782" lon="10.15512"><ele>1731</ele></trkpt>
<trkpt lat="46.96786" lon="10.15508"><ele>1729</ele></trkpt>
<trkpt lat="46.96787" lon="10.15507"><ele>1729</ele></trkpt>
<trkpt lat="46.96789" lon="10.15508"><ele>1729</ele></trkpt>
<trkpt lat="46.9679" lon="10.15511"><ele>1729</ele></trkpt>
<trkpt lat="46.96789" lon="10.15515"><ele>1728</ele></trkpt>
<trkpt lat="46.96785" lon="10.1552"><ele>1728</ele></trkpt>
<trkpt lat="46.96784" lon="10.15522"><ele>1728</ele></trkpt>
<trkpt lat="46.96785" lon="10.15523"><ele>1728</ele></trkpt>
<trkpt lat="46.96787" lon="10.15526"><ele>1727</ele></trkpt>
<trkpt lat="46.96792" lon="10.15523"><ele>1727</ele></trkpt>
<trkpt lat="46.96794" lon="10.15523"><ele>1727</ele></trkpt>
<trkpt lat="46.96796" lon="10.15523"><ele>1727</ele></trkpt>
<trkpt lat="46.96797" lon="10.15525"><ele>1726</ele></trkpt>
<trkpt lat="46.96796" lon="10.15528"><ele>1726</ele></trkpt>
<trkpt lat="46.96795" lon="10.15531"><ele>1726</ele></trkpt>
<trkpt lat="46.96794" lon="10.15532"><ele>1726</ele></trkpt>
<trkpt lat="46.96789" lon="10.15537"><ele>1725</ele></trkpt>
<trkpt lat="46.96783" lon="10.15542"><ele>1725</ele></trkpt>
<trkpt lat="46.96774" lon="10.15546"><ele>1725</ele></trkpt>
<trkpt lat="46.96767" lon="10.15548"><ele>1725</ele></trkpt>
<trkpt lat="46.96763" lon="10.1555"><ele>1723</ele></trkpt>
<trkpt lat="46.96757" lon="10.15549"><ele>1723</ele></trkpt>
<trkpt lat="46.96751" lon="10.1555"><ele>1723</ele></trkpt>
<trkpt lat="46.96745" lon="10.15549"><ele>1723</ele></trkpt>
<trkpt lat="46.9673" lon="10.15551"><ele>1721</ele></trkpt>
<trkpt lat="46.96713" lon="10.1555"><ele>1721</ele></trkpt>
<trkpt lat="46.9671" lon="10.15551"><ele>1721</ele></trkpt>
<trkpt lat="46.96706" lon="10.15551"><ele>1721</ele></trkpt>
<trkpt lat="46.96688" lon="10.1556"><ele>1720</ele></trkpt>
<trkpt lat="46.96685" lon="10.15562"><ele>1720</ele></trkpt>
<trkpt lat="46.96673" lon="10.15562"><ele>1720</ele></trkpt>
<trkpt lat="46.96671" lon="10.15563"><ele>1720</ele></trkpt>
<trkpt lat="46.96668" lon="10.15567"><ele>1720</ele></trkpt>
<trkpt lat="46.96652" lon="10.15586"><ele>1720</ele></trkpt>
<trkpt lat="46.9665" lon="10.15588"><ele>1720</ele></trkpt>
<trkpt lat="46.96636" lon="10.15598"><ele>1720</ele></trkpt>
<trkpt lat="46.96626" lon="10.15602"><ele>1719</ele></trkpt>
<trkpt lat="46.96616" lon="10.15607"><ele>1719</ele></trkpt>
<trkpt lat="46.96613" lon="10.15609"><ele>1719</ele></trkpt>
<trkpt lat="46.96612" lon="10.1561"><ele>1719</ele></trkpt>
<trkpt lat="46.96611" lon="10.1561"><ele>1717</ele></trkpt>
<trkpt lat="46.96609" lon="10.1561"><ele>1717</ele></trkpt>
<trkpt lat="46.96608" lon="10.15611"><ele>1717</ele></trkpt>
<trkpt lat="46.96608" lon="10.15612"><ele>1717</ele></trkpt>
<trkpt lat="46.96606" lon="10.15612"><ele>1717</ele></trkpt>
<trkpt lat="46.96605" lon="10.15614"><ele>1717</ele></trkpt>
<trkpt lat="46.96602" lon="10.15615"><ele>1717</ele></trkpt>
<trkpt lat="46.966" lon="10.15616"><ele>1717</ele></trkpt>
<trkpt lat="46.96599" lon="10.15616"><ele>1718</ele></trkpt>
<trkpt lat="46.96598" lon="10.15617"><ele>1718</ele></trkpt>
<trkpt lat="46.96598" lon="10.15619"><ele>1718</ele></trkpt>
<trkpt lat="46.96597" lon="10.1562"><ele>1718</ele></trkpt>
<trkpt lat="46.96595" lon="10.15621"><ele>1715</ele></trkpt>
<trkpt lat="46.96594" lon="10.15621"><ele>1715</ele></trkpt>
<trkpt lat="46.96592" lon="10.15624"><ele>1715</ele></trkpt>
<trkpt lat="46.96591" lon="10.15625"><ele>1715</ele></trkpt>
<trkpt lat="46.96589" lon="10.15625"><ele>1715</ele></trkpt>
<trkpt lat="46.96587" lon="10.15624"><ele>1715</ele></trkpt>
<trkpt lat="46.96585" lon="10.15624"><ele>1715</ele></trkpt>
<trkpt lat="46.96585" lon="10.15624"><ele>1715</ele></trkpt>
<trkpt lat="46.96584" lon="10.15625"><ele>1714</ele></trkpt>
<trkpt lat="46.96583" lon="10.15626"><ele>1714</ele></trkpt>
<trkpt lat="46.96582" lon="10.15626"><ele>1714</ele></trkpt>
<trkpt lat="46.96581" lon="10.15625"><ele>1714</ele></trkpt>
<trkpt lat="46.96578" lon="10.15624"><ele>1714</ele></trkpt>
<trkpt lat="46.96571" lon="10.15621"><ele>1714</ele></trkpt>
<trkpt lat="46.96569" lon="10.1562"><ele>1714</ele></trkpt>
<trkpt lat="46.96564" lon="10.15617"><ele>1714</ele></trkpt>
<trkpt lat="46.96561" lon="10.15615"><ele>1715</ele></trkpt>
<trkpt lat="46.9656" lon="10.15614"><ele>1715</ele></trkpt>
<trkpt lat="46.96557" lon="10.15612"><ele>1715</ele></trkpt>
<trkpt lat="46.96553" lon="10.1561"><ele>1715</ele></trkpt>
<trkpt lat="46.96551" lon="10.15609"><ele>1713</ele></trkpt>
<trkpt lat="46.96549" lon="10.15606"><ele>1713</ele></trkpt>
<trkpt lat="46.96547" lon="10.15606"><ele>1713</ele></trkpt>
<trkpt lat="46.96546" lon="10.15605"><ele>1713</ele></trkpt>
<trkpt lat="46.96545" lon="10.15605"><ele>1714</ele></trkpt>
<trkpt lat="46.96544" lon="10.15604"><ele>1714</ele></trkpt>
<trkpt lat="46.96543" lon="10.15603"><ele>1714</ele></trkpt>
<trkpt lat="46.96543" lon="10.15601"><ele>1714</ele></trkpt>
<trkpt lat="46.96542" lon="10.15601"><ele>1714</ele></trkpt>
<trkpt lat="46.96542" lon="10.15601"><ele>1714</ele></trkpt>
<trkpt lat="46.96541" lon="10.15601"><ele>1714</ele></trkpt>
<trkpt lat="46.9654" lon="10.15601"><ele>1714</ele></trkpt>
<trkpt lat="46.96539" lon="10.15601"><ele>1712</ele></trkpt>
<trkpt lat="46.96539" lon="10.156"><ele>1712</ele></trkpt>
<trkpt lat="46.96538" lon="10.15598"><ele>1712</ele></trkpt>
<trkpt lat="46.96538" lon="10.15597"><ele>1712</ele></trkpt>
<trkpt lat="46.96536" lon="10.15597"><ele>1712</ele></trkpt>
<trkpt lat="46.96535" lon="10.15597"><ele>1712</ele></trkpt>
<trkpt lat="46.96534" lon="10.15596"><ele>1712</ele></trkpt>
<trkpt lat="46.96532" lon="10.15593"><ele>1712</ele></trkpt>
<trkpt lat="46.96531" lon="10.15591"><ele>1712</ele></trkpt>
<trkpt lat="46.96529" lon="10.15589"><ele>1712</ele></trkpt>
<trkpt lat="46.96528" lon="10.15588"><ele>1712</ele></trkpt>
<trkpt lat="46.96526" lon="10.15588"><ele>1712</ele></trkpt>
<trkpt lat="46.96526" lon="10.15588"><ele>1712</ele></trkpt>
<trkpt lat="46.96525" lon="10.1559"><ele>1712</ele></trkpt>
<trkpt lat="46.96525" lon="10.15592"><ele>1712</ele></trkpt>
<trkpt lat="46.96525" lon="10.15595"><ele>1712</ele></trkpt>
<trkpt lat="46.96526" lon="10.15597"><ele>1709</ele></trkpt>
<trkpt lat="46.96527" lon="10.15598"><ele>1709</ele></trkpt>
<trkpt lat="46.96532" lon="10.156"><ele>1709</ele></trkpt>
<trkpt lat="46.96536" lon="10.15602"><ele>1709</ele></trkpt>
<trkpt lat="46.96537" lon="10.15603"><ele>1712</ele></trkpt>
<trkpt lat="46.96539" lon="10.15604"><ele>1712</ele></trkpt>
<trkpt lat="46.9654" lon="10.15606"><ele>1712</ele></trkpt>
<trkpt lat="46.9654" lon="10.15607"><ele>1712</ele></trkpt>
<trkpt lat="46.96539" lon="10.1561"><ele>1708</ele></trkpt>
<trkpt lat="46.96537" lon="10.1561"><ele>1708</ele></trkpt>
<trkpt lat="46.96536" lon="10.1561"><ele>1708</ele></trkpt>
<trkpt lat="46.96533" lon="10.15607"><ele>1708</ele></trkpt>
<trkpt lat="46.96531" lon="10.15605"><ele>1709</ele></trkpt>
<trkpt lat="46.96529" lon="10.15604"><ele>1709</ele></trkpt>
<trkpt lat="46.96528" lon="10.15604"><ele>1709</ele></trkpt>
<trkpt lat="46.96526" lon="10.15604"><ele>1709</ele></trkpt>
<trkpt lat="46.96525" lon="10.15604"><ele>1709</ele></trkpt>
<trkpt lat="46.96524" lon="10.15602"><ele>1709</ele></trkpt>
<trkpt lat="46.96524" lon="10.156"><ele>1709</ele></trkpt>
<trkpt lat="46.96524" lon="10.15598"><ele>1709</ele></trkpt>
<trkpt lat="46.96523" lon="10.15597"><ele>1707</ele></trkpt>
<trkpt lat="46.96523" lon="10.15596"><ele>1707</ele></trkpt>
<trkpt lat="46.96522" lon="10.15595"><ele>1707</ele></trkpt>
<trkpt lat="46.9652" lon="10.15593"><ele>1707</ele></trkpt>
<trkpt lat="46.96519" lon="10.15592"><ele>1709</ele></trkpt>
<trkpt lat="46.96518" lon="10.15591"><ele>1709</ele></trkpt>
<trkpt lat="46.96517" lon="10.15591"><ele>1709</ele></trkpt>
<trkpt lat="46.96516" lon="10.1559"><ele>1709</ele></trkpt>
<trkpt lat="46.96514" lon="10.15586"><ele>1707</ele></trkpt>
<trkpt lat="46.96512" lon="10.15584"><ele>1707</ele></trkpt>
<trkpt lat="46.96509" lon="10.15583"><ele>1707</ele></trkpt>
<trkpt lat="46.96507" lon="10.15579"><ele>1707</ele></trkpt>
<trkpt lat="46.96503" lon="10.15576"><ele>1708</ele></trkpt>
<trkpt lat="46.96502" lon="10.15574"><ele>1708</ele></trkpt>
<trkpt lat="46.96499" lon="10.15574"><ele>1708</ele></trkpt>
<trkpt lat="46.96496" lon="10.1557"><ele>1708</ele></trkpt>
<trkpt lat="46.96494" lon="10.15568"><ele>1709</ele></trkpt>
<trkpt lat="46.96488" lon="10.15564"><ele>1709</ele></trkpt>
<trkpt lat="46.96486" lon="10.15562"><ele>1709</ele></trkpt>
<trkpt lat="46.96484" lon="10.1556"><ele>1709</ele></trkpt>
<trkpt lat="46.96483" lon="10.15559"><ele>1707</ele></trkpt>
<trkpt lat="46.96481" lon="10.15559"><ele>1707</ele></trkpt>
<trkpt lat="46.9648" lon="10.15558"><ele>1707</ele></trkpt>
<trkpt lat="46.96478" lon="10.15555"><ele>1707</ele></trkpt>
<trkpt lat="46.96477" lon="10.15554"><ele>1707</ele></trkpt>
<trkpt lat="46.96475" lon="10.15551"><ele>1707</ele></trkpt>
<trkpt lat="46.96473" lon="10.15551"><ele>1707</ele></trkpt>
<trkpt lat="46.96471" lon="10.1555"><ele>1707</ele></trkpt>
<trkpt lat="46.96469" lon="10.15546"><ele>1705</ele></trkpt>
<trkpt lat="46.96468" lon="10.15545"><ele>1705</ele></trkpt>
<trkpt lat="46.96465" lon="10.15541"><ele>1705</ele></trkpt>
<trkpt lat="46.96462" lon="10.15539"><ele>1705</ele></trkpt>
<trkpt lat="46.9646" lon="10.15535"><ele>1705</ele></trkpt>
<trkpt lat="46.96459" lon="10.15532"><ele>1705</ele></trkpt>
<trkpt lat="46.96458" lon="10.1553"><ele>1705</ele></trkpt>
<trkpt lat="46.96456" lon="10.15528"><ele>1705</ele></trkpt>
<trkpt lat="46.96453" lon="10.15526"><ele>1705</ele></trkpt>
<trkpt lat="46.9645" lon="10.15518"><ele>1705</ele></trkpt>
<trkpt lat="46.96447" lon="10.15513"><ele>1705</ele></trkpt>
<trkpt lat="46.96445" lon="10.15512"><ele>1705</ele></trkpt>
<trkpt lat="46.96442" lon="10.15513"><ele>1706</ele></trkpt>
<trkpt lat="46.96442" lon="10.15516"><ele>1706</ele></trkpt>
<trkpt lat="46.96443" lon="10.15521"><ele>1706</ele></trkpt>
<trkpt lat="46.96448" lon="10.15527"><ele>1706</ele></trkpt>
<trkpt lat="46.96449" lon="10.15529"><ele>1705</ele></trkpt>
<trkpt lat="46.96452" lon="10.15535"><ele>1705</ele></trkpt>
<trkpt lat="46.96453" lon="10.15537"><ele>1705</ele></trkpt>
<trkpt lat="46.96458" lon="10.15541"><ele>1705</ele></trkpt>
<trkpt lat="46.9646" lon="10.15544"><ele>1705</ele></trkpt>
<trkpt lat="46.96461" lon="10.15548"><ele>1705</ele></trkpt>
<trkpt lat="46.96462" lon="10.1555"><ele>1705</ele></trkpt>
<trkpt lat="46.96465" lon="10.15551"><ele>1705</ele></trkpt>
<trkpt lat="46.96467" lon="10.15554"><ele>1705</ele></trkpt>
<trkpt lat="46.9647" lon="10.1556"><ele>1705</ele></trkpt>
<trkpt lat="46.96473" lon="10.15564"><ele>1705</ele></trkpt>
<trkpt lat="46.96476" lon="10.15567"><ele>1705</ele></trkpt>
<trkpt lat="46.96478" lon="10.1557"><ele>1701</ele></trkpt>
<trkpt lat="46.96484" lon="10.15579"><ele>1701</ele></trkpt>
<trkpt lat="46.96493" lon="10.15593"><ele>1701</ele></trkpt>
<trkpt lat="46.96497" lon="10.156"><ele>1701</ele></trkpt>
<trkpt lat="46.965" lon="10.15604"><ele>1702</ele></trkpt>
<trkpt lat="46.96502" lon="10.15607"><ele>1702</ele></trkpt>
<trkpt lat="46.96504" lon="10.15612"><ele>1702</ele></trkpt>
<trkpt lat="46.96507" lon="10.15624"><ele>1702</ele></trkpt>
<trkpt lat="46.96508" lon="10.1563"><ele>1701</ele></trkpt>
<trkpt lat="46.96509" lon="10.15637"><ele>1701</ele></trkpt>
<trkpt lat="46.96509" lon="10.1564"><ele>1701</ele></trkpt>
<trkpt lat="46.9651" lon="10.15644"><ele>1701</ele></trkpt>
<trkpt lat="46.9651" lon="10.15648"><ele>1698</ele></trkpt>
<trkpt lat="46.9651" lon="10.15649"><ele>1698</ele></trkpt>
<trkpt lat="46.96511" lon="10.15651"><ele>1698</ele></trkpt>
<trkpt lat="46.96512" lon="10.15656"><ele>1698</ele></trkpt>
<trkpt lat="46.96512" lon="10.15658"><ele>1698</ele></trkpt>
<trkpt lat="46.96512" lon="10.15663"><ele>1698</ele></trkpt>
<trkpt lat="46.96513" lon="10.15665"><ele>1698</ele></trkpt>
<trkpt lat="46.96513" lon="10.15667"><ele>1698</ele></trkpt>
<trkpt lat="46.96514" lon="10.15668"><ele>1697</ele></trkpt>
<trkpt lat="46.96514" lon="10.15671"><ele>1697</ele></trkpt>
<trkpt lat="46.96514" lon="10.15673"><ele>1697</ele></trkpt>
<trkpt lat="46.96514" lon="10.15676"><ele>1697</ele></trkpt>
<trkpt lat="46.96514" lon="10.15678"><ele>1696</ele></trkpt>
<trkpt lat="46.96515" lon="10.15681"><ele>1696</ele></trkpt>
<trkpt lat="46.96515" lon="10.15682"><ele>1696</ele></trkpt>
<trkpt lat="46.96515" lon="10.15685"><ele>1696</ele></trkpt>
<trkpt lat="46.96515" lon="10.15687"><ele>1695</ele></trkpt>
<trkpt lat="46.96516" lon="10.15687"><ele>1695</ele></trkpt>
<trkpt lat="46.96516" lon="10.1569"><ele>1695</ele></trkpt>
<trkpt lat="46.96517" lon="10.15694"><ele>1695</ele></trkpt>
<trkpt lat="46.96517" lon="10.15696"><ele>1696</ele></trkpt>
<trkpt lat="46.96518" lon="10.15701"><ele>1696</ele></trkpt>
<trkpt lat="46.96518" lon="10.15704"><ele>1696</ele></trkpt>
<trkpt lat="46.96519" lon="10.15706"><ele>1696</ele></trkpt>
<trkpt lat="46.96519" lon="10.15708"><ele>1695</ele></trkpt>
<trkpt lat="46.9652" lon="10.1571"><ele>1695</ele></trkpt>
<trkpt lat="46.9652" lon="10.15712"><ele>1695</ele></trkpt>
<trkpt lat="46.96521" lon="10.15717"><ele>1695</ele></trkpt>
<trkpt lat="46.96522" lon="10.15719"><ele>1694</ele></trkpt>
<trkpt lat="46.96523" lon="10.1572"><ele>1694</ele></trkpt>
<trkpt lat="46.96523" lon="10.15722"><ele>1694</ele></trkpt>
<trkpt lat="46.96523" lon="10.15724"><ele>1694</ele></trkpt>
<trkpt lat="46.96525" lon="10.15729"><ele>1694</ele></trkpt>
<trkpt lat="46.96525" lon="10.15731"><ele>1694</ele></trkpt>
<trkpt lat="46.96526" lon="10.15734"><ele>1694</ele></trkpt>
<trkpt lat="46.96527" lon="10.15734"><ele>1694</ele></trkpt>
<trkpt lat="46.96527" lon="10.15737"><ele>1694</ele></trkpt>
<trkpt lat="46.96528" lon="10.15741"><ele>1694</ele></trkpt>
<trkpt lat="46.96529" lon="10.15745"><ele>1694</ele></trkpt>
<trkpt lat="46.9653" lon="10.15747"><ele>1694</ele></trkpt>
<trkpt lat="46.96532" lon="10.15753"><ele>1693</ele></trkpt>
<trkpt lat="46.96536" lon="10.15765"><ele>1693</ele></trkpt>
<trkpt lat="46.96538" lon="10.15775"><ele>1693</ele></trkpt>
<trkpt lat="46.9654" lon="10.15778"><ele>1693</ele></trkpt>
<trkpt lat="46.9654" lon="10.15781"><ele>1692</ele></trkpt>
<trkpt lat="46.96541" lon="10.15784"><ele>1692</ele></trkpt>
<trkpt lat="46.96541" lon="10.15786"><ele>1692</ele></trkpt>
<trkpt lat="46.96542" lon="10.15788"><ele>1692</ele></trkpt>
<trkpt lat="46.96543" lon="10.15789"><ele>1692</ele></trkpt>
<trkpt lat="46.96543" lon="10.1579"><ele>1692</ele></trkpt>
<trkpt lat="46.96543" lon="10.1579"><ele>1692</ele></trkpt>
<trkpt lat="46.96544" lon="10.15794"><ele>1692</ele></trkpt>
<trkpt lat="46.96544" lon="10.15795"><ele>1692</ele></trkpt>
<trkpt lat="46.96545" lon="10.15797"><ele>1692</ele></trkpt>
<trkpt lat="46.96545" lon="10.15799"><ele>1692</ele></trkpt>
<trkpt lat="46.96546" lon="10.15801"><ele>1692</ele></trkpt>
<trkpt lat="46.96546" lon="10.15803"><ele>1691</ele></trkpt>
<trkpt lat="46.96547" lon="10.15804"><ele>1691</ele></trkpt>
<trkpt lat="46.96547" lon="10.15804"><ele>1691</ele></trkpt>
<trkpt lat="46.96547" lon="10.15808"><ele>1691</ele></trkpt>
<trkpt lat="46.96547" lon="10.15808"><ele>1691</ele></trkpt>
<trkpt lat="46.96549" lon="10.15809"><ele>1691</ele></trkpt>
<trkpt lat="46.96549" lon="10.15811"><ele>1691</ele></trkpt>
<trkpt lat="46.96548" lon="10.15822"><ele>1691</ele></trkpt>
<trkpt lat="46.96553" lon="10.15856"><ele>1689</ele></trkpt>
<trkpt lat="46.9656" lon="10.15873"><ele>1689</ele></trkpt>
<trkpt lat="46.96564" lon="10.15886"><ele>1689</ele></trkpt>
<trkpt lat="46.9657" lon="10.15893"><ele>1689</ele></trkpt>
<trkpt lat="46.96577" lon="10.15897"><ele>1686</ele></trkpt>
<trkpt lat="46.96581" lon="10.15896"><ele>1686</ele></trkpt>
<trkpt lat="46.96586" lon="10.15895"><ele>1686</ele></trkpt>
<trkpt lat="46.96587" lon="10.15896"><ele>1686</ele></trkpt>
<trkpt lat="46.96588" lon="10.15897"><ele>1685</ele></trkpt>
<trkpt lat="46.96589" lon="10.159"><ele>1685</ele></trkpt>
<trkpt lat="46.96589" lon="10.15902"><ele>1685</ele></trkpt>
<trkpt lat="46.96588" lon="10.15903"><ele>1685</ele></trkpt>
<trkpt lat="46.96582" lon="10.15906"><ele>1684</ele></trkpt>
<trkpt lat="46.9658" lon="10.15908"><ele>1684</ele></trkpt>
<trkpt lat="46.96578" lon="10.1591"><ele>1684</ele></trkpt>
<trkpt lat="46.96577" lon="10.15912"><ele>1684</ele></trkpt>
<trkpt lat="46.96574" lon="10.15912"><ele>1685</ele></trkpt>
<trkpt lat="46.96571" lon="10.15912"><ele>1685</ele></trkpt>
<trkpt lat="46.96568" lon="10.15912"><ele>1685</ele></trkpt>
<trkpt lat="46.96564" lon="10.15914"><ele>1685</ele></trkpt>
<trkpt lat="46.96562" lon="10.15914"><ele>1685</ele></trkpt>
<trkpt lat="46.96558" lon="10.15912"><ele>1685</ele></trkpt>
<trkpt lat="46.96555" lon="10.15911"><ele>1685</ele></trkpt>
<trkpt lat="46.96552" lon="10.15912"><ele>1685</ele></trkpt>
<trkpt lat="46.96549" lon="10.1591"><ele>1683</ele></trkpt>
<trkpt lat="46.96547" lon="10.15906"><ele>1683</ele></trkpt>
<trkpt lat="46.96545" lon="10.15901"><ele>1683</ele></trkpt>
<trkpt lat="46.96542" lon="10.15898"><ele>1683</ele></trkpt>
<trkpt lat="46.96539" lon="10.15895"><ele>1683</ele></trkpt>
<trkpt lat="46.96538" lon="10.15893"><ele>1683</ele></trkpt>
<trkpt lat="46.96538" lon="10.15889"><ele>1683</ele></trkpt>
<trkpt lat="46.96536" lon="10.15887"><ele>1683</ele></trkpt>
<trkpt lat="46.96533" lon="10.15886"><ele>1682</ele></trkpt>
<trkpt lat="46.96532" lon="10.15889"><ele>1682</ele></trkpt>
<trkpt lat="46.96532" lon="10.15892"><ele>1682</ele></trkpt>
<trkpt lat="46.96534" lon="10.15903"><ele>1682</ele></trkpt>
<trkpt lat="46.96543" lon="10.15926"><ele>1681</ele></trkpt>
<trkpt lat="46.96547" lon="10.15934"><ele>1681</ele></trkpt>
<trkpt lat="46.96556" lon="10.15945"><ele>1681</ele></trkpt>
<trkpt lat="46.9656" lon="10.15948"><ele>1681</ele></trkpt>
<trkpt lat="46.96562" lon="10.15949"><ele>1677</ele></trkpt>
<trkpt lat="46.96564" lon="10.1595"><ele>1677</ele></trkpt>
<trkpt lat="46.96564" lon="10.15954"><ele>1677</ele></trkpt>
<trkpt lat="46.96563" lon="10.15957"><ele>1677</ele></trkpt>
<trkpt lat="46.96561" lon="10.15958"><ele>1673</ele></trkpt>
<trkpt lat="46.9656" lon="10.15958"><ele>1673</ele></trkpt>
<trkpt lat="46.96557" lon="10.15957"><ele>1673</ele></trkpt>
<trkpt lat="46.96546" lon="10.15945"><ele>1673</ele></trkpt>
<trkpt lat="46.96544" lon="10.15943"><ele>1676</ele></trkpt>
<trkpt lat="46.96543" lon="10.1594"><ele>1676</ele></trkpt>
<trkpt lat="46.96538" lon="10.15938"><ele>1676</ele></trkpt>
<trkpt lat="46.96535" lon="10.15936"><ele>1676</ele></trkpt>
<trkpt lat="46.96533" lon="10.15934"><ele>1674</ele></trkpt>
<trkpt lat="46.96526" lon="10.15926"><ele>1674</ele></trkpt>
<trkpt lat="46.96525" lon="10.15924"><ele>1674</ele></trkpt>
<trkpt lat="46.96523" lon="10.15922"><ele>1674</ele></trkpt>
<trkpt lat="46.96521" lon="10.15922"><ele>1674</ele></trkpt>
<trkpt lat="46.96518" lon="10.15923"><ele>1674</ele></trkpt>
<trkpt lat="46.96517" lon="10.15925"><ele>1674</ele></trkpt>
<trkpt lat="46.96517" lon="10.15929"><ele>1674</ele></trkpt>
<trkpt lat="46.96518" lon="10.15931"><ele>1672</ele></trkpt>
<trkpt lat="46.96524" lon="10.1594"><ele>1672</ele></trkpt>
<trkpt lat="46.96535" lon="10.15957"><ele>1672</ele></trkpt>
<trkpt lat="46.96539" lon="10.15964"><ele>1672</ele></trkpt>
<trkpt lat="46.96543" lon="10.15968"><ele>1669</ele></trkpt>
<trkpt lat="46.96552" lon="10.15973"><ele>1669</ele></trkpt>
<trkpt lat="46.96557" lon="10.15977"><ele>1669</ele></trkpt>
<trkpt lat="46.9656" lon="10.15977"><ele>1669</ele></trkpt>
<trkpt lat="46.96565" lon="10.15975"><ele>1669</ele></trkpt>
<trkpt lat="46.96568" lon="10.15975"><ele>1669</ele></trkpt>
<trkpt lat="46.96569" lon="10.15976"><ele>1669</ele></trkpt>
<trkpt lat="46.96571" lon="10.15976"><ele>1669</ele></trkpt>
<trkpt lat="46.96573" lon="10.15973"><ele>1668</ele></trkpt>
<trkpt lat="46.96576" lon="10.15973"><ele>1668</ele></trkpt>
<trkpt lat="46.96577" lon="10.15975"><ele>1668</ele></trkpt>
<trkpt lat="46.96579" lon="10.15973"><ele>1668</ele></trkpt>
<trkpt lat="46.9658" lon="10.15973"><ele>1666</ele></trkpt>
<trkpt lat="46.96581" lon="10.15972"><ele>1666</ele></trkpt>
<trkpt lat="46.96583" lon="10.15973"><ele>1666</ele></trkpt>
<trkpt lat="46.96585" lon="10.15973"><ele>1666</ele></trkpt>
<trkpt lat="46.96586" lon="10.1597"><ele>1665</ele></trkpt>
<trkpt lat="46.96589" lon="10.15968"><ele>1665</ele></trkpt>
<trkpt lat="46.96591" lon="10.15966"><ele>1665</ele></trkpt>
<trkpt lat="46.96593" lon="10.15964"><ele>1665</ele></trkpt>
<trkpt lat="46.96595" lon="10.15959"><ele>1666</ele></trkpt>
<trkpt lat="46.96597" lon="10.15959"><ele>1666</ele></trkpt>
<trkpt lat="46.96599" lon="10.15959"><ele>1666</ele></trkpt>
<trkpt lat="46.966" lon="10.15957"><ele>1666</ele></trkpt>
<trkpt lat="46.96601" lon="10.15956"><ele>1666</ele></trkpt>
<trkpt lat="46.96603" lon="10.15954"><ele>1666</ele></trkpt>
<trkpt lat="46.96605" lon="10.15954"><ele>1666</ele></trkpt>
<trkpt lat="46.96606" lon="10.15952"><ele>1666</ele></trkpt>
<trkpt lat="46.96608" lon="10.1595"><ele>1667</ele></trkpt>
<trkpt lat="46.9661" lon="10.15948"><ele>1667</ele></trkpt>
<trkpt lat="46.96613" lon="10.15945"><ele>1667</ele></trkpt>
<trkpt lat="46.96617" lon="10.15945"><ele>1667</ele></trkpt>
<trkpt lat="46.9662" lon="10.15947"><ele>1666</ele></trkpt>
<trkpt lat="46.96625" lon="10.15949"><ele>1666</ele></trkpt>
<trkpt lat="46.96628" lon="10.1595"><ele>1666</ele></trkpt>
<trkpt lat="46.96631" lon="10.15954"><ele>1666</ele></trkpt>
<trkpt lat="46.96635" lon="10.15959"><ele>1663</ele></trkpt>
<trkpt lat="46.96637" lon="10.15962"><ele>1663</ele></trkpt>
<trkpt lat="46.96639" lon="10.15964"><ele>1663</ele></trkpt>
<trkpt lat="46.9664" lon="10.15967"><ele>1663</ele></trkpt>
<trkpt lat="46.96643" lon="10.15973"><ele>1662</ele></trkpt>
<trkpt lat="46.96648" lon="10.1598"><ele>1662</ele></trkpt>
<trkpt lat="46.96651" lon="10.15985"><ele>1662</ele></trkpt>
<trkpt lat="46.96653" lon="10.15989"><ele>1662</ele></trkpt>
<trkpt lat="46.96653" lon="10.15992"><ele>1661</ele></trkpt>
<trkpt lat="46.96654" lon="10.15996"><ele>1661</ele></trkpt>
<trkpt lat="46.9666" lon="10.16006"><ele>1661</ele></trkpt>
<trkpt lat="46.96662" lon="10.16015"><ele>1661</ele></trkpt>
<trkpt lat="46.96667" lon="10.16024"><ele>1663</ele></trkpt>
<trkpt lat="46.96671" lon="10.16034"><ele>1663</ele></trkpt>
<trkpt lat="46.96676" lon="10.16045"><ele>1663</ele></trkpt>
<trkpt lat="46.96682" lon="10.16052"><ele>1663</ele></trkpt>
<trkpt lat="46.96684" lon="10.16056"><ele>1661</ele></trkpt>
<trkpt lat="46.96687" lon="10.16058"><ele>1661</ele></trkpt>
<trkpt lat="46.96689" lon="10.16061"><ele>1661</ele></trkpt>
<trkpt lat="46.96689" lon="10.16062"><ele>1661</ele></trkpt>
<trkpt lat="46.96688" lon="10.16066"><ele>1661</ele></trkpt>
<trkpt lat="46.96687" lon="10.16067"><ele>1661</ele></trkpt>
<trkpt lat="46.96684" lon="10.16065"><ele>1661</ele></trkpt>
<trkpt lat="46.9668" lon="10.1606"><ele>1661</ele></trkpt>
<trkpt lat="46.96671" lon="10.16053"><ele>1658</ele></trkpt>
<trkpt lat="46.96668" lon="10.16052"><ele>1658</ele></trkpt>
<trkpt lat="46.96667" lon="10.1605"><ele>1658</ele></trkpt>
<trkpt lat="46.96666" lon="10.16047"><ele>1658</ele></trkpt>
<trkpt lat="46.96665" lon="10.16045"><ele>1658</ele></trkpt>
<trkpt lat="46.9666" lon="10.16043"><ele>1658</ele></trkpt>
<trkpt lat="46.96658" lon="10.16039"><ele>1658</ele></trkpt>
<trkpt lat="46.96656" lon="10.16036"><ele>1658</ele></trkpt>
<trkpt lat="46.96655" lon="10.16034"><ele>1657</ele></trkpt>
<trkpt lat="46.96654" lon="10.16033"><ele>1657</ele></trkpt>
<trkpt lat="46.96653" lon="10.16034"><ele>1657</ele></trkpt>
<trkpt lat="46.96651" lon="10.16034"><ele>1657</ele></trkpt>
<trkpt lat="46.9665" lon="10.16034"><ele>1657</ele></trkpt>
<trkpt lat="46.96649" lon="10.16033"><ele>1657</ele></trkpt>
<trkpt lat="46.96647" lon="10.16032"><ele>1657</ele></trkpt>
<trkpt lat="46.96645" lon="10.16032"><ele>1657</ele></trkpt>
<trkpt lat="46.96644" lon="10.16033"><ele>1656</ele></trkpt>
<trkpt lat="46.96644" lon="10.16034"><ele>1656</ele></trkpt>
<trkpt lat="46.96644" lon="10.16037"><ele>1656</ele></trkpt>
<trkpt lat="46.96646" lon="10.16039"><ele>1656</ele></trkpt>
<trkpt lat="46.96648" lon="10.16044"><ele>1656</ele></trkpt>
<trkpt lat="46.96649" lon="10.16046"><ele>1656</ele></trkpt>
<trkpt lat="46.96649" lon="10.16048"><ele>1656</ele></trkpt>
<trkpt lat="46.96649" lon="10.1605"><ele>1656</ele></trkpt>
<trkpt lat="46.96648" lon="10.16052"><ele>1656</ele></trkpt>
<trkpt lat="46.96647" lon="10.16053"><ele>1656</ele></trkpt>
<trkpt lat="46.96645" lon="10.16053"><ele>1656</ele></trkpt>
<trkpt lat="46.96643" lon="10.16052"><ele>1656</ele></trkpt>
<trkpt lat="46.96641" lon="10.16052"><ele>1655</ele></trkpt>
<trkpt lat="46.96631" lon="10.16047"><ele>1655</ele></trkpt>
<trkpt lat="46.96626" lon="10.16042"><ele>1655</ele></trkpt>
<trkpt lat="46.9662" lon="10.16034"><ele>1655</ele></trkpt>
<trkpt lat="46.96611" lon="10.1603"><ele>1652</ele></trkpt>
<trkpt lat="46.966" lon="10.16027"><ele>1652</ele></trkpt>
<trkpt lat="46.96596" lon="10.16025"><ele>1652</ele></trkpt>
<trkpt lat="46.9659" lon="10.16028"><ele>1652</ele></trkpt>
<trkpt lat="46.96586" lon="10.16031"><ele>1653</ele></trkpt>
<trkpt lat="46.96586" lon="10.16034"><ele>1653</ele></trkpt>
<trkpt lat="46.96586" lon="10.16037"><ele>1653</ele></trkpt>
<trkpt lat="46.9659" lon="10.16038"><ele>1653</ele></trkpt>
<trkpt lat="46.96594" lon="10.16038"><ele>1653</ele></trkpt>
<trkpt lat="46.96602" lon="10.16039"><ele>1653</ele></trkpt>
<trkpt lat="46.96607" lon="10.16041"><ele>1653</ele></trkpt>
<trkpt lat="46.96609" lon="10.16042"><ele>1653</ele></trkpt>
<trkpt lat="46.96617" lon="10.16066"><ele>1651</ele></trkpt>
<trkpt lat="46.96624" lon="10.16079"><ele>1651</ele></trkpt>
<trkpt lat="46.96628" lon="10.16085"><ele>1651</ele></trkpt>
<trkpt lat="46.9663" lon="10.16089"><ele>1651</ele></trkpt>
<trkpt lat="46.9663" lon="10.16093"><ele>1651</ele></trkpt>
<trkpt lat="46.96629" lon="10.16095"><ele>1651</ele></trkpt>
<trkpt lat="46.96627" lon="10.16099"><ele>1651</ele></trkpt>
<trkpt lat="46.96624" lon="10.16099"><ele>1651</ele></trkpt>
<trkpt lat="46.96622" lon="10.16097"><ele>1649</ele></trkpt>
<trkpt lat="46.96619" lon="10.16093"><ele>1649</ele></trkpt>
<trkpt lat="46.96615" lon="10.16089"><ele>1649</ele></trkpt>
<trkpt lat="46.96612" lon="10.16083"><ele>1649</ele></trkpt>
<trkpt lat="46.9661" lon="10.1608"><ele>1649</ele></trkpt>
<trkpt lat="46.96608" lon="10.16076"><ele>1649</ele></trkpt>
<trkpt lat="46.96606" lon="10.16066"><ele>1649</ele></trkpt>
<trkpt lat="46.96605" lon="10.16062"><ele>1649</ele></trkpt>
<trkpt lat="46.96603" lon="10.16062"><ele>1649</ele></trkpt>
<trkpt lat="46.96601" lon="10.16062"><ele>1649</ele></trkpt>
<trkpt lat="46.966" lon="10.16065"><ele>1649</ele></trkpt>
<trkpt lat="46.96599" lon="10.16067"><ele>1649</ele></trkpt>
<trkpt lat="46.96599" lon="10.16069"><ele>1648</ele></trkpt>
<trkpt lat="46.966" lon="10.16072"><ele>1648</ele></trkpt>
<trkpt lat="46.96601" lon="10.16078"><ele>1648</ele></trkpt>
<trkpt lat="46.96604" lon="10.16089"><ele>1648</ele></trkpt>
<trkpt lat="46.96606" lon="10.16093"><ele>1648</ele></trkpt>
<trkpt lat="46.96611" lon="10.16098"><ele>1648</ele></trkpt>
<trkpt lat="46.96612" lon="10.16102"><ele>1648</ele></trkpt>
<trkpt lat="46.96612" lon="10.16106"><ele>1648</ele></trkpt>
<trkpt lat="46.96611" lon="10.16109"><ele>1646</ele></trkpt>
<trkpt lat="46.96609" lon="10.16109"><ele>1646</ele></trkpt>
<trkpt lat="46.96608" lon="10.16109"><ele>1646</ele></trkpt>
<trkpt lat="46.96606" lon="10.16106"><ele>1646</ele></trkpt>
<trkpt lat="46.96602" lon="10.16102"><ele>1646</ele></trkpt>
<trkpt lat="46.96599" lon="10.16102"><ele>1646</ele></trkpt>
<trkpt lat="46.96598" lon="10.16104"><ele>1646</ele></trkpt>
<trkpt lat="46.96597" lon="10.16107"><ele>1646</ele></trkpt>
<trkpt lat="46.96597" lon="10.16109"><ele>1645</ele></trkpt>
<trkpt lat="46.96598" lon="10.16112"><ele>1645</ele></trkpt>
<trkpt lat="46.966" lon="10.16114"><ele>1645</ele></trkpt>
<trkpt lat="46.96605" lon="10.16119"><ele>1645</ele></trkpt>
<trkpt lat="46.96611" lon="10.16123"><ele>1645</ele></trkpt>
<trkpt lat="46.96613" lon="10.16127"><ele>1645</ele></trkpt>
<trkpt lat="46.96614" lon="10.1613"><ele>1645</ele></trkpt>
<trkpt lat="46.96613" lon="10.16133"><ele>1645</ele></trkpt>
<trkpt lat="46.96612" lon="10.16135"><ele>1645</ele></trkpt>
<trkpt lat="46.96611" lon="10.16137"><ele>1645</ele></trkpt>
<trkpt lat="46.96608" lon="10.16136"><ele>1645</ele></trkpt>
<trkpt lat="46.96604" lon="10.16133"><ele>1645</ele></trkpt>
<trkpt lat="46.96601" lon="10.16132"><ele>1644</ele></trkpt>
<trkpt lat="46.96596" lon="10.1613"><ele>1644</ele></trkpt>
<trkpt lat="46.9659" lon="10.16123"><ele>1644</ele></trkpt>
<trkpt lat="46.96587" lon="10.16119"><ele>1644</ele></trkpt>
<trkpt lat="46.96585" lon="10.16119"><ele>1644</ele></trkpt>
<trkpt lat="46.96584" lon="10.16122"><ele>1644</ele></trkpt>
<trkpt lat="46.96584" lon="10.16125"><ele>1644</ele></trkpt>
<trkpt lat="46.96584" lon="10.1613"><ele>1644</ele></trkpt>
<trkpt lat="46.9659" lon="10.16137"><ele>1643</ele></trkpt>
<trkpt lat="46.96596" lon="10.16147"><ele>1643</ele></trkpt>
<trkpt lat="46.96602" lon="10.16152"><ele>1643</ele></trkpt>
<trkpt lat="46.96607" lon="10.16154"><ele>1643</ele></trkpt>
<trkpt lat="46.96611" lon="10.16154"><ele>1643</ele></trkpt>
<trkpt lat="46.96613" lon="10.16156"><ele>1643</ele></trkpt>
<trkpt lat="46.96613" lon="10.16161"><ele>1643</ele></trkpt>
<trkpt lat="46.96612" lon="10.16163"><ele>1643</ele></trkpt>
<trkpt lat="46.9661" lon="10.16164"><ele>1641</ele></trkpt>
<trkpt lat="46.96608" lon="10.16164"><ele>1641</ele></trkpt>
<trkpt lat="46.96603" lon="10.16165"><ele>1641</ele></trkpt>
<trkpt lat="46.96597" lon="10.16165"><ele>1641</ele></trkpt>
<trkpt lat="46.96594" lon="10.16163"><ele>1641</ele></trkpt>
<trkpt lat="46.96592" lon="10.16161"><ele>1641</ele></trkpt>
<trkpt lat="46.96591" lon="10.16161"><ele>1641</ele></trkpt>
<trkpt lat="46.9659" lon="10.16161"><ele>1641</ele></trkpt>
<trkpt lat="46.96588" lon="10.16165"><ele>1641</ele></trkpt>
<trkpt lat="46.96588" lon="10.16167"><ele>1641</ele></trkpt>
<trkpt lat="46.96588" lon="10.16169"><ele>1641</ele></trkpt>
<trkpt lat="46.96588" lon="10.1617"><ele>1641</ele></trkpt>
<trkpt lat="46.96589" lon="10.16172"><ele>1640</ele></trkpt>
<trkpt lat="46.96593" lon="10.16175"><ele>1640</ele></trkpt>
<trkpt lat="46.96596" lon="10.16177"><ele>1640</ele></trkpt>
<trkpt lat="46.96599" lon="10.16178"><ele>1640</ele></trkpt>
<trkpt lat="46.96603" lon="10.1618"><ele>1640</ele></trkpt>
<trkpt lat="46.96604" lon="10.16184"><ele>1640</ele></trkpt>
<trkpt lat="46.96605" lon="10.16187"><ele>1640</ele></trkpt>
<trkpt lat="46.96603" lon="10.16191"><ele>1640</ele></trkpt>
<trkpt lat="46.96601" lon="10.16192"><ele>1639</ele></trkpt>
<trkpt lat="46.96598" lon="10.16194"><ele>1639</ele></trkpt>
<trkpt lat="46.96595" lon="10.16198"><ele>1639</ele></trkpt>
<trkpt lat="46.96594" lon="10.162"><ele>1639</ele></trkpt>
<trkpt lat="46.96594" lon="10.16203"><ele>1638</ele></trkpt>
<trkpt lat="46.96595" lon="10.16207"><ele>1638</ele></trkpt>
<trkpt lat="46.96597" lon="10.16208"><ele>1638</ele></trkpt>
<trkpt lat="46.96599" lon="10.16208"><ele>1638</ele></trkpt>
<trkpt lat="46.96602" lon="10.16206"><ele>1638</ele></trkpt>
<trkpt lat="46.96605" lon="10.16203"><ele>1638</ele></trkpt>
<trkpt lat="46.96607" lon="10.16201"><ele>1638</ele></trkpt>
<trkpt lat="46.96609" lon="10.16198"><ele>1638</ele></trkpt>
<trkpt lat="46.9661" lon="10.16198"><ele>1637</ele></trkpt>
<trkpt lat="46.96612" lon="10.162"><ele>1637</ele></trkpt>
<trkpt lat="46.96612" lon="10.16203"><ele>1637</ele></trkpt>
<trkpt lat="46.96612" lon="10.16211"><ele>1637</ele></trkpt>

                    </trkseg>
              </trk>
            </gpx>