<?xml version="1.0" encoding="utf-8"?>
            <gpx xmlns="http://www.topografix.com/GPX/1/1" xmlns:xsd="http://www.w3.org/2001/XMLSchema" xmlns:xsi="http://www.w3.org/2001/XMLSchema-instance" version="1.1" creator="Fugawi 4,5,14,1696 http://www.fugawi.com/" xsi:schemaLocation="http://www.topografix.com/GPX/1/1 http://www.topografix.com/GPX/1/1/gpx.xsd">
                <trk>
                    <name>7173 Kli Zeinis Trail</name>
                    <desc></desc>
                    <trkseg>
                        <trkpt lat="46.96921" lon="10.14906"><ele>1810</ele></trkpt>
<trkpt lat="46.9692" lon="10.14931"><ele>1809</ele></trkpt>
<trkpt lat="46.96914" lon="10.14946"><ele>1810</ele></trkpt>
<trkpt lat="46.96915" lon="10.14953"><ele>1810</ele></trkpt>
<trkpt lat="46.9692" lon="10.14953"><ele>1810</ele></trkpt>
<trkpt lat="46.96922" lon="10.1495"><ele>1810</ele></trkpt>
<trkpt lat="46.96923" lon="10.14947"><ele>1810</ele></trkpt>
<trkpt lat="46.96924" lon="10.14947"><ele>1810</ele></trkpt>
<trkpt lat="46.96926" lon="10.14949"><ele>1808</ele></trkpt>
<trkpt lat="46.96927" lon="10.14952"><ele>1808</ele></trkpt>
<trkpt lat="46.96929" lon="10.14955"><ele>1808</ele></trkpt>
<trkpt lat="46.96932" lon="10.14954"><ele>1808</ele></trkpt>
<trkpt lat="46.96932" lon="10.1495"><ele>1808</ele></trkpt>
<trkpt lat="46.96932" lon="10.14947"><ele>1808</ele></trkpt>
<trkpt lat="46.96932" lon="10.14943"><ele>1808</ele></trkpt>
<trkpt lat="46.96934" lon="10.14941"><ele>1808</ele></trkpt>
<trkpt lat="46.96935" lon="10.14943"><ele>1806</ele></trkpt>
<trkpt lat="46.96935" lon="10.14946"><ele>1806</ele></trkpt>
<trkpt lat="46.96938" lon="10.1496"><ele>1806</ele></trkpt>
<trkpt lat="46.96938" lon="10.14969"><ele>1806</ele></trkpt>
<trkpt lat="46.96935" lon="10.14974"><ele>1805</ele></trkpt>
<trkpt lat="46.96936" lon="10.14983"><ele>1804</ele></trkpt>
<trkpt lat="46.96938" lon="10.14992"><ele>1804</ele></trkpt>
<trkpt lat="46.96939" lon="10.15002"><ele>1803</ele></trkpt>
<trkpt lat="46.96939" lon="10.15006"><ele>1803</ele></trkpt>
<trkpt lat="46.96939" lon="10.15011"><ele>1802</ele></trkpt>
<trkpt lat="46.96934" lon="10.15014"><ele>1804</ele></trkpt>
<trkpt lat="46.9693" lon="10.15018"><ele>1804</ele></trkpt>
<trkpt lat="46.96928" lon="10.15023"><ele>1802</ele></trkpt>
<trkpt lat="46.96927" lon="10.15028"><ele>1802</ele></trkpt>
<trkpt lat="46.96926" lon="10.15034"><ele>1800</ele></trkpt>
<trkpt lat="46.96924" lon="10.15037"><ele>1802</ele></trkpt>
<trkpt lat="46.96921" lon="10.15039"><ele>1802</ele></trkpt>
<trkpt lat="46.96919" lon="10.15039"><ele>1802</ele></trkpt>
<trkpt lat="46.96918" lon="10.15043"><ele>1802</ele></trkpt>
<trkpt lat="46.96921" lon="10.15044"><ele>1802</ele></trkpt>
<trkpt lat="46.96923" lon="10.15044"><ele>1802</ele></trkpt>
<trkpt lat="46.96925" lon="10.15043"><ele>1802</ele></trkpt>
<trkpt lat="46.96928" lon="10.15037"><ele>1800</ele></trkpt>
<trkpt lat="46.96933" lon="10.15033"><ele>1802</ele></trkpt>
<trkpt lat="46.96934" lon="10.1503"><ele>1802</ele></trkpt>
<trkpt lat="46.96935" lon="10.15029"><ele>1800</ele></trkpt>
<trkpt lat="46.96937" lon="10.15029"><ele>1800</ele></trkpt>
<trkpt lat="46.96938" lon="10.15032"><ele>1800</ele></trkpt>
<trkpt lat="46.96936" lon="10.15035"><ele>1798</ele></trkpt>
<trkpt lat="46.96937" lon="10.15037"><ele>1798</ele></trkpt>
<trkpt lat="46.96939" lon="10.15037"><ele>1798</ele></trkpt>
<trkpt lat="46.9694" lon="10.15034"><ele>1798</ele></trkpt>
<trkpt lat="46.96942" lon="10.15032"><ele>1800</ele></trkpt>
<trkpt lat="46.96943" lon="10.1503"><ele>1798</ele></trkpt>
<trkpt lat="46.96944" lon="10.1503"><ele>1798</ele></trkpt>
<trkpt lat="46.96944" lon="10.15034"><ele>1796</ele></trkpt>
<trkpt lat="46.96943" lon="10.15037"><ele>1796</ele></trkpt>
<trkpt lat="46.96941" lon="10.15041"><ele>1798</ele></trkpt>
<trkpt lat="46.96939" lon="10.15042"><ele>1798</ele></trkpt>
<trkpt lat="46.96938" lon="10.15044"><ele>1798</ele></trkpt>
<trkpt lat="46.96938" lon="10.15049"><ele>1797</ele></trkpt>
<trkpt lat="46.96941" lon="10.15049"><ele>1797</ele></trkpt>
<trkpt lat="46.96945" lon="10.1504"><ele>1796</ele></trkpt>
<trkpt lat="46.96949" lon="10.15035"><ele>1796</ele></trkpt>
<trkpt lat="46.96952" lon="10.15027"><ele>1796</ele></trkpt>
<trkpt lat="46.96955" lon="10.1502"><ele>1797</ele></trkpt>
<trkpt lat="46.96957" lon="10.15013"><ele>1797</ele></trkpt>
<trkpt lat="46.96959" lon="10.15008"><ele>1797</ele></trkpt>
<trkpt lat="46.96962" lon="10.15007"><ele>1796</ele></trkpt>
<trkpt lat="46.96964" lon="10.15011"><ele>1795</ele></trkpt>
<trkpt lat="46.96963" lon="10.15013"><ele>1795</ele></trkpt>
<trkpt lat="46.96961" lon="10.15018"><ele>1795</ele></trkpt>
<trkpt lat="46.9696" lon="10.15024"><ele>1796</ele></trkpt>
<trkpt lat="46.96961" lon="10.15028"><ele>1794</ele></trkpt>
<trkpt lat="46.96961" lon="10.15035"><ele>1792</ele></trkpt>
<trkpt lat="46.96957" lon="10.15044"><ele>1794</ele></trkpt>
<trkpt lat="46.96955" lon="10.15044"><ele>1794</ele></trkpt>
<trkpt lat="46.96954" lon="10.15046"><ele>1794</ele></trkpt>
<trkpt lat="46.96953" lon="10.15048"><ele>1793</ele></trkpt>
<trkpt lat="46.96954" lon="10.15049"><ele>1793</ele></trkpt>
<trkpt lat="46.96956" lon="10.15049"><ele>1793</ele></trkpt>
<trkpt lat="46.96957" lon="10.15049"><ele>1793</ele></trkpt>
<trkpt lat="46.96959" lon="10.15044"><ele>1794</ele></trkpt>
<trkpt lat="46.96962" lon="10.15042"><ele>1792</ele></trkpt>
<trkpt lat="46.96965" lon="10.15039"><ele>1792</ele></trkpt>
<trkpt lat="46.96968" lon="10.15033"><ele>1794</ele></trkpt>
<trkpt lat="46.96971" lon="10.15029"><ele>1791</ele></trkpt>
<trkpt lat="46.96972" lon="10.15025"><ele>1791</ele></trkpt>
<trkpt lat="46.96973" lon="10.15021"><ele>1791</ele></trkpt>
<trkpt lat="46.96974" lon="10.15016"><ele>1793</ele></trkpt>
<trkpt lat="46.96975" lon="10.15014"><ele>1793</ele></trkpt>
<trkpt lat="46.96976" lon="10.15014"><ele>1793</ele></trkpt>
<trkpt lat="46.96978" lon="10.15014"><ele>1790</ele></trkpt>
<trkpt lat="46.96978" lon="10.15016"><ele>1790</ele></trkpt>
<trkpt lat="46.96978" lon="10.15016"><ele>1790</ele></trkpt>
<trkpt lat="46.96977" lon="10.15024"><ele>1791</ele></trkpt>
<trkpt lat="46.96976" lon="10.1503"><ele>1791</ele></trkpt>
<trkpt lat="46.96975" lon="10.15032"><ele>1791</ele></trkpt>
<trkpt lat="46.96976" lon="10.15035"><ele>1790</ele></trkpt>
<trkpt lat="46.96978" lon="10.15035"><ele>1788</ele></trkpt>
<trkpt lat="46.9698" lon="10.15035"><ele>1788</ele></trkpt>
<trkpt lat="46.96981" lon="10.15033"><ele>1789</ele></trkpt>
<trkpt lat="46.96983" lon="10.1503"><ele>1789</ele></trkpt>
<trkpt lat="46.96985" lon="10.15028"><ele>1789</ele></trkpt>
<trkpt lat="46.96986" lon="10.15024"><ele>1789</ele></trkpt>
<trkpt lat="46.96987" lon="10.15016"><ele>1788</ele></trkpt>
<trkpt lat="46.96988" lon="10.15015"><ele>1788</ele></trkpt>
<trkpt lat="46.96989" lon="10.15016"><ele>1788</ele></trkpt>
<trkpt lat="46.96989" lon="10.15019"><ele>1788</ele></trkpt>
<trkpt lat="46.96989" lon="10.15025"><ele>1787</ele></trkpt>
<trkpt lat="46.96988" lon="10.15028"><ele>1787</ele></trkpt>
<trkpt lat="46.96985" lon="10.15033"><ele>1789</ele></trkpt>
<trkpt lat="46.96984" lon="10.15035"><ele>1788</ele></trkpt>
<trkpt lat="46.96984" lon="10.15038"><ele>1788</ele></trkpt>
<trkpt lat="46.96985" lon="10.1504"><ele>1788</ele></trkpt>
<trkpt lat="46.96986" lon="10.15041"><ele>1788</ele></trkpt>
<trkpt lat="46.96987" lon="10.15041"><ele>1786</ele></trkpt>
<trkpt lat="46.96988" lon="10.15041"><ele>1786</ele></trkpt>
<trkpt lat="46.96989" lon="10.1504"><ele>1786</ele></trkpt>
<trkpt lat="46.96989" lon="10.15038"><ele>1786</ele></trkpt>
<trkpt lat="46.9699" lon="10.15035"><ele>1786</ele></trkpt>
<trkpt lat="46.96991" lon="10.15034"><ele>1786</ele></trkpt>
<trkpt lat="46.96993" lon="10.15033"><ele>1787</ele></trkpt>
<trkpt lat="46.96993" lon="10.1503"><ele>1787</ele></trkpt>
<trkpt lat="46.96994" lon="10.15029"><ele>1787</ele></trkpt>
<trkpt lat="46.96996" lon="10.15027"><ele>1784</ele></trkpt>
<trkpt lat="46.96997" lon="10.15027"><ele>1784</ele></trkpt>
<trkpt lat="46.96998" lon="10.15027"><ele>1784</ele></trkpt>
<trkpt lat="46.96998" lon="10.1503"><ele>1784</ele></trkpt>
<trkpt lat="46.97" lon="10.15033"><ele>1784</ele></trkpt>
<trkpt lat="46.97" lon="10.15035"><ele>1784</ele></trkpt>
<trkpt lat="46.97" lon="10.15037"><ele>1784</ele></trkpt>
<trkpt lat="46.97" lon="10.15039"><ele>1784</ele></trkpt>
<trkpt lat="46.97" lon="10.15041"><ele>1784</ele></trkpt>
<trkpt lat="46.97001" lon="10.15043"><ele>1784</ele></trkpt>
<trkpt lat="46.97001" lon="10.15044"><ele>1784</ele></trkpt>
<trkpt lat="46.97001" lon="10.15047"><ele>1783</ele></trkpt>
<trkpt lat="46.97001" lon="10.15049"><ele>1783</ele></trkpt>
<trkpt lat="46.97001" lon="10.15049"><ele>1783</ele></trkpt>
<trkpt lat="46.97" lon="10.15051"><ele>1783</ele></trkpt>
<trkpt lat="46.96999" lon="10.15055"><ele>1783</ele></trkpt>
<trkpt lat="46.96999" lon="10.15057"><ele>1783</ele></trkpt>
<trkpt lat="46.96999" lon="10.15058"><ele>1783</ele></trkpt>
<trkpt lat="46.96999" lon="10.15058"><ele>1783</ele></trkpt>
<trkpt lat="46.96999" lon="10.15061"><ele>1781</ele></trkpt>
<trkpt lat="46.96998" lon="10.15063"><ele>1781</ele></trkpt>
<trkpt lat="46.96997" lon="10.15065"><ele>1781</ele></trkpt>
<trkpt lat="46.96996" lon="10.15068"><ele>1781</ele></trkpt>
<trkpt lat="46.96995" lon="10.1507"><ele>1783</ele></trkpt>
<trkpt lat="46.96993" lon="10.15072"><ele>1782</ele></trkpt>
<trkpt lat="46.96991" lon="10.15074"><ele>1782</ele></trkpt>
<trkpt lat="46.9699" lon="10.15075"><ele>1782</ele></trkpt>
<trkpt lat="46.9699" lon="10.15076"><ele>1782</ele></trkpt>
<trkpt lat="46.9699" lon="10.15079"><ele>1782</ele></trkpt>
<trkpt lat="46.96991" lon="10.15079"><ele>1782</ele></trkpt>
<trkpt lat="46.96992" lon="10.15079"><ele>1782</ele></trkpt>
<trkpt lat="46.96994" lon="10.15077"><ele>1782</ele></trkpt>
<trkpt lat="46.96995" lon="10.15074"><ele>1782</ele></trkpt>
<trkpt lat="46.96998" lon="10.15071"><ele>1781</ele></trkpt>
<trkpt lat="46.97004" lon="10.15063"><ele>1778</ele></trkpt>
<trkpt lat="46.97008" lon="10.15056"><ele>1780</ele></trkpt>
<trkpt lat="46.97011" lon="10.15049"><ele>1780</ele></trkpt>
<trkpt lat="46.97011" lon="10.15043"><ele>1782</ele></trkpt>
<trkpt lat="46.97011" lon="10.15038"><ele>1782</ele></trkpt>
<trkpt lat="46.97013" lon="10.15034"><ele>1779</ele></trkpt>
<trkpt lat="46.97014" lon="10.15033"><ele>1779</ele></trkpt>
<trkpt lat="46.97015" lon="10.15033"><ele>1779</ele></trkpt>
<trkpt lat="46.97016" lon="10.15034"><ele>1779</ele></trkpt>
<trkpt lat="46.97016" lon="10.15035"><ele>1779</ele></trkpt>
<trkpt lat="46.97016" lon="10.15037"><ele>1779</ele></trkpt>
<trkpt lat="46.97016" lon="10.1504"><ele>1779</ele></trkpt>
<trkpt lat="46.97016" lon="10.15041"><ele>1779</ele></trkpt>
<trkpt lat="46.97016" lon="10.15043"><ele>1779</ele></trkpt>
<trkpt lat="46.97017" lon="10.15044"><ele>1779</ele></trkpt>
<trkpt lat="46.97017" lon="10.15046"><ele>1779</ele></trkpt>
<trkpt lat="46.97017" lon="10.15048"><ele>1778</ele></trkpt>
<trkpt lat="46.97016" lon="10.15049"><ele>1778</ele></trkpt>
<trkpt lat="46.97016" lon="10.15051"><ele>1778</ele></trkpt>
<trkpt lat="46.97016" lon="10.15052"><ele>1778</ele></trkpt>
<trkpt lat="46.97016" lon="10.15054"><ele>1778</ele></trkpt>
<trkpt lat="46.97016" lon="10.15055"><ele>1778</ele></trkpt>
<trkpt lat="46.97016" lon="10.15057"><ele>1778</ele></trkpt>
<trkpt lat="46.97016" lon="10.15058"><ele>1778</ele></trkpt>
<trkpt lat="46.97015" lon="10.15062"><ele>1776</ele></trkpt>
<trkpt lat="46.97015" lon="10.15063"><ele>1776</ele></trkpt>
<trkpt lat="46.97014" lon="10.15063"><ele>1776</ele></trkpt>
<trkpt lat="46.97012" lon="10.15066"><ele>1778</ele></trkpt>
<trkpt lat="46.97011" lon="10.15066"><ele>1778</ele></trkpt>
<trkpt lat="46.97011" lon="10.15067"><ele>1778</ele></trkpt>
<trkpt lat="46.97011" lon="10.15069"><ele>1778</ele></trkpt>
<trkpt lat="46.97011" lon="10.1507"><ele>1778</ele></trkpt>
<trkpt lat="46.97012" lon="10.15071"><ele>1778</ele></trkpt>
<trkpt lat="46.97012" lon="10.15071"><ele>1778</ele></trkpt>
<trkpt lat="46.97013" lon="10.15071"><ele>1776</ele></trkpt>
<trkpt lat="46.97014" lon="10.15071"><ele>1776</ele></trkpt>
<trkpt lat="46.97014" lon="10.15071"><ele>1776</ele></trkpt>
<trkpt lat="46.97015" lon="10.1507"><ele>1776</ele></trkpt>
<trkpt lat="46.97015" lon="10.1507"><ele>1776</ele></trkpt>
<trkpt lat="46.97016" lon="10.15069"><ele>1776</ele></trkpt>
<trkpt lat="46.97016" lon="10.15068"><ele>1776</ele></trkpt>
<trkpt lat="46.97017" lon="10.15067"><ele>1776</ele></trkpt>
<trkpt lat="46.97017" lon="10.15067"><ele>1776</ele></trkpt>
<trkpt lat="46.97018" lon="10.15066"><ele>1776</ele></trkpt>
<trkpt lat="46.97019" lon="10.15065"><ele>1776</ele></trkpt>
<trkpt lat="46.97019" lon="10.15063"><ele>1776</ele></trkpt>
<trkpt lat="46.97021" lon="10.15061"><ele>1776</ele></trkpt>
<trkpt lat="46.97021" lon="10.1506"><ele>1776</ele></trkpt>
<trkpt lat="46.97022" lon="10.15058"><ele>1776</ele></trkpt>
<trkpt lat="46.97023" lon="10.15057"><ele>1776</ele></trkpt>
<trkpt lat="46.97023" lon="10.15055"><ele>1776</ele></trkpt>
<trkpt lat="46.97023" lon="10.15052"><ele>1776</ele></trkpt>
<trkpt lat="46.97024" lon="10.15051"><ele>1776</ele></trkpt>
<trkpt lat="46.97024" lon="10.15049"><ele>1776</ele></trkpt>
<trkpt lat="46.97025" lon="10.15049"><ele>1776</ele></trkpt>
<trkpt lat="46.97026" lon="10.15049"><ele>1776</ele></trkpt>
<trkpt lat="46.97026" lon="10.15052"><ele>1776</ele></trkpt>
<trkpt lat="46.97026" lon="10.15057"><ele>1776</ele></trkpt>
<trkpt lat="46.97027" lon="10.15057"><ele>1776</ele></trkpt>
<trkpt lat="46.97027" lon="10.15058"><ele>1776</ele></trkpt>
<trkpt lat="46.97028" lon="10.15058"><ele>1776</ele></trkpt>
<trkpt lat="46.97028" lon="10.1506"><ele>1774</ele></trkpt>
<trkpt lat="46.97027" lon="10.15062"><ele>1774</ele></trkpt>
<trkpt lat="46.97026" lon="10.15063"><ele>1774</ele></trkpt>
<trkpt lat="46.97022" lon="10.15071"><ele>1774</ele></trkpt>
<trkpt lat="46.97021" lon="10.15072"><ele>1774</ele></trkpt>
<trkpt lat="46.9702" lon="10.15076"><ele>1774</ele></trkpt>
<trkpt lat="46.97019" lon="10.15077"><ele>1774</ele></trkpt>
<trkpt lat="46.97018" lon="10.15079"><ele>1774</ele></trkpt>
<trkpt lat="46.97018" lon="10.15079"><ele>1774</ele></trkpt>
<trkpt lat="46.97017" lon="10.1508"><ele>1774</ele></trkpt>
<trkpt lat="46.97017" lon="10.15082"><ele>1774</ele></trkpt>
<trkpt lat="46.97018" lon="10.15084"><ele>1774</ele></trkpt>
<trkpt lat="46.97019" lon="10.15085"><ele>1772</ele></trkpt>
<trkpt lat="46.9702" lon="10.15084"><ele>1774</ele></trkpt>
<trkpt lat="46.97021" lon="10.15084"><ele>1774</ele></trkpt>
<trkpt lat="46.97022" lon="10.15082"><ele>1772</ele></trkpt>
<trkpt lat="46.97024" lon="10.15079"><ele>1772</ele></trkpt>
<trkpt lat="46.97032" lon="10.15076"><ele>1771</ele></trkpt>
<trkpt lat="46.97036" lon="10.1507"><ele>1773</ele></trkpt>
<trkpt lat="46.97046" lon="10.15068"><ele>1772</ele></trkpt>
<trkpt lat="46.97057" lon="10.15069"><ele>1771</ele></trkpt>
<trkpt lat="46.97061" lon="10.15067"><ele>1771</ele></trkpt>
<trkpt lat="46.97063" lon="10.15067"><ele>1771</ele></trkpt>
<trkpt lat="46.97067" lon="10.15062"><ele>1770</ele></trkpt>
<trkpt lat="46.97073" lon="10.15058"><ele>1771</ele></trkpt>
<trkpt lat="46.97076" lon="10.15057"><ele>1770</ele></trkpt>
<trkpt lat="46.97079" lon="10.15055"><ele>1770</ele></trkpt>
<trkpt lat="46.97081" lon="10.15053"><ele>1770</ele></trkpt>
<trkpt lat="46.97083" lon="10.15051"><ele>1769</ele></trkpt>
<trkpt lat="46.97084" lon="10.15049"><ele>1769</ele></trkpt>
<trkpt lat="46.97086" lon="10.15047"><ele>1769</ele></trkpt>
<trkpt lat="46.97088" lon="10.15047"><ele>1769</ele></trkpt>
<trkpt lat="46.97089" lon="10.15047"><ele>1769</ele></trkpt>
<trkpt lat="46.9709" lon="10.15049"><ele>1769</ele></trkpt>
<trkpt lat="46.97091" lon="10.15053"><ele>1769</ele></trkpt>
<trkpt lat="46.9709" lon="10.15057"><ele>1769</ele></trkpt>
<trkpt lat="46.97089" lon="10.15062"><ele>1767</ele></trkpt>
<trkpt lat="46.97089" lon="10.15065"><ele>1767</ele></trkpt>
<trkpt lat="46.97088" lon="10.15067"><ele>1767</ele></trkpt>
<trkpt lat="46.97086" lon="10.15069"><ele>1767</ele></trkpt>
<trkpt lat="46.97084" lon="10.15071"><ele>1767</ele></trkpt>
<trkpt lat="46.97077" lon="10.15082"><ele>1767</ele></trkpt>
<trkpt lat="46.97075" lon="10.15088"><ele>1766</ele></trkpt>
<trkpt lat="46.97064" lon="10.15099"><ele>1765</ele></trkpt>
<trkpt lat="46.97062" lon="10.15101"><ele>1765</ele></trkpt>
<trkpt lat="46.9706" lon="10.15104"><ele>1765</ele></trkpt>
<trkpt lat="46.97057" lon="10.15105"><ele>1765</ele></trkpt>
<trkpt lat="46.97055" lon="10.15105"><ele>1766</ele></trkpt>
<trkpt lat="46.97052" lon="10.15105"><ele>1766</ele></trkpt>
<trkpt lat="46.9705" lon="10.15105"><ele>1766</ele></trkpt>
<trkpt lat="46.97048" lon="10.15109"><ele>1766</ele></trkpt>
<trkpt lat="46.97049" lon="10.15112"><ele>1764</ele></trkpt>
<trkpt lat="46.97051" lon="10.15115"><ele>1764</ele></trkpt>
<trkpt lat="46.97053" lon="10.15115"><ele>1764</ele></trkpt>
<trkpt lat="46.97057" lon="10.15115"><ele>1764</ele></trkpt>
<trkpt lat="46.9706" lon="10.15115"><ele>1764</ele></trkpt>
<trkpt lat="46.97064" lon="10.15114"><ele>1764</ele></trkpt>
<trkpt lat="46.97065" lon="10.15113"><ele>1763</ele></trkpt>
<trkpt lat="46.97068" lon="10.15113"><ele>1763</ele></trkpt>
<trkpt lat="46.9707" lon="10.15114"><ele>1763</ele></trkpt>
<trkpt lat="46.97073" lon="10.15113"><ele>1763</ele></trkpt>
<trkpt lat="46.97075" lon="10.15112"><ele>1763</ele></trkpt>
<trkpt lat="46.97078" lon="10.1511"><ele>1764</ele></trkpt>
<trkpt lat="46.9708" lon="10.1511"><ele>1764</ele></trkpt>
<trkpt lat="46.97082" lon="10.15112"><ele>1763</ele></trkpt>
<trkpt lat="46.97084" lon="10.15112"><ele>1762</ele></trkpt>
<trkpt lat="46.97086" lon="10.1511"><ele>1764</ele></trkpt>
<trkpt lat="46.97088" lon="10.1511"><ele>1764</ele></trkpt>
<trkpt lat="46.9709" lon="10.1511"><ele>1764</ele></trkpt>
<trkpt lat="46.97091" lon="10.1511"><ele>1764</ele></trkpt>
<trkpt lat="46.97093" lon="10.15109"><ele>1762</ele></trkpt>
<trkpt lat="46.97094" lon="10.15107"><ele>1762</ele></trkpt>
<trkpt lat="46.97097" lon="10.15103"><ele>1762</ele></trkpt>
<trkpt lat="46.97098" lon="10.15102"><ele>1762</ele></trkpt>
<trkpt lat="46.97101" lon="10.151"><ele>1760</ele></trkpt>
<trkpt lat="46.97102" lon="10.15099"><ele>1760</ele></trkpt>
<trkpt lat="46.97103" lon="10.15096"><ele>1762</ele></trkpt>
<trkpt lat="46.97105" lon="10.15096"><ele>1762</ele></trkpt>
<trkpt lat="46.97106" lon="10.15096"><ele>1762</ele></trkpt>
<trkpt lat="46.97107" lon="10.15098"><ele>1760</ele></trkpt>
<trkpt lat="46.97107" lon="10.15101"><ele>1760</ele></trkpt>
<trkpt lat="46.97107" lon="10.15103"><ele>1760</ele></trkpt>
<trkpt lat="46.97106" lon="10.15105"><ele>1760</ele></trkpt>
<trkpt lat="46.97104" lon="10.1511"><ele>1760</ele></trkpt>
<trkpt lat="46.97102" lon="10.15114"><ele>1759</ele></trkpt>
<trkpt lat="46.97099" lon="10.15116"><ele>1761</ele></trkpt>
<trkpt lat="46.97096" lon="10.15121"><ele>1761</ele></trkpt>
<trkpt lat="46.97094" lon="10.15124"><ele>1760</ele></trkpt>
<trkpt lat="46.97093" lon="10.15126"><ele>1760</ele></trkpt>
<trkpt lat="46.97092" lon="10.15127"><ele>1760</ele></trkpt>
<trkpt lat="46.97091" lon="10.15128"><ele>1761</ele></trkpt>
<trkpt lat="46.9709" lon="10.1513"><ele>1761</ele></trkpt>
<trkpt lat="46.97088" lon="10.15133"><ele>1761</ele></trkpt>
<trkpt lat="46.97088" lon="10.15137"><ele>1759</ele></trkpt>
<trkpt lat="46.9709" lon="10.15138"><ele>1759</ele></trkpt>
<trkpt lat="46.97091" lon="10.15138"><ele>1759</ele></trkpt>
<trkpt lat="46.97093" lon="10.15138"><ele>1759</ele></trkpt>
<trkpt lat="46.97095" lon="10.15135"><ele>1760</ele></trkpt>
<trkpt lat="46.97099" lon="10.15131"><ele>1760</ele></trkpt>
<trkpt lat="46.97101" lon="10.15129"><ele>1758</ele></trkpt>
<trkpt lat="46.97103" lon="10.15126"><ele>1758</ele></trkpt>
<trkpt lat="46.97104" lon="10.15124"><ele>1758</ele></trkpt>
<trkpt lat="46.97105" lon="10.15124"><ele>1758</ele></trkpt>
<trkpt lat="46.97106" lon="10.15123"><ele>1758</ele></trkpt>
<trkpt lat="46.97108" lon="10.15124"><ele>1758</ele></trkpt>
<trkpt lat="46.97109" lon="10.15126"><ele>1757</ele></trkpt>
<trkpt lat="46.97109" lon="10.15127"><ele>1757</ele></trkpt>
<trkpt lat="46.97109" lon="10.15129"><ele>1757</ele></trkpt>
<trkpt lat="46.97108" lon="10.15132"><ele>1758</ele></trkpt>
<trkpt lat="46.97107" lon="10.15132"><ele>1758</ele></trkpt>
<trkpt lat="46.97107" lon="10.15133"><ele>1758</ele></trkpt>
<trkpt lat="46.97106" lon="10.15136"><ele>1757</ele></trkpt>
<trkpt lat="46.97106" lon="10.15138"><ele>1757</ele></trkpt>
<trkpt lat="46.97107" lon="10.15141"><ele>1757</ele></trkpt>
<trkpt lat="46.97107" lon="10.15141"><ele>1757</ele></trkpt>
<trkpt lat="46.97108" lon="10.15143"><ele>1757</ele></trkpt>
<trkpt lat="46.97107" lon="10.15145"><ele>1757</ele></trkpt>
<trkpt lat="46.97106" lon="10.15146"><ele>1757</ele></trkpt>
<trkpt lat="46.97105" lon="10.15146"><ele>1757</ele></trkpt>
<trkpt lat="46.97104" lon="10.15147"><ele>1757</ele></trkpt>
<trkpt lat="46.97104" lon="10.15147"><ele>1757</ele></trkpt>
<trkpt lat="46.97104" lon="10.1515"><ele>1757</ele></trkpt>
<trkpt lat="46.97103" lon="10.15151"><ele>1757</ele></trkpt>
<trkpt lat="46.97102" lon="10.15154"><ele>1757</ele></trkpt>
<trkpt lat="46.97102" lon="10.15154"><ele>1757</ele></trkpt>
<trkpt lat="46.97112" lon="10.15157"><ele>1756</ele></trkpt>
<trkpt lat="46.97119" lon="10.15162"><ele>1757</ele></trkpt>
<trkpt lat="46.97126" lon="10.15162"><ele>1759</ele></trkpt>
<trkpt lat="46.97126" lon="10.15162"><ele>1759</ele></trkpt>
<trkpt lat="46.97124" lon="10.15166"><ele>1757</ele></trkpt>
<trkpt lat="46.9712" lon="10.15177"><ele>1759</ele></trkpt>
<trkpt lat="46.97116" lon="10.15189"><ele>1757</ele></trkpt>
<trkpt lat="46.97112" lon="10.15199"><ele>1757</ele></trkpt>
<trkpt lat="46.97106" lon="10.15212"><ele>1756</ele></trkpt>
<trkpt lat="46.97104" lon="10.15215"><ele>1757</ele></trkpt>
<trkpt lat="46.97104" lon="10.15215"><ele>1757</ele></trkpt>
<trkpt lat="46.97104" lon="10.15215"><ele>1757</ele></trkpt>
<trkpt lat="46.97104" lon="10.15215"><ele>1757</ele></trkpt>
<trkpt lat="46.97099" lon="10.15222"><ele>1755</ele></trkpt>
<trkpt lat="46.97095" lon="10.15229"><ele>1757</ele></trkpt>
<trkpt lat="46.9709" lon="10.15235"><ele>1755</ele></trkpt>
<trkpt lat="46.97085" lon="10.15239"><ele>1757</ele></trkpt>
<trkpt lat="46.97078" lon="10.15245"><ele>1756</ele></trkpt>
<trkpt lat="46.9707" lon="10.15251"><ele>1756</ele></trkpt>
<trkpt lat="46.97066" lon="10.15254"><ele>1756</ele></trkpt>
<trkpt lat="46.97061" lon="10.15259"><ele>1756</ele></trkpt>
<trkpt lat="46.97055" lon="10.15267"><ele>1755</ele></trkpt>
<trkpt lat="46.97048" lon="10.15277"><ele>1755</ele></trkpt>
<trkpt lat="46.97037" lon="10.15292"><ele>1752</ele></trkpt>
<trkpt lat="46.97028" lon="10.15307"><ele>1751</ele></trkpt>
<trkpt lat="46.97019" lon="10.15325"><ele>1749</ele></trkpt>
<trkpt lat="46.97015" lon="10.15333"><ele>1749</ele></trkpt>
<trkpt lat="46.97011" lon="10.1534"><ele>1748</ele></trkpt>
<trkpt lat="46.97007" lon="10.15348"><ele>1748</ele></trkpt>
<trkpt lat="46.97002" lon="10.15354"><ele>1746</ele></trkpt>
<trkpt lat="46.96998" lon="10.1536"><ele>1746</ele></trkpt>
<trkpt lat="46.96994" lon="10.15365"><ele>1745</ele></trkpt>
<trkpt lat="46.96975" lon="10.15379"><ele>1742</ele></trkpt>
<trkpt lat="46.96967" lon="10.15386"><ele>1741</ele></trkpt>
<trkpt lat="46.96961" lon="10.15391"><ele>1741</ele></trkpt>
<trkpt lat="46.96948" lon="10.15404"><ele>1738</ele></trkpt>
<trkpt lat="46.96948" lon="10.15404"><ele>1738</ele></trkpt>
<trkpt lat="46.96948" lon="10.15404"><ele>1738</ele></trkpt>
<trkpt lat="46.96948" lon="10.15404"><ele>1738</ele></trkpt>
<trkpt lat="46.96935" lon="10.15415"><ele>1736</ele></trkpt>
<trkpt lat="46.96923" lon="10.15428"><ele>1733</ele></trkpt>
<trkpt lat="46.96918" lon="10.15432"><ele>1734</ele></trkpt>
<trkpt lat="46.96914" lon="10.15437"><ele>1732</ele></trkpt>
<trkpt lat="46.96898" lon="10.15448"><ele>1730</ele></trkpt>
<trkpt lat="46.96894" lon="10.15452"><ele>1730</ele></trkpt>
<trkpt lat="46.96891" lon="10.15454"><ele>1730</ele></trkpt>
<trkpt lat="46.96889" lon="10.15457"><ele>1728</ele></trkpt>
<trkpt lat="46.96881" lon="10.15471"><ele>1727</ele></trkpt>
<trkpt lat="46.96881" lon="10.15471"><ele>1727</ele></trkpt>
<trkpt lat="46.96881" lon="10.15471"><ele>1727</ele></trkpt>
<trkpt lat="46.9688" lon="10.15471"><ele>1727</ele></trkpt>
<trkpt lat="46.96876" lon="10.15475"><ele>1727</ele></trkpt>
<trkpt lat="46.96865" lon="10.15483"><ele>1726</ele></trkpt>
<trkpt lat="46.9686" lon="10.15488"><ele>1726</ele></trkpt>
<trkpt lat="46.96853" lon="10.15495"><ele>1725</ele></trkpt>
<trkpt lat="46.96836" lon="10.15507"><ele>1725</ele></trkpt>
<trkpt lat="46.96823" lon="10.15517"><ele>1725</ele></trkpt>
<trkpt lat="46.96816" lon="10.15523"><ele>1724</ele></trkpt>
<trkpt lat="46.96806" lon="10.15532"><ele>1724</ele></trkpt>
<trkpt lat="46.96799" lon="10.15537"><ele>1724</ele></trkpt>
<trkpt lat="46.96783" lon="10.15542"><ele>1725</ele></trkpt>

                    </trkseg>
              </trk>
            </gpx>