<?xml version="1.0" encoding="utf-8"?>
            <gpx xmlns="http://www.topografix.com/GPX/1/1" xmlns:xsd="http://www.w3.org/2001/XMLSchema" xmlns:xsi="http://www.w3.org/2001/XMLSchema-instance" version="1.1" creator="Fugawi 4,5,14,1696 http://www.fugawi.com/" xsi:schemaLocation="http://www.topografix.com/GPX/1/1 http://www.topografix.com/GPX/1/1/gpx.xsd">
                <trk>
                    <name>7187 Schmuggler Trail</name>
                    <desc></desc>
                    <trkseg>
                        <trkpt lat="46.97992" lon="10.3399"><ele>2750</ele></trkpt>
<trkpt lat="46.97988" lon="10.34"><ele>2750</ele></trkpt>
<trkpt lat="46.97986" lon="10.34005"><ele>2750</ele></trkpt>
<trkpt lat="46.97982" lon="10.34013"><ele>2750</ele></trkpt>
<trkpt lat="46.97966" lon="10.34024"><ele>2744</ele></trkpt>
<trkpt lat="46.97956" lon="10.34031"><ele>2744</ele></trkpt>
<trkpt lat="46.97949" lon="10.34036"><ele>2744</ele></trkpt>
<trkpt lat="46.97945" lon="10.3404"><ele>2744</ele></trkpt>
<trkpt lat="46.97941" lon="10.34041"><ele>2742</ele></trkpt>
<trkpt lat="46.97933" lon="10.34047"><ele>2742</ele></trkpt>
<trkpt lat="46.97925" lon="10.3405"><ele>2742</ele></trkpt>
<trkpt lat="46.97921" lon="10.34052"><ele>2742</ele></trkpt>
<trkpt lat="46.97917" lon="10.34054"><ele>2739</ele></trkpt>
<trkpt lat="46.97913" lon="10.34054"><ele>2739</ele></trkpt>
<trkpt lat="46.979" lon="10.34052"><ele>2739</ele></trkpt>
<trkpt lat="46.97882" lon="10.34055"><ele>2739</ele></trkpt>
<trkpt lat="46.97876" lon="10.34056"><ele>2737</ele></trkpt>
<trkpt lat="46.97875" lon="10.34055"><ele>2737</ele></trkpt>
<trkpt lat="46.97862" lon="10.34052"><ele>2737</ele></trkpt>
<trkpt lat="46.97852" lon="10.34046"><ele>2737</ele></trkpt>
<trkpt lat="46.97849" lon="10.34045"><ele>2736</ele></trkpt>
<trkpt lat="46.97843" lon="10.34038"><ele>2736</ele></trkpt>
<trkpt lat="46.97836" lon="10.34035"><ele>2736</ele></trkpt>
<trkpt lat="46.9783" lon="10.34027"><ele>2736</ele></trkpt>
<trkpt lat="46.97827" lon="10.34024"><ele>2738</ele></trkpt>
<trkpt lat="46.97826" lon="10.34023"><ele>2738</ele></trkpt>
<trkpt lat="46.97823" lon="10.34019"><ele>2738</ele></trkpt>
<trkpt lat="46.978" lon="10.33989"><ele>2738</ele></trkpt>
<trkpt lat="46.97784" lon="10.33974"><ele>2739</ele></trkpt>
<trkpt lat="46.9777" lon="10.33954"><ele>2739</ele></trkpt>
<trkpt lat="46.97753" lon="10.33941"><ele>2739</ele></trkpt>
<trkpt lat="46.97734" lon="10.33925"><ele>2739</ele></trkpt>
<trkpt lat="46.97717" lon="10.3391"><ele>2740</ele></trkpt>
<trkpt lat="46.977" lon="10.339"><ele>2740</ele></trkpt>
<trkpt lat="46.97681" lon="10.33888"><ele>2740</ele></trkpt>
<trkpt lat="46.97663" lon="10.3388"><ele>2740</ele></trkpt>
<trkpt lat="46.97644" lon="10.33869"><ele>2752</ele></trkpt>
<trkpt lat="46.97636" lon="10.33867"><ele>2752</ele></trkpt>
<trkpt lat="46.9763" lon="10.33862"><ele>2752</ele></trkpt>
<trkpt lat="46.97623" lon="10.33855"><ele>2752</ele></trkpt>
<trkpt lat="46.97612" lon="10.33846"><ele>2751</ele></trkpt>
<trkpt lat="46.97604" lon="10.33839"><ele>2751</ele></trkpt>
<trkpt lat="46.9759" lon="10.33831"><ele>2751</ele></trkpt>
<trkpt lat="46.97577" lon="10.33822"><ele>2751</ele></trkpt>
<trkpt lat="46.9757" lon="10.33813"><ele>2751</ele></trkpt>
<trkpt lat="46.97565" lon="10.33803"><ele>2751</ele></trkpt>
<trkpt lat="46.97556" lon="10.33788"><ele>2751</ele></trkpt>
<trkpt lat="46.97547" lon="10.33775"><ele>2751</ele></trkpt>
<trkpt lat="46.9754" lon="10.33763"><ele>2748</ele></trkpt>
<trkpt lat="46.97532" lon="10.33752"><ele>2748</ele></trkpt>
<trkpt lat="46.9752" lon="10.33738"><ele>2748</ele></trkpt>
<trkpt lat="46.97514" lon="10.33732"><ele>2748</ele></trkpt>
<trkpt lat="46.97506" lon="10.33719"><ele>2748</ele></trkpt>
<trkpt lat="46.97489" lon="10.33691"><ele>2748</ele></trkpt>
<trkpt lat="46.97488" lon="10.33685"><ele>2748</ele></trkpt>
<trkpt lat="46.97482" lon="10.33681"><ele>2748</ele></trkpt>
<trkpt lat="46.97471" lon="10.33672"><ele>2752</ele></trkpt>
<trkpt lat="46.97463" lon="10.33661"><ele>2752</ele></trkpt>
<trkpt lat="46.97456" lon="10.33649"><ele>2752</ele></trkpt>
<trkpt lat="46.97446" lon="10.33635"><ele>2752</ele></trkpt>
<trkpt lat="46.97437" lon="10.33623"><ele>2761</ele></trkpt>
<trkpt lat="46.9742" lon="10.33602"><ele>2761</ele></trkpt>
<trkpt lat="46.97409" lon="10.33591"><ele>2761</ele></trkpt>
<trkpt lat="46.97398" lon="10.33578"><ele>2761</ele></trkpt>
<trkpt lat="46.97387" lon="10.33567"><ele>2771</ele></trkpt>
<trkpt lat="46.97382" lon="10.33563"><ele>2771</ele></trkpt>
<trkpt lat="46.97382" lon="10.33563"><ele>2771</ele></trkpt>
<trkpt lat="46.97378" lon="10.33559"><ele>2771</ele></trkpt>
<trkpt lat="46.97361" lon="10.33547"><ele>2775</ele></trkpt>
<trkpt lat="46.97345" lon="10.33538"><ele>2775</ele></trkpt>
<trkpt lat="46.97333" lon="10.33531"><ele>2775</ele></trkpt>
<trkpt lat="46.97327" lon="10.33529"><ele>2775</ele></trkpt>
<trkpt lat="46.97317" lon="10.33526"><ele>2788</ele></trkpt>
<trkpt lat="46.97311" lon="10.33524"><ele>2788</ele></trkpt>
<trkpt lat="46.97304" lon="10.33519"><ele>2788</ele></trkpt>
<trkpt lat="46.97298" lon="10.33511"><ele>2788</ele></trkpt>
<trkpt lat="46.97296" lon="10.33501"><ele>2795</ele></trkpt>
<trkpt lat="46.97295" lon="10.33485"><ele>2795</ele></trkpt>
<trkpt lat="46.97294" lon="10.33474"><ele>2795</ele></trkpt>
<trkpt lat="46.97291" lon="10.33465"><ele>2795</ele></trkpt>
<trkpt lat="46.97287" lon="10.33458"><ele>2801</ele></trkpt>
<trkpt lat="46.97284" lon="10.33455"><ele>2801</ele></trkpt>
<trkpt lat="46.97279" lon="10.33451"><ele>2801</ele></trkpt>
<trkpt lat="46.97273" lon="10.33447"><ele>2801</ele></trkpt>
<trkpt lat="46.97258" lon="10.33444"><ele>2803</ele></trkpt>
<trkpt lat="46.97242" lon="10.33442"><ele>2803</ele></trkpt>
<trkpt lat="46.97232" lon="10.33441"><ele>2803</ele></trkpt>
<trkpt lat="46.97227" lon="10.33441"><ele>2803</ele></trkpt>
<trkpt lat="46.97216" lon="10.33444"><ele>2807</ele></trkpt>
<trkpt lat="46.97205" lon="10.33446"><ele>2807</ele></trkpt>
<trkpt lat="46.97199" lon="10.33447"><ele>2807</ele></trkpt>
<trkpt lat="46.97189" lon="10.3345"><ele>2807</ele></trkpt>
<trkpt lat="46.97177" lon="10.33454"><ele>2815</ele></trkpt>
<trkpt lat="46.97165" lon="10.33474"><ele>2815</ele></trkpt>
<trkpt lat="46.97157" lon="10.3347"><ele>2815</ele></trkpt>
<trkpt lat="46.97153" lon="10.3346"><ele>2815</ele></trkpt>
<trkpt lat="46.97149" lon="10.3345"><ele>2825</ele></trkpt>
<trkpt lat="46.97143" lon="10.33437"><ele>2825</ele></trkpt>
<trkpt lat="46.97137" lon="10.33426"><ele>2825</ele></trkpt>
<trkpt lat="46.97134" lon="10.33414"><ele>2825</ele></trkpt>
<trkpt lat="46.97129" lon="10.33404"><ele>2828</ele></trkpt>
<trkpt lat="46.97121" lon="10.33395"><ele>2828</ele></trkpt>
<trkpt lat="46.97109" lon="10.33389"><ele>2828</ele></trkpt>
<trkpt lat="46.97104" lon="10.33388"><ele>2828</ele></trkpt>
<trkpt lat="46.97099" lon="10.33385"><ele>2838</ele></trkpt>
<trkpt lat="46.97085" lon="10.33381"><ele>2838</ele></trkpt>
<trkpt lat="46.97067" lon="10.33375"><ele>2838</ele></trkpt>
<trkpt lat="46.97056" lon="10.33371"><ele>2838</ele></trkpt>
<trkpt lat="46.9705" lon="10.33369"><ele>2848</ele></trkpt>
<trkpt lat="46.97046" lon="10.33367"><ele>2848</ele></trkpt>
<trkpt lat="46.97033" lon="10.33367"><ele>2848</ele></trkpt>
<trkpt lat="46.97026" lon="10.33367"><ele>2848</ele></trkpt>
<trkpt lat="46.9702" lon="10.33367"><ele>2852</ele></trkpt>
<trkpt lat="46.97008" lon="10.33372"><ele>2852</ele></trkpt>
<trkpt lat="46.97004" lon="10.33374"><ele>2852</ele></trkpt>
<trkpt lat="46.96997" lon="10.33376"><ele>2852</ele></trkpt>
<trkpt lat="46.9699" lon="10.3338"><ele>2852</ele></trkpt>
<trkpt lat="46.96979" lon="10.3339"><ele>2852</ele></trkpt>
<trkpt lat="46.96972" lon="10.33395"><ele>2852</ele></trkpt>
<trkpt lat="46.96961" lon="10.33394"><ele>2852</ele></trkpt>
<trkpt lat="46.96954" lon="10.33392"><ele>2849</ele></trkpt>
<trkpt lat="46.96948" lon="10.33389"><ele>2849</ele></trkpt>
<trkpt lat="46.96935" lon="10.33384"><ele>2849</ele></trkpt>
<trkpt lat="46.96916" lon="10.33377"><ele>2849</ele></trkpt>
<trkpt lat="46.969" lon="10.33364"><ele>2840</ele></trkpt>
<trkpt lat="46.96886" lon="10.33351"><ele>2840</ele></trkpt>
<trkpt lat="46.96882" lon="10.33348"><ele>2840</ele></trkpt>
<trkpt lat="46.96874" lon="10.33342"><ele>2840</ele></trkpt>
<trkpt lat="46.96868" lon="10.33337"><ele>2843</ele></trkpt>
<trkpt lat="46.96864" lon="10.33334"><ele>2843</ele></trkpt>
<trkpt lat="46.96859" lon="10.3333"><ele>2843</ele></trkpt>
<trkpt lat="46.96856" lon="10.33327"><ele>2843</ele></trkpt>
<trkpt lat="46.9685" lon="10.3332"><ele>2838</ele></trkpt>
<trkpt lat="46.96833" lon="10.33309"><ele>2838</ele></trkpt>
<trkpt lat="46.96815" lon="10.33292"><ele>2838</ele></trkpt>
<trkpt lat="46.96801" lon="10.33275"><ele>2838</ele></trkpt>
<trkpt lat="46.96787" lon="10.33258"><ele>2813</ele></trkpt>
<trkpt lat="46.96784" lon="10.33254"><ele>2813</ele></trkpt>
<trkpt lat="46.96782" lon="10.33245"><ele>2813</ele></trkpt>
<trkpt lat="46.96781" lon="10.33239"><ele>2813</ele></trkpt>
<trkpt lat="46.96783" lon="10.33231"><ele>2813</ele></trkpt>
<trkpt lat="46.96786" lon="10.33222"><ele>2813</ele></trkpt>
<trkpt lat="46.96782" lon="10.33205"><ele>2813</ele></trkpt>
<trkpt lat="46.96775" lon="10.33189"><ele>2813</ele></trkpt>
<trkpt lat="46.96763" lon="10.33167"><ele>2793</ele></trkpt>
<trkpt lat="46.96755" lon="10.33158"><ele>2793</ele></trkpt>
<trkpt lat="46.96747" lon="10.33154"><ele>2793</ele></trkpt>
<trkpt lat="46.96734" lon="10.3315"><ele>2793</ele></trkpt>
<trkpt lat="46.96725" lon="10.33141"><ele>2801</ele></trkpt>
<trkpt lat="46.96713" lon="10.33122"><ele>2801</ele></trkpt>
<trkpt lat="46.96706" lon="10.33113"><ele>2801</ele></trkpt>
<trkpt lat="46.96693" lon="10.331"><ele>2801</ele></trkpt>
<trkpt lat="46.96684" lon="10.33097"><ele>2786</ele></trkpt>
<trkpt lat="46.96665" lon="10.3309"><ele>2786</ele></trkpt>
<trkpt lat="46.96655" lon="10.33086"><ele>2786</ele></trkpt>
<trkpt lat="46.96635" lon="10.33079"><ele>2786</ele></trkpt>
<trkpt lat="46.96626" lon="10.33073"><ele>2767</ele></trkpt>
<trkpt lat="46.96613" lon="10.33069"><ele>2767</ele></trkpt>
<trkpt lat="46.96599" lon="10.33064"><ele>2767</ele></trkpt>
<trkpt lat="46.96576" lon="10.33053"><ele>2767</ele></trkpt>
<trkpt lat="46.96544" lon="10.33029"><ele>2747</ele></trkpt>
<trkpt lat="46.96537" lon="10.33026"><ele>2747</ele></trkpt>
<trkpt lat="46.9652" lon="10.33018"><ele>2747</ele></trkpt>
<trkpt lat="46.96498" lon="10.33004"><ele>2747</ele></trkpt>
<trkpt lat="46.96486" lon="10.32995"><ele>2739</ele></trkpt>
<trkpt lat="46.9648" lon="10.32987"><ele>2739</ele></trkpt>
<trkpt lat="46.96476" lon="10.32982"><ele>2739</ele></trkpt>
<trkpt lat="46.96468" lon="10.32973"><ele>2739</ele></trkpt>
<trkpt lat="46.96461" lon="10.32965"><ele>2740</ele></trkpt>
<trkpt lat="46.96456" lon="10.32959"><ele>2740</ele></trkpt>
<trkpt lat="46.96449" lon="10.32956"><ele>2740</ele></trkpt>
<trkpt lat="46.96441" lon="10.32949"><ele>2740</ele></trkpt>
<trkpt lat="46.96432" lon="10.32945"><ele>2738</ele></trkpt>
<trkpt lat="46.96426" lon="10.32942"><ele>2738</ele></trkpt>
<trkpt lat="46.96418" lon="10.32938"><ele>2738</ele></trkpt>
<trkpt lat="46.96391" lon="10.32936"><ele>2738</ele></trkpt>
<trkpt lat="46.9637" lon="10.32921"><ele>2733</ele></trkpt>
<trkpt lat="46.96342" lon="10.3291"><ele>2733</ele></trkpt>
<trkpt lat="46.96321" lon="10.3291"><ele>2733</ele></trkpt>
<trkpt lat="46.96305" lon="10.32917"><ele>2733</ele></trkpt>
<trkpt lat="46.96289" lon="10.32917"><ele>2735</ele></trkpt>
<trkpt lat="46.96274" lon="10.32917"><ele>2735</ele></trkpt>
<trkpt lat="46.96251" lon="10.32916"><ele>2735</ele></trkpt>
<trkpt lat="46.96237" lon="10.32906"><ele>2735</ele></trkpt>
<trkpt lat="46.96224" lon="10.32886"><ele>2729</ele></trkpt>
<trkpt lat="46.96214" lon="10.32874"><ele>2729</ele></trkpt>
<trkpt lat="46.96198" lon="10.32865"><ele>2729</ele></trkpt>
<trkpt lat="46.96187" lon="10.32864"><ele>2729</ele></trkpt>
<trkpt lat="46.96168" lon="10.32868"><ele>2726</ele></trkpt>
<trkpt lat="46.96155" lon="10.32873"><ele>2726</ele></trkpt>
<trkpt lat="46.96145" lon="10.32881"><ele>2726</ele></trkpt>
<trkpt lat="46.9613" lon="10.32893"><ele>2726</ele></trkpt>
<trkpt lat="46.96107" lon="10.32906"><ele>2723</ele></trkpt>
<trkpt lat="46.96097" lon="10.3291"><ele>2723</ele></trkpt>
<trkpt lat="46.96093" lon="10.32914"><ele>2723</ele></trkpt>
<trkpt lat="46.96084" lon="10.3292"><ele>2723</ele></trkpt>
<trkpt lat="46.96073" lon="10.32928"><ele>2724</ele></trkpt>
<trkpt lat="46.96065" lon="10.32929"><ele>2724</ele></trkpt>
<trkpt lat="46.9606" lon="10.3293"><ele>2724</ele></trkpt>
<trkpt lat="46.96048" lon="10.32935"><ele>2724</ele></trkpt>
<trkpt lat="46.96038" lon="10.3294"><ele>2713</ele></trkpt>
<trkpt lat="46.96035" lon="10.32944"><ele>2713</ele></trkpt>
<trkpt lat="46.96033" lon="10.32949"><ele>2713</ele></trkpt>
<trkpt lat="46.96027" lon="10.32952"><ele>2713</ele></trkpt>
<trkpt lat="46.9602" lon="10.32952"><ele>2713</ele></trkpt>
<trkpt lat="46.96014" lon="10.32953"><ele>2713</ele></trkpt>
<trkpt lat="46.96008" lon="10.32956"><ele>2713</ele></trkpt>
<trkpt lat="46.96001" lon="10.32954"><ele>2713</ele></trkpt>
<trkpt lat="46.95987" lon="10.32954"><ele>2704</ele></trkpt>
<trkpt lat="46.95979" lon="10.32953"><ele>2704</ele></trkpt>
<trkpt lat="46.95971" lon="10.32954"><ele>2704</ele></trkpt>
<trkpt lat="46.95964" lon="10.32959"><ele>2704</ele></trkpt>
<trkpt lat="46.95959" lon="10.32961"><ele>2711</ele></trkpt>
<trkpt lat="46.95952" lon="10.32959"><ele>2711</ele></trkpt>
<trkpt lat="46.95945" lon="10.32959"><ele>2711</ele></trkpt>
<trkpt lat="46.95942" lon="10.32957"><ele>2711</ele></trkpt>
<trkpt lat="46.95939" lon="10.32956"><ele>2699</ele></trkpt>
<trkpt lat="46.95934" lon="10.32954"><ele>2699</ele></trkpt>
<trkpt lat="46.95931" lon="10.32952"><ele>2699</ele></trkpt>
<trkpt lat="46.95928" lon="10.32953"><ele>2699</ele></trkpt>
<trkpt lat="46.95926" lon="10.32956"><ele>2696</ele></trkpt>
<trkpt lat="46.95921" lon="10.32954"><ele>2696</ele></trkpt>
<trkpt lat="46.95913" lon="10.32954"><ele>2696</ele></trkpt>
<trkpt lat="46.95906" lon="10.32958"><ele>2696</ele></trkpt>
<trkpt lat="46.95902" lon="10.32959"><ele>2703</ele></trkpt>
<trkpt lat="46.95898" lon="10.32964"><ele>2703</ele></trkpt>
<trkpt lat="46.95893" lon="10.32967"><ele>2703</ele></trkpt>
<trkpt lat="46.95885" lon="10.32961"><ele>2703</ele></trkpt>
<trkpt lat="46.95882" lon="10.32959"><ele>2699</ele></trkpt>
<trkpt lat="46.95877" lon="10.32956"><ele>2699</ele></trkpt>
<trkpt lat="46.95873" lon="10.32954"><ele>2699</ele></trkpt>
<trkpt lat="46.95866" lon="10.32951"><ele>2699</ele></trkpt>
<trkpt lat="46.95861" lon="10.3295"><ele>2687</ele></trkpt>
<trkpt lat="46.95857" lon="10.3295"><ele>2687</ele></trkpt>
<trkpt lat="46.95853" lon="10.32954"><ele>2687</ele></trkpt>
<trkpt lat="46.9585" lon="10.32953"><ele>2687</ele></trkpt>
<trkpt lat="46.95847" lon="10.32952"><ele>2685</ele></trkpt>
<trkpt lat="46.95843" lon="10.32951"><ele>2685</ele></trkpt>
<trkpt lat="46.95839" lon="10.32949"><ele>2685</ele></trkpt>
<trkpt lat="46.95826" lon="10.32942"><ele>2685</ele></trkpt>
<trkpt lat="46.95818" lon="10.32936"><ele>2685</ele></trkpt>
<trkpt lat="46.95811" lon="10.32933"><ele>2685</ele></trkpt>
<trkpt lat="46.95807" lon="10.32933"><ele>2685</ele></trkpt>
<trkpt lat="46.95796" lon="10.32928"><ele>2685</ele></trkpt>
<trkpt lat="46.95792" lon="10.32926"><ele>2678</ele></trkpt>
<trkpt lat="46.95787" lon="10.32926"><ele>2678</ele></trkpt>
<trkpt lat="46.95779" lon="10.32925"><ele>2678</ele></trkpt>
<trkpt lat="46.95773" lon="10.32924"><ele>2678</ele></trkpt>
<trkpt lat="46.95769" lon="10.32919"><ele>2680</ele></trkpt>
<trkpt lat="46.95763" lon="10.32916"><ele>2680</ele></trkpt>
<trkpt lat="46.95754" lon="10.32912"><ele>2680</ele></trkpt>
<trkpt lat="46.95746" lon="10.32912"><ele>2680</ele></trkpt>
<trkpt lat="46.95737" lon="10.32907"><ele>2683</ele></trkpt>
<trkpt lat="46.95722" lon="10.32895"><ele>2683</ele></trkpt>
<trkpt lat="46.95713" lon="10.32892"><ele>2683</ele></trkpt>
<trkpt lat="46.95708" lon="10.32889"><ele>2683</ele></trkpt>
<trkpt lat="46.95702" lon="10.32883"><ele>2689</ele></trkpt>
<trkpt lat="46.95701" lon="10.32876"><ele>2689</ele></trkpt>
<trkpt lat="46.95698" lon="10.3287"><ele>2689</ele></trkpt>
<trkpt lat="46.95694" lon="10.32868"><ele>2689</ele></trkpt>
<trkpt lat="46.95686" lon="10.32864"><ele>2690</ele></trkpt>
<trkpt lat="46.95681" lon="10.32863"><ele>2690</ele></trkpt>
<trkpt lat="46.95677" lon="10.32859"><ele>2690</ele></trkpt>
<trkpt lat="46.95673" lon="10.32856"><ele>2690</ele></trkpt>
<trkpt lat="46.95661" lon="10.3285"><ele>2695</ele></trkpt>
<trkpt lat="46.95654" lon="10.32843"><ele>2695</ele></trkpt>
<trkpt lat="46.95647" lon="10.32839"><ele>2695</ele></trkpt>
<trkpt lat="46.95637" lon="10.32841"><ele>2695</ele></trkpt>
<trkpt lat="46.95632" lon="10.32841"><ele>2701</ele></trkpt>
<trkpt lat="46.95628" lon="10.32835"><ele>2701</ele></trkpt>
<trkpt lat="46.95624" lon="10.32835"><ele>2701</ele></trkpt>
<trkpt lat="46.9562" lon="10.32834"><ele>2701</ele></trkpt>
<trkpt lat="46.95616" lon="10.32834"><ele>2701</ele></trkpt>
<trkpt lat="46.95604" lon="10.32832"><ele>2701</ele></trkpt>
<trkpt lat="46.95593" lon="10.32832"><ele>2701</ele></trkpt>
<trkpt lat="46.95589" lon="10.32832"><ele>2701</ele></trkpt>
<trkpt lat="46.95575" lon="10.32836"><ele>2708</ele></trkpt>
<trkpt lat="46.95567" lon="10.32837"><ele>2708</ele></trkpt>
<trkpt lat="46.95548" lon="10.32827"><ele>2708</ele></trkpt>
<trkpt lat="46.95542" lon="10.32822"><ele>2708</ele></trkpt>
<trkpt lat="46.95528" lon="10.32818"><ele>2717</ele></trkpt>
<trkpt lat="46.95522" lon="10.32814"><ele>2717</ele></trkpt>
<trkpt lat="46.95509" lon="10.32808"><ele>2717</ele></trkpt>
<trkpt lat="46.95501" lon="10.32803"><ele>2717</ele></trkpt>
<trkpt lat="46.95497" lon="10.32799"><ele>2721</ele></trkpt>
<trkpt lat="46.95492" lon="10.32799"><ele>2721</ele></trkpt>
<trkpt lat="46.95486" lon="10.32799"><ele>2721</ele></trkpt>
<trkpt lat="46.95475" lon="10.32794"><ele>2721</ele></trkpt>
<trkpt lat="46.9547" lon="10.32794"><ele>2727</ele></trkpt>
<trkpt lat="46.95457" lon="10.32794"><ele>2727</ele></trkpt>
<trkpt lat="46.95453" lon="10.32793"><ele>2727</ele></trkpt>
<trkpt lat="46.95447" lon="10.32792"><ele>2727</ele></trkpt>
<trkpt lat="46.95439" lon="10.32789"><ele>2738</ele></trkpt>
<trkpt lat="46.95432" lon="10.32788"><ele>2738</ele></trkpt>
<trkpt lat="46.95423" lon="10.32785"><ele>2738</ele></trkpt>
<trkpt lat="46.95417" lon="10.32781"><ele>2738</ele></trkpt>
<trkpt lat="46.95411" lon="10.32775"><ele>2737</ele></trkpt>
<trkpt lat="46.95404" lon="10.32771"><ele>2737</ele></trkpt>
<trkpt lat="46.95401" lon="10.32767"><ele>2737</ele></trkpt>
<trkpt lat="46.95395" lon="10.32761"><ele>2737</ele></trkpt>
<trkpt lat="46.95393" lon="10.32757"><ele>2739</ele></trkpt>
<trkpt lat="46.9539" lon="10.32753"><ele>2739</ele></trkpt>
<trkpt lat="46.9539" lon="10.32755"><ele>2739</ele></trkpt>
<trkpt lat="46.95391" lon="10.32762"><ele>2739</ele></trkpt>
<trkpt lat="46.95391" lon="10.32767"><ele>2739</ele></trkpt>
<trkpt lat="46.95391" lon="10.3277"><ele>2739</ele></trkpt>
<trkpt lat="46.95391" lon="10.32773"><ele>2739</ele></trkpt>
<trkpt lat="46.95391" lon="10.32781"><ele>2739</ele></trkpt>
<trkpt lat="46.95391" lon="10.32788"><ele>2736</ele></trkpt>
<trkpt lat="46.95394" lon="10.32795"><ele>2736</ele></trkpt>
<trkpt lat="46.95402" lon="10.32807"><ele>2736</ele></trkpt>
<trkpt lat="46.954" lon="10.32809"><ele>2736</ele></trkpt>
<trkpt lat="46.95396" lon="10.32812"><ele>2730</ele></trkpt>
<trkpt lat="46.95391" lon="10.32815"><ele>2730</ele></trkpt>
<trkpt lat="46.95387" lon="10.32816"><ele>2730</ele></trkpt>
<trkpt lat="46.95382" lon="10.32814"><ele>2730</ele></trkpt>
<trkpt lat="46.95376" lon="10.32809"><ele>2721</ele></trkpt>
<trkpt lat="46.95371" lon="10.32804"><ele>2721</ele></trkpt>
<trkpt lat="46.95368" lon="10.32801"><ele>2721</ele></trkpt>
<trkpt lat="46.95367" lon="10.32807"><ele>2721</ele></trkpt>
<trkpt lat="46.9537" lon="10.32818"><ele>2721</ele></trkpt>
<trkpt lat="46.95372" lon="10.3283"><ele>2721</ele></trkpt>
<trkpt lat="46.95374" lon="10.3284"><ele>2721</ele></trkpt>
<trkpt lat="46.95378" lon="10.32851"><ele>2721</ele></trkpt>
<trkpt lat="46.95385" lon="10.32865"><ele>2721</ele></trkpt>
<trkpt lat="46.95384" lon="10.32869"><ele>2721</ele></trkpt>
<trkpt lat="46.95381" lon="10.3287"><ele>2721</ele></trkpt>
<trkpt lat="46.95371" lon="10.32876"><ele>2721</ele></trkpt>
<trkpt lat="46.95361" lon="10.32873"><ele>2700</ele></trkpt>
<trkpt lat="46.95348" lon="10.32864"><ele>2700</ele></trkpt>
<trkpt lat="46.95347" lon="10.32864"><ele>2700</ele></trkpt>
<trkpt lat="46.95345" lon="10.32867"><ele>2700</ele></trkpt>
<trkpt lat="46.95346" lon="10.32872"><ele>2700</ele></trkpt>
<trkpt lat="46.95344" lon="10.32891"><ele>2700</ele></trkpt>
<trkpt lat="46.95342" lon="10.32897"><ele>2700</ele></trkpt>
<trkpt lat="46.95341" lon="10.32904"><ele>2700</ele></trkpt>
<trkpt lat="46.95332" lon="10.32917"><ele>2688</ele></trkpt>
<trkpt lat="46.95328" lon="10.32926"><ele>2688</ele></trkpt>
<trkpt lat="46.95319" lon="10.32943"><ele>2688</ele></trkpt>
<trkpt lat="46.95315" lon="10.32953"><ele>2688</ele></trkpt>
<trkpt lat="46.95312" lon="10.32962"><ele>2679</ele></trkpt>
<trkpt lat="46.95312" lon="10.32968"><ele>2679</ele></trkpt>
<trkpt lat="46.95316" lon="10.3298"><ele>2679</ele></trkpt>
<trkpt lat="46.95317" lon="10.32987"><ele>2679</ele></trkpt>
<trkpt lat="46.95316" lon="10.32996"><ele>2678</ele></trkpt>
<trkpt lat="46.95318" lon="10.33005"><ele>2678</ele></trkpt>
<trkpt lat="46.9532" lon="10.3301"><ele>2678</ele></trkpt>
<trkpt lat="46.95332" lon="10.33017"><ele>2678</ele></trkpt>
<trkpt lat="46.95353" lon="10.33014"><ele>2682</ele></trkpt>
<trkpt lat="46.9536" lon="10.33011"><ele>2682</ele></trkpt>
<trkpt lat="46.95368" lon="10.33006"><ele>2682</ele></trkpt>
<trkpt lat="46.95376" lon="10.33006"><ele>2682</ele></trkpt>
<trkpt lat="46.95387" lon="10.3301"><ele>2679</ele></trkpt>
<trkpt lat="46.95397" lon="10.33015"><ele>2679</ele></trkpt>
<trkpt lat="46.95404" lon="10.33019"><ele>2679</ele></trkpt>
<trkpt lat="46.95412" lon="10.3302"><ele>2679</ele></trkpt>
<trkpt lat="46.95423" lon="10.3302"><ele>2672</ele></trkpt>
<trkpt lat="46.95428" lon="10.33023"><ele>2672</ele></trkpt>
<trkpt lat="46.95441" lon="10.33024"><ele>2672</ele></trkpt>
<trkpt lat="46.95447" lon="10.33027"><ele>2672</ele></trkpt>
<trkpt lat="46.9546" lon="10.33022"><ele>2672</ele></trkpt>
<trkpt lat="46.9547" lon="10.33018"><ele>2672</ele></trkpt>
<trkpt lat="46.95478" lon="10.33015"><ele>2672</ele></trkpt>
<trkpt lat="46.95485" lon="10.33013"><ele>2672</ele></trkpt>
<trkpt lat="46.95494" lon="10.33006"><ele>2676</ele></trkpt>
<trkpt lat="46.95504" lon="10.32998"><ele>2676</ele></trkpt>
<trkpt lat="46.95512" lon="10.3298"><ele>2676</ele></trkpt>
<trkpt lat="46.95529" lon="10.32968"><ele>2676</ele></trkpt>
<trkpt lat="46.95545" lon="10.32964"><ele>2676</ele></trkpt>
<trkpt lat="46.95533" lon="10.32978"><ele>2676</ele></trkpt>
<trkpt lat="46.95526" lon="10.32992"><ele>2676</ele></trkpt>
<trkpt lat="46.95527" lon="10.33005"><ele>2676</ele></trkpt>
<trkpt lat="46.95535" lon="10.33006"><ele>2669</ele></trkpt>
<trkpt lat="46.9554" lon="10.32987"><ele>2669</ele></trkpt>
<trkpt lat="46.95552" lon="10.32978"><ele>2669</ele></trkpt>
<trkpt lat="46.95562" lon="10.3298"><ele>2669</ele></trkpt>
<trkpt lat="46.95559" lon="10.32989"><ele>2666</ele></trkpt>
<trkpt lat="46.95557" lon="10.33012"><ele>2666</ele></trkpt>
<trkpt lat="46.95564" lon="10.33026"><ele>2666</ele></trkpt>
<trkpt lat="46.95581" lon="10.33034"><ele>2666</ele></trkpt>
<trkpt lat="46.95608" lon="10.33023"><ele>2658</ele></trkpt>
<trkpt lat="46.95625" lon="10.33009"><ele>2658</ele></trkpt>
<trkpt lat="46.95639" lon="10.33006"><ele>2658</ele></trkpt>
<trkpt lat="46.95674" lon="10.33011"><ele>2658</ele></trkpt>
<trkpt lat="46.95698" lon="10.3302"><ele>2642</ele></trkpt>
<trkpt lat="46.95712" lon="10.33024"><ele>2642</ele></trkpt>
<trkpt lat="46.95716" lon="10.33043"><ele>2642</ele></trkpt>
<trkpt lat="46.95717" lon="10.33072"><ele>2642</ele></trkpt>
<trkpt lat="46.95739" lon="10.33099"><ele>2635</ele></trkpt>
<trkpt lat="46.95755" lon="10.33088"><ele>2635</ele></trkpt>
<trkpt lat="46.95774" lon="10.33089"><ele>2635</ele></trkpt>
<trkpt lat="46.95772" lon="10.33114"><ele>2635</ele></trkpt>
<trkpt lat="46.95776" lon="10.33117"><ele>2625</ele></trkpt>
<trkpt lat="46.9578" lon="10.33119"><ele>2625</ele></trkpt>
<trkpt lat="46.95785" lon="10.3312"><ele>2625</ele></trkpt>
<trkpt lat="46.95789" lon="10.33123"><ele>2625</ele></trkpt>
<trkpt lat="46.95792" lon="10.33126"><ele>2625</ele></trkpt>
<trkpt lat="46.95797" lon="10.33126"><ele>2625</ele></trkpt>
<trkpt lat="46.95803" lon="10.33128"><ele>2625</ele></trkpt>
<trkpt lat="46.95805" lon="10.33131"><ele>2625</ele></trkpt>
<trkpt lat="46.95807" lon="10.33135"><ele>2625</ele></trkpt>
<trkpt lat="46.9581" lon="10.33145"><ele>2625</ele></trkpt>
<trkpt lat="46.95813" lon="10.33153"><ele>2625</ele></trkpt>
<trkpt lat="46.95821" lon="10.33159"><ele>2625</ele></trkpt>
<trkpt lat="46.95827" lon="10.33163"><ele>2618</ele></trkpt>
<trkpt lat="46.95829" lon="10.33169"><ele>2618</ele></trkpt>
<trkpt lat="46.95831" lon="10.33174"><ele>2618</ele></trkpt>
<trkpt lat="46.95834" lon="10.33178"><ele>2618</ele></trkpt>
<trkpt lat="46.95837" lon="10.33183"><ele>2614</ele></trkpt>
<trkpt lat="46.95847" lon="10.33189"><ele>2614</ele></trkpt>
<trkpt lat="46.95851" lon="10.33192"><ele>2614</ele></trkpt>
<trkpt lat="46.95855" lon="10.33193"><ele>2614</ele></trkpt>
<trkpt lat="46.95858" lon="10.33197"><ele>2614</ele></trkpt>
<trkpt lat="46.9586" lon="10.33203"><ele>2614</ele></trkpt>
<trkpt lat="46.95864" lon="10.33217"><ele>2614</ele></trkpt>
<trkpt lat="46.95868" lon="10.33224"><ele>2614</ele></trkpt>
<trkpt lat="46.95873" lon="10.33236"><ele>2602</ele></trkpt>
<trkpt lat="46.95885" lon="10.33245"><ele>2602</ele></trkpt>
<trkpt lat="46.95891" lon="10.33245"><ele>2602</ele></trkpt>
<trkpt lat="46.95901" lon="10.33243"><ele>2602</ele></trkpt>
<trkpt lat="46.95905" lon="10.33244"><ele>2603</ele></trkpt>
<trkpt lat="46.95909" lon="10.33245"><ele>2603</ele></trkpt>
<trkpt lat="46.95915" lon="10.33253"><ele>2603</ele></trkpt>
<trkpt lat="46.95922" lon="10.33258"><ele>2603</ele></trkpt>
<trkpt lat="46.95928" lon="10.33262"><ele>2601</ele></trkpt>
<trkpt lat="46.95935" lon="10.33271"><ele>2601</ele></trkpt>
<trkpt lat="46.95945" lon="10.33277"><ele>2601</ele></trkpt>
<trkpt lat="46.95949" lon="10.33278"><ele>2601</ele></trkpt>
<trkpt lat="46.9596" lon="10.33281"><ele>2601</ele></trkpt>
<trkpt lat="46.95965" lon="10.33287"><ele>2601</ele></trkpt>
<trkpt lat="46.95971" lon="10.33291"><ele>2601</ele></trkpt>
<trkpt lat="46.95977" lon="10.33294"><ele>2601</ele></trkpt>
<trkpt lat="46.9598" lon="10.33297"><ele>2597</ele></trkpt>
<trkpt lat="46.95987" lon="10.33299"><ele>2597</ele></trkpt>
<trkpt lat="46.95993" lon="10.33302"><ele>2597</ele></trkpt>
<trkpt lat="46.95996" lon="10.33303"><ele>2597</ele></trkpt>
<trkpt lat="46.96001" lon="10.33302"><ele>2594</ele></trkpt>
<trkpt lat="46.96005" lon="10.33304"><ele>2594</ele></trkpt>
<trkpt lat="46.96007" lon="10.33308"><ele>2594</ele></trkpt>
<trkpt lat="46.96014" lon="10.33311"><ele>2594</ele></trkpt>
<trkpt lat="46.96039" lon="10.3332"><ele>2587</ele></trkpt>
<trkpt lat="46.96052" lon="10.33322"><ele>2587</ele></trkpt>
<trkpt lat="46.96064" lon="10.33325"><ele>2587</ele></trkpt>
<trkpt lat="46.96069" lon="10.33327"><ele>2587</ele></trkpt>
<trkpt lat="46.96081" lon="10.33336"><ele>2587</ele></trkpt>
<trkpt lat="46.96093" lon="10.33348"><ele>2587</ele></trkpt>
<trkpt lat="46.961" lon="10.33358"><ele>2587</ele></trkpt>
<trkpt lat="46.96108" lon="10.33372"><ele>2587</ele></trkpt>
<trkpt lat="46.96121" lon="10.33386"><ele>2583</ele></trkpt>
<trkpt lat="46.96127" lon="10.33405"><ele>2583</ele></trkpt>
<trkpt lat="46.96131" lon="10.33419"><ele>2583</ele></trkpt>
<trkpt lat="46.96135" lon="10.33428"><ele>2583</ele></trkpt>
<trkpt lat="46.96143" lon="10.3344"><ele>2582</ele></trkpt>
<trkpt lat="46.9615" lon="10.3345"><ele>2582</ele></trkpt>
<trkpt lat="46.96168" lon="10.33466"><ele>2582</ele></trkpt>
<trkpt lat="46.96177" lon="10.33484"><ele>2582</ele></trkpt>
<trkpt lat="46.96191" lon="10.33501"><ele>2580</ele></trkpt>
<trkpt lat="46.96196" lon="10.33508"><ele>2580</ele></trkpt>
<trkpt lat="46.96203" lon="10.3351"><ele>2580</ele></trkpt>
<trkpt lat="46.96212" lon="10.33508"><ele>2580</ele></trkpt>
<trkpt lat="46.96224" lon="10.33511"><ele>2581</ele></trkpt>
<trkpt lat="46.96226" lon="10.33521"><ele>2581</ele></trkpt>
<trkpt lat="46.96233" lon="10.3353"><ele>2581</ele></trkpt>
<trkpt lat="46.96239" lon="10.33541"><ele>2581</ele></trkpt>
<trkpt lat="46.96243" lon="10.3355"><ele>2579</ele></trkpt>
<trkpt lat="46.96246" lon="10.33554"><ele>2579</ele></trkpt>
<trkpt lat="46.9625" lon="10.33557"><ele>2579</ele></trkpt>
<trkpt lat="46.96259" lon="10.33558"><ele>2579</ele></trkpt>
<trkpt lat="46.96262" lon="10.33558"><ele>2581</ele></trkpt>
<trkpt lat="46.96265" lon="10.33557"><ele>2581</ele></trkpt>
<trkpt lat="46.9627" lon="10.33562"><ele>2581</ele></trkpt>
<trkpt lat="46.96274" lon="10.33564"><ele>2581</ele></trkpt>
<trkpt lat="46.96279" lon="10.33571"><ele>2578</ele></trkpt>
<trkpt lat="46.96282" lon="10.33585"><ele>2578</ele></trkpt>
<trkpt lat="46.96288" lon="10.33596"><ele>2578</ele></trkpt>
<trkpt lat="46.96294" lon="10.33604"><ele>2578</ele></trkpt>
<trkpt lat="46.96298" lon="10.3362"><ele>2577</ele></trkpt>
<trkpt lat="46.96301" lon="10.3363"><ele>2577</ele></trkpt>
<trkpt lat="46.96299" lon="10.33639"><ele>2577</ele></trkpt>
<trkpt lat="46.96303" lon="10.33647"><ele>2577</ele></trkpt>
<trkpt lat="46.96305" lon="10.33657"><ele>2569</ele></trkpt>
<trkpt lat="46.96307" lon="10.33663"><ele>2569</ele></trkpt>
<trkpt lat="46.96309" lon="10.3368"><ele>2569</ele></trkpt>
<trkpt lat="46.96309" lon="10.33691"><ele>2569</ele></trkpt>
<trkpt lat="46.96313" lon="10.33712"><ele>2571</ele></trkpt>
<trkpt lat="46.96317" lon="10.33735"><ele>2571</ele></trkpt>
<trkpt lat="46.96317" lon="10.33743"><ele>2571</ele></trkpt>
<trkpt lat="46.96319" lon="10.33747"><ele>2571</ele></trkpt>
<trkpt lat="46.9632" lon="10.33755"><ele>2569</ele></trkpt>
<trkpt lat="46.96323" lon="10.33764"><ele>2569</ele></trkpt>
<trkpt lat="46.96327" lon="10.33775"><ele>2569</ele></trkpt>
<trkpt lat="46.96328" lon="10.33779"><ele>2569</ele></trkpt>
<trkpt lat="46.96332" lon="10.33789"><ele>2573</ele></trkpt>
<trkpt lat="46.96342" lon="10.33804"><ele>2573</ele></trkpt>
<trkpt lat="46.96348" lon="10.33812"><ele>2573</ele></trkpt>
<trkpt lat="46.96355" lon="10.33821"><ele>2573</ele></trkpt>
<trkpt lat="46.96358" lon="10.33829"><ele>2574</ele></trkpt>
<trkpt lat="46.96361" lon="10.33836"><ele>2574</ele></trkpt>
<trkpt lat="46.96362" lon="10.33839"><ele>2574</ele></trkpt>
<trkpt lat="46.96365" lon="10.33841"><ele>2574</ele></trkpt>
<trkpt lat="46.96366" lon="10.33848"><ele>2570</ele></trkpt>
<trkpt lat="46.96367" lon="10.33853"><ele>2570</ele></trkpt>
<trkpt lat="46.96367" lon="10.33865"><ele>2570</ele></trkpt>
<trkpt lat="46.96367" lon="10.33869"><ele>2570</ele></trkpt>
<trkpt lat="46.96371" lon="10.33883"><ele>2572</ele></trkpt>
<trkpt lat="46.96372" lon="10.33895"><ele>2572</ele></trkpt>
<trkpt lat="46.96376" lon="10.33905"><ele>2572</ele></trkpt>
<trkpt lat="46.96381" lon="10.33916"><ele>2572</ele></trkpt>
<trkpt lat="46.96385" lon="10.33926"><ele>2565</ele></trkpt>
<trkpt lat="46.96391" lon="10.33944"><ele>2565</ele></trkpt>
<trkpt lat="46.96392" lon="10.33951"><ele>2565</ele></trkpt>
<trkpt lat="46.96392" lon="10.33963"><ele>2565</ele></trkpt>
<trkpt lat="46.96395" lon="10.33976"><ele>2570</ele></trkpt>
<trkpt lat="46.96398" lon="10.33982"><ele>2570</ele></trkpt>
<trkpt lat="46.96397" lon="10.33987"><ele>2570</ele></trkpt>
<trkpt lat="46.964" lon="10.34003"><ele>2570</ele></trkpt>
<trkpt lat="46.96406" lon="10.34019"><ele>2561</ele></trkpt>
<trkpt lat="46.96406" lon="10.34026"><ele>2561</ele></trkpt>
<trkpt lat="46.96409" lon="10.34037"><ele>2561</ele></trkpt>
<trkpt lat="46.96414" lon="10.34041"><ele>2561</ele></trkpt>
<trkpt lat="46.96421" lon="10.34043"><ele>2569</ele></trkpt>
<trkpt lat="46.96424" lon="10.34046"><ele>2569</ele></trkpt>
<trkpt lat="46.96426" lon="10.34057"><ele>2569</ele></trkpt>
<trkpt lat="46.9643" lon="10.34074"><ele>2569</ele></trkpt>
<trkpt lat="46.96431" lon="10.34089"><ele>2560</ele></trkpt>
<trkpt lat="46.96435" lon="10.34123"><ele>2560</ele></trkpt>
<trkpt lat="46.96436" lon="10.34132"><ele>2560</ele></trkpt>
<trkpt lat="46.96441" lon="10.34153"><ele>2560</ele></trkpt>
<trkpt lat="46.96444" lon="10.34176"><ele>2560</ele></trkpt>
<trkpt lat="46.96446" lon="10.34183"><ele>2560</ele></trkpt>
<trkpt lat="46.96451" lon="10.34196"><ele>2560</ele></trkpt>
<trkpt lat="46.96452" lon="10.34204"><ele>2560</ele></trkpt>
<trkpt lat="46.96456" lon="10.34212"><ele>2565</ele></trkpt>
<trkpt lat="46.96457" lon="10.34216"><ele>2565</ele></trkpt>
<trkpt lat="46.96458" lon="10.34226"><ele>2565</ele></trkpt>
<trkpt lat="46.96458" lon="10.34235"><ele>2565</ele></trkpt>
<trkpt lat="46.96462" lon="10.34247"><ele>2562</ele></trkpt>
<trkpt lat="46.96466" lon="10.34259"><ele>2562</ele></trkpt>
<trkpt lat="46.96464" lon="10.34272"><ele>2562</ele></trkpt>
<trkpt lat="46.96466" lon="10.34287"><ele>2562</ele></trkpt>
<trkpt lat="46.96466" lon="10.34299"><ele>2554</ele></trkpt>
<trkpt lat="46.96469" lon="10.34309"><ele>2554</ele></trkpt>
<trkpt lat="46.96469" lon="10.34315"><ele>2554</ele></trkpt>
<trkpt lat="46.9647" lon="10.34324"><ele>2554</ele></trkpt>
<trkpt lat="46.96473" lon="10.34332"><ele>2558</ele></trkpt>
<trkpt lat="46.96474" lon="10.34341"><ele>2558</ele></trkpt>
<trkpt lat="46.96479" lon="10.34354"><ele>2558</ele></trkpt>
<trkpt lat="46.96481" lon="10.34362"><ele>2558</ele></trkpt>
<trkpt lat="46.96485" lon="10.34373"><ele>2554</ele></trkpt>
<trkpt lat="46.96489" lon="10.34384"><ele>2554</ele></trkpt>
<trkpt lat="46.9649" lon="10.34399"><ele>2554</ele></trkpt>
<trkpt lat="46.96491" lon="10.34411"><ele>2554</ele></trkpt>
<trkpt lat="46.96493" lon="10.34422"><ele>2557</ele></trkpt>
<trkpt lat="46.96496" lon="10.34432"><ele>2557</ele></trkpt>
<trkpt lat="46.96498" lon="10.34437"><ele>2557</ele></trkpt>
<trkpt lat="46.96501" lon="10.34442"><ele>2557</ele></trkpt>
<trkpt lat="46.96502" lon="10.34451"><ele>2554</ele></trkpt>
<trkpt lat="46.96503" lon="10.34465"><ele>2554</ele></trkpt>
<trkpt lat="46.96504" lon="10.34472"><ele>2554</ele></trkpt>
<trkpt lat="46.96507" lon="10.34488"><ele>2554</ele></trkpt>
<trkpt lat="46.96508" lon="10.34498"><ele>2550</ele></trkpt>
<trkpt lat="46.9651" lon="10.34507"><ele>2550</ele></trkpt>
<trkpt lat="46.96511" lon="10.34516"><ele>2550</ele></trkpt>
<trkpt lat="46.96512" lon="10.34524"><ele>2550</ele></trkpt>
<trkpt lat="46.96514" lon="10.34533"><ele>2556</ele></trkpt>
<trkpt lat="46.96514" lon="10.34537"><ele>2556</ele></trkpt>
<trkpt lat="46.96515" lon="10.34544"><ele>2556</ele></trkpt>
<trkpt lat="46.96516" lon="10.34554"><ele>2556</ele></trkpt>
<trkpt lat="46.96516" lon="10.34562"><ele>2555</ele></trkpt>
<trkpt lat="46.96517" lon="10.34568"><ele>2555</ele></trkpt>
<trkpt lat="46.96518" lon="10.34573"><ele>2555</ele></trkpt>
<trkpt lat="46.96521" lon="10.34578"><ele>2555</ele></trkpt>
<trkpt lat="46.96524" lon="10.34584"><ele>2555</ele></trkpt>
<trkpt lat="46.96528" lon="10.34592"><ele>2555</ele></trkpt>
<trkpt lat="46.96526" lon="10.34605"><ele>2555</ele></trkpt>
<trkpt lat="46.96524" lon="10.34615"><ele>2555</ele></trkpt>
<trkpt lat="46.96523" lon="10.34625"><ele>2553</ele></trkpt>
<trkpt lat="46.9652" lon="10.34647"><ele>2553</ele></trkpt>
<trkpt lat="46.96518" lon="10.3467"><ele>2553</ele></trkpt>
<trkpt lat="46.96515" lon="10.34686"><ele>2553</ele></trkpt>
<trkpt lat="46.96516" lon="10.34711"><ele>2549</ele></trkpt>
<trkpt lat="46.96516" lon="10.34728"><ele>2549</ele></trkpt>
<trkpt lat="46.96519" lon="10.34747"><ele>2549</ele></trkpt>
<trkpt lat="46.96522" lon="10.34763"><ele>2549</ele></trkpt>
<trkpt lat="46.96534" lon="10.3478"><ele>2540</ele></trkpt>
<trkpt lat="46.96542" lon="10.34793"><ele>2540</ele></trkpt>
<trkpt lat="46.96552" lon="10.34808"><ele>2540</ele></trkpt>
<trkpt lat="46.96563" lon="10.34825"><ele>2540</ele></trkpt>
<trkpt lat="46.9657" lon="10.34839"><ele>2539</ele></trkpt>
<trkpt lat="46.96585" lon="10.34866"><ele>2539</ele></trkpt>
<trkpt lat="46.96608" lon="10.34885"><ele>2539</ele></trkpt>
<trkpt lat="46.96621" lon="10.34897"><ele>2539</ele></trkpt>
<trkpt lat="46.96641" lon="10.34889"><ele>2532</ele></trkpt>
<trkpt lat="46.9667" lon="10.34883"><ele>2532</ele></trkpt>
<trkpt lat="46.96672" lon="10.34925"><ele>2532</ele></trkpt>
<trkpt lat="46.96682" lon="10.34966"><ele>2532</ele></trkpt>
<trkpt lat="46.96693" lon="10.34991"><ele>2520</ele></trkpt>
<trkpt lat="46.96705" lon="10.34994"><ele>2520</ele></trkpt>
<trkpt lat="46.96717" lon="10.34988"><ele>2520</ele></trkpt>
<trkpt lat="46.96727" lon="10.35"><ele>2520</ele></trkpt>
<trkpt lat="46.96728" lon="10.35014"><ele>2503</ele></trkpt>
<trkpt lat="46.96736" lon="10.35037"><ele>2503</ele></trkpt>
<trkpt lat="46.96749" lon="10.35027"><ele>2503</ele></trkpt>
<trkpt lat="46.96757" lon="10.35009"><ele>2503</ele></trkpt>
<trkpt lat="46.9676" lon="10.34979"><ele>2498</ele></trkpt>
<trkpt lat="46.96764" lon="10.34964"><ele>2498</ele></trkpt>
<trkpt lat="46.96776" lon="10.34948"><ele>2498</ele></trkpt>
<trkpt lat="46.96793" lon="10.3495"><ele>2498</ele></trkpt>
<trkpt lat="46.96792" lon="10.34955"><ele>2492</ele></trkpt>
<trkpt lat="46.96779" lon="10.34963"><ele>2492</ele></trkpt>
<trkpt lat="46.96781" lon="10.34969"><ele>2492</ele></trkpt>
<trkpt lat="46.96811" lon="10.34977"><ele>2492</ele></trkpt>
<trkpt lat="46.96835" lon="10.34986"><ele>2482</ele></trkpt>
<trkpt lat="46.96853" lon="10.34995"><ele>2482</ele></trkpt>
<trkpt lat="46.96872" lon="10.35005"><ele>2482</ele></trkpt>
<trkpt lat="46.96895" lon="10.35"><ele>2482</ele></trkpt>
<trkpt lat="46.96913" lon="10.34984"><ele>2474</ele></trkpt>
<trkpt lat="46.96916" lon="10.3497"><ele>2474</ele></trkpt>
<trkpt lat="46.96918" lon="10.3496"><ele>2474</ele></trkpt>
<trkpt lat="46.96925" lon="10.34966"><ele>2474</ele></trkpt>
<trkpt lat="46.9693" lon="10.3497"><ele>2479</ele></trkpt>
<trkpt lat="46.96932" lon="10.3497"><ele>2479</ele></trkpt>
<trkpt lat="46.96945" lon="10.34983"><ele>2479</ele></trkpt>
<trkpt lat="46.96949" lon="10.34983"><ele>2479</ele></trkpt>
<trkpt lat="46.96957" lon="10.34984"><ele>2472</ele></trkpt>
<trkpt lat="46.96949" lon="10.34986"><ele>2472</ele></trkpt>
<trkpt lat="46.96977" lon="10.34975"><ele>2472</ele></trkpt>
<trkpt lat="46.96998" lon="10.34946"><ele>2472</ele></trkpt>
<trkpt lat="46.97032" lon="10.34845"><ele>2479</ele></trkpt>
<trkpt lat="46.97045" lon="10.34831"><ele>2479</ele></trkpt>
<trkpt lat="46.97052" lon="10.34844"><ele>2479</ele></trkpt>
<trkpt lat="46.97053" lon="10.34891"><ele>2479</ele></trkpt>
<trkpt lat="46.97029" lon="10.34967"><ele>2481</ele></trkpt>
<trkpt lat="46.97015" lon="10.35031"><ele>2481</ele></trkpt>
<trkpt lat="46.97011" lon="10.35077"><ele>2481</ele></trkpt>
<trkpt lat="46.97003" lon="10.35117"><ele>2481</ele></trkpt>
<trkpt lat="46.97" lon="10.35149"><ele>2459</ele></trkpt>
<trkpt lat="46.96993" lon="10.35195"><ele>2459</ele></trkpt>
<trkpt lat="46.96981" lon="10.35228"><ele>2459</ele></trkpt>
<trkpt lat="46.96977" lon="10.35234"><ele>2459</ele></trkpt>
<trkpt lat="46.96964" lon="10.35239"><ele>2451</ele></trkpt>
<trkpt lat="46.9696" lon="10.35243"><ele>2451</ele></trkpt>
<trkpt lat="46.96961" lon="10.35258"><ele>2451</ele></trkpt>
<trkpt lat="46.96963" lon="10.35294"><ele>2451</ele></trkpt>
<trkpt lat="46.9697" lon="10.35322"><ele>2449</ele></trkpt>
<trkpt lat="46.96972" lon="10.35337"><ele>2449</ele></trkpt>
<trkpt lat="46.96973" lon="10.35354"><ele>2449</ele></trkpt>
<trkpt lat="46.96972" lon="10.35371"><ele>2449</ele></trkpt>
<trkpt lat="46.96973" lon="10.35387"><ele>2446</ele></trkpt>
<trkpt lat="46.96975" lon="10.35398"><ele>2446</ele></trkpt>
<trkpt lat="46.96979" lon="10.35421"><ele>2446</ele></trkpt>
<trkpt lat="46.96983" lon="10.35441"><ele>2446</ele></trkpt>
<trkpt lat="46.96988" lon="10.35454"><ele>2445</ele></trkpt>
<trkpt lat="46.96992" lon="10.3546"><ele>2445</ele></trkpt>
<trkpt lat="46.97001" lon="10.35472"><ele>2445</ele></trkpt>
<trkpt lat="46.97014" lon="10.35487"><ele>2445</ele></trkpt>
<trkpt lat="46.97022" lon="10.35497"><ele>2444</ele></trkpt>
<trkpt lat="46.97032" lon="10.35507"><ele>2444</ele></trkpt>
<trkpt lat="46.97048" lon="10.35538"><ele>2444</ele></trkpt>
<trkpt lat="46.97052" lon="10.35547"><ele>2444</ele></trkpt>
<trkpt lat="46.97055" lon="10.35556"><ele>2445</ele></trkpt>
<trkpt lat="46.9706" lon="10.35575"><ele>2445</ele></trkpt>
<trkpt lat="46.97062" lon="10.35596"><ele>2445</ele></trkpt>
<trkpt lat="46.97066" lon="10.35613"><ele>2445</ele></trkpt>
<trkpt lat="46.97073" lon="10.35626"><ele>2442</ele></trkpt>
<trkpt lat="46.97084" lon="10.35634"><ele>2442</ele></trkpt>
<trkpt lat="46.97099" lon="10.35646"><ele>2442</ele></trkpt>
<trkpt lat="46.97137" lon="10.35675"><ele>2442</ele></trkpt>
<trkpt lat="46.97167" lon="10.35692"><ele>2451</ele></trkpt>
<trkpt lat="46.97175" lon="10.35698"><ele>2451</ele></trkpt>
<trkpt lat="46.97185" lon="10.35701"><ele>2451</ele></trkpt>
<trkpt lat="46.97199" lon="10.35706"><ele>2451</ele></trkpt>
<trkpt lat="46.97209" lon="10.35711"><ele>2459</ele></trkpt>
<trkpt lat="46.97216" lon="10.35715"><ele>2459</ele></trkpt>
<trkpt lat="46.97225" lon="10.35727"><ele>2459</ele></trkpt>
<trkpt lat="46.97229" lon="10.35736"><ele>2459</ele></trkpt>
<trkpt lat="46.97232" lon="10.35746"><ele>2463</ele></trkpt>
<trkpt lat="46.97234" lon="10.35755"><ele>2463</ele></trkpt>
<trkpt lat="46.97235" lon="10.35762"><ele>2463</ele></trkpt>
<trkpt lat="46.9724" lon="10.35782"><ele>2463</ele></trkpt>
<trkpt lat="46.97244" lon="10.35792"><ele>2472</ele></trkpt>
<trkpt lat="46.9725" lon="10.35804"><ele>2472</ele></trkpt>
<trkpt lat="46.97252" lon="10.3581"><ele>2472</ele></trkpt>
<trkpt lat="46.97253" lon="10.35817"><ele>2472</ele></trkpt>
<trkpt lat="46.97253" lon="10.35826"><ele>2473</ele></trkpt>
<trkpt lat="46.97253" lon="10.35829"><ele>2473</ele></trkpt>
<trkpt lat="46.97254" lon="10.3584"><ele>2473</ele></trkpt>
<trkpt lat="46.97257" lon="10.35863"><ele>2473</ele></trkpt>
<trkpt lat="46.97259" lon="10.35882"><ele>2490</ele></trkpt>
<trkpt lat="46.9726" lon="10.35899"><ele>2490</ele></trkpt>
<trkpt lat="46.97259" lon="10.35908"><ele>2490</ele></trkpt>
<trkpt lat="46.97257" lon="10.3592"><ele>2490</ele></trkpt>
<trkpt lat="46.97251" lon="10.3595"><ele>2488</ele></trkpt>
<trkpt lat="46.97248" lon="10.35962"><ele>2488</ele></trkpt>
<trkpt lat="46.97245" lon="10.35979"><ele>2488</ele></trkpt>
<trkpt lat="46.97243" lon="10.35994"><ele>2488</ele></trkpt>
<trkpt lat="46.97241" lon="10.36002"><ele>2494</ele></trkpt>
<trkpt lat="46.9724" lon="10.36011"><ele>2494</ele></trkpt>
<trkpt lat="46.97237" lon="10.36026"><ele>2494</ele></trkpt>
<trkpt lat="46.97235" lon="10.36032"><ele>2494</ele></trkpt>
<trkpt lat="46.97226" lon="10.36067"><ele>2501</ele></trkpt>
<trkpt lat="46.97224" lon="10.36072"><ele>2501</ele></trkpt>
<trkpt lat="46.97219" lon="10.3609"><ele>2501</ele></trkpt>
<trkpt lat="46.97218" lon="10.36098"><ele>2501</ele></trkpt>
<trkpt lat="46.97215" lon="10.36114"><ele>2506</ele></trkpt>
<trkpt lat="46.9721" lon="10.36133"><ele>2506</ele></trkpt>
<trkpt lat="46.972" lon="10.36156"><ele>2506</ele></trkpt>
<trkpt lat="46.97195" lon="10.36171"><ele>2506</ele></trkpt>
<trkpt lat="46.97183" lon="10.36208"><ele>2501</ele></trkpt>
<trkpt lat="46.97175" lon="10.36244"><ele>2501</ele></trkpt>
<trkpt lat="46.97161" lon="10.36283"><ele>2501</ele></trkpt>
<trkpt lat="46.97161" lon="10.36289"><ele>2501</ele></trkpt>
<trkpt lat="46.9716" lon="10.36318"><ele>2495</ele></trkpt>
<trkpt lat="46.97157" lon="10.36336"><ele>2495</ele></trkpt>
<trkpt lat="46.97155" lon="10.36339"><ele>2495</ele></trkpt>
<trkpt lat="46.97152" lon="10.36347"><ele>2495</ele></trkpt>
<trkpt lat="46.97138" lon="10.3638"><ele>2494</ele></trkpt>
<trkpt lat="46.97132" lon="10.36389"><ele>2494</ele></trkpt>
<trkpt lat="46.97129" lon="10.36414"><ele>2494</ele></trkpt>
<trkpt lat="46.97125" lon="10.36444"><ele>2494</ele></trkpt>
<trkpt lat="46.97116" lon="10.36483"><ele>2494</ele></trkpt>
<trkpt lat="46.9711" lon="10.36513"><ele>2494</ele></trkpt>
<trkpt lat="46.97104" lon="10.36584"><ele>2494</ele></trkpt>
<trkpt lat="46.97099" lon="10.36609"><ele>2494</ele></trkpt>
<trkpt lat="46.97089" lon="10.36628"><ele>2492</ele></trkpt>
<trkpt lat="46.97086" lon="10.36632"><ele>2492</ele></trkpt>
<trkpt lat="46.97056" lon="10.36655"><ele>2492</ele></trkpt>
<trkpt lat="46.97043" lon="10.36659"><ele>2492</ele></trkpt>
<trkpt lat="46.97042" lon="10.36666"><ele>2495</ele></trkpt>
<trkpt lat="46.97039" lon="10.36674"><ele>2495</ele></trkpt>
<trkpt lat="46.97038" lon="10.36675"><ele>2495</ele></trkpt>
<trkpt lat="46.97035" lon="10.36683"><ele>2495</ele></trkpt>
<trkpt lat="46.97033" lon="10.36694"><ele>2494</ele></trkpt>
<trkpt lat="46.97031" lon="10.36707"><ele>2494</ele></trkpt>
<trkpt lat="46.9703" lon="10.36716"><ele>2494</ele></trkpt>

                    </trkseg>
              </trk>
            </gpx>