<?xml version="1.0" encoding="utf-8"?>
            <gpx xmlns="http://www.topografix.com/GPX/1/1" xmlns:xsd="http://www.w3.org/2001/XMLSchema" xmlns:xsi="http://www.w3.org/2001/XMLSchema-instance" version="1.1" creator="Fugawi 4,5,14,1696 http://www.fugawi.com/" xsi:schemaLocation="http://www.topografix.com/GPX/1/1 http://www.topografix.com/GPX/1/1/gpx.xsd">
                <trk>
                    <name>7189 Duty Free Laret Trail (Samnaun)</name>
                    <desc></desc>
                    <trkseg>
                        <trkpt lat="46.97815" lon="10.37576"><ele>2260</ele></trkpt>
<trkpt lat="46.97811" lon="10.37595"><ele>2260</ele></trkpt>
<trkpt lat="46.97808" lon="10.3762"><ele>2260</ele></trkpt>
<trkpt lat="46.97806" lon="10.37648"><ele>2260</ele></trkpt>
<trkpt lat="46.97808" lon="10.37667"><ele>2256</ele></trkpt>
<trkpt lat="46.97813" lon="10.37695"><ele>2256</ele></trkpt>
<trkpt lat="46.97815" lon="10.37709"><ele>2256</ele></trkpt>
<trkpt lat="46.97815" lon="10.37723"><ele>2256</ele></trkpt>
<trkpt lat="46.97814" lon="10.3775"><ele>2258</ele></trkpt>
<trkpt lat="46.97815" lon="10.37773"><ele>2258</ele></trkpt>
<trkpt lat="46.97816" lon="10.37795"><ele>2258</ele></trkpt>
<trkpt lat="46.97815" lon="10.37815"><ele>2258</ele></trkpt>
<trkpt lat="46.97813" lon="10.37834"><ele>2259</ele></trkpt>
<trkpt lat="46.97811" lon="10.37858"><ele>2259</ele></trkpt>
<trkpt lat="46.9781" lon="10.37884"><ele>2259</ele></trkpt>
<trkpt lat="46.97811" lon="10.37907"><ele>2259</ele></trkpt>
<trkpt lat="46.9781" lon="10.37925"><ele>2257</ele></trkpt>
<trkpt lat="46.97807" lon="10.37944"><ele>2257</ele></trkpt>
<trkpt lat="46.97802" lon="10.37966"><ele>2257</ele></trkpt>
<trkpt lat="46.97792" lon="10.38015"><ele>2257</ele></trkpt>
<trkpt lat="46.97781" lon="10.38064"><ele>2239</ele></trkpt>
<trkpt lat="46.97777" lon="10.38085"><ele>2239</ele></trkpt>
<trkpt lat="46.97775" lon="10.38102"><ele>2239</ele></trkpt>
<trkpt lat="46.97773" lon="10.38128"><ele>2239</ele></trkpt>
<trkpt lat="46.9777" lon="10.3815"><ele>2236</ele></trkpt>
<trkpt lat="46.97769" lon="10.38172"><ele>2236</ele></trkpt>
<trkpt lat="46.97767" lon="10.38207"><ele>2236</ele></trkpt>
<trkpt lat="46.97764" lon="10.38233"><ele>2236</ele></trkpt>
<trkpt lat="46.97761" lon="10.3826"><ele>2230</ele></trkpt>
<trkpt lat="46.9776" lon="10.38271"><ele>2230</ele></trkpt>
<trkpt lat="46.97757" lon="10.38285"><ele>2230</ele></trkpt>
<trkpt lat="46.97753" lon="10.38302"><ele>2230</ele></trkpt>
<trkpt lat="46.97751" lon="10.38313"><ele>2228</ele></trkpt>
<trkpt lat="46.9775" lon="10.38322"><ele>2228</ele></trkpt>
<trkpt lat="46.9775" lon="10.38332"><ele>2228</ele></trkpt>
<trkpt lat="46.9775" lon="10.38341"><ele>2228</ele></trkpt>
<trkpt lat="46.97752" lon="10.3835"><ele>2225</ele></trkpt>
<trkpt lat="46.97754" lon="10.38364"><ele>2225</ele></trkpt>
<trkpt lat="46.97752" lon="10.38369"><ele>2225</ele></trkpt>
<trkpt lat="46.9775" lon="10.38373"><ele>2225</ele></trkpt>
<trkpt lat="46.9775" lon="10.38377"><ele>2223</ele></trkpt>
<trkpt lat="46.97747" lon="10.38388"><ele>2223</ele></trkpt>
<trkpt lat="46.97746" lon="10.38393"><ele>2223</ele></trkpt>
<trkpt lat="46.97746" lon="10.38399"><ele>2223</ele></trkpt>
<trkpt lat="46.97747" lon="10.38405"><ele>2219</ele></trkpt>
<trkpt lat="46.97747" lon="10.3841"><ele>2219</ele></trkpt>
<trkpt lat="46.97746" lon="10.38415"><ele>2219</ele></trkpt>
<trkpt lat="46.97744" lon="10.3842"><ele>2219</ele></trkpt>
<trkpt lat="46.9774" lon="10.38423"><ele>2214</ele></trkpt>
<trkpt lat="46.97737" lon="10.38425"><ele>2214</ele></trkpt>
<trkpt lat="46.97734" lon="10.38428"><ele>2214</ele></trkpt>
<trkpt lat="46.97731" lon="10.3843"><ele>2214</ele></trkpt>
<trkpt lat="46.97729" lon="10.38435"><ele>2214</ele></trkpt>
<trkpt lat="46.97731" lon="10.38439"><ele>2214</ele></trkpt>
<trkpt lat="46.97734" lon="10.38443"><ele>2214</ele></trkpt>
<trkpt lat="46.97739" lon="10.38444"><ele>2214</ele></trkpt>
<trkpt lat="46.97743" lon="10.38444"><ele>2214</ele></trkpt>
<trkpt lat="46.97747" lon="10.38444"><ele>2214</ele></trkpt>
<trkpt lat="46.9775" lon="10.38446"><ele>2214</ele></trkpt>
<trkpt lat="46.97753" lon="10.38449"><ele>2214</ele></trkpt>
<trkpt lat="46.97755" lon="10.38456"><ele>2212</ele></trkpt>
<trkpt lat="46.97753" lon="10.38462"><ele>2212</ele></trkpt>
<trkpt lat="46.9775" lon="10.38469"><ele>2212</ele></trkpt>
<trkpt lat="46.97746" lon="10.38475"><ele>2212</ele></trkpt>
<trkpt lat="46.97743" lon="10.38482"><ele>2205</ele></trkpt>
<trkpt lat="46.97743" lon="10.38491"><ele>2205</ele></trkpt>
<trkpt lat="46.97746" lon="10.385"><ele>2205</ele></trkpt>
<trkpt lat="46.97749" lon="10.38509"><ele>2205</ele></trkpt>
<trkpt lat="46.97748" lon="10.38517"><ele>2205</ele></trkpt>
<trkpt lat="46.97744" lon="10.38523"><ele>2205</ele></trkpt>
<trkpt lat="46.97741" lon="10.38528"><ele>2205</ele></trkpt>
<trkpt lat="46.97739" lon="10.38533"><ele>2205</ele></trkpt>
<trkpt lat="46.97739" lon="10.38541"><ele>2199</ele></trkpt>
<trkpt lat="46.9774" lon="10.38547"><ele>2199</ele></trkpt>
<trkpt lat="46.97742" lon="10.38552"><ele>2199</ele></trkpt>
<trkpt lat="46.97743" lon="10.38561"><ele>2199</ele></trkpt>
<trkpt lat="46.97743" lon="10.38569"><ele>2199</ele></trkpt>
<trkpt lat="46.9774" lon="10.38576"><ele>2199</ele></trkpt>
<trkpt lat="46.97735" lon="10.3858"><ele>2199</ele></trkpt>
<trkpt lat="46.97732" lon="10.38587"><ele>2199</ele></trkpt>
<trkpt lat="46.97731" lon="10.38594"><ele>2199</ele></trkpt>
<trkpt lat="46.9773" lon="10.38602"><ele>2199</ele></trkpt>
<trkpt lat="46.9773" lon="10.38611"><ele>2199</ele></trkpt>
<trkpt lat="46.97732" lon="10.38618"><ele>2199</ele></trkpt>
<trkpt lat="46.97735" lon="10.38625"><ele>2201</ele></trkpt>
<trkpt lat="46.97738" lon="10.38631"><ele>2201</ele></trkpt>
<trkpt lat="46.97739" lon="10.38637"><ele>2201</ele></trkpt>
<trkpt lat="46.9774" lon="10.38643"><ele>2201</ele></trkpt>
<trkpt lat="46.97738" lon="10.38649"><ele>2203</ele></trkpt>
<trkpt lat="46.97734" lon="10.38654"><ele>2203</ele></trkpt>
<trkpt lat="46.9773" lon="10.38658"><ele>2203</ele></trkpt>
<trkpt lat="46.97726" lon="10.38662"><ele>2203</ele></trkpt>
<trkpt lat="46.97722" lon="10.38668"><ele>2197</ele></trkpt>
<trkpt lat="46.97721" lon="10.38676"><ele>2197</ele></trkpt>
<trkpt lat="46.97721" lon="10.38683"><ele>2197</ele></trkpt>
<trkpt lat="46.97721" lon="10.38691"><ele>2197</ele></trkpt>
<trkpt lat="46.97719" lon="10.38697"><ele>2197</ele></trkpt>
<trkpt lat="46.97715" lon="10.38702"><ele>2197</ele></trkpt>
<trkpt lat="46.97711" lon="10.38707"><ele>2197</ele></trkpt>
<trkpt lat="46.97709" lon="10.38714"><ele>2197</ele></trkpt>
<trkpt lat="46.97708" lon="10.38723"><ele>2199</ele></trkpt>
<trkpt lat="46.97709" lon="10.38732"><ele>2199</ele></trkpt>
<trkpt lat="46.97709" lon="10.3874"><ele>2199</ele></trkpt>
<trkpt lat="46.97708" lon="10.38747"><ele>2199</ele></trkpt>
<trkpt lat="46.97705" lon="10.38753"><ele>2194</ele></trkpt>
<trkpt lat="46.97699" lon="10.38754"><ele>2194</ele></trkpt>
<trkpt lat="46.97694" lon="10.38754"><ele>2194</ele></trkpt>
<trkpt lat="46.97688" lon="10.38759"><ele>2194</ele></trkpt>
<trkpt lat="46.97683" lon="10.38766"><ele>2186</ele></trkpt>
<trkpt lat="46.9768" lon="10.38775"><ele>2186</ele></trkpt>
<trkpt lat="46.97677" lon="10.38784"><ele>2186</ele></trkpt>
<trkpt lat="46.97672" lon="10.38789"><ele>2186</ele></trkpt>
<trkpt lat="46.97666" lon="10.3879"><ele>2190</ele></trkpt>
<trkpt lat="46.97661" lon="10.38793"><ele>2190</ele></trkpt>
<trkpt lat="46.97658" lon="10.38801"><ele>2190</ele></trkpt>
<trkpt lat="46.97658" lon="10.38809"><ele>2190</ele></trkpt>
<trkpt lat="46.97657" lon="10.38817"><ele>2187</ele></trkpt>
<trkpt lat="46.97653" lon="10.38823"><ele>2187</ele></trkpt>
<trkpt lat="46.97647" lon="10.38824"><ele>2187</ele></trkpt>
<trkpt lat="46.97642" lon="10.38824"><ele>2187</ele></trkpt>
<trkpt lat="46.97637" lon="10.38828"><ele>2179</ele></trkpt>
<trkpt lat="46.97635" lon="10.38836"><ele>2179</ele></trkpt>
<trkpt lat="46.97635" lon="10.38845"><ele>2179</ele></trkpt>
<trkpt lat="46.97633" lon="10.38852"><ele>2179</ele></trkpt>
<trkpt lat="46.97627" lon="10.38854"><ele>2185</ele></trkpt>
<trkpt lat="46.97622" lon="10.38852"><ele>2185</ele></trkpt>
<trkpt lat="46.97617" lon="10.38855"><ele>2185</ele></trkpt>
<trkpt lat="46.97616" lon="10.38862"><ele>2185</ele></trkpt>
<trkpt lat="46.97618" lon="10.3887"><ele>2181</ele></trkpt>
<trkpt lat="46.9762" lon="10.38876"><ele>2181</ele></trkpt>
<trkpt lat="46.97621" lon="10.38883"><ele>2181</ele></trkpt>
<trkpt lat="46.97618" lon="10.38888"><ele>2181</ele></trkpt>
<trkpt lat="46.97613" lon="10.38888"><ele>2181</ele></trkpt>
<trkpt lat="46.97608" lon="10.38885"><ele>2181</ele></trkpt>
<trkpt lat="46.97604" lon="10.38882"><ele>2181</ele></trkpt>
<trkpt lat="46.97599" lon="10.38885"><ele>2181</ele></trkpt>
<trkpt lat="46.97597" lon="10.38893"><ele>2170</ele></trkpt>
<trkpt lat="46.97597" lon="10.38901"><ele>2170</ele></trkpt>
<trkpt lat="46.97599" lon="10.38909"><ele>2170</ele></trkpt>
<trkpt lat="46.97599" lon="10.38916"><ele>2170</ele></trkpt>
<trkpt lat="46.97596" lon="10.38921"><ele>2173</ele></trkpt>
<trkpt lat="46.97591" lon="10.38922"><ele>2173</ele></trkpt>
<trkpt lat="46.97585" lon="10.38918"><ele>2173</ele></trkpt>
<trkpt lat="46.9758" lon="10.38917"><ele>2173</ele></trkpt>
<trkpt lat="46.97574" lon="10.38918"><ele>2162</ele></trkpt>
<trkpt lat="46.97571" lon="10.38923"><ele>2162</ele></trkpt>
<trkpt lat="46.9757" lon="10.3893"><ele>2162</ele></trkpt>
<trkpt lat="46.97572" lon="10.38937"><ele>2162</ele></trkpt>
<trkpt lat="46.97574" lon="10.38943"><ele>2162</ele></trkpt>
<trkpt lat="46.97576" lon="10.38948"><ele>2162</ele></trkpt>
<trkpt lat="46.97578" lon="10.38953"><ele>2162</ele></trkpt>
<trkpt lat="46.97576" lon="10.38957"><ele>2162</ele></trkpt>
<trkpt lat="46.97572" lon="10.38957"><ele>2162</ele></trkpt>
<trkpt lat="46.97568" lon="10.38954"><ele>2162</ele></trkpt>
<trkpt lat="46.97563" lon="10.3895"><ele>2162</ele></trkpt>
<trkpt lat="46.97558" lon="10.38944"><ele>2162</ele></trkpt>
<trkpt lat="46.97553" lon="10.3894"><ele>2153</ele></trkpt>
<trkpt lat="46.97548" lon="10.3894"><ele>2153</ele></trkpt>
<trkpt lat="46.97542" lon="10.38941"><ele>2153</ele></trkpt>
<trkpt lat="46.97537" lon="10.38939"><ele>2153</ele></trkpt>
<trkpt lat="46.97532" lon="10.38937"><ele>2144</ele></trkpt>
<trkpt lat="46.97528" lon="10.38937"><ele>2144</ele></trkpt>
<trkpt lat="46.97526" lon="10.38943"><ele>2144</ele></trkpt>
<trkpt lat="46.97527" lon="10.3895"><ele>2144</ele></trkpt>
<trkpt lat="46.97532" lon="10.38955"><ele>2144</ele></trkpt>
<trkpt lat="46.97536" lon="10.3896"><ele>2144</ele></trkpt>
<trkpt lat="46.97541" lon="10.38965"><ele>2144</ele></trkpt>
<trkpt lat="46.97544" lon="10.3897"><ele>2144</ele></trkpt>
<trkpt lat="46.97547" lon="10.38974"><ele>2151</ele></trkpt>
<trkpt lat="46.9755" lon="10.38979"><ele>2151</ele></trkpt>
<trkpt lat="46.97552" lon="10.38983"><ele>2151</ele></trkpt>
<trkpt lat="46.97554" lon="10.38987"><ele>2151</ele></trkpt>
<trkpt lat="46.97555" lon="10.3899"><ele>2146</ele></trkpt>
<trkpt lat="46.97555" lon="10.38995"><ele>2146</ele></trkpt>
<trkpt lat="46.97552" lon="10.38998"><ele>2146</ele></trkpt>
<trkpt lat="46.97549" lon="10.38998"><ele>2146</ele></trkpt>
<trkpt lat="46.97543" lon="10.38996"><ele>2146</ele></trkpt>
<trkpt lat="46.97538" lon="10.38993"><ele>2146</ele></trkpt>
<trkpt lat="46.97533" lon="10.38993"><ele>2146</ele></trkpt>
<trkpt lat="46.9753" lon="10.38995"><ele>2146</ele></trkpt>
<trkpt lat="46.9753" lon="10.39"><ele>2136</ele></trkpt>
<trkpt lat="46.97533" lon="10.39005"><ele>2136</ele></trkpt>
<trkpt lat="46.97537" lon="10.39009"><ele>2136</ele></trkpt>
<trkpt lat="46.9754" lon="10.39012"><ele>2136</ele></trkpt>
<trkpt lat="46.97542" lon="10.39017"><ele>2136</ele></trkpt>
<trkpt lat="46.9754" lon="10.39021"><ele>2136</ele></trkpt>
<trkpt lat="46.97536" lon="10.39021"><ele>2136</ele></trkpt>
<trkpt lat="46.97532" lon="10.39021"><ele>2136</ele></trkpt>
<trkpt lat="46.97529" lon="10.39021"><ele>2129</ele></trkpt>
<trkpt lat="46.97528" lon="10.39025"><ele>2129</ele></trkpt>
<trkpt lat="46.9753" lon="10.39029"><ele>2129</ele></trkpt>
<trkpt lat="46.97533" lon="10.39031"><ele>2129</ele></trkpt>
<trkpt lat="46.97537" lon="10.39034"><ele>2129</ele></trkpt>
<trkpt lat="46.9754" lon="10.39035"><ele>2129</ele></trkpt>
<trkpt lat="46.97541" lon="10.3904"><ele>2129</ele></trkpt>
<trkpt lat="46.97539" lon="10.39044"><ele>2129</ele></trkpt>
<trkpt lat="46.97535" lon="10.39045"><ele>2129</ele></trkpt>
<trkpt lat="46.97532" lon="10.39043"><ele>2129</ele></trkpt>
<trkpt lat="46.97529" lon="10.39043"><ele>2129</ele></trkpt>
<trkpt lat="46.97527" lon="10.39045"><ele>2129</ele></trkpt>
<trkpt lat="46.97529" lon="10.39051"><ele>2124</ele></trkpt>
<trkpt lat="46.97533" lon="10.39054"><ele>2124</ele></trkpt>
<trkpt lat="46.97536" lon="10.39054"><ele>2124</ele></trkpt>
<trkpt lat="46.97533" lon="10.39054"><ele>2124</ele></trkpt>
<trkpt lat="46.97529" lon="10.39051"><ele>2124</ele></trkpt>
<trkpt lat="46.97528" lon="10.39049"><ele>2124</ele></trkpt>
<trkpt lat="46.97529" lon="10.39051"><ele>2124</ele></trkpt>
<trkpt lat="46.97533" lon="10.39054"><ele>2124</ele></trkpt>
<trkpt lat="46.97537" lon="10.39054"><ele>2124</ele></trkpt>
<trkpt lat="46.97541" lon="10.39056"><ele>2124</ele></trkpt>
<trkpt lat="46.97542" lon="10.39059"><ele>2124</ele></trkpt>
<trkpt lat="46.97541" lon="10.39062"><ele>2124</ele></trkpt>
<trkpt lat="46.97537" lon="10.39063"><ele>2124</ele></trkpt>
<trkpt lat="46.97534" lon="10.39062"><ele>2124</ele></trkpt>
<trkpt lat="46.9753" lon="10.39061"><ele>2124</ele></trkpt>
<trkpt lat="46.97528" lon="10.39062"><ele>2124</ele></trkpt>
<trkpt lat="46.97527" lon="10.39066"><ele>2124</ele></trkpt>
<trkpt lat="46.97529" lon="10.3907"><ele>2124</ele></trkpt>
<trkpt lat="46.97532" lon="10.39073"><ele>2124</ele></trkpt>
<trkpt lat="46.97535" lon="10.39077"><ele>2124</ele></trkpt>
<trkpt lat="46.97538" lon="10.39081"><ele>2118</ele></trkpt>
<trkpt lat="46.97541" lon="10.39085"><ele>2118</ele></trkpt>
<trkpt lat="46.97541" lon="10.39089"><ele>2118</ele></trkpt>
<trkpt lat="46.97538" lon="10.39092"><ele>2118</ele></trkpt>
<trkpt lat="46.97533" lon="10.39092"><ele>2118</ele></trkpt>
<trkpt lat="46.9753" lon="10.39089"><ele>2118</ele></trkpt>
<trkpt lat="46.97527" lon="10.39091"><ele>2118</ele></trkpt>
<trkpt lat="46.97525" lon="10.39096"><ele>2118</ele></trkpt>
<trkpt lat="46.97528" lon="10.39103"><ele>2118</ele></trkpt>
<trkpt lat="46.97531" lon="10.3911"><ele>2118</ele></trkpt>
<trkpt lat="46.97533" lon="10.39118"><ele>2118</ele></trkpt>
<trkpt lat="46.97533" lon="10.39119"><ele>2118</ele></trkpt>
<trkpt lat="46.97533" lon="10.39118"><ele>2114</ele></trkpt>
<trkpt lat="46.97531" lon="10.3911"><ele>2114</ele></trkpt>
<trkpt lat="46.97528" lon="10.39105"><ele>2114</ele></trkpt>
<trkpt lat="46.97531" lon="10.3911"><ele>2114</ele></trkpt>
<trkpt lat="46.97533" lon="10.39118"><ele>2114</ele></trkpt>
<trkpt lat="46.97535" lon="10.39124"><ele>2114</ele></trkpt>
<trkpt lat="46.97537" lon="10.39129"><ele>2114</ele></trkpt>
<trkpt lat="46.97538" lon="10.39136"><ele>2114</ele></trkpt>
<trkpt lat="46.97536" lon="10.3914"><ele>2110</ele></trkpt>
<trkpt lat="46.97532" lon="10.39143"><ele>2110</ele></trkpt>
<trkpt lat="46.97528" lon="10.39141"><ele>2110</ele></trkpt>
<trkpt lat="46.97524" lon="10.39136"><ele>2110</ele></trkpt>
<trkpt lat="46.9752" lon="10.39129"><ele>2106</ele></trkpt>
<trkpt lat="46.97517" lon="10.39126"><ele>2106</ele></trkpt>
<trkpt lat="46.97513" lon="10.39125"><ele>2106</ele></trkpt>
<trkpt lat="46.9751" lon="10.39129"><ele>2106</ele></trkpt>
<trkpt lat="46.9751" lon="10.39137"><ele>2106</ele></trkpt>
<trkpt lat="46.97512" lon="10.39143"><ele>2106</ele></trkpt>
<trkpt lat="46.97512" lon="10.39152"><ele>2106</ele></trkpt>
<trkpt lat="46.97513" lon="10.39159"><ele>2106</ele></trkpt>
<trkpt lat="46.97514" lon="10.39165"><ele>2102</ele></trkpt>
<trkpt lat="46.97515" lon="10.39171"><ele>2102</ele></trkpt>
<trkpt lat="46.97515" lon="10.39176"><ele>2102</ele></trkpt>
<trkpt lat="46.97513" lon="10.39181"><ele>2102</ele></trkpt>
<trkpt lat="46.97508" lon="10.39181"><ele>2099</ele></trkpt>
<trkpt lat="46.97503" lon="10.39179"><ele>2099</ele></trkpt>
<trkpt lat="46.97498" lon="10.39176"><ele>2099</ele></trkpt>
<trkpt lat="46.97492" lon="10.39174"><ele>2099</ele></trkpt>
<trkpt lat="46.97488" lon="10.39169"><ele>2093</ele></trkpt>
<trkpt lat="46.97484" lon="10.39167"><ele>2093</ele></trkpt>
<trkpt lat="46.9748" lon="10.3917"><ele>2093</ele></trkpt>
<trkpt lat="46.97478" lon="10.39178"><ele>2093</ele></trkpt>
<trkpt lat="46.97479" lon="10.39188"><ele>2087</ele></trkpt>
<trkpt lat="46.97481" lon="10.39197"><ele>2087</ele></trkpt>
<trkpt lat="46.97479" lon="10.39206"><ele>2087</ele></trkpt>
<trkpt lat="46.97476" lon="10.39214"><ele>2087</ele></trkpt>
<trkpt lat="46.97476" lon="10.39223"><ele>2085</ele></trkpt>
<trkpt lat="46.97474" lon="10.39232"><ele>2085</ele></trkpt>
<trkpt lat="46.97471" lon="10.39237"><ele>2085</ele></trkpt>
<trkpt lat="46.97467" lon="10.39242"><ele>2085</ele></trkpt>
<trkpt lat="46.97462" lon="10.39245"><ele>2084</ele></trkpt>
<trkpt lat="46.97458" lon="10.3925"><ele>2084</ele></trkpt>
<trkpt lat="46.97455" lon="10.39259"><ele>2084</ele></trkpt>
<trkpt lat="46.97453" lon="10.39267"><ele>2084</ele></trkpt>
<trkpt lat="46.97452" lon="10.39275"><ele>2080</ele></trkpt>
<trkpt lat="46.9745" lon="10.39281"><ele>2080</ele></trkpt>
<trkpt lat="46.97446" lon="10.39284"><ele>2080</ele></trkpt>
<trkpt lat="46.97443" lon="10.39286"><ele>2080</ele></trkpt>
<trkpt lat="46.97435" lon="10.39281"><ele>2075</ele></trkpt>
<trkpt lat="46.97433" lon="10.39279"><ele>2075</ele></trkpt>
<trkpt lat="46.97425" lon="10.39273"><ele>2075</ele></trkpt>
<trkpt lat="46.97414" lon="10.39265"><ele>2075</ele></trkpt>
<trkpt lat="46.9741" lon="10.39265"><ele>2070</ele></trkpt>
<trkpt lat="46.97406" lon="10.39269"><ele>2070</ele></trkpt>
<trkpt lat="46.97403" lon="10.39274"><ele>2070</ele></trkpt>
<trkpt lat="46.97402" lon="10.39279"><ele>2070</ele></trkpt>
<trkpt lat="46.97401" lon="10.39284"><ele>2070</ele></trkpt>
<trkpt lat="46.974" lon="10.39291"><ele>2070</ele></trkpt>
<trkpt lat="46.97398" lon="10.39298"><ele>2070</ele></trkpt>
<trkpt lat="46.97395" lon="10.39305"><ele>2070</ele></trkpt>
<trkpt lat="46.97392" lon="10.39312"><ele>2066</ele></trkpt>
<trkpt lat="46.97389" lon="10.39321"><ele>2066</ele></trkpt>
<trkpt lat="46.97385" lon="10.39329"><ele>2066</ele></trkpt>
<trkpt lat="46.9738" lon="10.39337"><ele>2066</ele></trkpt>
<trkpt lat="46.97376" lon="10.39345"><ele>2061</ele></trkpt>
<trkpt lat="46.97374" lon="10.39356"><ele>2061</ele></trkpt>
<trkpt lat="46.97373" lon="10.39364"><ele>2061</ele></trkpt>
<trkpt lat="46.97371" lon="10.39373"><ele>2061</ele></trkpt>
<trkpt lat="46.97369" lon="10.3938"><ele>2066</ele></trkpt>
<trkpt lat="46.97369" lon="10.39385"><ele>2066</ele></trkpt>
<trkpt lat="46.97369" lon="10.39389"><ele>2066</ele></trkpt>
<trkpt lat="46.97367" lon="10.39392"><ele>2066</ele></trkpt>
<trkpt lat="46.97364" lon="10.39394"><ele>2066</ele></trkpt>
<trkpt lat="46.97362" lon="10.39398"><ele>2066</ele></trkpt>
<trkpt lat="46.97362" lon="10.39401"><ele>2066</ele></trkpt>
<trkpt lat="46.97363" lon="10.39405"><ele>2066</ele></trkpt>
<trkpt lat="46.97362" lon="10.39408"><ele>2066</ele></trkpt>
<trkpt lat="46.97362" lon="10.39413"><ele>2066</ele></trkpt>
<trkpt lat="46.97362" lon="10.39418"><ele>2066</ele></trkpt>
<trkpt lat="46.97362" lon="10.39423"><ele>2066</ele></trkpt>
<trkpt lat="46.97362" lon="10.39428"><ele>2069</ele></trkpt>
<trkpt lat="46.97362" lon="10.39433"><ele>2069</ele></trkpt>
<trkpt lat="46.9736" lon="10.39437"><ele>2069</ele></trkpt>
<trkpt lat="46.97357" lon="10.39441"><ele>2069</ele></trkpt>
<trkpt lat="46.97354" lon="10.39445"><ele>2066</ele></trkpt>
<trkpt lat="46.97351" lon="10.39448"><ele>2066</ele></trkpt>
<trkpt lat="46.97349" lon="10.39451"><ele>2066</ele></trkpt>
<trkpt lat="46.97346" lon="10.39453"><ele>2066</ele></trkpt>
<trkpt lat="46.97343" lon="10.39456"><ele>2066</ele></trkpt>
<trkpt lat="46.97342" lon="10.3946"><ele>2066</ele></trkpt>
<trkpt lat="46.97341" lon="10.39462"><ele>2066</ele></trkpt>
<trkpt lat="46.9734" lon="10.39466"><ele>2066</ele></trkpt>
<trkpt lat="46.97338" lon="10.39471"><ele>2069</ele></trkpt>
<trkpt lat="46.97336" lon="10.39472"><ele>2069</ele></trkpt>
<trkpt lat="46.97334" lon="10.39476"><ele>2069</ele></trkpt>
<trkpt lat="46.97333" lon="10.39479"><ele>2069</ele></trkpt>
<trkpt lat="46.97329" lon="10.39488"><ele>2064</ele></trkpt>
<trkpt lat="46.97326" lon="10.3949"><ele>2064</ele></trkpt>
<trkpt lat="46.97324" lon="10.39494"><ele>2064</ele></trkpt>
<trkpt lat="46.97322" lon="10.395"><ele>2064</ele></trkpt>
<trkpt lat="46.9732" lon="10.39509"><ele>2067</ele></trkpt>
<trkpt lat="46.97318" lon="10.3952"><ele>2067</ele></trkpt>
<trkpt lat="46.97315" lon="10.39528"><ele>2067</ele></trkpt>
<trkpt lat="46.9731" lon="10.39535"><ele>2067</ele></trkpt>
<trkpt lat="46.97305" lon="10.39539"><ele>2064</ele></trkpt>
<trkpt lat="46.97298" lon="10.39542"><ele>2064</ele></trkpt>
<trkpt lat="46.97287" lon="10.39546"><ele>2064</ele></trkpt>
<trkpt lat="46.97279" lon="10.39547"><ele>2064</ele></trkpt>
<trkpt lat="46.97269" lon="10.39551"><ele>2056</ele></trkpt>
<trkpt lat="46.97257" lon="10.39553"><ele>2056</ele></trkpt>
<trkpt lat="46.97247" lon="10.39556"><ele>2056</ele></trkpt>
<trkpt lat="46.97238" lon="10.3956"><ele>2056</ele></trkpt>
<trkpt lat="46.9723" lon="10.39564"><ele>2053</ele></trkpt>
<trkpt lat="46.97221" lon="10.39566"><ele>2053</ele></trkpt>
<trkpt lat="46.97214" lon="10.3957"><ele>2053</ele></trkpt>
<trkpt lat="46.97208" lon="10.39574"><ele>2053</ele></trkpt>
<trkpt lat="46.97199" lon="10.39582"><ele>2050</ele></trkpt>
<trkpt lat="46.97192" lon="10.39588"><ele>2050</ele></trkpt>
<trkpt lat="46.97183" lon="10.39596"><ele>2050</ele></trkpt>
<trkpt lat="46.97171" lon="10.39605"><ele>2050</ele></trkpt>
<trkpt lat="46.97161" lon="10.39612"><ele>2044</ele></trkpt>
<trkpt lat="46.97152" lon="10.39617"><ele>2044</ele></trkpt>
<trkpt lat="46.97141" lon="10.39625"><ele>2044</ele></trkpt>
<trkpt lat="46.97135" lon="10.39628"><ele>2044</ele></trkpt>
<trkpt lat="46.97131" lon="10.39629"><ele>2044</ele></trkpt>
<trkpt lat="46.97127" lon="10.39629"><ele>2044</ele></trkpt>
<trkpt lat="46.97124" lon="10.39626"><ele>2044</ele></trkpt>
<trkpt lat="46.97122" lon="10.39622"><ele>2044</ele></trkpt>
<trkpt lat="46.97122" lon="10.39616"><ele>2038</ele></trkpt>
<trkpt lat="46.97122" lon="10.3961"><ele>2038</ele></trkpt>
<trkpt lat="46.97125" lon="10.396"><ele>2038</ele></trkpt>
<trkpt lat="46.97128" lon="10.39589"><ele>2038</ele></trkpt>
<trkpt lat="46.97131" lon="10.39581"><ele>2037</ele></trkpt>
<trkpt lat="46.97133" lon="10.39575"><ele>2037</ele></trkpt>
<trkpt lat="46.97134" lon="10.39569"><ele>2037</ele></trkpt>
<trkpt lat="46.97134" lon="10.39563"><ele>2037</ele></trkpt>
<trkpt lat="46.97134" lon="10.39558"><ele>2033</ele></trkpt>
<trkpt lat="46.97133" lon="10.39552"><ele>2033</ele></trkpt>
<trkpt lat="46.9713" lon="10.39546"><ele>2033</ele></trkpt>
<trkpt lat="46.9712" lon="10.39527"><ele>2033</ele></trkpt>
<trkpt lat="46.97116" lon="10.3952"><ele>2026</ele></trkpt>
<trkpt lat="46.97114" lon="10.39517"><ele>2026</ele></trkpt>
<trkpt lat="46.97111" lon="10.39516"><ele>2026</ele></trkpt>
<trkpt lat="46.97109" lon="10.39516"><ele>2026</ele></trkpt>
<trkpt lat="46.97107" lon="10.39517"><ele>2020</ele></trkpt>
<trkpt lat="46.97105" lon="10.39519"><ele>2020</ele></trkpt>
<trkpt lat="46.97104" lon="10.39523"><ele>2020</ele></trkpt>
<trkpt lat="46.97104" lon="10.39526"><ele>2020</ele></trkpt>
<trkpt lat="46.97104" lon="10.3953"><ele>2020</ele></trkpt>
<trkpt lat="46.97107" lon="10.39539"><ele>2020</ele></trkpt>
<trkpt lat="46.97109" lon="10.39546"><ele>2020</ele></trkpt>
<trkpt lat="46.97109" lon="10.39552"><ele>2020</ele></trkpt>
<trkpt lat="46.97108" lon="10.39556"><ele>2024</ele></trkpt>
<trkpt lat="46.97107" lon="10.3956"><ele>2024</ele></trkpt>
<trkpt lat="46.97105" lon="10.39563"><ele>2024</ele></trkpt>
<trkpt lat="46.97103" lon="10.39566"><ele>2024</ele></trkpt>
<trkpt lat="46.971" lon="10.39568"><ele>2029</ele></trkpt>
<trkpt lat="46.9709" lon="10.39574"><ele>2029</ele></trkpt>
<trkpt lat="46.97079" lon="10.39579"><ele>2029</ele></trkpt>
<trkpt lat="46.9707" lon="10.39584"><ele>2029</ele></trkpt>
<trkpt lat="46.9706" lon="10.39588"><ele>2018</ele></trkpt>
<trkpt lat="46.97051" lon="10.39591"><ele>2018</ele></trkpt>
<trkpt lat="46.97043" lon="10.39593"><ele>2018</ele></trkpt>
<trkpt lat="46.97035" lon="10.39594"><ele>2018</ele></trkpt>
<trkpt lat="46.97029" lon="10.39597"><ele>2020</ele></trkpt>
<trkpt lat="46.97025" lon="10.39598"><ele>2020</ele></trkpt>
<trkpt lat="46.97018" lon="10.39602"><ele>2020</ele></trkpt>
<trkpt lat="46.97012" lon="10.39606"><ele>2020</ele></trkpt>
<trkpt lat="46.97003" lon="10.39614"><ele>2008</ele></trkpt>
<trkpt lat="46.96995" lon="10.39622"><ele>2008</ele></trkpt>
<trkpt lat="46.96988" lon="10.39627"><ele>2008</ele></trkpt>
<trkpt lat="46.96979" lon="10.39636"><ele>2008</ele></trkpt>
<trkpt lat="46.96973" lon="10.39641"><ele>2011</ele></trkpt>
<trkpt lat="46.96971" lon="10.39642"><ele>2011</ele></trkpt>
<trkpt lat="46.96969" lon="10.39641"><ele>2011</ele></trkpt>
<trkpt lat="46.96967" lon="10.3964"><ele>2011</ele></trkpt>
<trkpt lat="46.96966" lon="10.39638"><ele>2006</ele></trkpt>
<trkpt lat="46.96965" lon="10.39635"><ele>2006</ele></trkpt>
<trkpt lat="46.96965" lon="10.39631"><ele>2006</ele></trkpt>
<trkpt lat="46.96966" lon="10.39629"><ele>2006</ele></trkpt>
<trkpt lat="46.96968" lon="10.39625"><ele>2011</ele></trkpt>
<trkpt lat="46.96973" lon="10.3962"><ele>2011</ele></trkpt>
<trkpt lat="46.96977" lon="10.39615"><ele>2011</ele></trkpt>
<trkpt lat="46.96977" lon="10.39614"><ele>2011</ele></trkpt>
<trkpt lat="46.96981" lon="10.39608"><ele>2003</ele></trkpt>
<trkpt lat="46.96983" lon="10.39603"><ele>2003</ele></trkpt>
<trkpt lat="46.96985" lon="10.39594"><ele>2003</ele></trkpt>
<trkpt lat="46.96987" lon="10.39584"><ele>2003</ele></trkpt>
<trkpt lat="46.96989" lon="10.3958"><ele>2001</ele></trkpt>
<trkpt lat="46.96992" lon="10.39574"><ele>2001</ele></trkpt>
<trkpt lat="46.96998" lon="10.39565"><ele>2001</ele></trkpt>
<trkpt lat="46.97001" lon="10.39556"><ele>2001</ele></trkpt>
<trkpt lat="46.97" lon="10.39558"><ele>1995</ele></trkpt>
<trkpt lat="46.96999" lon="10.39558"><ele>1995</ele></trkpt>
<trkpt lat="46.96997" lon="10.39559"><ele>1995</ele></trkpt>
<trkpt lat="46.9699" lon="10.39561"><ele>1995</ele></trkpt>
<trkpt lat="46.96985" lon="10.39563"><ele>1996</ele></trkpt>
<trkpt lat="46.96981" lon="10.39564"><ele>1996</ele></trkpt>
<trkpt lat="46.96979" lon="10.39565"><ele>1996</ele></trkpt>
<trkpt lat="46.96973" lon="10.39568"><ele>1996</ele></trkpt>
<trkpt lat="46.96964" lon="10.3957"><ele>1992</ele></trkpt>
<trkpt lat="46.96953" lon="10.39574"><ele>1992</ele></trkpt>
<trkpt lat="46.96946" lon="10.39575"><ele>1992</ele></trkpt>
<trkpt lat="46.9694" lon="10.39575"><ele>1992</ele></trkpt>
<trkpt lat="46.96936" lon="10.39575"><ele>1988</ele></trkpt>
<trkpt lat="46.96931" lon="10.39575"><ele>1988</ele></trkpt>
<trkpt lat="46.96926" lon="10.39574"><ele>1988</ele></trkpt>
<trkpt lat="46.96923" lon="10.39574"><ele>1988</ele></trkpt>
<trkpt lat="46.96919" lon="10.39574"><ele>1983</ele></trkpt>
<trkpt lat="46.96912" lon="10.39574"><ele>1983</ele></trkpt>
<trkpt lat="46.96907" lon="10.39574"><ele>1983</ele></trkpt>
<trkpt lat="46.96903" lon="10.39574"><ele>1983</ele></trkpt>
<trkpt lat="46.96899" lon="10.39575"><ele>1978</ele></trkpt>
<trkpt lat="46.96895" lon="10.39577"><ele>1978</ele></trkpt>
<trkpt lat="46.96893" lon="10.39577"><ele>1978</ele></trkpt>
<trkpt lat="46.96888" lon="10.39575"><ele>1978</ele></trkpt>
<trkpt lat="46.96882" lon="10.39575"><ele>1973</ele></trkpt>
<trkpt lat="46.96879" lon="10.39575"><ele>1973</ele></trkpt>
<trkpt lat="46.96876" lon="10.39575"><ele>1973</ele></trkpt>
<trkpt lat="46.96867" lon="10.39575"><ele>1973</ele></trkpt>
<trkpt lat="46.96863" lon="10.39574"><ele>1968</ele></trkpt>
<trkpt lat="46.96856" lon="10.39574"><ele>1968</ele></trkpt>
<trkpt lat="46.96852" lon="10.39574"><ele>1968</ele></trkpt>
<trkpt lat="46.96845" lon="10.39575"><ele>1968</ele></trkpt>
<trkpt lat="46.96838" lon="10.39575"><ele>1962</ele></trkpt>
<trkpt lat="46.96833" lon="10.39575"><ele>1962</ele></trkpt>
<trkpt lat="46.96825" lon="10.39577"><ele>1962</ele></trkpt>
<trkpt lat="46.9682" lon="10.39578"><ele>1962</ele></trkpt>
<trkpt lat="46.96818" lon="10.39579"><ele>1954</ele></trkpt>
<trkpt lat="46.96815" lon="10.3958"><ele>1954</ele></trkpt>
<trkpt lat="46.96812" lon="10.39582"><ele>1954</ele></trkpt>
<trkpt lat="46.96807" lon="10.39586"><ele>1954</ele></trkpt>
<trkpt lat="46.968" lon="10.39592"><ele>1951</ele></trkpt>
<trkpt lat="46.96795" lon="10.39596"><ele>1951</ele></trkpt>
<trkpt lat="46.96789" lon="10.396"><ele>1951</ele></trkpt>
<trkpt lat="46.96783" lon="10.39605"><ele>1951</ele></trkpt>
<trkpt lat="46.96778" lon="10.3961"><ele>1943</ele></trkpt>
<trkpt lat="46.96772" lon="10.39614"><ele>1943</ele></trkpt>
<trkpt lat="46.96764" lon="10.39619"><ele>1943</ele></trkpt>
<trkpt lat="46.96754" lon="10.39626"><ele>1943</ele></trkpt>
<trkpt lat="46.96748" lon="10.39629"><ele>1941</ele></trkpt>
<trkpt lat="46.96742" lon="10.39633"><ele>1941</ele></trkpt>
<trkpt lat="46.96737" lon="10.39636"><ele>1941</ele></trkpt>
<trkpt lat="46.96736" lon="10.39638"><ele>1941</ele></trkpt>
<trkpt lat="46.9673" lon="10.39642"><ele>1934</ele></trkpt>
<trkpt lat="46.96726" lon="10.39645"><ele>1934</ele></trkpt>
<trkpt lat="46.96723" lon="10.39647"><ele>1934</ele></trkpt>
<trkpt lat="46.96718" lon="10.3965"><ele>1934</ele></trkpt>
<trkpt lat="46.96711" lon="10.39663"><ele>1934</ele></trkpt>
<trkpt lat="46.96707" lon="10.39669"><ele>1934</ele></trkpt>
<trkpt lat="46.96702" lon="10.39676"><ele>1934</ele></trkpt>
<trkpt lat="46.96697" lon="10.39681"><ele>1934</ele></trkpt>
<trkpt lat="46.96692" lon="10.39685"><ele>1932</ele></trkpt>
<trkpt lat="46.96688" lon="10.39688"><ele>1932</ele></trkpt>
<trkpt lat="46.96669" lon="10.39696"><ele>1932</ele></trkpt>
<trkpt lat="46.96661" lon="10.397"><ele>1932</ele></trkpt>
<trkpt lat="46.9665" lon="10.39705"><ele>1915</ele></trkpt>
<trkpt lat="46.96639" lon="10.39709"><ele>1915</ele></trkpt>
<trkpt lat="46.9663" lon="10.39711"><ele>1915</ele></trkpt>
<trkpt lat="46.96621" lon="10.39713"><ele>1915</ele></trkpt>
<trkpt lat="46.96615" lon="10.39714"><ele>1908</ele></trkpt>
<trkpt lat="46.96608" lon="10.39716"><ele>1908</ele></trkpt>
<trkpt lat="46.96592" lon="10.39724"><ele>1908</ele></trkpt>
<trkpt lat="46.96582" lon="10.39728"><ele>1908</ele></trkpt>
<trkpt lat="46.96569" lon="10.3973"><ele>1898</ele></trkpt>
<trkpt lat="46.96559" lon="10.3973"><ele>1898</ele></trkpt>
<trkpt lat="46.96555" lon="10.3973"><ele>1898</ele></trkpt>
<trkpt lat="46.96549" lon="10.39732"><ele>1898</ele></trkpt>
<trkpt lat="46.96544" lon="10.39734"><ele>1892</ele></trkpt>
<trkpt lat="46.96541" lon="10.39736"><ele>1892</ele></trkpt>
<trkpt lat="46.96536" lon="10.39742"><ele>1892</ele></trkpt>
<trkpt lat="46.9653" lon="10.39749"><ele>1892</ele></trkpt>
<trkpt lat="46.96526" lon="10.39753"><ele>1894</ele></trkpt>
<trkpt lat="46.96523" lon="10.39757"><ele>1894</ele></trkpt>
<trkpt lat="46.96514" lon="10.39765"><ele>1894</ele></trkpt>
<trkpt lat="46.96505" lon="10.39772"><ele>1894</ele></trkpt>
<trkpt lat="46.96498" lon="10.39779"><ele>1895</ele></trkpt>
<trkpt lat="46.96492" lon="10.39788"><ele>1895</ele></trkpt>
<trkpt lat="46.96485" lon="10.39799"><ele>1895</ele></trkpt>
<trkpt lat="46.96477" lon="10.39808"><ele>1895</ele></trkpt>
<trkpt lat="46.9647" lon="10.39816"><ele>1886</ele></trkpt>
<trkpt lat="46.96465" lon="10.39822"><ele>1886</ele></trkpt>
<trkpt lat="46.96457" lon="10.39836"><ele>1886</ele></trkpt>
<trkpt lat="46.96451" lon="10.39847"><ele>1886</ele></trkpt>
<trkpt lat="46.96445" lon="10.39859"><ele>1883</ele></trkpt>
<trkpt lat="46.96437" lon="10.39873"><ele>1883</ele></trkpt>
<trkpt lat="46.96433" lon="10.39879"><ele>1883</ele></trkpt>
<trkpt lat="46.96428" lon="10.39885"><ele>1883</ele></trkpt>
<trkpt lat="46.96421" lon="10.39891"><ele>1879</ele></trkpt>
<trkpt lat="46.96416" lon="10.39896"><ele>1879</ele></trkpt>
<trkpt lat="46.96412" lon="10.39902"><ele>1879</ele></trkpt>
<trkpt lat="46.96409" lon="10.39908"><ele>1879</ele></trkpt>
<trkpt lat="46.96405" lon="10.39924"><ele>1880</ele></trkpt>
<trkpt lat="46.96403" lon="10.39934"><ele>1880</ele></trkpt>
<trkpt lat="46.964" lon="10.39941"><ele>1880</ele></trkpt>
<trkpt lat="46.96398" lon="10.3995"><ele>1880</ele></trkpt>
<trkpt lat="46.96393" lon="10.39959"><ele>1886</ele></trkpt>
<trkpt lat="46.96389" lon="10.39968"><ele>1886</ele></trkpt>
<trkpt lat="46.96384" lon="10.39974"><ele>1886</ele></trkpt>
<trkpt lat="46.96377" lon="10.3998"><ele>1886</ele></trkpt>
<trkpt lat="46.96369" lon="10.39983"><ele>1874</ele></trkpt>
<trkpt lat="46.96362" lon="10.39987"><ele>1874</ele></trkpt>
<trkpt lat="46.96358" lon="10.3999"><ele>1874</ele></trkpt>
<trkpt lat="46.96353" lon="10.39997"><ele>1874</ele></trkpt>
<trkpt lat="46.96348" lon="10.40006"><ele>1866</ele></trkpt>
<trkpt lat="46.96341" lon="10.40024"><ele>1866</ele></trkpt>
<trkpt lat="46.96337" lon="10.40034"><ele>1866</ele></trkpt>
<trkpt lat="46.96331" lon="10.40046"><ele>1866</ele></trkpt>
<trkpt lat="46.96326" lon="10.40055"><ele>1868</ele></trkpt>
<trkpt lat="46.9632" lon="10.40063"><ele>1868</ele></trkpt>
<trkpt lat="46.96315" lon="10.4007"><ele>1868</ele></trkpt>
<trkpt lat="46.9631" lon="10.40077"><ele>1868</ele></trkpt>
<trkpt lat="46.96299" lon="10.40091"><ele>1865</ele></trkpt>
<trkpt lat="46.96283" lon="10.40117"><ele>1865</ele></trkpt>
<trkpt lat="46.96273" lon="10.40132"><ele>1865</ele></trkpt>
<trkpt lat="46.96264" lon="10.40147"><ele>1865</ele></trkpt>
<trkpt lat="46.96258" lon="10.40162"><ele>1859</ele></trkpt>
<trkpt lat="46.96253" lon="10.40171"><ele>1859</ele></trkpt>
<trkpt lat="46.96251" lon="10.40171"><ele>1859</ele></trkpt>
<trkpt lat="46.96249" lon="10.40171"><ele>1859</ele></trkpt>
<trkpt lat="46.96247" lon="10.4017"><ele>1866</ele></trkpt>
<trkpt lat="46.96246" lon="10.40166"><ele>1866</ele></trkpt>
<trkpt lat="46.96245" lon="10.40163"><ele>1866</ele></trkpt>
<trkpt lat="46.96245" lon="10.40159"><ele>1866</ele></trkpt>
<trkpt lat="46.96247" lon="10.40155"><ele>1859</ele></trkpt>
<trkpt lat="46.96248" lon="10.40152"><ele>1859</ele></trkpt>
<trkpt lat="46.9625" lon="10.4015"><ele>1859</ele></trkpt>
<trkpt lat="46.96254" lon="10.40145"><ele>1859</ele></trkpt>
<trkpt lat="46.96259" lon="10.40138"><ele>1859</ele></trkpt>
<trkpt lat="46.96263" lon="10.40132"><ele>1859</ele></trkpt>
<trkpt lat="46.96267" lon="10.40122"><ele>1859</ele></trkpt>
<trkpt lat="46.96274" lon="10.40107"><ele>1859</ele></trkpt>
<trkpt lat="46.96278" lon="10.40096"><ele>1854</ele></trkpt>
<trkpt lat="46.96282" lon="10.40084"><ele>1854</ele></trkpt>
<trkpt lat="46.96285" lon="10.40072"><ele>1854</ele></trkpt>
<trkpt lat="46.96289" lon="10.4006"><ele>1854</ele></trkpt>
<trkpt lat="46.96292" lon="10.40046"><ele>1860</ele></trkpt>
<trkpt lat="46.96294" lon="10.40029"><ele>1860</ele></trkpt>
<trkpt lat="46.96297" lon="10.40015"><ele>1860</ele></trkpt>
<trkpt lat="46.96299" lon="10.40005"><ele>1860</ele></trkpt>
<trkpt lat="46.96302" lon="10.39992"><ele>1851</ele></trkpt>
<trkpt lat="46.96306" lon="10.39966"><ele>1851</ele></trkpt>
<trkpt lat="46.96311" lon="10.39939"><ele>1851</ele></trkpt>
<trkpt lat="46.96316" lon="10.39919"><ele>1851</ele></trkpt>
<trkpt lat="46.96319" lon="10.39902"><ele>1844</ele></trkpt>
<trkpt lat="46.96322" lon="10.39889"><ele>1844</ele></trkpt>
<trkpt lat="46.96325" lon="10.39878"><ele>1844</ele></trkpt>
<trkpt lat="46.96326" lon="10.39868"><ele>1844</ele></trkpt>
<trkpt lat="46.96326" lon="10.39855"><ele>1834</ele></trkpt>
<trkpt lat="46.96326" lon="10.39842"><ele>1834</ele></trkpt>
<trkpt lat="46.96327" lon="10.39833"><ele>1834</ele></trkpt>
<trkpt lat="46.96328" lon="10.39827"><ele>1834</ele></trkpt>
<trkpt lat="46.96331" lon="10.39819"><ele>1836</ele></trkpt>
<trkpt lat="46.96332" lon="10.39811"><ele>1836</ele></trkpt>
<trkpt lat="46.96334" lon="10.39802"><ele>1836</ele></trkpt>
<trkpt lat="46.96337" lon="10.39793"><ele>1836</ele></trkpt>
<trkpt lat="46.96338" lon="10.39785"><ele>1831</ele></trkpt>
<trkpt lat="46.9634" lon="10.39775"><ele>1831</ele></trkpt>
<trkpt lat="46.96342" lon="10.39764"><ele>1831</ele></trkpt>
<trkpt lat="46.96343" lon="10.39757"><ele>1831</ele></trkpt>
<trkpt lat="46.96344" lon="10.39751"><ele>1824</ele></trkpt>
<trkpt lat="46.96348" lon="10.39744"><ele>1824</ele></trkpt>
<trkpt lat="46.96352" lon="10.39739"><ele>1824</ele></trkpt>
<trkpt lat="46.96356" lon="10.39735"><ele>1824</ele></trkpt>
<trkpt lat="46.96358" lon="10.3973"><ele>1827</ele></trkpt>
<trkpt lat="46.9636" lon="10.39727"><ele>1827</ele></trkpt>
<trkpt lat="46.96362" lon="10.39722"><ele>1827</ele></trkpt>
<trkpt lat="46.96362" lon="10.39716"><ele>1827</ele></trkpt>
<trkpt lat="46.96362" lon="10.39697"><ele>1820</ele></trkpt>
<trkpt lat="46.96363" lon="10.39692"><ele>1820</ele></trkpt>
<trkpt lat="46.96364" lon="10.3969"><ele>1820</ele></trkpt>
<trkpt lat="46.96366" lon="10.39685"><ele>1820</ele></trkpt>
<trkpt lat="46.96369" lon="10.39682"><ele>1820</ele></trkpt>
<trkpt lat="46.96372" lon="10.3968"><ele>1820</ele></trkpt>
<trkpt lat="46.96376" lon="10.39677"><ele>1820</ele></trkpt>
<trkpt lat="46.9638" lon="10.39675"><ele>1820</ele></trkpt>
<trkpt lat="46.96383" lon="10.39674"><ele>1820</ele></trkpt>
<trkpt lat="46.96387" lon="10.39671"><ele>1820</ele></trkpt>
<trkpt lat="46.9639" lon="10.39668"><ele>1820</ele></trkpt>
<trkpt lat="46.96395" lon="10.39663"><ele>1820</ele></trkpt>
<trkpt lat="46.96399" lon="10.39655"><ele>1827</ele></trkpt>
<trkpt lat="46.96408" lon="10.39642"><ele>1827</ele></trkpt>
<trkpt lat="46.96416" lon="10.39625"><ele>1827</ele></trkpt>
<trkpt lat="46.96425" lon="10.39608"><ele>1827</ele></trkpt>
<trkpt lat="46.96433" lon="10.39591"><ele>1825</ele></trkpt>
<trkpt lat="46.96436" lon="10.39586"><ele>1825</ele></trkpt>
<trkpt lat="46.96438" lon="10.39581"><ele>1825</ele></trkpt>
<trkpt lat="46.9644" lon="10.39577"><ele>1825</ele></trkpt>
<trkpt lat="46.96443" lon="10.39574"><ele>1817</ele></trkpt>
<trkpt lat="46.96447" lon="10.3957"><ele>1817</ele></trkpt>
<trkpt lat="46.96455" lon="10.39564"><ele>1817</ele></trkpt>
<trkpt lat="46.96458" lon="10.39561"><ele>1817</ele></trkpt>
<trkpt lat="46.9646" lon="10.3956"><ele>1819</ele></trkpt>
<trkpt lat="46.96461" lon="10.39556"><ele>1819</ele></trkpt>
<trkpt lat="46.96462" lon="10.39552"><ele>1819</ele></trkpt>
<trkpt lat="46.96462" lon="10.39549"><ele>1819</ele></trkpt>
<trkpt lat="46.9646" lon="10.39547"><ele>1819</ele></trkpt>
<trkpt lat="46.96471" lon="10.39532"><ele>1819</ele></trkpt>
<trkpt lat="46.96476" lon="10.39527"><ele>1819</ele></trkpt>
<trkpt lat="46.96481" lon="10.39521"><ele>1819</ele></trkpt>
<trkpt lat="46.96483" lon="10.39518"><ele>1823</ele></trkpt>
<trkpt lat="46.96485" lon="10.39514"><ele>1823</ele></trkpt>
<trkpt lat="46.96486" lon="10.39512"><ele>1823</ele></trkpt>
<trkpt lat="46.96486" lon="10.39509"><ele>1823</ele></trkpt>
<trkpt lat="46.96486" lon="10.39507"><ele>1823</ele></trkpt>
<trkpt lat="46.96485" lon="10.39504"><ele>1823</ele></trkpt>
<trkpt lat="46.96482" lon="10.39502"><ele>1823</ele></trkpt>
<trkpt lat="46.96479" lon="10.395"><ele>1823</ele></trkpt>
<trkpt lat="46.96475" lon="10.395"><ele>1835</ele></trkpt>
<trkpt lat="46.96469" lon="10.395"><ele>1835</ele></trkpt>
<trkpt lat="46.9646" lon="10.39503"><ele>1835</ele></trkpt>
<trkpt lat="46.96449" lon="10.39506"><ele>1835</ele></trkpt>
<trkpt lat="46.96438" lon="10.39512"><ele>1812</ele></trkpt>
<trkpt lat="46.96428" lon="10.39518"><ele>1812</ele></trkpt>
<trkpt lat="46.96415" lon="10.39525"><ele>1812</ele></trkpt>
<trkpt lat="46.96398" lon="10.39533"><ele>1812</ele></trkpt>
<trkpt lat="46.96382" lon="10.39542"><ele>1798</ele></trkpt>
<trkpt lat="46.96367" lon="10.39551"><ele>1798</ele></trkpt>
<trkpt lat="46.96351" lon="10.39558"><ele>1798</ele></trkpt>
<trkpt lat="46.96339" lon="10.39565"><ele>1798</ele></trkpt>
<trkpt lat="46.96332" lon="10.39569"><ele>1789</ele></trkpt>
<trkpt lat="46.96327" lon="10.39573"><ele>1789</ele></trkpt>
<trkpt lat="46.96321" lon="10.3958"><ele>1789</ele></trkpt>
<trkpt lat="46.96316" lon="10.39587"><ele>1789</ele></trkpt>
<trkpt lat="46.96309" lon="10.39593"><ele>1787</ele></trkpt>
<trkpt lat="46.96301" lon="10.396"><ele>1787</ele></trkpt>
<trkpt lat="46.96293" lon="10.39607"><ele>1787</ele></trkpt>
<trkpt lat="46.96281" lon="10.3962"><ele>1787</ele></trkpt>
<trkpt lat="46.96271" lon="10.39628"><ele>1779</ele></trkpt>
<trkpt lat="46.96252" lon="10.39642"><ele>1779</ele></trkpt>
<trkpt lat="46.96242" lon="10.39633"><ele>1779</ele></trkpt>
<trkpt lat="46.96236" lon="10.3963"><ele>1779</ele></trkpt>
<trkpt lat="46.96229" lon="10.39629"><ele>1780</ele></trkpt>
<trkpt lat="46.96223" lon="10.3963"><ele>1780</ele></trkpt>
<trkpt lat="46.96214" lon="10.39636"><ele>1780</ele></trkpt>
<trkpt lat="46.96205" lon="10.39645"><ele>1780</ele></trkpt>
<trkpt lat="46.96197" lon="10.39655"><ele>1768</ele></trkpt>
<trkpt lat="46.96194" lon="10.39658"><ele>1768</ele></trkpt>
<trkpt lat="46.9619" lon="10.39658"><ele>1768</ele></trkpt>
<trkpt lat="46.96182" lon="10.39655"><ele>1768</ele></trkpt>
<trkpt lat="46.96177" lon="10.39655"><ele>1765</ele></trkpt>
<trkpt lat="46.96174" lon="10.39655"><ele>1765</ele></trkpt>
<trkpt lat="46.96172" lon="10.39658"><ele>1765</ele></trkpt>
<trkpt lat="46.96164" lon="10.39664"><ele>1765</ele></trkpt>
<trkpt lat="46.96161" lon="10.39666"><ele>1762</ele></trkpt>
<trkpt lat="46.96158" lon="10.39664"><ele>1762</ele></trkpt>
<trkpt lat="46.96151" lon="10.39664"><ele>1762</ele></trkpt>
<trkpt lat="46.96146" lon="10.39663"><ele>1762</ele></trkpt>
<trkpt lat="46.96142" lon="10.39664"><ele>1757</ele></trkpt>
<trkpt lat="46.96136" lon="10.39669"><ele>1757</ele></trkpt>
<trkpt lat="46.96126" lon="10.39678"><ele>1757</ele></trkpt>
<trkpt lat="46.96123" lon="10.39678"><ele>1757</ele></trkpt>
<trkpt lat="46.9612" lon="10.3968"><ele>1749</ele></trkpt>
<trkpt lat="46.96117" lon="10.3968"><ele>1749</ele></trkpt>
<trkpt lat="46.96112" lon="10.39677"><ele>1749</ele></trkpt>
<trkpt lat="46.96104" lon="10.39672"><ele>1749</ele></trkpt>
<trkpt lat="46.96096" lon="10.39664"><ele>1741</ele></trkpt>
<trkpt lat="46.9609" lon="10.39658"><ele>1741</ele></trkpt>
<trkpt lat="46.96085" lon="10.39653"><ele>1741</ele></trkpt>
<trkpt lat="46.96079" lon="10.39648"><ele>1741</ele></trkpt>
<trkpt lat="46.96073" lon="10.39644"><ele>1741</ele></trkpt>
<trkpt lat="46.96067" lon="10.39642"><ele>1741</ele></trkpt>
<trkpt lat="46.96067" lon="10.39638"><ele>1741</ele></trkpt>
<trkpt lat="46.96064" lon="10.39633"><ele>1741</ele></trkpt>
<trkpt lat="46.96062" lon="10.39627"><ele>1741</ele></trkpt>
<trkpt lat="46.96061" lon="10.39619"><ele>1741</ele></trkpt>
<trkpt lat="46.9606" lon="10.39608"><ele>1741</ele></trkpt>
<trkpt lat="46.9606" lon="10.39593"><ele>1741</ele></trkpt>
<trkpt lat="46.9606" lon="10.39572"><ele>1747</ele></trkpt>
<trkpt lat="46.9606" lon="10.39558"><ele>1747</ele></trkpt>
<trkpt lat="46.96059" lon="10.39544"><ele>1747</ele></trkpt>
<trkpt lat="46.96059" lon="10.3954"><ele>1747</ele></trkpt>
<trkpt lat="46.96059" lon="10.39521"><ele>1750</ele></trkpt>
<trkpt lat="46.96061" lon="10.39505"><ele>1750</ele></trkpt>
<trkpt lat="46.96063" lon="10.39491"><ele>1750</ele></trkpt>
<trkpt lat="46.96064" lon="10.39481"><ele>1750</ele></trkpt>
<trkpt lat="46.96062" lon="10.39472"><ele>1757</ele></trkpt>
<trkpt lat="46.96058" lon="10.39465"><ele>1757</ele></trkpt>
<trkpt lat="46.96053" lon="10.39456"><ele>1757</ele></trkpt>
<trkpt lat="46.96047" lon="10.39446"><ele>1757</ele></trkpt>
<trkpt lat="46.96043" lon="10.39439"><ele>1760</ele></trkpt>
<trkpt lat="46.96039" lon="10.3943"><ele>1760</ele></trkpt>
<trkpt lat="46.96037" lon="10.39425"><ele>1760</ele></trkpt>
<trkpt lat="46.96035" lon="10.39415"><ele>1760</ele></trkpt>
<trkpt lat="46.96027" lon="10.39392"><ele>1758</ele></trkpt>
<trkpt lat="46.96021" lon="10.39373"><ele>1758</ele></trkpt>
<trkpt lat="46.9601" lon="10.3935"><ele>1758</ele></trkpt>
<trkpt lat="46.95996" lon="10.39317"><ele>1758</ele></trkpt>
<trkpt lat="46.95986" lon="10.39293"><ele>1754</ele></trkpt>
<trkpt lat="46.95982" lon="10.39284"><ele>1754</ele></trkpt>
<trkpt lat="46.95979" lon="10.39279"><ele>1754</ele></trkpt>
<trkpt lat="46.95976" lon="10.39277"><ele>1754</ele></trkpt>
<trkpt lat="46.95973" lon="10.39275"><ele>1753</ele></trkpt>
<trkpt lat="46.95967" lon="10.39274"><ele>1753</ele></trkpt>
<trkpt lat="46.95955" lon="10.39274"><ele>1753</ele></trkpt>
<trkpt lat="46.95955" lon="10.39254"><ele>1753</ele></trkpt>
<trkpt lat="46.95954" lon="10.39232"><ele>1751</ele></trkpt>
<trkpt lat="46.95954" lon="10.39222"><ele>1751</ele></trkpt>
<trkpt lat="46.95953" lon="10.39214"><ele>1751</ele></trkpt>
<trkpt lat="46.95948" lon="10.39188"><ele>1751</ele></trkpt>
<trkpt lat="46.95944" lon="10.39167"><ele>1758</ele></trkpt>
<trkpt lat="46.95941" lon="10.39151"><ele>1758</ele></trkpt>
<trkpt lat="46.95938" lon="10.39138"><ele>1758</ele></trkpt>
<trkpt lat="46.95936" lon="10.39126"><ele>1758</ele></trkpt>
<trkpt lat="46.95933" lon="10.39113"><ele>1754</ele></trkpt>
<trkpt lat="46.9593" lon="10.39099"><ele>1754</ele></trkpt>
<trkpt lat="46.95924" lon="10.39078"><ele>1754</ele></trkpt>
<trkpt lat="46.9592" lon="10.39063"><ele>1754</ele></trkpt>
<trkpt lat="46.95918" lon="10.39051"><ele>1758</ele></trkpt>
<trkpt lat="46.95917" lon="10.3904"><ele>1758</ele></trkpt>
<trkpt lat="46.95916" lon="10.39031"><ele>1758</ele></trkpt>
<trkpt lat="46.95916" lon="10.39016"><ele>1758</ele></trkpt>
<trkpt lat="46.95916" lon="10.38996"><ele>1756</ele></trkpt>
<trkpt lat="46.95917" lon="10.38979"><ele>1756</ele></trkpt>
<trkpt lat="46.95917" lon="10.38964"><ele>1756</ele></trkpt>
<trkpt lat="46.95916" lon="10.3895"><ele>1756</ele></trkpt>
<trkpt lat="46.95914" lon="10.38937"><ele>1761</ele></trkpt>
<trkpt lat="46.95908" lon="10.38909"><ele>1761</ele></trkpt>
<trkpt lat="46.95905" lon="10.38899"><ele>1761</ele></trkpt>
<trkpt lat="46.95904" lon="10.38889"><ele>1761</ele></trkpt>
<trkpt lat="46.95902" lon="10.38878"><ele>1766</ele></trkpt>
<trkpt lat="46.959" lon="10.38869"><ele>1766</ele></trkpt>
<trkpt lat="46.95899" lon="10.38862"><ele>1766</ele></trkpt>
<trkpt lat="46.95896" lon="10.38856"><ele>1766</ele></trkpt>
<trkpt lat="46.95892" lon="10.38845"><ele>1765</ele></trkpt>
<trkpt lat="46.95889" lon="10.38838"><ele>1765</ele></trkpt>
<trkpt lat="46.95886" lon="10.38828"><ele>1765</ele></trkpt>
<trkpt lat="46.95881" lon="10.38808"><ele>1765</ele></trkpt>
<trkpt lat="46.95873" lon="10.38777"><ele>1766</ele></trkpt>
<trkpt lat="46.95865" lon="10.38744"><ele>1766</ele></trkpt>
<trkpt lat="46.95859" lon="10.3872"><ele>1766</ele></trkpt>
<trkpt lat="46.95855" lon="10.38699"><ele>1766</ele></trkpt>
<trkpt lat="46.95854" lon="10.3869"><ele>1767</ele></trkpt>
<trkpt lat="46.95853" lon="10.38679"><ele>1767</ele></trkpt>
<trkpt lat="46.95852" lon="10.38655"><ele>1767</ele></trkpt>
<trkpt lat="46.95851" lon="10.38643"><ele>1767</ele></trkpt>
<trkpt lat="46.9585" lon="10.38635"><ele>1772</ele></trkpt>
<trkpt lat="46.95848" lon="10.38627"><ele>1772</ele></trkpt>
<trkpt lat="46.95844" lon="10.38617"><ele>1772</ele></trkpt>
<trkpt lat="46.95839" lon="10.38602"><ele>1772</ele></trkpt>
<trkpt lat="46.95837" lon="10.38591"><ele>1776</ele></trkpt>
<trkpt lat="46.95835" lon="10.38579"><ele>1776</ele></trkpt>
<trkpt lat="46.95833" lon="10.38568"><ele>1776</ele></trkpt>
<trkpt lat="46.95827" lon="10.38519"><ele>1776</ele></trkpt>
<trkpt lat="46.95823" lon="10.38491"><ele>1776</ele></trkpt>
<trkpt lat="46.95821" lon="10.38477"><ele>1776</ele></trkpt>
<trkpt lat="46.95817" lon="10.38463"><ele>1776</ele></trkpt>
<trkpt lat="46.95812" lon="10.38456"><ele>1776</ele></trkpt>
<trkpt lat="46.95809" lon="10.38449"><ele>1776</ele></trkpt>
<trkpt lat="46.95804" lon="10.38444"><ele>1776</ele></trkpt>
<trkpt lat="46.95791" lon="10.38429"><ele>1776</ele></trkpt>
<trkpt lat="46.95775" lon="10.38409"><ele>1776</ele></trkpt>
<trkpt lat="46.95768" lon="10.384"><ele>1777</ele></trkpt>
<trkpt lat="46.95764" lon="10.38392"><ele>1777</ele></trkpt>
<trkpt lat="46.95759" lon="10.38383"><ele>1777</ele></trkpt>
<trkpt lat="46.95756" lon="10.38374"><ele>1777</ele></trkpt>
<trkpt lat="46.9575" lon="10.38357"><ele>1775</ele></trkpt>
<trkpt lat="46.95744" lon="10.38334"><ele>1775</ele></trkpt>
<trkpt lat="46.9574" lon="10.38315"><ele>1775</ele></trkpt>
<trkpt lat="46.95735" lon="10.38296"><ele>1775</ele></trkpt>
<trkpt lat="46.95728" lon="10.38275"><ele>1774</ele></trkpt>
<trkpt lat="46.95724" lon="10.38263"><ele>1774</ele></trkpt>
<trkpt lat="46.95721" lon="10.38246"><ele>1774</ele></trkpt>
<trkpt lat="46.95719" lon="10.38228"><ele>1774</ele></trkpt>
<trkpt lat="46.95716" lon="10.38216"><ele>1774</ele></trkpt>
<trkpt lat="46.95713" lon="10.38209"><ele>1774</ele></trkpt>
<trkpt lat="46.95709" lon="10.382"><ele>1774</ele></trkpt>
<trkpt lat="46.95697" lon="10.38183"><ele>1774</ele></trkpt>
<trkpt lat="46.95679" lon="10.38158"><ele>1767</ele></trkpt>
<trkpt lat="46.95661" lon="10.3813"><ele>1767</ele></trkpt>
<trkpt lat="46.95649" lon="10.38115"><ele>1767</ele></trkpt>
<trkpt lat="46.95643" lon="10.38106"><ele>1767</ele></trkpt>
<trkpt lat="46.95631" lon="10.38097"><ele>1767</ele></trkpt>
<trkpt lat="46.95623" lon="10.38092"><ele>1767</ele></trkpt>
<trkpt lat="46.9562" lon="10.38088"><ele>1767</ele></trkpt>
<trkpt lat="46.95617" lon="10.38083"><ele>1767</ele></trkpt>
<trkpt lat="46.95611" lon="10.38073"><ele>1763</ele></trkpt>
<trkpt lat="46.95606" lon="10.38064"><ele>1763</ele></trkpt>
<trkpt lat="46.95602" lon="10.38058"><ele>1763</ele></trkpt>
<trkpt lat="46.95596" lon="10.38052"><ele>1763</ele></trkpt>
<trkpt lat="46.9559" lon="10.38045"><ele>1760</ele></trkpt>
<trkpt lat="46.95583" lon="10.3804"><ele>1760</ele></trkpt>
<trkpt lat="46.95578" lon="10.38035"><ele>1760</ele></trkpt>
<trkpt lat="46.95574" lon="10.3803"><ele>1760</ele></trkpt>
<trkpt lat="46.95566" lon="10.38017"><ele>1755</ele></trkpt>
<trkpt lat="46.95562" lon="10.38014"><ele>1755</ele></trkpt>
<trkpt lat="46.9556" lon="10.38012"><ele>1755</ele></trkpt>
<trkpt lat="46.95557" lon="10.3801"><ele>1755</ele></trkpt>
<trkpt lat="46.95553" lon="10.38008"><ele>1755</ele></trkpt>
<trkpt lat="46.9555" lon="10.38008"><ele>1755</ele></trkpt>
<trkpt lat="46.95548" lon="10.38008"><ele>1755</ele></trkpt>
<trkpt lat="46.95546" lon="10.3801"><ele>1755</ele></trkpt>
<trkpt lat="46.95543" lon="10.38011"><ele>1752</ele></trkpt>
<trkpt lat="46.95539" lon="10.38016"><ele>1752</ele></trkpt>
<trkpt lat="46.9553" lon="10.38025"><ele>1752</ele></trkpt>
<trkpt lat="46.95533" lon="10.38029"><ele>1752</ele></trkpt>
<trkpt lat="46.95531" lon="10.38031"><ele>1750</ele></trkpt>
<trkpt lat="46.95527" lon="10.38035"><ele>1750</ele></trkpt>
<trkpt lat="46.95525" lon="10.38036"><ele>1750</ele></trkpt>
<trkpt lat="46.95524" lon="10.38036"><ele>1750</ele></trkpt>
<trkpt lat="46.95522" lon="10.38036"><ele>1748</ele></trkpt>
<trkpt lat="46.9552" lon="10.38035"><ele>1748</ele></trkpt>
<trkpt lat="46.95518" lon="10.38033"><ele>1748</ele></trkpt>
<trkpt lat="46.95513" lon="10.38029"><ele>1748</ele></trkpt>
<trkpt lat="46.95506" lon="10.38021"><ele>1750</ele></trkpt>
<trkpt lat="46.95504" lon="10.3802"><ele>1750</ele></trkpt>
<trkpt lat="46.95502" lon="10.38019"><ele>1750</ele></trkpt>
<trkpt lat="46.95499" lon="10.38019"><ele>1750</ele></trkpt>
<trkpt lat="46.95497" lon="10.38017"><ele>1748</ele></trkpt>
<trkpt lat="46.95485" lon="10.38015"><ele>1748</ele></trkpt>
<trkpt lat="46.95483" lon="10.38014"><ele>1748</ele></trkpt>
<trkpt lat="46.95481" lon="10.38014"><ele>1748</ele></trkpt>
<trkpt lat="46.9548" lon="10.38012"><ele>1749</ele></trkpt>
<trkpt lat="46.95476" lon="10.38008"><ele>1749</ele></trkpt>
<trkpt lat="46.95471" lon="10.38003"><ele>1749</ele></trkpt>
<trkpt lat="46.95461" lon="10.37994"><ele>1749</ele></trkpt>
<trkpt lat="46.95454" lon="10.37987"><ele>1750</ele></trkpt>
<trkpt lat="46.95439" lon="10.37973"><ele>1750</ele></trkpt>
<trkpt lat="46.95419" lon="10.37945"><ele>1750</ele></trkpt>
<trkpt lat="46.954" lon="10.37914"><ele>1750</ele></trkpt>
<trkpt lat="46.95383" lon="10.37881"><ele>1752</ele></trkpt>
<trkpt lat="46.95362" lon="10.37843"><ele>1752</ele></trkpt>
<trkpt lat="46.9535" lon="10.3782"><ele>1752</ele></trkpt>
<trkpt lat="46.95346" lon="10.37811"><ele>1752</ele></trkpt>
<trkpt lat="46.95342" lon="10.37798"><ele>1753</ele></trkpt>
<trkpt lat="46.95338" lon="10.37792"><ele>1753</ele></trkpt>
<trkpt lat="46.95325" lon="10.37776"><ele>1753</ele></trkpt>
<trkpt lat="46.9531" lon="10.37754"><ele>1753</ele></trkpt>
<trkpt lat="46.953" lon="10.37739"><ele>1755</ele></trkpt>
<trkpt lat="46.95283" lon="10.37717"><ele>1755</ele></trkpt>
<trkpt lat="46.95267" lon="10.37696"><ele>1755</ele></trkpt>
<trkpt lat="46.95262" lon="10.37688"><ele>1755</ele></trkpt>
<trkpt lat="46.95258" lon="10.37676"><ele>1761</ele></trkpt>
<trkpt lat="46.95253" lon="10.3766"><ele>1761</ele></trkpt>
<trkpt lat="46.95247" lon="10.37648"><ele>1761</ele></trkpt>
<trkpt lat="46.95237" lon="10.37617"><ele>1761</ele></trkpt>
<trkpt lat="46.95227" lon="10.3759"><ele>1759</ele></trkpt>
<trkpt lat="46.95217" lon="10.37562"><ele>1759</ele></trkpt>
<trkpt lat="46.95206" lon="10.37539"><ele>1759</ele></trkpt>
<trkpt lat="46.95202" lon="10.37531"><ele>1759</ele></trkpt>
<trkpt lat="46.95196" lon="10.37518"><ele>1762</ele></trkpt>
<trkpt lat="46.9518" lon="10.37491"><ele>1762</ele></trkpt>
<trkpt lat="46.95158" lon="10.37448"><ele>1762</ele></trkpt>
<trkpt lat="46.95154" lon="10.3744"><ele>1762</ele></trkpt>

                    </trkseg>
              </trk>
            </gpx>