<?xml version="1.0" encoding="utf-8"?>
            <gpx xmlns="http://www.topografix.com/GPX/1/1" xmlns:xsd="http://www.w3.org/2001/XMLSchema" xmlns:xsi="http://www.w3.org/2001/XMLSchema-instance" version="1.1" creator="Fugawi 4,5,14,1696 http://www.fugawi.com/" xsi:schemaLocation="http://www.topografix.com/GPX/1/1 http://www.topografix.com/GPX/1/1/gpx.xsd">
                <trk>
                    <name>7190 Bergli Trail</name>
                    <desc></desc>
                    <trkseg>
                        <trkpt lat="46.97047" lon="10.36656"><ele>2496</ele></trkpt>
<trkpt lat="46.97057" lon="10.36651"><ele>2496</ele></trkpt>
<trkpt lat="46.97069" lon="10.36644"><ele>2498</ele></trkpt>
<trkpt lat="46.9708" lon="10.36634"><ele>2498</ele></trkpt>
<trkpt lat="46.97092" lon="10.36621"><ele>2499</ele></trkpt>
<trkpt lat="46.97099" lon="10.36608"><ele>2500</ele></trkpt>
<trkpt lat="46.97102" lon="10.36591"><ele>2501</ele></trkpt>
<trkpt lat="46.97104" lon="10.36567"><ele>2501</ele></trkpt>
<trkpt lat="46.97107" lon="10.36541"><ele>2502</ele></trkpt>
<trkpt lat="46.97109" lon="10.36515"><ele>2502</ele></trkpt>
<trkpt lat="46.97114" lon="10.36483"><ele>2502</ele></trkpt>
<trkpt lat="46.97123" lon="10.36445"><ele>2503</ele></trkpt>
<trkpt lat="46.97125" lon="10.36431"><ele>2504</ele></trkpt>
<trkpt lat="46.97126" lon="10.36408"><ele>2503</ele></trkpt>
<trkpt lat="46.97129" lon="10.3639"><ele>2503</ele></trkpt>
<trkpt lat="46.97138" lon="10.36376"><ele>2501</ele></trkpt>
<trkpt lat="46.97143" lon="10.36367"><ele>2500</ele></trkpt>
<trkpt lat="46.97146" lon="10.36357"><ele>2500</ele></trkpt>
<trkpt lat="46.97153" lon="10.36339"><ele>2498</ele></trkpt>
<trkpt lat="46.97158" lon="10.36323"><ele>2498</ele></trkpt>
<trkpt lat="46.97158" lon="10.36296"><ele>2495</ele></trkpt>
<trkpt lat="46.97159" lon="10.36287"><ele>2495</ele></trkpt>
<trkpt lat="46.97162" lon="10.36278"><ele>2495</ele></trkpt>
<trkpt lat="46.97169" lon="10.3626"><ele>2496</ele></trkpt>
<trkpt lat="46.97173" lon="10.36247"><ele>2495</ele></trkpt>
<trkpt lat="46.97177" lon="10.36229"><ele>2496</ele></trkpt>
<trkpt lat="46.97179" lon="10.36218"><ele>2497</ele></trkpt>
<trkpt lat="46.97183" lon="10.36204"><ele>2497</ele></trkpt>
<trkpt lat="46.97191" lon="10.36181"><ele>2495</ele></trkpt>
<trkpt lat="46.97199" lon="10.36158"><ele>2494</ele></trkpt>
<trkpt lat="46.97205" lon="10.36145"><ele>2493</ele></trkpt>
<trkpt lat="46.97211" lon="10.36125"><ele>2491</ele></trkpt>
<trkpt lat="46.97216" lon="10.36102"><ele>2489</ele></trkpt>
<trkpt lat="46.97223" lon="10.36074"><ele>2486</ele></trkpt>
<trkpt lat="46.97228" lon="10.36056"><ele>2484</ele></trkpt>
<trkpt lat="46.97236" lon="10.36029"><ele>2482</ele></trkpt>
<trkpt lat="46.97242" lon="10.36001"><ele>2479</ele></trkpt>
<trkpt lat="46.97247" lon="10.3597"><ele>2476</ele></trkpt>
<trkpt lat="46.97249" lon="10.35952"><ele>2475</ele></trkpt>
<trkpt lat="46.97254" lon="10.35934"><ele>2474</ele></trkpt>
<trkpt lat="46.97257" lon="10.35916"><ele>2472</ele></trkpt>
<trkpt lat="46.97259" lon="10.35902"><ele>2471</ele></trkpt>
<trkpt lat="46.97258" lon="10.35883"><ele>2471</ele></trkpt>
<trkpt lat="46.97256" lon="10.35861"><ele>2470</ele></trkpt>
<trkpt lat="46.97254" lon="10.35838"><ele>2469</ele></trkpt>
<trkpt lat="46.97252" lon="10.35816"><ele>2466</ele></trkpt>
<trkpt lat="46.97249" lon="10.35807"><ele>2465</ele></trkpt>
<trkpt lat="46.97242" lon="10.35788"><ele>2464</ele></trkpt>
<trkpt lat="46.97238" lon="10.35777"><ele>2462</ele></trkpt>
<trkpt lat="46.97235" lon="10.35763"><ele>2460</ele></trkpt>
<trkpt lat="46.9723" lon="10.35746"><ele>2458</ele></trkpt>
<trkpt lat="46.97225" lon="10.3573"><ele>2457</ele></trkpt>
<trkpt lat="46.97218" lon="10.35719"><ele>2457</ele></trkpt>
<trkpt lat="46.9721" lon="10.35711"><ele>2457</ele></trkpt>
<trkpt lat="46.972" lon="10.35705"><ele>2457</ele></trkpt>
<trkpt lat="46.97186" lon="10.35701"><ele>2456</ele></trkpt>
<trkpt lat="46.97173" lon="10.35696"><ele>2455</ele></trkpt>
<trkpt lat="46.9716" lon="10.35689"><ele>2453</ele></trkpt>
<trkpt lat="46.97146" lon="10.3568"><ele>2452</ele></trkpt>
<trkpt lat="46.9713" lon="10.35668"><ele>2452</ele></trkpt>
<trkpt lat="46.97109" lon="10.35653"><ele>2453</ele></trkpt>
<trkpt lat="46.97093" lon="10.35641"><ele>2451</ele></trkpt>
<trkpt lat="46.97081" lon="10.35632"><ele>2448</ele></trkpt>
<trkpt lat="46.97071" lon="10.35623"><ele>2448</ele></trkpt>
<trkpt lat="46.97067" lon="10.35616"><ele>2449</ele></trkpt>
<trkpt lat="46.97063" lon="10.35606"><ele>2449</ele></trkpt>
<trkpt lat="46.9706" lon="10.35588"><ele>2451</ele></trkpt>
<trkpt lat="46.97058" lon="10.35571"><ele>2452</ele></trkpt>
<trkpt lat="46.97054" lon="10.35554"><ele>2453</ele></trkpt>
<trkpt lat="46.97047" lon="10.35537"><ele>2453</ele></trkpt>
<trkpt lat="46.97035" lon="10.35515"><ele>2453</ele></trkpt>
<trkpt lat="46.97027" lon="10.35503"><ele>2451</ele></trkpt>
<trkpt lat="46.97012" lon="10.35486"><ele>2449</ele></trkpt>
<trkpt lat="46.96998" lon="10.35467"><ele>2447</ele></trkpt>
<trkpt lat="46.96989" lon="10.35455"><ele>2445</ele></trkpt>
<trkpt lat="46.96985" lon="10.35446"><ele>2445</ele></trkpt>
<trkpt lat="46.96979" lon="10.35425"><ele>2448</ele></trkpt>
<trkpt lat="46.96978" lon="10.3542"><ele>2449</ele></trkpt>
<trkpt lat="46.96975" lon="10.35403"><ele>2452</ele></trkpt>
<trkpt lat="46.96973" lon="10.35389"><ele>2453</ele></trkpt>
<trkpt lat="46.96971" lon="10.35368"><ele>2454</ele></trkpt>
<trkpt lat="46.96972" lon="10.3535"><ele>2453</ele></trkpt>
<trkpt lat="46.96971" lon="10.35335"><ele>2452</ele></trkpt>
<trkpt lat="46.96966" lon="10.35312"><ele>2453</ele></trkpt>
<trkpt lat="46.96962" lon="10.35291"><ele>2454</ele></trkpt>
<trkpt lat="46.9696" lon="10.35268"><ele>2454</ele></trkpt>
<trkpt lat="46.96959" lon="10.35254"><ele>2454</ele></trkpt>
<trkpt lat="46.96971" lon="10.35246"><ele>2455</ele></trkpt>
<trkpt lat="46.96982" lon="10.3524"><ele>2457</ele></trkpt>
<trkpt lat="46.96991" lon="10.35205"><ele>2457</ele></trkpt>
<trkpt lat="46.96998" lon="10.35176"><ele>2458</ele></trkpt>
<trkpt lat="46.96998" lon="10.35155"><ele>2458</ele></trkpt>
<trkpt lat="46.97001" lon="10.35125"><ele>2459</ele></trkpt>
<trkpt lat="46.97001" lon="10.35095"><ele>2459</ele></trkpt>
<trkpt lat="46.96998" lon="10.35078"><ele>2459</ele></trkpt>
<trkpt lat="46.97002" lon="10.35051"><ele>2460</ele></trkpt>
<trkpt lat="46.97002" lon="10.35042"><ele>2461</ele></trkpt>
<trkpt lat="46.96998" lon="10.35034"><ele>2461</ele></trkpt>
<trkpt lat="46.96994" lon="10.35025"><ele>2461</ele></trkpt>
<trkpt lat="46.96995" lon="10.35015"><ele>2462</ele></trkpt>
<trkpt lat="46.96994" lon="10.35011"><ele>2463</ele></trkpt>
<trkpt lat="46.96988" lon="10.35008"><ele>2465</ele></trkpt>
<trkpt lat="46.96978" lon="10.35002"><ele>2468</ele></trkpt>
<trkpt lat="46.9697" lon="10.34996"><ele>2470</ele></trkpt>
<trkpt lat="46.96955" lon="10.34997"><ele>2471</ele></trkpt>
<trkpt lat="46.96942" lon="10.3499"><ele>2474</ele></trkpt>
<trkpt lat="46.96942" lon="10.34988"><ele>2475</ele></trkpt>
<trkpt lat="46.96947" lon="10.34986"><ele>2476</ele></trkpt>
<trkpt lat="46.96952" lon="10.34986"><ele>2476</ele></trkpt>
<trkpt lat="46.96952" lon="10.34984"><ele>2477</ele></trkpt>
<trkpt lat="46.96945" lon="10.34981"><ele>2477</ele></trkpt>
<trkpt lat="46.96934" lon="10.34971"><ele>2480</ele></trkpt>
<trkpt lat="46.96929" lon="10.34969"><ele>2480</ele></trkpt>
<trkpt lat="46.96924" lon="10.34963"><ele>2482</ele></trkpt>
<trkpt lat="46.96916" lon="10.34957"><ele>2484</ele></trkpt>
<trkpt lat="46.96909" lon="10.34949"><ele>2486</ele></trkpt>
<trkpt lat="46.96903" lon="10.34936"><ele>2489</ele></trkpt>
<trkpt lat="46.96901" lon="10.34928"><ele>2491</ele></trkpt>
<trkpt lat="46.969" lon="10.34923"><ele>2492</ele></trkpt>
<trkpt lat="46.96897" lon="10.34917"><ele>2492</ele></trkpt>
<trkpt lat="46.9689" lon="10.34911"><ele>2493</ele></trkpt>
<trkpt lat="46.96888" lon="10.34908"><ele>2494</ele></trkpt>
<trkpt lat="46.96883" lon="10.34901"><ele>2495</ele></trkpt>
<trkpt lat="46.96878" lon="10.34899"><ele>2496</ele></trkpt>
<trkpt lat="46.96862" lon="10.34888"><ele>2500</ele></trkpt>
<trkpt lat="46.96857" lon="10.34887"><ele>2501</ele></trkpt>
<trkpt lat="46.96846" lon="10.34871"><ele>2504</ele></trkpt>
<trkpt lat="46.96839" lon="10.34869"><ele>2506</ele></trkpt>
<trkpt lat="46.9683" lon="10.34859"><ele>2509</ele></trkpt>
<trkpt lat="46.96819" lon="10.34851"><ele>2511</ele></trkpt>
<trkpt lat="46.96805" lon="10.34841"><ele>2513</ele></trkpt>
<trkpt lat="46.96797" lon="10.34831"><ele>2514</ele></trkpt>
<trkpt lat="46.96788" lon="10.34829"><ele>2517</ele></trkpt>
<trkpt lat="46.96786" lon="10.34823"><ele>2518</ele></trkpt>
<trkpt lat="46.9678" lon="10.34826"><ele>2519</ele></trkpt>
<trkpt lat="46.96778" lon="10.34818"><ele>2520</ele></trkpt>
<trkpt lat="46.96763" lon="10.3483"><ele>2527</ele></trkpt>
<trkpt lat="46.9675" lon="10.34839"><ele>2530</ele></trkpt>
<trkpt lat="46.96748" lon="10.3483"><ele>2531</ele></trkpt>
<trkpt lat="46.96743" lon="10.34822"><ele>2533</ele></trkpt>
<trkpt lat="46.96733" lon="10.34817"><ele>2534</ele></trkpt>
<trkpt lat="46.96728" lon="10.34815"><ele>2536</ele></trkpt>
<trkpt lat="46.96714" lon="10.34811"><ele>2538</ele></trkpt>
<trkpt lat="46.96711" lon="10.34807"><ele>2539</ele></trkpt>
<trkpt lat="46.96707" lon="10.34801"><ele>2539</ele></trkpt>
<trkpt lat="46.96707" lon="10.34796"><ele>2539</ele></trkpt>
<trkpt lat="46.96702" lon="10.34792"><ele>2540</ele></trkpt>
<trkpt lat="46.96701" lon="10.34791"><ele>2541</ele></trkpt>
<trkpt lat="46.96694" lon="10.34786"><ele>2543</ele></trkpt>
<trkpt lat="46.96687" lon="10.3478"><ele>2544</ele></trkpt>
<trkpt lat="46.96681" lon="10.3477"><ele>2546</ele></trkpt>
<trkpt lat="46.96678" lon="10.34765"><ele>2548</ele></trkpt>
<trkpt lat="46.96674" lon="10.34755"><ele>2550</ele></trkpt>
<trkpt lat="46.96668" lon="10.3474"><ele>2554</ele></trkpt>
<trkpt lat="46.96658" lon="10.34724"><ele>2557</ele></trkpt>
<trkpt lat="46.96657" lon="10.34721"><ele>2558</ele></trkpt>
<trkpt lat="46.96651" lon="10.34713"><ele>2558</ele></trkpt>
<trkpt lat="46.96648" lon="10.34714"><ele>2559</ele></trkpt>
<trkpt lat="46.96641" lon="10.34717"><ele>2560</ele></trkpt>
<trkpt lat="46.96637" lon="10.34719"><ele>2560</ele></trkpt>
<trkpt lat="46.96636" lon="10.34721"><ele>2560</ele></trkpt>
<trkpt lat="46.96632" lon="10.34725"><ele>2560</ele></trkpt>
<trkpt lat="46.96616" lon="10.34724"><ele>2560</ele></trkpt>
<trkpt lat="46.96611" lon="10.34725"><ele>2560</ele></trkpt>
<trkpt lat="46.96607" lon="10.34722"><ele>2560</ele></trkpt>
<trkpt lat="46.96602" lon="10.34711"><ele>2559</ele></trkpt>
<trkpt lat="46.96596" lon="10.34698"><ele>2558</ele></trkpt>
<trkpt lat="46.96591" lon="10.34693"><ele>2558</ele></trkpt>
<trkpt lat="46.96585" lon="10.34691"><ele>2557</ele></trkpt>
<trkpt lat="46.96572" lon="10.34682"><ele>2560</ele></trkpt>
<trkpt lat="46.96564" lon="10.3468"><ele>2561</ele></trkpt>
<trkpt lat="46.9656" lon="10.34677"><ele>2563</ele></trkpt>
<trkpt lat="46.96561" lon="10.34669"><ele>2564</ele></trkpt>
<trkpt lat="46.96558" lon="10.34661"><ele>2564</ele></trkpt>
<trkpt lat="46.96545" lon="10.34647"><ele>2566</ele></trkpt>
<trkpt lat="46.96532" lon="10.34605"><ele>2564</ele></trkpt>
<trkpt lat="46.96527" lon="10.3459"><ele>2562</ele></trkpt>
<trkpt lat="46.96522" lon="10.34582"><ele>2561</ele></trkpt>
<trkpt lat="46.96515" lon="10.34568"><ele>2559</ele></trkpt>
<trkpt lat="46.96516" lon="10.3456"><ele>2558</ele></trkpt>
<trkpt lat="46.96515" lon="10.34545"><ele>2557</ele></trkpt>
<trkpt lat="46.96513" lon="10.34533"><ele>2556</ele></trkpt>
<trkpt lat="46.96512" lon="10.34525"><ele>2555</ele></trkpt>
<trkpt lat="46.96507" lon="10.34492"><ele>2554</ele></trkpt>
<trkpt lat="46.96505" lon="10.34482"><ele>2554</ele></trkpt>
<trkpt lat="46.96503" lon="10.34474"><ele>2553</ele></trkpt>
<trkpt lat="46.96502" lon="10.34465"><ele>2553</ele></trkpt>
<trkpt lat="46.96501" lon="10.34457"><ele>2554</ele></trkpt>
<trkpt lat="46.96501" lon="10.3445"><ele>2554</ele></trkpt>
<trkpt lat="46.96496" lon="10.34433"><ele>2554</ele></trkpt>
<trkpt lat="46.96493" lon="10.34424"><ele>2554</ele></trkpt>
<trkpt lat="46.9649" lon="10.34404"><ele>2555</ele></trkpt>
<trkpt lat="46.96489" lon="10.34386"><ele>2556</ele></trkpt>
<trkpt lat="46.9648" lon="10.34359"><ele>2557</ele></trkpt>
<trkpt lat="46.96473" lon="10.34335"><ele>2557</ele></trkpt>
<trkpt lat="46.96469" lon="10.34324"><ele>2558</ele></trkpt>
<trkpt lat="46.96469" lon="10.34314"><ele>2559</ele></trkpt>
<trkpt lat="46.96466" lon="10.343"><ele>2560</ele></trkpt>
<trkpt lat="46.96465" lon="10.34283"><ele>2561</ele></trkpt>
<trkpt lat="46.96463" lon="10.34276"><ele>2561</ele></trkpt>
<trkpt lat="46.96464" lon="10.34267"><ele>2562</ele></trkpt>
<trkpt lat="46.96464" lon="10.34258"><ele>2562</ele></trkpt>
<trkpt lat="46.96462" lon="10.34249"><ele>2562</ele></trkpt>
<trkpt lat="46.96459" lon="10.34242"><ele>2562</ele></trkpt>
<trkpt lat="46.96457" lon="10.34232"><ele>2563</ele></trkpt>
<trkpt lat="46.96457" lon="10.34215"><ele>2565</ele></trkpt>
<trkpt lat="46.96452" lon="10.34205"><ele>2565</ele></trkpt>
<trkpt lat="46.96451" lon="10.34196"><ele>2566</ele></trkpt>
<trkpt lat="46.96445" lon="10.34182"><ele>2566</ele></trkpt>
<trkpt lat="46.96443" lon="10.34172"><ele>2566</ele></trkpt>
<trkpt lat="46.96442" lon="10.34161"><ele>2565</ele></trkpt>
<trkpt lat="46.9644" lon="10.34152"><ele>2565</ele></trkpt>
<trkpt lat="46.96438" lon="10.34146"><ele>2565</ele></trkpt>
<trkpt lat="46.96435" lon="10.34132"><ele>2564</ele></trkpt>
<trkpt lat="46.96434" lon="10.3412"><ele>2564</ele></trkpt>
<trkpt lat="46.96432" lon="10.34107"><ele>2564</ele></trkpt>
<trkpt lat="46.96432" lon="10.341"><ele>2564</ele></trkpt>
<trkpt lat="46.9643" lon="10.34087"><ele>2564</ele></trkpt>
<trkpt lat="46.9643" lon="10.34081"><ele>2564</ele></trkpt>
<trkpt lat="46.96428" lon="10.34071"><ele>2564</ele></trkpt>
<trkpt lat="46.96425" lon="10.34058"><ele>2564</ele></trkpt>
<trkpt lat="46.96423" lon="10.3405"><ele>2564</ele></trkpt>
<trkpt lat="46.96419" lon="10.34044"><ele>2564</ele></trkpt>
<trkpt lat="46.96411" lon="10.34038"><ele>2563</ele></trkpt>
<trkpt lat="46.96407" lon="10.34032"><ele>2564</ele></trkpt>
<trkpt lat="46.96405" lon="10.34019"><ele>2564</ele></trkpt>
<trkpt lat="46.96402" lon="10.34008"><ele>2564</ele></trkpt>
<trkpt lat="46.96398" lon="10.33993"><ele>2565</ele></trkpt>
<trkpt lat="46.96396" lon="10.33978"><ele>2566</ele></trkpt>
<trkpt lat="46.96393" lon="10.33968"><ele>2566</ele></trkpt>
<trkpt lat="46.96391" lon="10.3396"><ele>2567</ele></trkpt>
<trkpt lat="46.96391" lon="10.33951"><ele>2567</ele></trkpt>
<trkpt lat="46.9639" lon="10.33946"><ele>2567</ele></trkpt>
<trkpt lat="46.96389" lon="10.33941"><ele>2567</ele></trkpt>
<trkpt lat="46.96384" lon="10.33923"><ele>2567</ele></trkpt>
<trkpt lat="46.96372" lon="10.33896"><ele>2567</ele></trkpt>
<trkpt lat="46.96371" lon="10.33889"><ele>2567</ele></trkpt>
<trkpt lat="46.9637" lon="10.33883"><ele>2567</ele></trkpt>
<trkpt lat="46.96368" lon="10.33875"><ele>2568</ele></trkpt>
<trkpt lat="46.96367" lon="10.33871"><ele>2568</ele></trkpt>
<trkpt lat="46.96366" lon="10.33865"><ele>2569</ele></trkpt>
<trkpt lat="46.96366" lon="10.33853"><ele>2570</ele></trkpt>
<trkpt lat="46.96364" lon="10.33845"><ele>2570</ele></trkpt>
<trkpt lat="46.9636" lon="10.33836"><ele>2570</ele></trkpt>
<trkpt lat="46.96355" lon="10.33821"><ele>2569</ele></trkpt>
<trkpt lat="46.96352" lon="10.33818"><ele>2568</ele></trkpt>
<trkpt lat="46.96344" lon="10.33806"><ele>2567</ele></trkpt>
<trkpt lat="46.96341" lon="10.33801"><ele>2567</ele></trkpt>
<trkpt lat="46.96335" lon="10.33794"><ele>2567</ele></trkpt>
<trkpt lat="46.96328" lon="10.3378"><ele>2568</ele></trkpt>
<trkpt lat="46.96318" lon="10.33752"><ele>2568</ele></trkpt>
<trkpt lat="46.96319" lon="10.33747"><ele>2568</ele></trkpt>
<trkpt lat="46.96316" lon="10.33741"><ele>2568</ele></trkpt>
<trkpt lat="46.96316" lon="10.33734"><ele>2569</ele></trkpt>
<trkpt lat="46.96313" lon="10.33718"><ele>2570</ele></trkpt>
<trkpt lat="46.96311" lon="10.33712"><ele>2569</ele></trkpt>
<trkpt lat="46.9631" lon="10.33702"><ele>2570</ele></trkpt>
<trkpt lat="46.96308" lon="10.33691"><ele>2570</ele></trkpt>
<trkpt lat="46.96308" lon="10.33681"><ele>2571</ele></trkpt>
<trkpt lat="46.96305" lon="10.33659"><ele>2571</ele></trkpt>
<trkpt lat="46.96302" lon="10.33645"><ele>2571</ele></trkpt>
<trkpt lat="46.963" lon="10.33642"><ele>2571</ele></trkpt>
<trkpt lat="46.96298" lon="10.33636"><ele>2571</ele></trkpt>
<trkpt lat="46.96299" lon="10.33624"><ele>2572</ele></trkpt>
<trkpt lat="46.96291" lon="10.336"><ele>2572</ele></trkpt>
<trkpt lat="46.96286" lon="10.33592"><ele>2573</ele></trkpt>
<trkpt lat="46.96282" lon="10.33584"><ele>2574</ele></trkpt>
<trkpt lat="46.96276" lon="10.33563"><ele>2573</ele></trkpt>
<trkpt lat="46.96272" lon="10.33563"><ele>2572</ele></trkpt>
<trkpt lat="46.96269" lon="10.3356"><ele>2572</ele></trkpt>
<trkpt lat="46.96263" lon="10.33555"><ele>2574</ele></trkpt>
<trkpt lat="46.96259" lon="10.33556"><ele>2575</ele></trkpt>
<trkpt lat="46.96254" lon="10.33557"><ele>2575</ele></trkpt>
<trkpt lat="46.96247" lon="10.33555"><ele>2577</ele></trkpt>
<trkpt lat="46.96241" lon="10.33547"><ele>2579</ele></trkpt>
<trkpt lat="46.96233" lon="10.33532"><ele>2579</ele></trkpt>
<trkpt lat="46.96229" lon="10.33525"><ele>2579</ele></trkpt>
<trkpt lat="46.96226" lon="10.33522"><ele>2579</ele></trkpt>
<trkpt lat="46.96223" lon="10.33513"><ele>2579</ele></trkpt>
<trkpt lat="46.96221" lon="10.3351"><ele>2578</ele></trkpt>
<trkpt lat="46.96217" lon="10.3351"><ele>2578</ele></trkpt>
<trkpt lat="46.96214" lon="10.33508"><ele>2578</ele></trkpt>
<trkpt lat="46.96209" lon="10.33508"><ele>2578</ele></trkpt>
<trkpt lat="46.96201" lon="10.3351"><ele>2578</ele></trkpt>
<trkpt lat="46.96194" lon="10.33508"><ele>2579</ele></trkpt>
<trkpt lat="46.96192" lon="10.33503"><ele>2579</ele></trkpt>
<trkpt lat="46.96189" lon="10.33498"><ele>2580</ele></trkpt>
<trkpt lat="46.96186" lon="10.33495"><ele>2581</ele></trkpt>
<trkpt lat="46.96177" lon="10.33484"><ele>2582</ele></trkpt>
<trkpt lat="46.9617" lon="10.33471"><ele>2581</ele></trkpt>
<trkpt lat="46.96167" lon="10.33467"><ele>2581</ele></trkpt>
<trkpt lat="46.96163" lon="10.33461"><ele>2581</ele></trkpt>
<trkpt lat="46.9615" lon="10.3345"><ele>2581</ele></trkpt>
<trkpt lat="46.96134" lon="10.33427"><ele>2584</ele></trkpt>
<trkpt lat="46.96125" lon="10.33401"><ele>2585</ele></trkpt>
<trkpt lat="46.96121" lon="10.33387"><ele>2586</ele></trkpt>
<trkpt lat="46.96108" lon="10.33372"><ele>2585</ele></trkpt>
<trkpt lat="46.961" lon="10.33358"><ele>2583</ele></trkpt>
<trkpt lat="46.96087" lon="10.33343"><ele>2581</ele></trkpt>
<trkpt lat="46.96085" lon="10.33339"><ele>2581</ele></trkpt>
<trkpt lat="46.9607" lon="10.33327"><ele>2581</ele></trkpt>
<trkpt lat="46.96049" lon="10.3332"><ele>2583</ele></trkpt>
<trkpt lat="46.96038" lon="10.33319"><ele>2583</ele></trkpt>
<trkpt lat="46.96001" lon="10.33304"><ele>2586</ele></trkpt>
<trkpt lat="46.95998" lon="10.333"><ele>2587</ele></trkpt>
<trkpt lat="46.95994" lon="10.33302"><ele>2586</ele></trkpt>
<trkpt lat="46.95987" lon="10.33298"><ele>2587</ele></trkpt>
<trkpt lat="46.95979" lon="10.33296"><ele>2587</ele></trkpt>
<trkpt lat="46.95963" lon="10.33286"><ele>2587</ele></trkpt>
<trkpt lat="46.95959" lon="10.3328"><ele>2588</ele></trkpt>
<trkpt lat="46.95947" lon="10.33277"><ele>2589</ele></trkpt>
<trkpt lat="46.95938" lon="10.33272"><ele>2591</ele></trkpt>
<trkpt lat="46.95925" lon="10.3326"><ele>2593</ele></trkpt>
<trkpt lat="46.95901" lon="10.33243"><ele>2597</ele></trkpt>
<trkpt lat="46.9589" lon="10.33244"><ele>2598</ele></trkpt>
<trkpt lat="46.95879" lon="10.3324"><ele>2598</ele></trkpt>
<trkpt lat="46.95871" lon="10.33234"><ele>2600</ele></trkpt>
<trkpt lat="46.9586" lon="10.33209"><ele>2605</ele></trkpt>
<trkpt lat="46.95855" lon="10.33192"><ele>2608</ele></trkpt>
<trkpt lat="46.95848" lon="10.33191"><ele>2609</ele></trkpt>
<trkpt lat="46.95837" lon="10.33184"><ele>2610</ele></trkpt>
<trkpt lat="46.95826" lon="10.33164"><ele>2613</ele></trkpt>
<trkpt lat="46.95825" lon="10.33163"><ele>2613</ele></trkpt>
<trkpt lat="46.95814" lon="10.33153"><ele>2614</ele></trkpt>
<trkpt lat="46.95808" lon="10.33141"><ele>2615</ele></trkpt>
<trkpt lat="46.95804" lon="10.3313"><ele>2616</ele></trkpt>
<trkpt lat="46.95794" lon="10.33124"><ele>2617</ele></trkpt>
<trkpt lat="46.95782" lon="10.33122"><ele>2618</ele></trkpt>
<trkpt lat="46.95771" lon="10.33116"><ele>2620</ele></trkpt>
<trkpt lat="46.95768" lon="10.33117"><ele>2620</ele></trkpt>
<trkpt lat="46.95766" lon="10.33127"><ele>2621</ele></trkpt>
<trkpt lat="46.95756" lon="10.33136"><ele>2624</ele></trkpt>
<trkpt lat="46.95745" lon="10.33137"><ele>2626</ele></trkpt>
<trkpt lat="46.95736" lon="10.33136"><ele>2626</ele></trkpt>
<trkpt lat="46.9572" lon="10.33128"><ele>2624</ele></trkpt>
<trkpt lat="46.95713" lon="10.33126"><ele>2624</ele></trkpt>
<trkpt lat="46.95706" lon="10.33128"><ele>2625</ele></trkpt>
<trkpt lat="46.95701" lon="10.33133"><ele>2627</ele></trkpt>
<trkpt lat="46.95684" lon="10.33132"><ele>2631</ele></trkpt>
<trkpt lat="46.95668" lon="10.33127"><ele>2637</ele></trkpt>
<trkpt lat="46.95662" lon="10.33118"><ele>2640</ele></trkpt>
<trkpt lat="46.95654" lon="10.3311"><ele>2642</ele></trkpt>
<trkpt lat="46.95638" lon="10.33095"><ele>2645</ele></trkpt>
<trkpt lat="46.95631" lon="10.33085"><ele>2646</ele></trkpt>
<trkpt lat="46.9561" lon="10.33079"><ele>2651</ele></trkpt>
<trkpt lat="46.95597" lon="10.33079"><ele>2651</ele></trkpt>
<trkpt lat="46.95585" lon="10.33075"><ele>2653</ele></trkpt>
<trkpt lat="46.95568" lon="10.33063"><ele>2656</ele></trkpt>
<trkpt lat="46.95561" lon="10.33054"><ele>2658</ele></trkpt>
<trkpt lat="46.95553" lon="10.33056"><ele>2661</ele></trkpt>
<trkpt lat="46.95545" lon="10.33055"><ele>2662</ele></trkpt>
<trkpt lat="46.95537" lon="10.33047"><ele>2665</ele></trkpt>
<trkpt lat="46.95533" lon="10.33049"><ele>2666</ele></trkpt>
<trkpt lat="46.95526" lon="10.33046"><ele>2667</ele></trkpt>
<trkpt lat="46.95523" lon="10.33042"><ele>2668</ele></trkpt>
<trkpt lat="46.95516" lon="10.33039"><ele>2670</ele></trkpt>
<trkpt lat="46.95489" lon="10.33034"><ele>2667</ele></trkpt>
<trkpt lat="46.95479" lon="10.33029"><ele>2667</ele></trkpt>
<trkpt lat="46.95469" lon="10.33031"><ele>2667</ele></trkpt>
<trkpt lat="46.95464" lon="10.33029"><ele>2666</ele></trkpt>
<trkpt lat="46.95441" lon="10.33028"><ele>2666</ele></trkpt>
<trkpt lat="46.95433" lon="10.33022"><ele>2666</ele></trkpt>
<trkpt lat="46.95424" lon="10.33022"><ele>2666</ele></trkpt>
<trkpt lat="46.95419" lon="10.33019"><ele>2665</ele></trkpt>
<trkpt lat="46.95403" lon="10.33019"><ele>2665</ele></trkpt>
<trkpt lat="46.95396" lon="10.33016"><ele>2666</ele></trkpt>
<trkpt lat="46.95384" lon="10.33008"><ele>2668</ele></trkpt>
<trkpt lat="46.95365" lon="10.33006"><ele>2671</ele></trkpt>
<trkpt lat="46.95346" lon="10.33015"><ele>2673</ele></trkpt>
<trkpt lat="46.95328" lon="10.33015"><ele>2674</ele></trkpt>
<trkpt lat="46.95317" lon="10.33009"><ele>2674</ele></trkpt>
<trkpt lat="46.95315" lon="10.33013"><ele>2674</ele></trkpt>
<trkpt lat="46.95295" lon="10.32999"><ele>2670</ele></trkpt>
<trkpt lat="46.9528" lon="10.32992"><ele>2666</ele></trkpt>
<trkpt lat="46.95271" lon="10.32985"><ele>2666</ele></trkpt>
<trkpt lat="46.95268" lon="10.3298"><ele>2665</ele></trkpt>
<trkpt lat="46.95265" lon="10.32974"><ele>2664</ele></trkpt>
<trkpt lat="46.95262" lon="10.32972"><ele>2663</ele></trkpt>
<trkpt lat="46.95256" lon="10.32966"><ele>2662</ele></trkpt>
<trkpt lat="46.95251" lon="10.3295"><ele>2658</ele></trkpt>
<trkpt lat="46.95248" lon="10.32933"><ele>2657</ele></trkpt>
<trkpt lat="46.95248" lon="10.32925"><ele>2654</ele></trkpt>
<trkpt lat="46.95241" lon="10.32904"><ele>2649</ele></trkpt>
<trkpt lat="46.95239" lon="10.32894"><ele>2647</ele></trkpt>
<trkpt lat="46.95232" lon="10.32889"><ele>2646</ele></trkpt>
<trkpt lat="46.95229" lon="10.32884"><ele>2645</ele></trkpt>
<trkpt lat="46.95226" lon="10.32882"><ele>2644</ele></trkpt>
<trkpt lat="46.9522" lon="10.32871"><ele>2643</ele></trkpt>
<trkpt lat="46.9521" lon="10.3286"><ele>2641</ele></trkpt>
<trkpt lat="46.95202" lon="10.32846"><ele>2640</ele></trkpt>
<trkpt lat="46.95198" lon="10.32836"><ele>2640</ele></trkpt>
<trkpt lat="46.95192" lon="10.32829"><ele>2639</ele></trkpt>
<trkpt lat="46.95185" lon="10.32819"><ele>2637</ele></trkpt>
<trkpt lat="46.9518" lon="10.32814"><ele>2637</ele></trkpt>
<trkpt lat="46.95161" lon="10.32785"><ele>2635</ele></trkpt>
<trkpt lat="46.95157" lon="10.32779"><ele>2635</ele></trkpt>
<trkpt lat="46.95153" lon="10.32775"><ele>2634</ele></trkpt>
<trkpt lat="46.95147" lon="10.32762"><ele>2633</ele></trkpt>
<trkpt lat="46.95137" lon="10.3275"><ele>2631</ele></trkpt>
<trkpt lat="46.95131" lon="10.32746"><ele>2630</ele></trkpt>
<trkpt lat="46.95121" lon="10.32737"><ele>2628</ele></trkpt>
<trkpt lat="46.95115" lon="10.32726"><ele>2627</ele></trkpt>
<trkpt lat="46.95113" lon="10.32708"><ele>2625</ele></trkpt>
<trkpt lat="46.9511" lon="10.32704"><ele>2625</ele></trkpt>
<trkpt lat="46.95109" lon="10.32692"><ele>2624</ele></trkpt>
<trkpt lat="46.95105" lon="10.32684"><ele>2623</ele></trkpt>
<trkpt lat="46.951" lon="10.32676"><ele>2622</ele></trkpt>
<trkpt lat="46.95093" lon="10.32668"><ele>2621</ele></trkpt>
<trkpt lat="46.95074" lon="10.32635"><ele>2621</ele></trkpt>
<trkpt lat="46.9507" lon="10.3263"><ele>2621</ele></trkpt>
<trkpt lat="46.95065" lon="10.32622"><ele>2621</ele></trkpt>
<trkpt lat="46.95063" lon="10.32616"><ele>2621</ele></trkpt>
<trkpt lat="46.95058" lon="10.32606"><ele>2621</ele></trkpt>
<trkpt lat="46.95049" lon="10.32579"><ele>2620</ele></trkpt>
<trkpt lat="46.95047" lon="10.32564"><ele>2619</ele></trkpt>
<trkpt lat="46.95041" lon="10.32532"><ele>2616</ele></trkpt>
<trkpt lat="46.95043" lon="10.32503"><ele>2613</ele></trkpt>
<trkpt lat="46.95042" lon="10.32478"><ele>2612</ele></trkpt>
<trkpt lat="46.95042" lon="10.32466"><ele>2610</ele></trkpt>
<trkpt lat="46.95039" lon="10.32459"><ele>2609</ele></trkpt>
<trkpt lat="46.9503" lon="10.32452"><ele>2610</ele></trkpt>
<trkpt lat="46.95026" lon="10.3244"><ele>2610</ele></trkpt>
<trkpt lat="46.95026" lon="10.32426"><ele>2610</ele></trkpt>
<trkpt lat="46.95022" lon="10.32419"><ele>2610</ele></trkpt>
<trkpt lat="46.95023" lon="10.32411"><ele>2610</ele></trkpt>
<trkpt lat="46.95021" lon="10.32406"><ele>2610</ele></trkpt>
<trkpt lat="46.95015" lon="10.32403"><ele>2610</ele></trkpt>
<trkpt lat="46.9501" lon="10.32399"><ele>2611</ele></trkpt>
<trkpt lat="46.95007" lon="10.32392"><ele>2611</ele></trkpt>
<trkpt lat="46.95005" lon="10.32377"><ele>2610</ele></trkpt>
<trkpt lat="46.95" lon="10.32357"><ele>2608</ele></trkpt>
<trkpt lat="46.94995" lon="10.32346"><ele>2608</ele></trkpt>
<trkpt lat="46.94982" lon="10.32335"><ele>2608</ele></trkpt>
<trkpt lat="46.94979" lon="10.32331"><ele>2609</ele></trkpt>
<trkpt lat="46.94974" lon="10.3233"><ele>2609</ele></trkpt>
<trkpt lat="46.94969" lon="10.32327"><ele>2610</ele></trkpt>
<trkpt lat="46.94959" lon="10.32323"><ele>2611</ele></trkpt>
<trkpt lat="46.94954" lon="10.32316"><ele>2612</ele></trkpt>
<trkpt lat="46.94948" lon="10.32315"><ele>2611</ele></trkpt>
<trkpt lat="46.94935" lon="10.32306"><ele>2612</ele></trkpt>
<trkpt lat="46.94913" lon="10.32301"><ele>2616</ele></trkpt>
<trkpt lat="46.94902" lon="10.32296"><ele>2616</ele></trkpt>
<trkpt lat="46.94896" lon="10.3228"><ele>2617</ele></trkpt>
<trkpt lat="46.94895" lon="10.32263"><ele>2617</ele></trkpt>
<trkpt lat="46.94892" lon="10.32251"><ele>2616</ele></trkpt>
<trkpt lat="46.94891" lon="10.3224"><ele>2615</ele></trkpt>
<trkpt lat="46.94892" lon="10.32225"><ele>2614</ele></trkpt>
<trkpt lat="46.94894" lon="10.32215"><ele>2613</ele></trkpt>
<trkpt lat="46.94889" lon="10.32203"><ele>2611</ele></trkpt>
<trkpt lat="46.94886" lon="10.322"><ele>2610</ele></trkpt>
<trkpt lat="46.94882" lon="10.32191"><ele>2609</ele></trkpt>
<trkpt lat="46.94882" lon="10.32182"><ele>2607</ele></trkpt>
<trkpt lat="46.94883" lon="10.32151"><ele>2605</ele></trkpt>
<trkpt lat="46.94881" lon="10.3214"><ele>2604</ele></trkpt>
<trkpt lat="46.94879" lon="10.32115"><ele>2603</ele></trkpt>
<trkpt lat="46.94875" lon="10.32097"><ele>2601</ele></trkpt>
<trkpt lat="46.94876" lon="10.32087"><ele>2600</ele></trkpt>
<trkpt lat="46.94876" lon="10.32073"><ele>2599</ele></trkpt>
<trkpt lat="46.94879" lon="10.32044"><ele>2596</ele></trkpt>
<trkpt lat="46.94879" lon="10.32035"><ele>2595</ele></trkpt>
<trkpt lat="46.94881" lon="10.32028"><ele>2594</ele></trkpt>
<trkpt lat="46.94881" lon="10.32012"><ele>2594</ele></trkpt>
<trkpt lat="46.94878" lon="10.32001"><ele>2592</ele></trkpt>
<trkpt lat="46.94877" lon="10.31998"><ele>2592</ele></trkpt>
<trkpt lat="46.94878" lon="10.31989"><ele>2591</ele></trkpt>
<trkpt lat="46.94874" lon="10.31968"><ele>2588</ele></trkpt>
<trkpt lat="46.94871" lon="10.31925"><ele>2585</ele></trkpt>
<trkpt lat="46.94864" lon="10.31896"><ele>2581</ele></trkpt>
<trkpt lat="46.94864" lon="10.31865"><ele>2577</ele></trkpt>
<trkpt lat="46.94864" lon="10.31857"><ele>2576</ele></trkpt>
<trkpt lat="46.94864" lon="10.31849"><ele>2575</ele></trkpt>
<trkpt lat="46.94857" lon="10.31831"><ele>2573</ele></trkpt>
<trkpt lat="46.94851" lon="10.31817"><ele>2572</ele></trkpt>
<trkpt lat="46.94848" lon="10.31801"><ele>2571</ele></trkpt>
<trkpt lat="46.94851" lon="10.31777"><ele>2569</ele></trkpt>
<trkpt lat="46.94851" lon="10.31767"><ele>2569</ele></trkpt>
<trkpt lat="46.94848" lon="10.31751"><ele>2567</ele></trkpt>
<trkpt lat="46.94849" lon="10.31743"><ele>2568</ele></trkpt>
<trkpt lat="46.94849" lon="10.31733"><ele>2567</ele></trkpt>
<trkpt lat="46.94845" lon="10.3172"><ele>2567</ele></trkpt>
<trkpt lat="46.94841" lon="10.31702"><ele>2566</ele></trkpt>
<trkpt lat="46.94834" lon="10.31676"><ele>2565</ele></trkpt>
<trkpt lat="46.9483" lon="10.3166"><ele>2565</ele></trkpt>
<trkpt lat="46.94826" lon="10.31648"><ele>2564</ele></trkpt>
<trkpt lat="46.9482" lon="10.3164"><ele>2564</ele></trkpt>
<trkpt lat="46.94815" lon="10.31623"><ele>2563</ele></trkpt>
<trkpt lat="46.94814" lon="10.31618"><ele>2563</ele></trkpt>
<trkpt lat="46.94809" lon="10.31601"><ele>2562</ele></trkpt>
<trkpt lat="46.94806" lon="10.31586"><ele>2561</ele></trkpt>
<trkpt lat="46.94801" lon="10.31579"><ele>2559</ele></trkpt>
<trkpt lat="46.948" lon="10.31567"><ele>2557</ele></trkpt>
<trkpt lat="46.94789" lon="10.3156"><ele>2555</ele></trkpt>
<trkpt lat="46.94785" lon="10.31551"><ele>2556</ele></trkpt>
<trkpt lat="46.9477" lon="10.31551"><ele>2554</ele></trkpt>
<trkpt lat="46.94763" lon="10.31545"><ele>2554</ele></trkpt>
<trkpt lat="46.94759" lon="10.31544"><ele>2554</ele></trkpt>
<trkpt lat="46.94753" lon="10.3154"><ele>2553</ele></trkpt>
<trkpt lat="46.94746" lon="10.3154"><ele>2552</ele></trkpt>
<trkpt lat="46.94736" lon="10.31538"><ele>2550</ele></trkpt>
<trkpt lat="46.94732" lon="10.31536"><ele>2551</ele></trkpt>
<trkpt lat="46.94723" lon="10.31535"><ele>2549</ele></trkpt>
<trkpt lat="46.94718" lon="10.31532"><ele>2548</ele></trkpt>
<trkpt lat="46.94713" lon="10.31531"><ele>2548</ele></trkpt>
<trkpt lat="46.94708" lon="10.31528"><ele>2548</ele></trkpt>
<trkpt lat="46.947" lon="10.31517"><ele>2547</ele></trkpt>
<trkpt lat="46.94697" lon="10.3151"><ele>2547</ele></trkpt>
<trkpt lat="46.94694" lon="10.31506"><ele>2546</ele></trkpt>
<trkpt lat="46.94688" lon="10.31496"><ele>2543</ele></trkpt>
<trkpt lat="46.94686" lon="10.31489"><ele>2543</ele></trkpt>
<trkpt lat="46.94677" lon="10.31482"><ele>2543</ele></trkpt>
<trkpt lat="46.94673" lon="10.31483"><ele>2543</ele></trkpt>
<trkpt lat="46.94665" lon="10.31483"><ele>2544</ele></trkpt>
<trkpt lat="46.94652" lon="10.31481"><ele>2545</ele></trkpt>
<trkpt lat="46.94645" lon="10.31478"><ele>2545</ele></trkpt>
<trkpt lat="46.94642" lon="10.31473"><ele>2545</ele></trkpt>
<trkpt lat="46.94636" lon="10.31469"><ele>2544</ele></trkpt>
<trkpt lat="46.94625" lon="10.3145"><ele>2543</ele></trkpt>
<trkpt lat="46.94615" lon="10.31432"><ele>2542</ele></trkpt>
<trkpt lat="46.94608" lon="10.31422"><ele>2541</ele></trkpt>
<trkpt lat="46.94601" lon="10.31408"><ele>2541</ele></trkpt>
<trkpt lat="46.946" lon="10.31395"><ele>2542</ele></trkpt>
<trkpt lat="46.94596" lon="10.3139"><ele>2541</ele></trkpt>
<trkpt lat="46.94581" lon="10.31378"><ele>2540</ele></trkpt>
<trkpt lat="46.9457" lon="10.31369"><ele>2539</ele></trkpt>
<trkpt lat="46.9456" lon="10.31348"><ele>2541</ele></trkpt>
<trkpt lat="46.94555" lon="10.31339"><ele>2541</ele></trkpt>
<trkpt lat="46.94534" lon="10.31328"><ele>2538</ele></trkpt>
<trkpt lat="46.94531" lon="10.31321"><ele>2540</ele></trkpt>
<trkpt lat="46.94525" lon="10.31318"><ele>2540</ele></trkpt>
<trkpt lat="46.94519" lon="10.31311"><ele>2539</ele></trkpt>
<trkpt lat="46.94512" lon="10.31307"><ele>2537</ele></trkpt>
<trkpt lat="46.94509" lon="10.31307"><ele>2537</ele></trkpt>
<trkpt lat="46.94506" lon="10.31312"><ele>2536</ele></trkpt>
<trkpt lat="46.94489" lon="10.31322"><ele>2536</ele></trkpt>
<trkpt lat="46.94484" lon="10.31322"><ele>2536</ele></trkpt>
<trkpt lat="46.94481" lon="10.31327"><ele>2536</ele></trkpt>
<trkpt lat="46.94473" lon="10.31331"><ele>2536</ele></trkpt>
<trkpt lat="46.94467" lon="10.3133"><ele>2537</ele></trkpt>
<trkpt lat="46.94457" lon="10.31335"><ele>2536</ele></trkpt>
<trkpt lat="46.94447" lon="10.31331"><ele>2534</ele></trkpt>
<trkpt lat="46.94438" lon="10.31323"><ele>2533</ele></trkpt>
<trkpt lat="46.94434" lon="10.31309"><ele>2531</ele></trkpt>
<trkpt lat="46.9443" lon="10.31293"><ele>2529</ele></trkpt>
<trkpt lat="46.94427" lon="10.31286"><ele>2529</ele></trkpt>
<trkpt lat="46.94422" lon="10.31288"><ele>2529</ele></trkpt>
<trkpt lat="46.94417" lon="10.31287"><ele>2529</ele></trkpt>
<trkpt lat="46.94408" lon="10.31283"><ele>2527</ele></trkpt>
<trkpt lat="46.94398" lon="10.31269"><ele>2526</ele></trkpt>
<trkpt lat="46.94396" lon="10.3127"><ele>2526</ele></trkpt>
<trkpt lat="46.94386" lon="10.31288"><ele>2524</ele></trkpt>
<trkpt lat="46.94379" lon="10.31292"><ele>2525</ele></trkpt>
<trkpt lat="46.94375" lon="10.31293"><ele>2524</ele></trkpt>
<trkpt lat="46.94365" lon="10.3129"><ele>2521</ele></trkpt>
<trkpt lat="46.94357" lon="10.31288"><ele>2519</ele></trkpt>
<trkpt lat="46.94353" lon="10.31286"><ele>2519</ele></trkpt>
<trkpt lat="46.94345" lon="10.31276"><ele>2517</ele></trkpt>
<trkpt lat="46.94336" lon="10.3127"><ele>2516</ele></trkpt>
<trkpt lat="46.94323" lon="10.31265"><ele>2516</ele></trkpt>
<trkpt lat="46.94319" lon="10.31266"><ele>2516</ele></trkpt>
<trkpt lat="46.94311" lon="10.31265"><ele>2514</ele></trkpt>
<trkpt lat="46.94298" lon="10.31261"><ele>2511</ele></trkpt>
<trkpt lat="46.94281" lon="10.31259"><ele>2509</ele></trkpt>
<trkpt lat="46.94274" lon="10.31255"><ele>2508</ele></trkpt>
<trkpt lat="46.94256" lon="10.31254"><ele>2508</ele></trkpt>
<trkpt lat="46.94237" lon="10.31251"><ele>2507</ele></trkpt>
<trkpt lat="46.94234" lon="10.31251"><ele>2506</ele></trkpt>
<trkpt lat="46.94226" lon="10.3125"><ele>2504</ele></trkpt>
<trkpt lat="46.94223" lon="10.31248"><ele>2503</ele></trkpt>
<trkpt lat="46.94204" lon="10.31247"><ele>2502</ele></trkpt>
<trkpt lat="46.94194" lon="10.31249"><ele>2500</ele></trkpt>
<trkpt lat="46.94182" lon="10.31247"><ele>2498</ele></trkpt>
<trkpt lat="46.94174" lon="10.31252"><ele>2498</ele></trkpt>
<trkpt lat="46.94169" lon="10.31252"><ele>2498</ele></trkpt>
<trkpt lat="46.94152" lon="10.31257"><ele>2496</ele></trkpt>
<trkpt lat="46.94147" lon="10.3126"><ele>2496</ele></trkpt>
<trkpt lat="46.94138" lon="10.31265"><ele>2494</ele></trkpt>
<trkpt lat="46.94129" lon="10.31266"><ele>2494</ele></trkpt>
<trkpt lat="46.9412" lon="10.31264"><ele>2493</ele></trkpt>
<trkpt lat="46.94115" lon="10.31267"><ele>2492</ele></trkpt>
<trkpt lat="46.94113" lon="10.31274"><ele>2492</ele></trkpt>
<trkpt lat="46.94109" lon="10.31284"><ele>2492</ele></trkpt>
<trkpt lat="46.94095" lon="10.31294"><ele>2489</ele></trkpt>
<trkpt lat="46.94083" lon="10.31305"><ele>2486</ele></trkpt>
<trkpt lat="46.94069" lon="10.31335"><ele>2481</ele></trkpt>
<trkpt lat="46.94051" lon="10.31376"><ele>2476</ele></trkpt>
<trkpt lat="46.94052" lon="10.31383"><ele>2475</ele></trkpt>
<trkpt lat="46.94053" lon="10.31401"><ele>2474</ele></trkpt>
<trkpt lat="46.94051" lon="10.31418"><ele>2473</ele></trkpt>
<trkpt lat="46.94053" lon="10.31427"><ele>2472</ele></trkpt>
<trkpt lat="46.9406" lon="10.31439"><ele>2471</ele></trkpt>
<trkpt lat="46.94067" lon="10.31448"><ele>2469</ele></trkpt>
<trkpt lat="46.94072" lon="10.31453"><ele>2468</ele></trkpt>
<trkpt lat="46.94092" lon="10.31464"><ele>2466</ele></trkpt>
<trkpt lat="46.94115" lon="10.31473"><ele>2463</ele></trkpt>
<trkpt lat="46.94128" lon="10.31481"><ele>2461</ele></trkpt>
<trkpt lat="46.94137" lon="10.31485"><ele>2459</ele></trkpt>
<trkpt lat="46.94147" lon="10.31489"><ele>2458</ele></trkpt>
<trkpt lat="46.94152" lon="10.31494"><ele>2457</ele></trkpt>
<trkpt lat="46.94158" lon="10.31501"><ele>2456</ele></trkpt>
<trkpt lat="46.94166" lon="10.31512"><ele>2454</ele></trkpt>
<trkpt lat="46.94172" lon="10.31517"><ele>2453</ele></trkpt>
<trkpt lat="46.94177" lon="10.31519"><ele>2453</ele></trkpt>
<trkpt lat="46.9418" lon="10.31519"><ele>2452</ele></trkpt>
<trkpt lat="46.94186" lon="10.31519"><ele>2451</ele></trkpt>
<trkpt lat="46.94192" lon="10.31518"><ele>2451</ele></trkpt>
<trkpt lat="46.94199" lon="10.31522"><ele>2450</ele></trkpt>
<trkpt lat="46.94217" lon="10.31536"><ele>2447</ele></trkpt>
<trkpt lat="46.9423" lon="10.31548"><ele>2445</ele></trkpt>
<trkpt lat="46.94238" lon="10.31558"><ele>2443</ele></trkpt>
<trkpt lat="46.94245" lon="10.31568"><ele>2441</ele></trkpt>
<trkpt lat="46.94254" lon="10.31585"><ele>2438</ele></trkpt>
<trkpt lat="46.94259" lon="10.3159"><ele>2437</ele></trkpt>
<trkpt lat="46.94265" lon="10.31593"><ele>2436</ele></trkpt>
<trkpt lat="46.94275" lon="10.31593"><ele>2434</ele></trkpt>
<trkpt lat="46.94287" lon="10.31593"><ele>2432</ele></trkpt>
<trkpt lat="46.94298" lon="10.31595"><ele>2430</ele></trkpt>
<trkpt lat="46.94305" lon="10.31601"><ele>2428</ele></trkpt>
<trkpt lat="46.94311" lon="10.31608"><ele>2426</ele></trkpt>
<trkpt lat="46.94315" lon="10.31617"><ele>2425</ele></trkpt>
<trkpt lat="46.94316" lon="10.3163"><ele>2423</ele></trkpt>
<trkpt lat="46.94314" lon="10.31652"><ele>2421</ele></trkpt>
<trkpt lat="46.94316" lon="10.31662"><ele>2419</ele></trkpt>
<trkpt lat="46.94319" lon="10.31668"><ele>2418</ele></trkpt>
<trkpt lat="46.94324" lon="10.31672"><ele>2417</ele></trkpt>
<trkpt lat="46.9433" lon="10.31672"><ele>2416</ele></trkpt>
<trkpt lat="46.94337" lon="10.31671"><ele>2415</ele></trkpt>
<trkpt lat="46.94347" lon="10.31664"><ele>2412</ele></trkpt>
<trkpt lat="46.94353" lon="10.31663"><ele>2411</ele></trkpt>
<trkpt lat="46.94357" lon="10.31667"><ele>2410</ele></trkpt>
<trkpt lat="46.94364" lon="10.31679"><ele>2407</ele></trkpt>
<trkpt lat="46.94371" lon="10.3169"><ele>2405</ele></trkpt>
<trkpt lat="46.94375" lon="10.31695"><ele>2404</ele></trkpt>
<trkpt lat="46.94377" lon="10.31699"><ele>2403</ele></trkpt>
<trkpt lat="46.94379" lon="10.31704"><ele>2402</ele></trkpt>
<trkpt lat="46.9438" lon="10.31706"><ele>2402</ele></trkpt>
<trkpt lat="46.9438" lon="10.31711"><ele>2401</ele></trkpt>
<trkpt lat="46.94379" lon="10.31717"><ele>2400</ele></trkpt>
<trkpt lat="46.94378" lon="10.31728"><ele>2399</ele></trkpt>
<trkpt lat="46.94379" lon="10.31738"><ele>2397</ele></trkpt>
<trkpt lat="46.94383" lon="10.31755"><ele>2395</ele></trkpt>
<trkpt lat="46.94388" lon="10.31784"><ele>2390</ele></trkpt>
<trkpt lat="46.9439" lon="10.31814"><ele>2386</ele></trkpt>
<trkpt lat="46.94391" lon="10.31834"><ele>2383</ele></trkpt>
<trkpt lat="46.94389" lon="10.31853"><ele>2379</ele></trkpt>
<trkpt lat="46.94387" lon="10.31866"><ele>2377</ele></trkpt>
<trkpt lat="46.94387" lon="10.31882"><ele>2374</ele></trkpt>
<trkpt lat="46.94388" lon="10.31896"><ele>2371</ele></trkpt>
<trkpt lat="46.94386" lon="10.31907"><ele>2370</ele></trkpt>
<trkpt lat="46.94381" lon="10.31921"><ele>2367</ele></trkpt>
<trkpt lat="46.94379" lon="10.31931"><ele>2365</ele></trkpt>
<trkpt lat="46.94378" lon="10.31942"><ele>2363</ele></trkpt>
<trkpt lat="46.94378" lon="10.31958"><ele>2360</ele></trkpt>
<trkpt lat="46.94377" lon="10.31971"><ele>2358</ele></trkpt>
<trkpt lat="46.94376" lon="10.31984"><ele>2356</ele></trkpt>
<trkpt lat="46.94378" lon="10.31992"><ele>2355</ele></trkpt>
<trkpt lat="46.94384" lon="10.32"><ele>2354</ele></trkpt>
<trkpt lat="46.94399" lon="10.32015"><ele>2351</ele></trkpt>
<trkpt lat="46.94404" lon="10.32023"><ele>2349</ele></trkpt>
<trkpt lat="46.94405" lon="10.32032"><ele>2348</ele></trkpt>
<trkpt lat="46.94402" lon="10.32039"><ele>2347</ele></trkpt>
<trkpt lat="46.94397" lon="10.32046"><ele>2346</ele></trkpt>
<trkpt lat="46.94386" lon="10.32054"><ele>2344</ele></trkpt>
<trkpt lat="46.94371" lon="10.32064"><ele>2340</ele></trkpt>
<trkpt lat="46.94366" lon="10.32069"><ele>2340</ele></trkpt>
<trkpt lat="46.94361" lon="10.32077"><ele>2339</ele></trkpt>
<trkpt lat="46.94358" lon="10.32088"><ele>2337</ele></trkpt>
<trkpt lat="46.94352" lon="10.32107"><ele>2334</ele></trkpt>
<trkpt lat="46.94347" lon="10.32121"><ele>2332</ele></trkpt>
<trkpt lat="46.94341" lon="10.32133"><ele>2329</ele></trkpt>
<trkpt lat="46.94339" lon="10.32147"><ele>2328</ele></trkpt>
<trkpt lat="46.94338" lon="10.32159"><ele>2327</ele></trkpt>
<trkpt lat="46.9434" lon="10.32174"><ele>2326</ele></trkpt>
<trkpt lat="46.94344" lon="10.32186"><ele>2326</ele></trkpt>
<trkpt lat="46.94351" lon="10.32201"><ele>2326</ele></trkpt>
<trkpt lat="46.94355" lon="10.32214"><ele>2324</ele></trkpt>
<trkpt lat="46.94358" lon="10.32231"><ele>2323</ele></trkpt>
<trkpt lat="46.94358" lon="10.32244"><ele>2321</ele></trkpt>
<trkpt lat="46.94356" lon="10.32256"><ele>2320</ele></trkpt>
<trkpt lat="46.94354" lon="10.32271"><ele>2318</ele></trkpt>
<trkpt lat="46.94353" lon="10.32283"><ele>2316</ele></trkpt>
<trkpt lat="46.94354" lon="10.32294"><ele>2315</ele></trkpt>
<trkpt lat="46.94358" lon="10.32307"><ele>2313</ele></trkpt>
<trkpt lat="46.94362" lon="10.32318"><ele>2311</ele></trkpt>
<trkpt lat="46.94361" lon="10.32323"><ele>2311</ele></trkpt>
<trkpt lat="46.9436" lon="10.32325"><ele>2310</ele></trkpt>
<trkpt lat="46.94357" lon="10.32326"><ele>2310</ele></trkpt>
<trkpt lat="46.94355" lon="10.32325"><ele>2310</ele></trkpt>
<trkpt lat="46.94348" lon="10.32311"><ele>2308</ele></trkpt>
<trkpt lat="46.9434" lon="10.32299"><ele>2306</ele></trkpt>
<trkpt lat="46.94334" lon="10.3228"><ele>2304</ele></trkpt>
<trkpt lat="46.94328" lon="10.32253"><ele>2300</ele></trkpt>
<trkpt lat="46.94327" lon="10.32242"><ele>2299</ele></trkpt>
<trkpt lat="46.94326" lon="10.32238"><ele>2299</ele></trkpt>
<trkpt lat="46.94324" lon="10.32235"><ele>2299</ele></trkpt>
<trkpt lat="46.94321" lon="10.32234"><ele>2298</ele></trkpt>
<trkpt lat="46.94319" lon="10.32236"><ele>2298</ele></trkpt>
<trkpt lat="46.94317" lon="10.3224"><ele>2297</ele></trkpt>
<trkpt lat="46.94317" lon="10.32248"><ele>2297</ele></trkpt>
<trkpt lat="46.94318" lon="10.32266"><ele>2295</ele></trkpt>
<trkpt lat="46.94317" lon="10.32284"><ele>2292</ele></trkpt>
<trkpt lat="46.94316" lon="10.32299"><ele>2290</ele></trkpt>
<trkpt lat="46.94317" lon="10.32312"><ele>2289</ele></trkpt>
<trkpt lat="46.94318" lon="10.32328"><ele>2287</ele></trkpt>
<trkpt lat="46.94317" lon="10.32339"><ele>2285</ele></trkpt>
<trkpt lat="46.94312" lon="10.32362"><ele>2283</ele></trkpt>
<trkpt lat="46.94309" lon="10.32372"><ele>2282</ele></trkpt>
<trkpt lat="46.94308" lon="10.32384"><ele>2280</ele></trkpt>
<trkpt lat="46.94308" lon="10.32411"><ele>2277</ele></trkpt>
<trkpt lat="46.94313" lon="10.32447"><ele>2272</ele></trkpt>
<trkpt lat="46.94315" lon="10.32482"><ele>2268</ele></trkpt>
<trkpt lat="46.94316" lon="10.32506"><ele>2264</ele></trkpt>
<trkpt lat="46.94317" lon="10.3253"><ele>2261</ele></trkpt>
<trkpt lat="46.94318" lon="10.32546"><ele>2259</ele></trkpt>
<trkpt lat="46.94318" lon="10.32557"><ele>2258</ele></trkpt>
<trkpt lat="46.94318" lon="10.3256"><ele>2258</ele></trkpt>
<trkpt lat="46.94317" lon="10.32563"><ele>2257</ele></trkpt>
<trkpt lat="46.94316" lon="10.32565"><ele>2257</ele></trkpt>
<trkpt lat="46.94314" lon="10.32565"><ele>2257</ele></trkpt>
<trkpt lat="46.94313" lon="10.32566"><ele>2256</ele></trkpt>
<trkpt lat="46.94311" lon="10.32565"><ele>2256</ele></trkpt>
<trkpt lat="46.9431" lon="10.32562"><ele>2256</ele></trkpt>
<trkpt lat="46.94307" lon="10.32551"><ele>2255</ele></trkpt>
<trkpt lat="46.94305" lon="10.32541"><ele>2254</ele></trkpt>
<trkpt lat="46.94298" lon="10.32517"><ele>2252</ele></trkpt>
<trkpt lat="46.94287" lon="10.32487"><ele>2249</ele></trkpt>
<trkpt lat="46.94284" lon="10.32484"><ele>2249</ele></trkpt>
<trkpt lat="46.94282" lon="10.32483"><ele>2248</ele></trkpt>
<trkpt lat="46.94279" lon="10.32483"><ele>2248</ele></trkpt>
<trkpt lat="46.94278" lon="10.32487"><ele>2248</ele></trkpt>
<trkpt lat="46.94277" lon="10.32493"><ele>2247</ele></trkpt>
<trkpt lat="46.94278" lon="10.32502"><ele>2246</ele></trkpt>
<trkpt lat="46.94281" lon="10.32514"><ele>2244</ele></trkpt>
<trkpt lat="46.94282" lon="10.32518"><ele>2244</ele></trkpt>
<trkpt lat="46.94284" lon="10.32538"><ele>2243</ele></trkpt>
<trkpt lat="46.94285" lon="10.32557"><ele>2241</ele></trkpt>
<trkpt lat="46.94284" lon="10.3257"><ele>2240</ele></trkpt>
<trkpt lat="46.94281" lon="10.32588"><ele>2238</ele></trkpt>
<trkpt lat="46.9428" lon="10.32596"><ele>2237</ele></trkpt>
<trkpt lat="46.94281" lon="10.32604"><ele>2236</ele></trkpt>
<trkpt lat="46.94281" lon="10.3261"><ele>2236</ele></trkpt>
<trkpt lat="46.94283" lon="10.32615"><ele>2235</ele></trkpt>
<trkpt lat="46.94286" lon="10.32624"><ele>2234</ele></trkpt>
<trkpt lat="46.94292" lon="10.32635"><ele>2232</ele></trkpt>
<trkpt lat="46.94299" lon="10.3265"><ele>2229</ele></trkpt>
<trkpt lat="46.94306" lon="10.32666"><ele>2227</ele></trkpt>
<trkpt lat="46.94311" lon="10.32681"><ele>2224</ele></trkpt>
<trkpt lat="46.94316" lon="10.32696"><ele>2222</ele></trkpt>
<trkpt lat="46.94318" lon="10.32706"><ele>2220</ele></trkpt>
<trkpt lat="46.94321" lon="10.32719"><ele>2218</ele></trkpt>
<trkpt lat="46.94323" lon="10.32735"><ele>2216</ele></trkpt>
<trkpt lat="46.94322" lon="10.32746"><ele>2214</ele></trkpt>
<trkpt lat="46.9432" lon="10.32755"><ele>2213</ele></trkpt>
<trkpt lat="46.94316" lon="10.32759"><ele>2213</ele></trkpt>
<trkpt lat="46.94311" lon="10.32759"><ele>2212</ele></trkpt>
<trkpt lat="46.94306" lon="10.32755"><ele>2211</ele></trkpt>
<trkpt lat="46.94301" lon="10.32743"><ele>2209</ele></trkpt>
<trkpt lat="46.94291" lon="10.32717"><ele>2205</ele></trkpt>
<trkpt lat="46.94282" lon="10.32701"><ele>2202</ele></trkpt>
<trkpt lat="46.94267" lon="10.32678"><ele>2196</ele></trkpt>
<trkpt lat="46.94252" lon="10.32649"><ele>2190</ele></trkpt>
<trkpt lat="46.94249" lon="10.32645"><ele>2189</ele></trkpt>
<trkpt lat="46.94246" lon="10.32644"><ele>2188</ele></trkpt>
<trkpt lat="46.94243" lon="10.32645"><ele>2188</ele></trkpt>
<trkpt lat="46.94241" lon="10.32648"><ele>2187</ele></trkpt>
<trkpt lat="46.94241" lon="10.32652"><ele>2187</ele></trkpt>
<trkpt lat="46.94242" lon="10.32661"><ele>2185</ele></trkpt>
<trkpt lat="46.94244" lon="10.32673"><ele>2183</ele></trkpt>
<trkpt lat="46.94244" lon="10.32682"><ele>2182</ele></trkpt>
<trkpt lat="46.94244" lon="10.3269"><ele>2181</ele></trkpt>
<trkpt lat="46.94243" lon="10.32696"><ele>2181</ele></trkpt>
<trkpt lat="46.94241" lon="10.32701"><ele>2180</ele></trkpt>
<trkpt lat="46.94238" lon="10.32713"><ele>2177</ele></trkpt>
<trkpt lat="46.94235" lon="10.32719"><ele>2176</ele></trkpt>
<trkpt lat="46.94232" lon="10.32726"><ele>2174</ele></trkpt>
<trkpt lat="46.94223" lon="10.32737"><ele>2172</ele></trkpt>
<trkpt lat="46.94211" lon="10.32748"><ele>2169</ele></trkpt>
<trkpt lat="46.942" lon="10.32757"><ele>2166</ele></trkpt>
<trkpt lat="46.94189" lon="10.32768"><ele>2163</ele></trkpt>
<trkpt lat="46.94179" lon="10.32779"><ele>2160</ele></trkpt>
<trkpt lat="46.94161" lon="10.32793"><ele>2156</ele></trkpt>
<trkpt lat="46.94145" lon="10.32802"><ele>2151</ele></trkpt>
<trkpt lat="46.94133" lon="10.32808"><ele>2149</ele></trkpt>
<trkpt lat="46.94124" lon="10.32814"><ele>2147</ele></trkpt>
<trkpt lat="46.94115" lon="10.32822"><ele>2144</ele></trkpt>
<trkpt lat="46.94107" lon="10.32832"><ele>2142</ele></trkpt>
<trkpt lat="46.941" lon="10.3284"><ele>2141</ele></trkpt>
<trkpt lat="46.94094" lon="10.32849"><ele>2139</ele></trkpt>
<trkpt lat="46.9409" lon="10.32858"><ele>2137</ele></trkpt>
<trkpt lat="46.94088" lon="10.3287"><ele>2136</ele></trkpt>
<trkpt lat="46.94091" lon="10.32881"><ele>2134</ele></trkpt>
<trkpt lat="46.94098" lon="10.32896"><ele>2132</ele></trkpt>
<trkpt lat="46.94102" lon="10.32909"><ele>2130</ele></trkpt>
<trkpt lat="46.94101" lon="10.32918"><ele>2129</ele></trkpt>
<trkpt lat="46.94098" lon="10.32926"><ele>2128</ele></trkpt>
<trkpt lat="46.94091" lon="10.32938"><ele>2126</ele></trkpt>
<trkpt lat="46.94086" lon="10.32953"><ele>2124</ele></trkpt>
<trkpt lat="46.94083" lon="10.32966"><ele>2122</ele></trkpt>
<trkpt lat="46.94082" lon="10.32975"><ele>2120</ele></trkpt>
<trkpt lat="46.94081" lon="10.32981"><ele>2119</ele></trkpt>
<trkpt lat="46.9408" lon="10.32984"><ele>2118</ele></trkpt>
<trkpt lat="46.94078" lon="10.32985"><ele>2118</ele></trkpt>
<trkpt lat="46.94076" lon="10.32986"><ele>2118</ele></trkpt>
<trkpt lat="46.94073" lon="10.32984"><ele>2118</ele></trkpt>
<trkpt lat="46.94071" lon="10.3298"><ele>2117</ele></trkpt>
<trkpt lat="46.94069" lon="10.32972"><ele>2116</ele></trkpt>
<trkpt lat="46.94068" lon="10.32966"><ele>2116</ele></trkpt>
<trkpt lat="46.94068" lon="10.32953"><ele>2114</ele></trkpt>
<trkpt lat="46.94068" lon="10.32943"><ele>2113</ele></trkpt>
<trkpt lat="46.94066" lon="10.32935"><ele>2112</ele></trkpt>
<trkpt lat="46.94062" lon="10.32931"><ele>2112</ele></trkpt>
<trkpt lat="46.94055" lon="10.3293"><ele>2111</ele></trkpt>
<trkpt lat="46.94048" lon="10.32928"><ele>2111</ele></trkpt>
<trkpt lat="46.94039" lon="10.32924"><ele>2109</ele></trkpt>
<trkpt lat="46.94033" lon="10.32919"><ele>2108</ele></trkpt>
<trkpt lat="46.94024" lon="10.32911"><ele>2105</ele></trkpt>
<trkpt lat="46.94007" lon="10.32893"><ele>2101</ele></trkpt>
<trkpt lat="46.94001" lon="10.32884"><ele>2100</ele></trkpt>
<trkpt lat="46.93998" lon="10.32873"><ele>2099</ele></trkpt>
<trkpt lat="46.93996" lon="10.32862"><ele>2097</ele></trkpt>
<trkpt lat="46.9399" lon="10.32854"><ele>2097</ele></trkpt>
<trkpt lat="46.93982" lon="10.32851"><ele>2096</ele></trkpt>
<trkpt lat="46.93974" lon="10.32851"><ele>2094</ele></trkpt>
<trkpt lat="46.93965" lon="10.32856"><ele>2093</ele></trkpt>
<trkpt lat="46.93949" lon="10.32865"><ele>2090</ele></trkpt>
<trkpt lat="46.93944" lon="10.3287"><ele>2089</ele></trkpt>
<trkpt lat="46.9394" lon="10.32875"><ele>2088</ele></trkpt>
<trkpt lat="46.93934" lon="10.32891"><ele>2086</ele></trkpt>
<trkpt lat="46.93932" lon="10.32905"><ele>2084</ele></trkpt>
<trkpt lat="46.93931" lon="10.32922"><ele>2082</ele></trkpt>
<trkpt lat="46.93933" lon="10.32977"><ele>2077</ele></trkpt>
<trkpt lat="46.93935" lon="10.33031"><ele>2072</ele></trkpt>
<trkpt lat="46.93936" lon="10.33057"><ele>2069</ele></trkpt>
<trkpt lat="46.93936" lon="10.33078"><ele>2068</ele></trkpt>
<trkpt lat="46.93936" lon="10.33099"><ele>2065</ele></trkpt>
<trkpt lat="46.93937" lon="10.33117"><ele>2063</ele></trkpt>
<trkpt lat="46.9394" lon="10.3315"><ele>2057</ele></trkpt>
<trkpt lat="46.93943" lon="10.33188"><ele>2052</ele></trkpt>
<trkpt lat="46.93945" lon="10.33217"><ele>2048</ele></trkpt>
<trkpt lat="46.93947" lon="10.33245"><ele>2045</ele></trkpt>
<trkpt lat="46.93951" lon="10.33274"><ele>2041</ele></trkpt>
<trkpt lat="46.93954" lon="10.33309"><ele>2036</ele></trkpt>
<trkpt lat="46.93957" lon="10.33334"><ele>2033</ele></trkpt>
<trkpt lat="46.93958" lon="10.33352"><ele>2031</ele></trkpt>
<trkpt lat="46.93958" lon="10.33392"><ele>2026</ele></trkpt>
<trkpt lat="46.93958" lon="10.33402"><ele>2025</ele></trkpt>
<trkpt lat="46.9396" lon="10.33426"><ele>2022</ele></trkpt>
<trkpt lat="46.93962" lon="10.33455"><ele>2018</ele></trkpt>
<trkpt lat="46.93962" lon="10.33474"><ele>2016</ele></trkpt>
<trkpt lat="46.93962" lon="10.33494"><ele>2013</ele></trkpt>
<trkpt lat="46.93961" lon="10.33519"><ele>2009</ele></trkpt>
<trkpt lat="46.9396" lon="10.33558"><ele>2004</ele></trkpt>
<trkpt lat="46.93959" lon="10.33584"><ele>2002</ele></trkpt>
<trkpt lat="46.93959" lon="10.33605"><ele>1999</ele></trkpt>
<trkpt lat="46.93961" lon="10.3362"><ele>1997</ele></trkpt>
<trkpt lat="46.93966" lon="10.33649"><ele>1993</ele></trkpt>
<trkpt lat="46.93967" lon="10.33661"><ele>1991</ele></trkpt>
<trkpt lat="46.9397" lon="10.3369"><ele>1989</ele></trkpt>
<trkpt lat="46.93972" lon="10.33717"><ele>1986</ele></trkpt>
<trkpt lat="46.93977" lon="10.3376"><ele>1983</ele></trkpt>
<trkpt lat="46.93981" lon="10.33791"><ele>1979</ele></trkpt>
<trkpt lat="46.93983" lon="10.3381"><ele>1978</ele></trkpt>
<trkpt lat="46.93983" lon="10.33823"><ele>1977</ele></trkpt>
<trkpt lat="46.93981" lon="10.33837"><ele>1976</ele></trkpt>
<trkpt lat="46.93978" lon="10.33846"><ele>1975</ele></trkpt>
<trkpt lat="46.93975" lon="10.33852"><ele>1974</ele></trkpt>
<trkpt lat="46.93972" lon="10.33858"><ele>1974</ele></trkpt>
<trkpt lat="46.93963" lon="10.33872"><ele>1972</ele></trkpt>
<trkpt lat="46.93956" lon="10.33885"><ele>1971</ele></trkpt>
<trkpt lat="46.9395" lon="10.33898"><ele>1970</ele></trkpt>
<trkpt lat="46.93945" lon="10.33911"><ele>1969</ele></trkpt>
<trkpt lat="46.93939" lon="10.33927"><ele>1968</ele></trkpt>
<trkpt lat="46.93935" lon="10.3394"><ele>1967</ele></trkpt>
<trkpt lat="46.93934" lon="10.33943"><ele>1967</ele></trkpt>
<trkpt lat="46.93929" lon="10.33956"><ele>1966</ele></trkpt>
<trkpt lat="46.93923" lon="10.33972"><ele>1964</ele></trkpt>
<trkpt lat="46.93919" lon="10.33987"><ele>1963</ele></trkpt>
<trkpt lat="46.93916" lon="10.33998"><ele>1962</ele></trkpt>
<trkpt lat="46.93913" lon="10.34009"><ele>1961</ele></trkpt>
<trkpt lat="46.93909" lon="10.34016"><ele>1961</ele></trkpt>
<trkpt lat="46.93904" lon="10.34024"><ele>1960</ele></trkpt>
<trkpt lat="46.93899" lon="10.34031"><ele>1959</ele></trkpt>
<trkpt lat="46.93895" lon="10.34042"><ele>1959</ele></trkpt>
<trkpt lat="46.93892" lon="10.34052"><ele>1958</ele></trkpt>
<trkpt lat="46.93888" lon="10.34076"><ele>1956</ele></trkpt>
<trkpt lat="46.93882" lon="10.34098"><ele>1954</ele></trkpt>
<trkpt lat="46.93877" lon="10.34118"><ele>1953</ele></trkpt>
<trkpt lat="46.93871" lon="10.34138"><ele>1951</ele></trkpt>
<trkpt lat="46.93862" lon="10.34167"><ele>1949</ele></trkpt>
<trkpt lat="46.93857" lon="10.34188"><ele>1948</ele></trkpt>
<trkpt lat="46.93854" lon="10.34209"><ele>1947</ele></trkpt>
<trkpt lat="46.93852" lon="10.34224"><ele>1946</ele></trkpt>
<trkpt lat="46.9385" lon="10.34254"><ele>1946</ele></trkpt>
<trkpt lat="46.93849" lon="10.34278"><ele>1946</ele></trkpt>
<trkpt lat="46.9385" lon="10.34289"><ele>1946</ele></trkpt>
<trkpt lat="46.93852" lon="10.34302"><ele>1946</ele></trkpt>
<trkpt lat="46.93856" lon="10.34317"><ele>1945</ele></trkpt>
<trkpt lat="46.93858" lon="10.34328"><ele>1945</ele></trkpt>
<trkpt lat="46.93861" lon="10.34342"><ele>1944</ele></trkpt>
<trkpt lat="46.93864" lon="10.34359"><ele>1943</ele></trkpt>
<trkpt lat="46.93868" lon="10.3438"><ele>1942</ele></trkpt>
<trkpt lat="46.93874" lon="10.34403"><ele>1941</ele></trkpt>
<trkpt lat="46.93889" lon="10.34455"><ele>1938</ele></trkpt>
<trkpt lat="46.93894" lon="10.34478"><ele>1936</ele></trkpt>
<trkpt lat="46.93898" lon="10.34494"><ele>1934</ele></trkpt>
<trkpt lat="46.93903" lon="10.34507"><ele>1933</ele></trkpt>
<trkpt lat="46.93909" lon="10.34523"><ele>1933</ele></trkpt>
<trkpt lat="46.9391" lon="10.34527"><ele>1932</ele></trkpt>
<trkpt lat="46.93912" lon="10.34535"><ele>1932</ele></trkpt>
<trkpt lat="46.93913" lon="10.34541"><ele>1931</ele></trkpt>
<trkpt lat="46.93913" lon="10.34546"><ele>1931</ele></trkpt>
<trkpt lat="46.93912" lon="10.34553"><ele>1931</ele></trkpt>
<trkpt lat="46.93912" lon="10.34561"><ele>1930</ele></trkpt>
<trkpt lat="46.93912" lon="10.34569"><ele>1930</ele></trkpt>
<trkpt lat="46.93913" lon="10.34576"><ele>1930</ele></trkpt>
<trkpt lat="46.93916" lon="10.3459"><ele>1929</ele></trkpt>
<trkpt lat="46.93919" lon="10.34601"><ele>1928</ele></trkpt>
<trkpt lat="46.93921" lon="10.34609"><ele>1928</ele></trkpt>
<trkpt lat="46.93922" lon="10.34617"><ele>1928</ele></trkpt>
<trkpt lat="46.93925" lon="10.34625"><ele>1927</ele></trkpt>
<trkpt lat="46.9393" lon="10.34639"><ele>1926</ele></trkpt>
<trkpt lat="46.93938" lon="10.34666"><ele>1924</ele></trkpt>
<trkpt lat="46.93948" lon="10.34703"><ele>1922</ele></trkpt>
<trkpt lat="46.93958" lon="10.3474"><ele>1919</ele></trkpt>
<trkpt lat="46.93964" lon="10.34763"><ele>1917</ele></trkpt>
<trkpt lat="46.93967" lon="10.34781"><ele>1916</ele></trkpt>
<trkpt lat="46.93968" lon="10.348"><ele>1916</ele></trkpt>
<trkpt lat="46.9397" lon="10.34818"><ele>1915</ele></trkpt>
<trkpt lat="46.93973" lon="10.34834"><ele>1914</ele></trkpt>
<trkpt lat="46.93977" lon="10.34851"><ele>1913</ele></trkpt>
<trkpt lat="46.9398" lon="10.34867"><ele>1912</ele></trkpt>
<trkpt lat="46.93984" lon="10.34885"><ele>1912</ele></trkpt>
<trkpt lat="46.93989" lon="10.3492"><ele>1909</ele></trkpt>
<trkpt lat="46.93992" lon="10.34947"><ele>1908</ele></trkpt>
<trkpt lat="46.93994" lon="10.34962"><ele>1908</ele></trkpt>
<trkpt lat="46.93995" lon="10.34969"><ele>1907</ele></trkpt>
<trkpt lat="46.93997" lon="10.34979"><ele>1907</ele></trkpt>
<trkpt lat="46.94" lon="10.34991"><ele>1907</ele></trkpt>
<trkpt lat="46.94007" lon="10.35009"><ele>1906</ele></trkpt>
<trkpt lat="46.9402" lon="10.35039"><ele>1906</ele></trkpt>
<trkpt lat="46.9403" lon="10.35065"><ele>1906</ele></trkpt>
<trkpt lat="46.94037" lon="10.35079"><ele>1906</ele></trkpt>
<trkpt lat="46.94042" lon="10.35087"><ele>1905</ele></trkpt>
<trkpt lat="46.94048" lon="10.35096"><ele>1905</ele></trkpt>
<trkpt lat="46.94054" lon="10.35106"><ele>1904</ele></trkpt>
<trkpt lat="46.94061" lon="10.35119"><ele>1903</ele></trkpt>
<trkpt lat="46.94066" lon="10.35128"><ele>1902</ele></trkpt>
<trkpt lat="46.94071" lon="10.3514"><ele>1902</ele></trkpt>
<trkpt lat="46.94075" lon="10.35156"><ele>1900</ele></trkpt>
<trkpt lat="46.94081" lon="10.3518"><ele>1898</ele></trkpt>
<trkpt lat="46.94082" lon="10.35183"><ele>1898</ele></trkpt>
<trkpt lat="46.94085" lon="10.35196"><ele>1897</ele></trkpt>
<trkpt lat="46.9409" lon="10.35218"><ele>1896</ele></trkpt>
<trkpt lat="46.94093" lon="10.35232"><ele>1894</ele></trkpt>
<trkpt lat="46.94096" lon="10.35248"><ele>1893</ele></trkpt>
<trkpt lat="46.94097" lon="10.35264"><ele>1892</ele></trkpt>
<trkpt lat="46.94099" lon="10.35285"><ele>1890</ele></trkpt>
<trkpt lat="46.94101" lon="10.35309"><ele>1888</ele></trkpt>
<trkpt lat="46.94103" lon="10.35324"><ele>1887</ele></trkpt>
<trkpt lat="46.94107" lon="10.35339"><ele>1886</ele></trkpt>
<trkpt lat="46.94116" lon="10.35367"><ele>1885</ele></trkpt>
<trkpt lat="46.94126" lon="10.35399"><ele>1881</ele></trkpt>
<trkpt lat="46.94132" lon="10.35424"><ele>1879</ele></trkpt>
<trkpt lat="46.94138" lon="10.35454"><ele>1875</ele></trkpt>
<trkpt lat="46.94139" lon="10.35459"><ele>1874</ele></trkpt>
<trkpt lat="46.94144" lon="10.35484"><ele>1871</ele></trkpt>
<trkpt lat="46.94153" lon="10.3553"><ele>1866</ele></trkpt>
<trkpt lat="46.9416" lon="10.3556"><ele>1864</ele></trkpt>
<trkpt lat="46.94164" lon="10.35579"><ele>1862</ele></trkpt>
<trkpt lat="46.94165" lon="10.35586"><ele>1862</ele></trkpt>
<trkpt lat="46.94174" lon="10.35628"><ele>1861</ele></trkpt>
<trkpt lat="46.94186" lon="10.35675"><ele>1859</ele></trkpt>
<trkpt lat="46.94191" lon="10.35688"><ele>1859</ele></trkpt>
<trkpt lat="46.94209" lon="10.35725"><ele>1855</ele></trkpt>
<trkpt lat="46.94228" lon="10.35768"><ele>1852</ele></trkpt>
<trkpt lat="46.94231" lon="10.35781"><ele>1850</ele></trkpt>
<trkpt lat="46.94235" lon="10.35796"><ele>1849</ele></trkpt>
<trkpt lat="46.94239" lon="10.35806"><ele>1848</ele></trkpt>
<trkpt lat="46.94245" lon="10.3582"><ele>1847</ele></trkpt>
<trkpt lat="46.94252" lon="10.35831"><ele>1846</ele></trkpt>
<trkpt lat="46.94258" lon="10.35835"><ele>1845</ele></trkpt>
<trkpt lat="46.94266" lon="10.35838"><ele>1845</ele></trkpt>
<trkpt lat="46.94274" lon="10.35841"><ele>1845</ele></trkpt>
<trkpt lat="46.94282" lon="10.35845"><ele>1844</ele></trkpt>
<trkpt lat="46.94288" lon="10.35852"><ele>1844</ele></trkpt>
<trkpt lat="46.94291" lon="10.35858"><ele>1844</ele></trkpt>
<trkpt lat="46.94293" lon="10.35862"><ele>1844</ele></trkpt>
<trkpt lat="46.94307" lon="10.35886"><ele>1843</ele></trkpt>
<trkpt lat="46.94313" lon="10.35894"><ele>1843</ele></trkpt>
<trkpt lat="46.94319" lon="10.35903"><ele>1843</ele></trkpt>
<trkpt lat="46.94325" lon="10.35913"><ele>1843</ele></trkpt>
<trkpt lat="46.94329" lon="10.35923"><ele>1842</ele></trkpt>
<trkpt lat="46.94331" lon="10.35932"><ele>1842</ele></trkpt>
<trkpt lat="46.94336" lon="10.35956"><ele>1841</ele></trkpt>
<trkpt lat="46.94337" lon="10.35964"><ele>1840</ele></trkpt>
<trkpt lat="46.9434" lon="10.35975"><ele>1840</ele></trkpt>
<trkpt lat="46.94343" lon="10.3599"><ele>1839</ele></trkpt>
<trkpt lat="46.9435" lon="10.36022"><ele>1838</ele></trkpt>
<trkpt lat="46.94353" lon="10.36035"><ele>1837</ele></trkpt>
<trkpt lat="46.94355" lon="10.36043"><ele>1837</ele></trkpt>
<trkpt lat="46.94359" lon="10.36051"><ele>1836</ele></trkpt>
<trkpt lat="46.94365" lon="10.36061"><ele>1835</ele></trkpt>
<trkpt lat="46.94368" lon="10.36066"><ele>1835</ele></trkpt>
<trkpt lat="46.94379" lon="10.36076"><ele>1834</ele></trkpt>
<trkpt lat="46.94399" lon="10.36091"><ele>1832</ele></trkpt>
<trkpt lat="46.94431" lon="10.36117"><ele>1830</ele></trkpt>
<trkpt lat="46.94441" lon="10.36125"><ele>1830</ele></trkpt>
<trkpt lat="46.94449" lon="10.36131"><ele>1829</ele></trkpt>
<trkpt lat="46.94454" lon="10.36136"><ele>1829</ele></trkpt>
<trkpt lat="46.94459" lon="10.36143"><ele>1828</ele></trkpt>
<trkpt lat="46.94465" lon="10.36153"><ele>1828</ele></trkpt>
<trkpt lat="46.94468" lon="10.3616"><ele>1827</ele></trkpt>
<trkpt lat="46.9447" lon="10.36164"><ele>1827</ele></trkpt>
<trkpt lat="46.94474" lon="10.36172"><ele>1826</ele></trkpt>
<trkpt lat="46.94477" lon="10.36181"><ele>1826</ele></trkpt>
<trkpt lat="46.94481" lon="10.36189"><ele>1825</ele></trkpt>
<trkpt lat="46.94487" lon="10.362"><ele>1825</ele></trkpt>
<trkpt lat="46.94489" lon="10.36203"><ele>1825</ele></trkpt>
<trkpt lat="46.94494" lon="10.3621"><ele>1824</ele></trkpt>
<trkpt lat="46.94502" lon="10.3622"><ele>1823</ele></trkpt>
<trkpt lat="46.94509" lon="10.36227"><ele>1823</ele></trkpt>
<trkpt lat="46.94522" lon="10.3624"><ele>1822</ele></trkpt>
<trkpt lat="46.94527" lon="10.36245"><ele>1821</ele></trkpt>
<trkpt lat="46.94536" lon="10.36253"><ele>1821</ele></trkpt>
<trkpt lat="46.94548" lon="10.36264"><ele>1820</ele></trkpt>
<trkpt lat="46.94558" lon="10.3627"><ele>1819</ele></trkpt>
<trkpt lat="46.94563" lon="10.36272"><ele>1819</ele></trkpt>
<trkpt lat="46.94569" lon="10.36274"><ele>1819</ele></trkpt>
<trkpt lat="46.94575" lon="10.36276"><ele>1819</ele></trkpt>
<trkpt lat="46.94577" lon="10.36276"><ele>1819</ele></trkpt>
<trkpt lat="46.94582" lon="10.36276"><ele>1818</ele></trkpt>
<trkpt lat="46.94602" lon="10.36279"><ele>1817</ele></trkpt>
<trkpt lat="46.9462" lon="10.36281"><ele>1816</ele></trkpt>
<trkpt lat="46.94623" lon="10.36281"><ele>1816</ele></trkpt>
<trkpt lat="46.94652" lon="10.36285"><ele>1815</ele></trkpt>
<trkpt lat="46.94658" lon="10.36286"><ele>1814</ele></trkpt>
<trkpt lat="46.94666" lon="10.36288"><ele>1814</ele></trkpt>
<trkpt lat="46.94673" lon="10.3629"><ele>1813</ele></trkpt>
<trkpt lat="46.94678" lon="10.36293"><ele>1813</ele></trkpt>
<trkpt lat="46.94684" lon="10.36298"><ele>1813</ele></trkpt>
<trkpt lat="46.94691" lon="10.36305"><ele>1812</ele></trkpt>
<trkpt lat="46.94709" lon="10.36325"><ele>1811</ele></trkpt>
<trkpt lat="46.94722" lon="10.36339"><ele>1810</ele></trkpt>
<trkpt lat="46.94733" lon="10.36353"><ele>1809</ele></trkpt>
<trkpt lat="46.94741" lon="10.36362"><ele>1809</ele></trkpt>
<trkpt lat="46.94748" lon="10.36373"><ele>1808</ele></trkpt>
<trkpt lat="46.94753" lon="10.36384"><ele>1808</ele></trkpt>

                    </trkseg>
              </trk>
            </gpx>