<?xml version="1.0" encoding="utf-8" standalone="yes"?>
<gpx version="1.1" creator="discover.swiss" xmlns:xsi="http://www.w3.org/2001/XMLSchema-instance" xmlns:schemaLocation="http://www.topografix.com/GPX/1/1 http://www.topografix.com/GPX/1/1/gpx.xsd" xmlns="http://www.topografix.com/GPX/1/1">
  <metadata>
    <name>7191 Alpstein Trail</name>
  </metadata>
  <trk>
    <trkseg>
      <trkpt lat="46.977631" lon="10.382491">
        <ele>2227</ele>
      </trkpt>
      <trkpt lat="46.977618" lon="10.382605">
        <ele>2226</ele>
      </trkpt>
      <trkpt lat="46.977588" lon="10.382598">
        <ele>2225</ele>
      </trkpt>
      <trkpt lat="46.97756" lon="10.382598">
        <ele>2225</ele>
      </trkpt>
      <trkpt lat="46.977531" lon="10.382593">
        <ele>2224</ele>
      </trkpt>
      <trkpt lat="46.977509" lon="10.382554">
        <ele>2224</ele>
      </trkpt>
      <trkpt lat="46.977463" lon="10.382559">
        <ele>2224</ele>
      </trkpt>
      <trkpt lat="46.977408" lon="10.382632">
        <ele>2224</ele>
      </trkpt>
      <trkpt lat="46.977369" lon="10.382687">
        <ele>2223</ele>
      </trkpt>
      <trkpt lat="46.977296" lon="10.38272">
        <ele>2223</ele>
      </trkpt>
      <trkpt lat="46.977215" lon="10.382712">
        <ele>2223</ele>
      </trkpt>
      <trkpt lat="46.977189" lon="10.382769">
        <ele>2223</ele>
      </trkpt>
      <trkpt lat="46.977132" lon="10.382822">
        <ele>2223</ele>
      </trkpt>
      <trkpt lat="46.977086" lon="10.382874">
        <ele>2223</ele>
      </trkpt>
      <trkpt lat="46.977075" lon="10.382914">
        <ele>2223</ele>
      </trkpt>
      <trkpt lat="46.977079" lon="10.382952">
        <ele>2223</ele>
      </trkpt>
      <trkpt lat="46.977123" lon="10.383008">
        <ele>2223</ele>
      </trkpt>
      <trkpt lat="46.977171" lon="10.383066">
        <ele>2223</ele>
      </trkpt>
      <trkpt lat="46.977212" lon="10.383223">
        <ele>2222</ele>
      </trkpt>
      <trkpt lat="46.97722" lon="10.383312">
        <ele>2222</ele>
      </trkpt>
      <trkpt lat="46.97721" lon="10.383414">
        <ele>2221</ele>
      </trkpt>
      <trkpt lat="46.977173" lon="10.3835">
        <ele>2220</ele>
      </trkpt>
      <trkpt lat="46.977121" lon="10.383538">
        <ele>2220</ele>
      </trkpt>
      <trkpt lat="46.977078" lon="10.383627">
        <ele>2220</ele>
      </trkpt>
      <trkpt lat="46.977072" lon="10.383773">
        <ele>2219</ele>
      </trkpt>
      <trkpt lat="46.977047" lon="10.383858">
        <ele>2219</ele>
      </trkpt>
      <trkpt lat="46.977066" lon="10.383982">
        <ele>2218</ele>
      </trkpt>
      <trkpt lat="46.976948" lon="10.384271">
        <ele>2217</ele>
      </trkpt>
      <trkpt lat="46.976841" lon="10.384392">
        <ele>2216</ele>
      </trkpt>
      <trkpt lat="46.976789" lon="10.384563">
        <ele>2216</ele>
      </trkpt>
      <trkpt lat="46.976779" lon="10.384679">
        <ele>2215</ele>
      </trkpt>
      <trkpt lat="46.976786" lon="10.384806">
        <ele>2214</ele>
      </trkpt>
      <trkpt lat="46.976782" lon="10.38507">
        <ele>2211</ele>
      </trkpt>
      <trkpt lat="46.976768" lon="10.385465">
        <ele>2207</ele>
      </trkpt>
      <trkpt lat="46.976779" lon="10.38573">
        <ele>2204</ele>
      </trkpt>
      <trkpt lat="46.97677" lon="10.385877">
        <ele>2202</ele>
      </trkpt>
      <trkpt lat="46.976714" lon="10.386261">
        <ele>2198</ele>
      </trkpt>
      <trkpt lat="46.976666" lon="10.386482">
        <ele>2195</ele>
      </trkpt>
      <trkpt lat="46.976619" lon="10.386618">
        <ele>2193</ele>
      </trkpt>
      <trkpt lat="46.976563" lon="10.386698">
        <ele>2191</ele>
      </trkpt>
      <trkpt lat="46.976445" lon="10.386823">
        <ele>2189</ele>
      </trkpt>
      <trkpt lat="46.976323" lon="10.386896">
        <ele>2189</ele>
      </trkpt>
      <trkpt lat="46.976266" lon="10.386969">
        <ele>2188</ele>
      </trkpt>
      <trkpt lat="46.976251" lon="10.387031">
        <ele>2188</ele>
      </trkpt>
      <trkpt lat="46.976271" lon="10.387121">
        <ele>2185</ele>
      </trkpt>
      <trkpt lat="46.976272" lon="10.387124">
        <ele>2185</ele>
      </trkpt>
      <trkpt lat="46.976282" lon="10.387185">
        <ele>2184</ele>
      </trkpt>
      <trkpt lat="46.97627" lon="10.38727">
        <ele>2182</ele>
      </trkpt>
      <trkpt lat="46.976249" lon="10.387342">
        <ele>2180</ele>
      </trkpt>
      <trkpt lat="46.976219" lon="10.387411">
        <ele>2179</ele>
      </trkpt>
      <trkpt lat="46.976023" lon="10.387599">
        <ele>2175</ele>
      </trkpt>
      <trkpt lat="46.975981" lon="10.387657">
        <ele>2174</ele>
      </trkpt>
      <trkpt lat="46.97595" lon="10.38773">
        <ele>2173</ele>
      </trkpt>
      <trkpt lat="46.975906" lon="10.387798">
        <ele>2171</ele>
      </trkpt>
      <trkpt lat="46.975845" lon="10.387865">
        <ele>2169</ele>
      </trkpt>
      <trkpt lat="46.97568" lon="10.38799">
        <ele>2166</ele>
      </trkpt>
      <trkpt lat="46.97556" lon="10.38805">
        <ele>2163</ele>
      </trkpt>
      <trkpt lat="46.975447" lon="10.388139">
        <ele>2161</ele>
      </trkpt>
      <trkpt lat="46.975331" lon="10.388245">
        <ele>2159</ele>
      </trkpt>
      <trkpt lat="46.975147" lon="10.38849">
        <ele>2155</ele>
      </trkpt>
      <trkpt lat="46.97508" lon="10.388635">
        <ele>2152</ele>
      </trkpt>
      <trkpt lat="46.974988" lon="10.388795">
        <ele>2150</ele>
      </trkpt>
      <trkpt lat="46.974838" lon="10.389051">
        <ele>2144</ele>
      </trkpt>
      <trkpt lat="46.974753" lon="10.389123">
        <ele>2142</ele>
      </trkpt>
      <trkpt lat="46.974722" lon="10.389113">
        <ele>2141</ele>
      </trkpt>
      <trkpt lat="46.974689" lon="10.389107">
        <ele>2141</ele>
      </trkpt>
      <trkpt lat="46.974669" lon="10.389114">
        <ele>2141</ele>
      </trkpt>
      <trkpt lat="46.974649" lon="10.389145">
        <ele>2141</ele>
      </trkpt>
      <trkpt lat="46.974632" lon="10.389194">
        <ele>2139</ele>
      </trkpt>
      <trkpt lat="46.97462" lon="10.389254">
        <ele>2138</ele>
      </trkpt>
      <trkpt lat="46.974597" lon="10.389334">
        <ele>2136</ele>
      </trkpt>
      <trkpt lat="46.974569" lon="10.389402">
        <ele>2134</ele>
      </trkpt>
      <trkpt lat="46.974442" lon="10.389616">
        <ele>2129</ele>
      </trkpt>
      <trkpt lat="46.974407" lon="10.389699">
        <ele>2126</ele>
      </trkpt>
      <trkpt lat="46.974407" lon="10.389735">
        <ele>2125</ele>
      </trkpt>
      <trkpt lat="46.974427" lon="10.389759">
        <ele>2124</ele>
      </trkpt>
      <trkpt lat="46.974461" lon="10.389771">
        <ele>2124</ele>
      </trkpt>
      <trkpt lat="46.974482" lon="10.38978">
        <ele>2123</ele>
      </trkpt>
      <trkpt lat="46.974488" lon="10.389793">
        <ele>2123</ele>
      </trkpt>
      <trkpt lat="46.974485" lon="10.389815">
        <ele>2122</ele>
      </trkpt>
      <trkpt lat="46.974463" lon="10.389839">
        <ele>2122</ele>
      </trkpt>
      <trkpt lat="46.974444" lon="10.389861">
        <ele>2121</ele>
      </trkpt>
      <trkpt lat="46.974443" lon="10.389879">
        <ele>2120</ele>
      </trkpt>
      <trkpt lat="46.974429" lon="10.389907">
        <ele>2119</ele>
      </trkpt>
      <trkpt lat="46.974402" lon="10.389933">
        <ele>2118</ele>
      </trkpt>
      <trkpt lat="46.974382" lon="10.389972">
        <ele>2117</ele>
      </trkpt>
      <trkpt lat="46.974359" lon="10.390005">
        <ele>2116</ele>
      </trkpt>
      <trkpt lat="46.974337" lon="10.39002">
        <ele>2116</ele>
      </trkpt>
      <trkpt lat="46.974327" lon="10.390044">
        <ele>2115</ele>
      </trkpt>
      <trkpt lat="46.974316" lon="10.390064">
        <ele>2115</ele>
      </trkpt>
      <trkpt lat="46.974297" lon="10.390082">
        <ele>2114</ele>
      </trkpt>
      <trkpt lat="46.97429" lon="10.390116">
        <ele>2113</ele>
      </trkpt>
      <trkpt lat="46.974277" lon="10.390149">
        <ele>2112</ele>
      </trkpt>
      <trkpt lat="46.974257" lon="10.390178">
        <ele>2111</ele>
      </trkpt>
      <trkpt lat="46.974239" lon="10.390188">
        <ele>2111</ele>
      </trkpt>
      <trkpt lat="46.974225" lon="10.390198">
        <ele>2110</ele>
      </trkpt>
      <trkpt lat="46.974216" lon="10.390216">
        <ele>2110</ele>
      </trkpt>
      <trkpt lat="46.974209" lon="10.390235">
        <ele>2109</ele>
      </trkpt>
      <trkpt lat="46.974184" lon="10.390262">
        <ele>2108</ele>
      </trkpt>
      <trkpt lat="46.974132" lon="10.390312">
        <ele>2106</ele>
      </trkpt>
      <trkpt lat="46.974101" lon="10.390338">
        <ele>2105</ele>
      </trkpt>
      <trkpt lat="46.974079" lon="10.390359">
        <ele>2104</ele>
      </trkpt>
      <trkpt lat="46.974067" lon="10.390374">
        <ele>2103</ele>
      </trkpt>
      <trkpt lat="46.974052" lon="10.390383">
        <ele>2103</ele>
      </trkpt>
      <trkpt lat="46.974041" lon="10.390382">
        <ele>2103</ele>
      </trkpt>
      <trkpt lat="46.974023" lon="10.390394">
        <ele>2102</ele>
      </trkpt>
      <trkpt lat="46.974005" lon="10.390407">
        <ele>2101</ele>
      </trkpt>
      <trkpt lat="46.973972" lon="10.390417">
        <ele>2101</ele>
      </trkpt>
      <trkpt lat="46.973938" lon="10.390422">
        <ele>2101</ele>
      </trkpt>
      <trkpt lat="46.973912" lon="10.39043">
        <ele>2099</ele>
      </trkpt>
      <trkpt lat="46.973883" lon="10.390441">
        <ele>2098</ele>
      </trkpt>
      <trkpt lat="46.973858" lon="10.390459">
        <ele>2096</ele>
      </trkpt>
      <trkpt lat="46.973838" lon="10.390486">
        <ele>2096</ele>
      </trkpt>
      <trkpt lat="46.973808" lon="10.390516">
        <ele>2095</ele>
      </trkpt>
      <trkpt lat="46.973785" lon="10.390525">
        <ele>2094</ele>
      </trkpt>
      <trkpt lat="46.973766" lon="10.39054">
        <ele>2092</ele>
      </trkpt>
      <trkpt lat="46.973748" lon="10.39055">
        <ele>2092</ele>
      </trkpt>
      <trkpt lat="46.973727" lon="10.390546">
        <ele>2091</ele>
      </trkpt>
      <trkpt lat="46.973706" lon="10.390532">
        <ele>2091</ele>
      </trkpt>
      <trkpt lat="46.973682" lon="10.390531">
        <ele>2091</ele>
      </trkpt>
      <trkpt lat="46.973651" lon="10.390512">
        <ele>2090</ele>
      </trkpt>
      <trkpt lat="46.97362" lon="10.390493">
        <ele>2090</ele>
      </trkpt>
      <trkpt lat="46.97359" lon="10.390487">
        <ele>2089</ele>
      </trkpt>
      <trkpt lat="46.973569" lon="10.390493">
        <ele>2089</ele>
      </trkpt>
      <trkpt lat="46.973555" lon="10.39051">
        <ele>2088</ele>
      </trkpt>
      <trkpt lat="46.973531" lon="10.390522">
        <ele>2087</ele>
      </trkpt>
      <trkpt lat="46.973493" lon="10.390518">
        <ele>2086</ele>
      </trkpt>
      <trkpt lat="46.973466" lon="10.390512">
        <ele>2086</ele>
      </trkpt>
      <trkpt lat="46.973443" lon="10.390504">
        <ele>2085</ele>
      </trkpt>
      <trkpt lat="46.973421" lon="10.390481">
        <ele>2085</ele>
      </trkpt>
      <trkpt lat="46.973405" lon="10.390476">
        <ele>2084</ele>
      </trkpt>
      <trkpt lat="46.973379" lon="10.390477">
        <ele>2083</ele>
      </trkpt>
      <trkpt lat="46.973356" lon="10.390472">
        <ele>2082</ele>
      </trkpt>
      <trkpt lat="46.97334" lon="10.390464">
        <ele>2081</ele>
      </trkpt>
      <trkpt lat="46.973325" lon="10.390465">
        <ele>2081</ele>
      </trkpt>
      <trkpt lat="46.973317" lon="10.390479">
        <ele>2080</ele>
      </trkpt>
      <trkpt lat="46.973319" lon="10.390505">
        <ele>2080</ele>
      </trkpt>
      <trkpt lat="46.973328" lon="10.390531">
        <ele>2080</ele>
      </trkpt>
      <trkpt lat="46.973328" lon="10.390565">
        <ele>2079</ele>
      </trkpt>
      <trkpt lat="46.973328" lon="10.390609">
        <ele>2078</ele>
      </trkpt>
      <trkpt lat="46.973334" lon="10.39064">
        <ele>2078</ele>
      </trkpt>
      <trkpt lat="46.973405" lon="10.390876">
        <ele>2074</ele>
      </trkpt>
      <trkpt lat="46.973415" lon="10.391017">
        <ele>2073</ele>
      </trkpt>
      <trkpt lat="46.973432" lon="10.391162">
        <ele>2071</ele>
      </trkpt>
      <trkpt lat="46.97344" lon="10.391279">
        <ele>2069</ele>
      </trkpt>
      <trkpt lat="46.973425" lon="10.391415">
        <ele>2067</ele>
      </trkpt>
      <trkpt lat="46.973393" lon="10.391493">
        <ele>2065</ele>
      </trkpt>
      <trkpt lat="46.973373" lon="10.391572">
        <ele>2064</ele>
      </trkpt>
      <trkpt lat="46.973376" lon="10.391666">
        <ele>2061</ele>
      </trkpt>
      <trkpt lat="46.973407" lon="10.391767">
        <ele>2060</ele>
      </trkpt>
      <trkpt lat="46.973421" lon="10.391864">
        <ele>2059</ele>
      </trkpt>
      <trkpt lat="46.973313" lon="10.39186">
        <ele>2057</ele>
      </trkpt>
      <trkpt lat="46.973242" lon="10.391836">
        <ele>2054</ele>
      </trkpt>
      <trkpt lat="46.973179" lon="10.39178">
        <ele>2053</ele>
      </trkpt>
      <trkpt lat="46.973124" lon="10.391686">
        <ele>2051</ele>
      </trkpt>
      <trkpt lat="46.973005" lon="10.391438">
        <ele>2046</ele>
      </trkpt>
      <trkpt lat="46.972936" lon="10.391285">
        <ele>2044</ele>
      </trkpt>
      <trkpt lat="46.972896" lon="10.391216">
        <ele>2042</ele>
      </trkpt>
      <trkpt lat="46.972835" lon="10.39115">
        <ele>2041</ele>
      </trkpt>
      <trkpt lat="46.972791" lon="10.391128">
        <ele>2040</ele>
      </trkpt>
      <trkpt lat="46.972741" lon="10.391117">
        <ele>2039</ele>
      </trkpt>
      <trkpt lat="46.972691" lon="10.391113">
        <ele>2038</ele>
      </trkpt>
      <trkpt lat="46.972649" lon="10.391116">
        <ele>2037</ele>
      </trkpt>
      <trkpt lat="46.972549" lon="10.391124">
        <ele>2035</ele>
      </trkpt>
      <trkpt lat="46.972346" lon="10.391133">
        <ele>2030</ele>
      </trkpt>
      <trkpt lat="46.972229" lon="10.391146">
        <ele>2027</ele>
      </trkpt>
      <trkpt lat="46.972144" lon="10.391166">
        <ele>2025</ele>
      </trkpt>
      <trkpt lat="46.9721" lon="10.391197">
        <ele>2025</ele>
      </trkpt>
      <trkpt lat="46.972071" lon="10.391235">
        <ele>2024</ele>
      </trkpt>
      <trkpt lat="46.972036" lon="10.391299">
        <ele>2023</ele>
      </trkpt>
      <trkpt lat="46.971941" lon="10.391491">
        <ele>2022</ele>
      </trkpt>
      <trkpt lat="46.971884" lon="10.391586">
        <ele>2021</ele>
      </trkpt>
      <trkpt lat="46.971832" lon="10.391663">
        <ele>2020</ele>
      </trkpt>
      <trkpt lat="46.97176" lon="10.391753">
        <ele>2018</ele>
      </trkpt>
      <trkpt lat="46.971697" lon="10.391831">
        <ele>2017</ele>
      </trkpt>
      <trkpt lat="46.971622" lon="10.391918">
        <ele>2016</ele>
      </trkpt>
      <trkpt lat="46.971553" lon="10.391992">
        <ele>2014</ele>
      </trkpt>
      <trkpt lat="46.971487" lon="10.392052">
        <ele>2012</ele>
      </trkpt>
      <trkpt lat="46.971343" lon="10.392172">
        <ele>2009</ele>
      </trkpt>
      <trkpt lat="46.971215" lon="10.392273">
        <ele>2006</ele>
      </trkpt>
      <trkpt lat="46.971084" lon="10.392371">
        <ele>2002</ele>
      </trkpt>
      <trkpt lat="46.971009" lon="10.392414">
        <ele>2001</ele>
      </trkpt>
      <trkpt lat="46.970953" lon="10.392432">
        <ele>1999</ele>
      </trkpt>
      <trkpt lat="46.970877" lon="10.392442">
        <ele>1998</ele>
      </trkpt>
      <trkpt lat="46.970829" lon="10.392446">
        <ele>1997</ele>
      </trkpt>
      <trkpt lat="46.970803" lon="10.392457">
        <ele>1996</ele>
      </trkpt>
      <trkpt lat="46.970776" lon="10.392492">
        <ele>1996</ele>
      </trkpt>
      <trkpt lat="46.970673" lon="10.392497">
        <ele>1995</ele>
      </trkpt>
      <trkpt lat="46.970605" lon="10.392501">
        <ele>1995</ele>
      </trkpt>
      <trkpt lat="46.970573" lon="10.392505">
        <ele>1994</ele>
      </trkpt>
      <trkpt lat="46.970538" lon="10.392506">
        <ele>1993</ele>
      </trkpt>
      <trkpt lat="46.9705" lon="10.392512">
        <ele>1992</ele>
      </trkpt>
      <trkpt lat="46.970464" lon="10.392518">
        <ele>1991</ele>
      </trkpt>
      <trkpt lat="46.970437" lon="10.392509">
        <ele>1991</ele>
      </trkpt>
      <trkpt lat="46.970403" lon="10.392509">
        <ele>1990</ele>
      </trkpt>
      <trkpt lat="46.970378" lon="10.392528">
        <ele>1990</ele>
      </trkpt>
      <trkpt lat="46.970347" lon="10.392548">
        <ele>1989</ele>
      </trkpt>
      <trkpt lat="46.97031" lon="10.392577">
        <ele>1988</ele>
      </trkpt>
      <trkpt lat="46.970269" lon="10.392602">
        <ele>1987</ele>
      </trkpt>
      <trkpt lat="46.970227" lon="10.392617">
        <ele>1987</ele>
      </trkpt>
      <trkpt lat="46.970173" lon="10.39263">
        <ele>1986</ele>
      </trkpt>
      <trkpt lat="46.970135" lon="10.392651">
        <ele>1985</ele>
      </trkpt>
      <trkpt lat="46.970101" lon="10.392677">
        <ele>1984</ele>
      </trkpt>
      <trkpt lat="46.970065" lon="10.392702">
        <ele>1983</ele>
      </trkpt>
      <trkpt lat="46.97002" lon="10.392731">
        <ele>1982</ele>
      </trkpt>
      <trkpt lat="46.969976" lon="10.392739">
        <ele>1981</ele>
      </trkpt>
      <trkpt lat="46.969939" lon="10.392757">
        <ele>1980</ele>
      </trkpt>
      <trkpt lat="46.969901" lon="10.392782">
        <ele>1979</ele>
      </trkpt>
      <trkpt lat="46.969856" lon="10.392824">
        <ele>1978</ele>
      </trkpt>
      <trkpt lat="46.969817" lon="10.392856">
        <ele>1977</ele>
      </trkpt>
      <trkpt lat="46.969796" lon="10.392879">
        <ele>1976</ele>
      </trkpt>
      <trkpt lat="46.96977" lon="10.392893">
        <ele>1975</ele>
      </trkpt>
      <trkpt lat="46.96975" lon="10.392918">
        <ele>1974</ele>
      </trkpt>
      <trkpt lat="46.969734" lon="10.392925">
        <ele>1974</ele>
      </trkpt>
      <trkpt lat="46.969696" lon="10.392932">
        <ele>1973</ele>
      </trkpt>
      <trkpt lat="46.969628" lon="10.392942">
        <ele>1971</ele>
      </trkpt>
      <trkpt lat="46.969561" lon="10.392969">
        <ele>1969</ele>
      </trkpt>
      <trkpt lat="46.969531" lon="10.392962">
        <ele>1969</ele>
      </trkpt>
      <trkpt lat="46.969504" lon="10.392965">
        <ele>1969</ele>
      </trkpt>
      <trkpt lat="46.969466" lon="10.393012">
        <ele>1968</ele>
      </trkpt>
      <trkpt lat="46.969442" lon="10.393038">
        <ele>1969</ele>
      </trkpt>
      <trkpt lat="46.969419" lon="10.39306">
        <ele>1969</ele>
      </trkpt>
      <trkpt lat="46.969403" lon="10.39306">
        <ele>1969</ele>
      </trkpt>
      <trkpt lat="46.969356" lon="10.393089">
        <ele>1970</ele>
      </trkpt>
      <trkpt lat="46.969331" lon="10.393104">
        <ele>1970</ele>
      </trkpt>
      <trkpt lat="46.96931" lon="10.393108">
        <ele>1970</ele>
      </trkpt>
      <trkpt lat="46.969273" lon="10.393102">
        <ele>1969</ele>
      </trkpt>
      <trkpt lat="46.969248" lon="10.393118">
        <ele>1968</ele>
      </trkpt>
      <trkpt lat="46.96922" lon="10.393137">
        <ele>1968</ele>
      </trkpt>
      <trkpt lat="46.969191" lon="10.393137">
        <ele>1967</ele>
      </trkpt>
      <trkpt lat="46.96917" lon="10.393137">
        <ele>1966</ele>
      </trkpt>
      <trkpt lat="46.969153" lon="10.393129">
        <ele>1965</ele>
      </trkpt>
      <trkpt lat="46.96913" lon="10.393093">
        <ele>1964</ele>
      </trkpt>
      <trkpt lat="46.969112" lon="10.393073">
        <ele>1964</ele>
      </trkpt>
      <trkpt lat="46.969081" lon="10.393063">
        <ele>1963</ele>
      </trkpt>
      <trkpt lat="46.969055" lon="10.393061">
        <ele>1962</ele>
      </trkpt>
      <trkpt lat="46.968999" lon="10.393048">
        <ele>1960</ele>
      </trkpt>
      <trkpt lat="46.968952" lon="10.393041">
        <ele>1958</ele>
      </trkpt>
      <trkpt lat="46.96891" lon="10.39304">
        <ele>1956</ele>
      </trkpt>
      <trkpt lat="46.968879" lon="10.393053">
        <ele>1955</ele>
      </trkpt>
      <trkpt lat="46.968836" lon="10.393055">
        <ele>1954</ele>
      </trkpt>
      <trkpt lat="46.968804" lon="10.393051">
        <ele>1953</ele>
      </trkpt>
      <trkpt lat="46.968759" lon="10.393036">
        <ele>1952</ele>
      </trkpt>
      <trkpt lat="46.968746" lon="10.393027">
        <ele>1951</ele>
      </trkpt>
      <trkpt lat="46.968705" lon="10.393009">
        <ele>1950</ele>
      </trkpt>
      <trkpt lat="46.968678" lon="10.392997">
        <ele>1950</ele>
      </trkpt>
      <trkpt lat="46.968609" lon="10.392974">
        <ele>1948</ele>
      </trkpt>
      <trkpt lat="46.96859" lon="10.392964">
        <ele>1948</ele>
      </trkpt>
      <trkpt lat="46.968578" lon="10.392965">
        <ele>1948</ele>
      </trkpt>
      <trkpt lat="46.968555" lon="10.392968">
        <ele>1947</ele>
      </trkpt>
      <trkpt lat="46.968543" lon="10.392967">
        <ele>1947</ele>
      </trkpt>
      <trkpt lat="46.968515" lon="10.392965">
        <ele>1947</ele>
      </trkpt>
      <trkpt lat="46.968472" lon="10.392968">
        <ele>1948</ele>
      </trkpt>
      <trkpt lat="46.968395" lon="10.392965">
        <ele>1947</ele>
      </trkpt>
      <trkpt lat="46.968365" lon="10.392949">
        <ele>1948</ele>
      </trkpt>
      <trkpt lat="46.968347" lon="10.392956">
        <ele>1947</ele>
      </trkpt>
      <trkpt lat="46.968296" lon="10.392952">
        <ele>1947</ele>
      </trkpt>
      <trkpt lat="46.968286" lon="10.392957">
        <ele>1947</ele>
      </trkpt>
      <trkpt lat="46.968266" lon="10.392959">
        <ele>1947</ele>
      </trkpt>
      <trkpt lat="46.968231" lon="10.39296">
        <ele>1947</ele>
      </trkpt>
      <trkpt lat="46.968205" lon="10.392936">
        <ele>1947</ele>
      </trkpt>
      <trkpt lat="46.968161" lon="10.392917">
        <ele>1947</ele>
      </trkpt>
      <trkpt lat="46.968108" lon="10.392901">
        <ele>1947</ele>
      </trkpt>
      <trkpt lat="46.968079" lon="10.392901">
        <ele>1946</ele>
      </trkpt>
      <trkpt lat="46.968016" lon="10.392918">
        <ele>1945</ele>
      </trkpt>
      <trkpt lat="46.967968" lon="10.392936">
        <ele>1946</ele>
      </trkpt>
      <trkpt lat="46.967919" lon="10.392955">
        <ele>1947</ele>
      </trkpt>
      <trkpt lat="46.967895" lon="10.392984">
        <ele>1947</ele>
      </trkpt>
      <trkpt lat="46.967868" lon="10.39301">
        <ele>1948</ele>
      </trkpt>
      <trkpt lat="46.967841" lon="10.39304">
        <ele>1948</ele>
      </trkpt>
      <trkpt lat="46.967817" lon="10.393051">
        <ele>1948</ele>
      </trkpt>
      <trkpt lat="46.967806" lon="10.39305">
        <ele>1948</ele>
      </trkpt>
      <trkpt lat="46.967786" lon="10.393038">
        <ele>1947</ele>
      </trkpt>
      <trkpt lat="46.967743" lon="10.393005">
        <ele>1945</ele>
      </trkpt>
      <trkpt lat="46.967722" lon="10.392988">
        <ele>1944</ele>
      </trkpt>
      <trkpt lat="46.967704" lon="10.392997">
        <ele>1943</ele>
      </trkpt>
      <trkpt lat="46.967685" lon="10.393014">
        <ele>1942</ele>
      </trkpt>
      <trkpt lat="46.967664" lon="10.393017">
        <ele>1940</ele>
      </trkpt>
      <trkpt lat="46.967647" lon="10.392997">
        <ele>1940</ele>
      </trkpt>
      <trkpt lat="46.967638" lon="10.392998">
        <ele>1939</ele>
      </trkpt>
      <trkpt lat="46.967633" lon="10.393011">
        <ele>1939</ele>
      </trkpt>
      <trkpt lat="46.967633" lon="10.393032">
        <ele>1938</ele>
      </trkpt>
      <trkpt lat="46.96763" lon="10.393046">
        <ele>1938</ele>
      </trkpt>
      <trkpt lat="46.967617" lon="10.393052">
        <ele>1937</ele>
      </trkpt>
      <trkpt lat="46.967605" lon="10.393053">
        <ele>1936</ele>
      </trkpt>
      <trkpt lat="46.967538" lon="10.393041">
        <ele>1933</ele>
      </trkpt>
      <trkpt lat="46.967516" lon="10.393044">
        <ele>1932</ele>
      </trkpt>
      <trkpt lat="46.967508" lon="10.393039">
        <ele>1931</ele>
      </trkpt>
      <trkpt lat="46.967495" lon="10.393023">
        <ele>1931</ele>
      </trkpt>
      <trkpt lat="46.967475" lon="10.393019">
        <ele>1930</ele>
      </trkpt>
      <trkpt lat="46.967466" lon="10.393025">
        <ele>1930</ele>
      </trkpt>
      <trkpt lat="46.96746" lon="10.393036">
        <ele>1929</ele>
      </trkpt>
      <trkpt lat="46.967454" lon="10.393046">
        <ele>1928</ele>
      </trkpt>
      <trkpt lat="46.967424" lon="10.393048">
        <ele>1927</ele>
      </trkpt>
      <trkpt lat="46.967414" lon="10.393037">
        <ele>1927</ele>
      </trkpt>
      <trkpt lat="46.967383" lon="10.393039">
        <ele>1926</ele>
      </trkpt>
      <trkpt lat="46.967374" lon="10.393053">
        <ele>1925</ele>
      </trkpt>
      <trkpt lat="46.967355" lon="10.393065">
        <ele>1924</ele>
      </trkpt>
      <trkpt lat="46.967348" lon="10.393075">
        <ele>1924</ele>
      </trkpt>
      <trkpt lat="46.967335" lon="10.39308">
        <ele>1923</ele>
      </trkpt>
      <trkpt lat="46.967315" lon="10.39308">
        <ele>1922</ele>
      </trkpt>
      <trkpt lat="46.967275" lon="10.393085">
        <ele>1921</ele>
      </trkpt>
      <trkpt lat="46.967221" lon="10.39311">
        <ele>1919</ele>
      </trkpt>
      <trkpt lat="46.967145" lon="10.393113">
        <ele>1917</ele>
      </trkpt>
      <trkpt lat="46.967127" lon="10.393123">
        <ele>1916</ele>
      </trkpt>
      <trkpt lat="46.967088" lon="10.393129">
        <ele>1915</ele>
      </trkpt>
      <trkpt lat="46.967027" lon="10.393141">
        <ele>1912</ele>
      </trkpt>
      <trkpt lat="46.966987" lon="10.393151">
        <ele>1911</ele>
      </trkpt>
      <trkpt lat="46.966942" lon="10.393165">
        <ele>1911</ele>
      </trkpt>
      <trkpt lat="46.966931" lon="10.393189">
        <ele>1910</ele>
      </trkpt>
      <trkpt lat="46.966934" lon="10.393215">
        <ele>1909</ele>
      </trkpt>
      <trkpt lat="46.966948" lon="10.393235">
        <ele>1907</ele>
      </trkpt>
      <trkpt lat="46.966973" lon="10.393252">
        <ele>1907</ele>
      </trkpt>
      <trkpt lat="46.967" lon="10.393292">
        <ele>1905</ele>
      </trkpt>
      <trkpt lat="46.967016" lon="10.393307">
        <ele>1905</ele>
      </trkpt>
      <trkpt lat="46.967034" lon="10.393319">
        <ele>1904</ele>
      </trkpt>
      <trkpt lat="46.967078" lon="10.393333">
        <ele>1904</ele>
      </trkpt>
      <trkpt lat="46.967092" lon="10.393343">
        <ele>1903</ele>
      </trkpt>
      <trkpt lat="46.967097" lon="10.393355">
        <ele>1903</ele>
      </trkpt>
      <trkpt lat="46.967105" lon="10.393382">
        <ele>1902</ele>
      </trkpt>
      <trkpt lat="46.967132" lon="10.393474">
        <ele>1898</ele>
      </trkpt>
      <trkpt lat="46.967147" lon="10.393483">
        <ele>1898</ele>
      </trkpt>
      <trkpt lat="46.967153" lon="10.393512">
        <ele>1897</ele>
      </trkpt>
      <trkpt lat="46.967169" lon="10.393539">
        <ele>1896</ele>
      </trkpt>
      <trkpt lat="46.967196" lon="10.393567">
        <ele>1895</ele>
      </trkpt>
      <trkpt lat="46.967217" lon="10.393608">
        <ele>1895</ele>
      </trkpt>
      <trkpt lat="46.967241" lon="10.393636">
        <ele>1894</ele>
      </trkpt>
      <trkpt lat="46.967272" lon="10.393677">
        <ele>1893</ele>
      </trkpt>
      <trkpt lat="46.967318" lon="10.393755">
        <ele>1890</ele>
      </trkpt>
      <trkpt lat="46.967353" lon="10.393799">
        <ele>1889</ele>
      </trkpt>
      <trkpt lat="46.967357" lon="10.393809">
        <ele>1889</ele>
      </trkpt>
      <trkpt lat="46.967372" lon="10.393845">
        <ele>1888</ele>
      </trkpt>
      <trkpt lat="46.967357" lon="10.393973">
        <ele>1888</ele>
      </trkpt>
      <trkpt lat="46.967347" lon="10.394073">
        <ele>1888</ele>
      </trkpt>
      <trkpt lat="46.967346" lon="10.394073">
        <ele>1888</ele>
      </trkpt>
      <trkpt lat="46.967254" lon="10.394079">
        <ele>1887</ele>
      </trkpt>
      <trkpt lat="46.96714" lon="10.394078">
        <ele>1885</ele>
      </trkpt>
      <trkpt lat="46.967099" lon="10.394079">
        <ele>1884</ele>
      </trkpt>
      <trkpt lat="46.967031" lon="10.39409">
        <ele>1883</ele>
      </trkpt>
      <trkpt lat="46.966983" lon="10.394111">
        <ele>1882</ele>
      </trkpt>
      <trkpt lat="46.966956" lon="10.394122">
        <ele>1881</ele>
      </trkpt>
      <trkpt lat="46.966849" lon="10.394175">
        <ele>1879</ele>
      </trkpt>
      <trkpt lat="46.966658" lon="10.394252">
        <ele>1874</ele>
      </trkpt>
      <trkpt lat="46.966489" lon="10.394303">
        <ele>1870</ele>
      </trkpt>
      <trkpt lat="46.966237" lon="10.394365">
        <ele>1864</ele>
      </trkpt>
      <trkpt lat="46.966072" lon="10.39443">
        <ele>1859</ele>
      </trkpt>
      <trkpt lat="46.965971" lon="10.394483">
        <ele>1856</ele>
      </trkpt>
      <trkpt lat="46.965776" lon="10.394598">
        <ele>1850</ele>
      </trkpt>
      <trkpt lat="46.965634" lon="10.394693">
        <ele>1846</ele>
      </trkpt>
      <trkpt lat="46.965541" lon="10.394788">
        <ele>1842</ele>
      </trkpt>
      <trkpt lat="46.965369" lon="10.394977">
        <ele>1836</ele>
      </trkpt>
      <trkpt lat="46.965326" lon="10.395014">
        <ele>1834</ele>
      </trkpt>
      <trkpt lat="46.965285" lon="10.395044">
        <ele>1833</ele>
      </trkpt>
      <trkpt lat="46.965178" lon="10.395069">
        <ele>1829</ele>
      </trkpt>
      <trkpt lat="46.964952" lon="10.395075">
        <ele>1824</ele>
      </trkpt>
      <trkpt lat="46.964908" lon="10.395073">
        <ele>1823</ele>
      </trkpt>
      <trkpt lat="46.964868" lon="10.395072">
        <ele>1822</ele>
      </trkpt>
      <trkpt lat="46.964853" lon="10.395047">
        <ele>1821</ele>
      </trkpt>
      <trkpt lat="46.964826" lon="10.395028">
        <ele>1820</ele>
      </trkpt>
      <trkpt lat="46.964798" lon="10.395014">
        <ele>1820</ele>
      </trkpt>
      <trkpt lat="46.964758" lon="10.395008">
        <ele>1819</ele>
      </trkpt>
      <trkpt lat="46.964697" lon="10.395015">
        <ele>1817</ele>
      </trkpt>
      <trkpt lat="46.9646" lon="10.395032">
        <ele>1815</ele>
      </trkpt>
      <trkpt lat="46.964493" lon="10.395067">
        <ele>1812</ele>
      </trkpt>
      <trkpt lat="46.964386" lon="10.395123">
        <ele>1810</ele>
      </trkpt>
      <trkpt lat="46.964283" lon="10.395184">
        <ele>1808</ele>
      </trkpt>
      <trkpt lat="46.964154" lon="10.395255">
        <ele>1805</ele>
      </trkpt>
      <trkpt lat="46.963987" lon="10.395338">
        <ele>1801</ele>
      </trkpt>
      <trkpt lat="46.963828" lon="10.395425">
        <ele>1797</ele>
      </trkpt>
      <trkpt lat="46.963672" lon="10.395512">
        <ele>1794</ele>
      </trkpt>
      <trkpt lat="46.963518" lon="10.395589">
        <ele>1792</ele>
      </trkpt>
      <trkpt lat="46.963391" lon="10.39565">
        <ele>1789</ele>
      </trkpt>
      <trkpt lat="46.963322" lon="10.395693">
        <ele>1788</ele>
      </trkpt>
      <trkpt lat="46.963275" lon="10.395732">
        <ele>1787</ele>
      </trkpt>
      <trkpt lat="46.963215" lon="10.395802">
        <ele>1786</ele>
      </trkpt>
      <trkpt lat="46.963163" lon="10.395871">
        <ele>1785</ele>
      </trkpt>
      <trkpt lat="46.963095" lon="10.395934">
        <ele>1784</ele>
      </trkpt>
      <trkpt lat="46.963016" lon="10.396007">
        <ele>1782</ele>
      </trkpt>
      <trkpt lat="46.962934" lon="10.396078">
        <ele>1780</ele>
      </trkpt>
      <trkpt lat="46.96281" lon="10.3962">
        <ele>1777</ele>
      </trkpt>
      <trkpt lat="46.962719" lon="10.396281">
        <ele>1774</ele>
      </trkpt>
      <trkpt lat="46.962715" lon="10.396284">
        <ele>1774</ele>
      </trkpt>
      <trkpt lat="46.96252" lon="10.396424">
        <ele>1769</ele>
      </trkpt>
      <trkpt lat="46.962423" lon="10.396337">
        <ele>1767</ele>
      </trkpt>
      <trkpt lat="46.962363" lon="10.396301">
        <ele>1767</ele>
      </trkpt>
      <trkpt lat="46.962294" lon="10.39629">
        <ele>1770</ele>
      </trkpt>
      <trkpt lat="46.962235" lon="10.396302">
        <ele>1770</ele>
      </trkpt>
      <trkpt lat="46.962148" lon="10.396363">
        <ele>1771</ele>
      </trkpt>
      <trkpt lat="46.962055" lon="10.396469">
        <ele>1772</ele>
      </trkpt>
      <trkpt lat="46.961985" lon="10.396554">
        <ele>1772</ele>
      </trkpt>
      <trkpt lat="46.961974" lon="10.396568">
        <ele>1772</ele>
      </trkpt>
      <trkpt lat="46.961943" lon="10.396585">
        <ele>1772</ele>
      </trkpt>
      <trkpt lat="46.961909" lon="10.396589">
        <ele>1771</ele>
      </trkpt>
      <trkpt lat="46.961822" lon="10.396567">
        <ele>1770</ele>
      </trkpt>
      <trkpt lat="46.961775" lon="10.396555">
        <ele>1769</ele>
      </trkpt>
      <trkpt lat="46.961749" lon="10.396561">
        <ele>1768</ele>
      </trkpt>
      <trkpt lat="46.96172" lon="10.396581">
        <ele>1768</ele>
      </trkpt>
      <trkpt lat="46.961643" lon="10.396655">
        <ele>1766</ele>
      </trkpt>
      <trkpt lat="46.961615" lon="10.396662">
        <ele>1765</ele>
      </trkpt>
      <trkpt lat="46.961582" lon="10.396655">
        <ele>1764</ele>
      </trkpt>
      <trkpt lat="46.961519" lon="10.39664">
        <ele>1764</ele>
      </trkpt>
      <trkpt lat="46.961462" lon="10.396638">
        <ele>1762</ele>
      </trkpt>
      <trkpt lat="46.961425" lon="10.396653">
        <ele>1762</ele>
      </trkpt>
      <trkpt lat="46.961361" lon="10.396701">
        <ele>1761</ele>
      </trkpt>
      <trkpt lat="46.961265" lon="10.396785">
        <ele>1758</ele>
      </trkpt>
      <trkpt lat="46.961232" lon="10.396798">
        <ele>1758</ele>
      </trkpt>
      <trkpt lat="46.9612" lon="10.396804">
        <ele>1757</ele>
      </trkpt>
      <trkpt lat="46.961173" lon="10.396802">
        <ele>1756</ele>
      </trkpt>
      <trkpt lat="46.961123" lon="10.396773">
        <ele>1755</ele>
      </trkpt>
      <trkpt lat="46.961048" lon="10.396723">
        <ele>1753</ele>
      </trkpt>
      <trkpt lat="46.96096" lon="10.396652">
        <ele>1750</ele>
      </trkpt>
      <trkpt lat="46.960901" lon="10.396581">
        <ele>1749</ele>
      </trkpt>
      <trkpt lat="46.960857" lon="10.39653">
        <ele>1748</ele>
      </trkpt>
      <trkpt lat="46.960795" lon="10.396486">
        <ele>1747</ele>
      </trkpt>
      <trkpt lat="46.960731" lon="10.396448">
        <ele>1746</ele>
      </trkpt>
      <trkpt lat="46.960679" lon="10.396426">
        <ele>1745</ele>
      </trkpt>
      <trkpt lat="46.960668" lon="10.396422">
        <ele>1745</ele>
      </trkpt>
      <trkpt lat="46.960592" lon="10.396391">
        <ele>1744</ele>
      </trkpt>
      <trkpt lat="46.960535" lon="10.396369">
        <ele>1742</ele>
      </trkpt>
      <trkpt lat="46.960481" lon="10.396344">
        <ele>1741</ele>
      </trkpt>
      <trkpt lat="46.960437" lon="10.396325">
        <ele>1739</ele>
      </trkpt>
      <trkpt lat="46.960346" lon="10.396288">
        <ele>1737</ele>
      </trkpt>
      <trkpt lat="46.960303" lon="10.396269">
        <ele>1735</ele>
      </trkpt>
    </trkseg>
  </trk>
</gpx>