<?xml version="1.0" encoding="utf-8"?>
            <gpx xmlns="http://www.topografix.com/GPX/1/1" xmlns:xsd="http://www.w3.org/2001/XMLSchema" xmlns:xsi="http://www.w3.org/2001/XMLSchema-instance" version="1.1" creator="Fugawi 4,5,14,1696 http://www.fugawi.com/" xsi:schemaLocation="http://www.topografix.com/GPX/1/1 http://www.topografix.com/GPX/1/1/gpx.xsd">
                <trk>
                    <name>7194 Schäfersteig Trail</name>
                    <desc></desc>
                    <trkseg>
                        <trkpt lat="46.94525" lon="10.36243"><ele>1823</ele></trkpt>
<trkpt lat="46.94522" lon="10.36239"><ele>1823</ele></trkpt>
<trkpt lat="46.94509" lon="10.36227"><ele>1823</ele></trkpt>
<trkpt lat="46.94502" lon="10.3622"><ele>1823</ele></trkpt>
<trkpt lat="46.94494" lon="10.3621"><ele>1824</ele></trkpt>
<trkpt lat="46.94489" lon="10.36203"><ele>1824</ele></trkpt>
<trkpt lat="46.94487" lon="10.362"><ele>1824</ele></trkpt>
<trkpt lat="46.94489" lon="10.36197"><ele>1824</ele></trkpt>
<trkpt lat="46.94489" lon="10.36194"><ele>1824</ele></trkpt>
<trkpt lat="46.94488" lon="10.36191"><ele>1824</ele></trkpt>
<trkpt lat="46.94477" lon="10.36164"><ele>1824</ele></trkpt>
<trkpt lat="46.94476" lon="10.36159"><ele>1824</ele></trkpt>
<trkpt lat="46.94472" lon="10.36159"><ele>1824</ele></trkpt>
<trkpt lat="46.94468" lon="10.36159"><ele>1824</ele></trkpt>
<trkpt lat="46.94465" lon="10.36153"><ele>1824</ele></trkpt>
<trkpt lat="46.94459" lon="10.36143"><ele>1824</ele></trkpt>
<trkpt lat="46.94454" lon="10.36136"><ele>1827</ele></trkpt>
<trkpt lat="46.94449" lon="10.36131"><ele>1827</ele></trkpt>
<trkpt lat="46.94441" lon="10.36125"><ele>1827</ele></trkpt>
<trkpt lat="46.94431" lon="10.36117"><ele>1827</ele></trkpt>
<trkpt lat="46.94399" lon="10.36091"><ele>1836</ele></trkpt>
<trkpt lat="46.94379" lon="10.36076"><ele>1836</ele></trkpt>
<trkpt lat="46.94368" lon="10.36065"><ele>1836</ele></trkpt>
<trkpt lat="46.94365" lon="10.36061"><ele>1836</ele></trkpt>
<trkpt lat="46.94362" lon="10.36064"><ele>1837</ele></trkpt>
<trkpt lat="46.94359" lon="10.36065"><ele>1837</ele></trkpt>
<trkpt lat="46.94355" lon="10.36065"><ele>1837</ele></trkpt>
<trkpt lat="46.9435" lon="10.36065"><ele>1837</ele></trkpt>
<trkpt lat="46.94346" lon="10.36065"><ele>1838</ele></trkpt>
<trkpt lat="46.94343" lon="10.36067"><ele>1838</ele></trkpt>
<trkpt lat="46.94339" lon="10.36069"><ele>1838</ele></trkpt>
<trkpt lat="46.94336" lon="10.36072"><ele>1838</ele></trkpt>
<trkpt lat="46.94335" lon="10.36077"><ele>1838</ele></trkpt>
<trkpt lat="46.94334" lon="10.36083"><ele>1838</ele></trkpt>
<trkpt lat="46.94334" lon="10.36089"><ele>1838</ele></trkpt>
<trkpt lat="46.94334" lon="10.36093"><ele>1838</ele></trkpt>
<trkpt lat="46.94334" lon="10.36101"><ele>1838</ele></trkpt>
<trkpt lat="46.94336" lon="10.36114"><ele>1838</ele></trkpt>
<trkpt lat="46.94336" lon="10.36124"><ele>1838</ele></trkpt>
<trkpt lat="46.94336" lon="10.3613"><ele>1838</ele></trkpt>
<trkpt lat="46.94335" lon="10.36136"><ele>1837</ele></trkpt>
<trkpt lat="46.94333" lon="10.36142"><ele>1837</ele></trkpt>
<trkpt lat="46.94329" lon="10.36147"><ele>1837</ele></trkpt>
<trkpt lat="46.94325" lon="10.3615"><ele>1837</ele></trkpt>
<trkpt lat="46.94306" lon="10.36159"><ele>1838</ele></trkpt>
<trkpt lat="46.94294" lon="10.36166"><ele>1838</ele></trkpt>
<trkpt lat="46.94291" lon="10.36168"><ele>1838</ele></trkpt>
<trkpt lat="46.94288" lon="10.36168"><ele>1838</ele></trkpt>
<trkpt lat="46.94286" lon="10.36172"><ele>1839</ele></trkpt>
<trkpt lat="46.94284" lon="10.36173"><ele>1839</ele></trkpt>
<trkpt lat="46.9428" lon="10.36178"><ele>1839</ele></trkpt>
<trkpt lat="46.94278" lon="10.36181"><ele>1839</ele></trkpt>
<trkpt lat="46.94275" lon="10.36186"><ele>1839</ele></trkpt>
<trkpt lat="46.94273" lon="10.36192"><ele>1839</ele></trkpt>
<trkpt lat="46.94271" lon="10.36203"><ele>1839</ele></trkpt>
<trkpt lat="46.94271" lon="10.36206"><ele>1839</ele></trkpt>
<trkpt lat="46.94272" lon="10.36211"><ele>1839</ele></trkpt>
<trkpt lat="46.94275" lon="10.36219"><ele>1839</ele></trkpt>
<trkpt lat="46.94278" lon="10.36227"><ele>1839</ele></trkpt>
<trkpt lat="46.94283" lon="10.36236"><ele>1839</ele></trkpt>
<trkpt lat="46.94289" lon="10.36246"><ele>1847</ele></trkpt>
<trkpt lat="46.94293" lon="10.36267"><ele>1847</ele></trkpt>
<trkpt lat="46.94297" lon="10.36281"><ele>1847</ele></trkpt>
<trkpt lat="46.94301" lon="10.36289"><ele>1847</ele></trkpt>
<trkpt lat="46.94304" lon="10.36295"><ele>1850</ele></trkpt>
<trkpt lat="46.94309" lon="10.36305"><ele>1850</ele></trkpt>
<trkpt lat="46.94312" lon="10.36312"><ele>1850</ele></trkpt>
<trkpt lat="46.94314" lon="10.36319"><ele>1850</ele></trkpt>
<trkpt lat="46.94315" lon="10.36323"><ele>1853</ele></trkpt>
<trkpt lat="46.94317" lon="10.36335"><ele>1853</ele></trkpt>
<trkpt lat="46.9432" lon="10.36345"><ele>1853</ele></trkpt>
<trkpt lat="46.94324" lon="10.36355"><ele>1853</ele></trkpt>
<trkpt lat="46.94329" lon="10.36365"><ele>1861</ele></trkpt>
<trkpt lat="46.94335" lon="10.36383"><ele>1861</ele></trkpt>
<trkpt lat="46.94341" lon="10.36396"><ele>1861</ele></trkpt>
<trkpt lat="46.94347" lon="10.36408"><ele>1861</ele></trkpt>
<trkpt lat="46.94355" lon="10.36431"><ele>1865</ele></trkpt>
<trkpt lat="46.94374" lon="10.36473"><ele>1865</ele></trkpt>
<trkpt lat="46.94382" lon="10.36495"><ele>1865</ele></trkpt>
<trkpt lat="46.94388" lon="10.36506"><ele>1865</ele></trkpt>
<trkpt lat="46.944" lon="10.36522"><ele>1874</ele></trkpt>
<trkpt lat="46.94411" lon="10.36534"><ele>1874</ele></trkpt>
<trkpt lat="46.94416" lon="10.36542"><ele>1874</ele></trkpt>
<trkpt lat="46.94421" lon="10.36548"><ele>1874</ele></trkpt>
<trkpt lat="46.94424" lon="10.36552"><ele>1877</ele></trkpt>
<trkpt lat="46.94425" lon="10.36556"><ele>1877</ele></trkpt>
<trkpt lat="46.94425" lon="10.36558"><ele>1877</ele></trkpt>
<trkpt lat="46.94423" lon="10.36562"><ele>1877</ele></trkpt>
<trkpt lat="46.94421" lon="10.36563"><ele>1877</ele></trkpt>
<trkpt lat="46.94418" lon="10.36563"><ele>1877</ele></trkpt>
<trkpt lat="46.94413" lon="10.36562"><ele>1877</ele></trkpt>
<trkpt lat="46.94409" lon="10.36561"><ele>1877</ele></trkpt>
<trkpt lat="46.94401" lon="10.36558"><ele>1881</ele></trkpt>
<trkpt lat="46.94395" lon="10.36558"><ele>1881</ele></trkpt>
<trkpt lat="46.9439" lon="10.36558"><ele>1881</ele></trkpt>
<trkpt lat="46.94386" lon="10.36557"><ele>1881</ele></trkpt>
<trkpt lat="46.94382" lon="10.36552"><ele>1887</ele></trkpt>
<trkpt lat="46.94375" lon="10.36541"><ele>1887</ele></trkpt>
<trkpt lat="46.94369" lon="10.36532"><ele>1887</ele></trkpt>
<trkpt lat="46.94364" lon="10.36525"><ele>1887</ele></trkpt>
<trkpt lat="46.9436" lon="10.3652"><ele>1886</ele></trkpt>
<trkpt lat="46.94356" lon="10.36516"><ele>1886</ele></trkpt>
<trkpt lat="46.9435" lon="10.36514"><ele>1886</ele></trkpt>
<trkpt lat="46.94344" lon="10.36509"><ele>1886</ele></trkpt>
<trkpt lat="46.94337" lon="10.36505"><ele>1885</ele></trkpt>
<trkpt lat="46.94331" lon="10.36501"><ele>1885</ele></trkpt>
<trkpt lat="46.94327" lon="10.365"><ele>1885</ele></trkpt>
<trkpt lat="46.94321" lon="10.36501"><ele>1885</ele></trkpt>
<trkpt lat="46.94319" lon="10.36505"><ele>1893</ele></trkpt>
<trkpt lat="46.9432" lon="10.36508"><ele>1893</ele></trkpt>
<trkpt lat="46.94322" lon="10.36511"><ele>1893</ele></trkpt>
<trkpt lat="46.94326" lon="10.36517"><ele>1893</ele></trkpt>
<trkpt lat="46.94332" lon="10.36523"><ele>1903</ele></trkpt>
<trkpt lat="46.94342" lon="10.36532"><ele>1903</ele></trkpt>
<trkpt lat="46.94348" lon="10.36539"><ele>1903</ele></trkpt>
<trkpt lat="46.94352" lon="10.36548"><ele>1903</ele></trkpt>
<trkpt lat="46.94354" lon="10.36552"><ele>1895</ele></trkpt>
<trkpt lat="46.94358" lon="10.36566"><ele>1895</ele></trkpt>
<trkpt lat="46.94364" lon="10.36594"><ele>1895</ele></trkpt>
<trkpt lat="46.94369" lon="10.36611"><ele>1895</ele></trkpt>
<trkpt lat="46.94377" lon="10.36628"><ele>1902</ele></trkpt>
<trkpt lat="46.94388" lon="10.36658"><ele>1902</ele></trkpt>
<trkpt lat="46.94394" lon="10.36672"><ele>1902</ele></trkpt>
<trkpt lat="46.94396" lon="10.36687"><ele>1902</ele></trkpt>
<trkpt lat="46.94396" lon="10.36697"><ele>1909</ele></trkpt>
<trkpt lat="46.94396" lon="10.36701"><ele>1909</ele></trkpt>
<trkpt lat="46.94395" lon="10.36703"><ele>1909</ele></trkpt>
<trkpt lat="46.94395" lon="10.36706"><ele>1909</ele></trkpt>
<trkpt lat="46.94393" lon="10.36712"><ele>1920</ele></trkpt>
<trkpt lat="46.9439" lon="10.36724"><ele>1920</ele></trkpt>
<trkpt lat="46.94383" lon="10.36747"><ele>1920</ele></trkpt>
<trkpt lat="46.94375" lon="10.36769"><ele>1920</ele></trkpt>
<trkpt lat="46.94369" lon="10.3679"><ele>1931</ele></trkpt>
<trkpt lat="46.94364" lon="10.3681"><ele>1931</ele></trkpt>
<trkpt lat="46.94358" lon="10.36835"><ele>1931</ele></trkpt>
<trkpt lat="46.94357" lon="10.36847"><ele>1931</ele></trkpt>
<trkpt lat="46.94357" lon="10.36856"><ele>1929</ele></trkpt>
<trkpt lat="46.94361" lon="10.36863"><ele>1929</ele></trkpt>
<trkpt lat="46.94365" lon="10.36867"><ele>1929</ele></trkpt>
<trkpt lat="46.94371" lon="10.3687"><ele>1929</ele></trkpt>
<trkpt lat="46.94378" lon="10.3687"><ele>1923</ele></trkpt>
<trkpt lat="46.94386" lon="10.3687"><ele>1923</ele></trkpt>
<trkpt lat="46.94395" lon="10.36867"><ele>1923</ele></trkpt>
<trkpt lat="46.94399" lon="10.36865"><ele>1923</ele></trkpt>
<trkpt lat="46.94404" lon="10.36862"><ele>1924</ele></trkpt>
<trkpt lat="46.94412" lon="10.36857"><ele>1924</ele></trkpt>
<trkpt lat="46.94424" lon="10.36849"><ele>1924</ele></trkpt>
<trkpt lat="46.94432" lon="10.36844"><ele>1924</ele></trkpt>
<trkpt lat="46.94445" lon="10.36841"><ele>1927</ele></trkpt>
<trkpt lat="46.94455" lon="10.36838"><ele>1927</ele></trkpt>
<trkpt lat="46.94462" lon="10.36837"><ele>1927</ele></trkpt>
<trkpt lat="46.94468" lon="10.36839"><ele>1927</ele></trkpt>
<trkpt lat="46.94474" lon="10.36847"><ele>1932</ele></trkpt>
<trkpt lat="46.9448" lon="10.36863"><ele>1932</ele></trkpt>
<trkpt lat="46.94485" lon="10.36877"><ele>1932</ele></trkpt>
<trkpt lat="46.94489" lon="10.36891"><ele>1932</ele></trkpt>
<trkpt lat="46.9449" lon="10.36898"><ele>1951</ele></trkpt>
<trkpt lat="46.94495" lon="10.36919"><ele>1951</ele></trkpt>
<trkpt lat="46.94499" lon="10.36941"><ele>1951</ele></trkpt>
<trkpt lat="46.94504" lon="10.36963"><ele>1951</ele></trkpt>
<trkpt lat="46.9451" lon="10.36983"><ele>1964</ele></trkpt>
<trkpt lat="46.94516" lon="10.37003"><ele>1964</ele></trkpt>
<trkpt lat="46.94519" lon="10.37024"><ele>1964</ele></trkpt>
<trkpt lat="46.94521" lon="10.37048"><ele>1964</ele></trkpt>
<trkpt lat="46.94524" lon="10.37069"><ele>1970</ele></trkpt>
<trkpt lat="46.94529" lon="10.37087"><ele>1970</ele></trkpt>
<trkpt lat="46.94535" lon="10.37102"><ele>1970</ele></trkpt>
<trkpt lat="46.94537" lon="10.37124"><ele>1970</ele></trkpt>
<trkpt lat="46.94541" lon="10.37146"><ele>1970</ele></trkpt>
<trkpt lat="46.94545" lon="10.37168"><ele>1970</ele></trkpt>
<trkpt lat="46.94549" lon="10.37196"><ele>1970</ele></trkpt>
<trkpt lat="46.94554" lon="10.37222"><ele>1970</ele></trkpt>
<trkpt lat="46.94559" lon="10.37242"><ele>1981</ele></trkpt>
<trkpt lat="46.94562" lon="10.3726"><ele>1981</ele></trkpt>
<trkpt lat="46.94567" lon="10.37276"><ele>1981</ele></trkpt>
<trkpt lat="46.94569" lon="10.37289"><ele>1981</ele></trkpt>
<trkpt lat="46.94569" lon="10.37296"><ele>1987</ele></trkpt>
<trkpt lat="46.9457" lon="10.37308"><ele>1987</ele></trkpt>
<trkpt lat="46.94571" lon="10.37315"><ele>1987</ele></trkpt>
<trkpt lat="46.94573" lon="10.37323"><ele>1987</ele></trkpt>
<trkpt lat="46.94577" lon="10.37332"><ele>1998</ele></trkpt>
<trkpt lat="46.9458" lon="10.37341"><ele>1998</ele></trkpt>
<trkpt lat="46.94583" lon="10.37354"><ele>1998</ele></trkpt>
<trkpt lat="46.94586" lon="10.37378"><ele>1998</ele></trkpt>
<trkpt lat="46.94595" lon="10.37426"><ele>2007</ele></trkpt>
<trkpt lat="46.946" lon="10.3744"><ele>2007</ele></trkpt>
<trkpt lat="46.94603" lon="10.37457"><ele>2007</ele></trkpt>
<trkpt lat="46.94606" lon="10.37471"><ele>2007</ele></trkpt>
<trkpt lat="46.94609" lon="10.37485"><ele>2015</ele></trkpt>
<trkpt lat="46.94612" lon="10.37489"><ele>2015</ele></trkpt>
<trkpt lat="46.94617" lon="10.37492"><ele>2015</ele></trkpt>
<trkpt lat="46.94622" lon="10.37492"><ele>2015</ele></trkpt>
<trkpt lat="46.94628" lon="10.3749"><ele>2012</ele></trkpt>
<trkpt lat="46.94637" lon="10.37485"><ele>2012</ele></trkpt>
<trkpt lat="46.94644" lon="10.37478"><ele>2012</ele></trkpt>
<trkpt lat="46.94654" lon="10.37473"><ele>2012</ele></trkpt>
<trkpt lat="46.94659" lon="10.37473"><ele>1998</ele></trkpt>
<trkpt lat="46.94661" lon="10.37475"><ele>1998</ele></trkpt>
<trkpt lat="46.94663" lon="10.37476"><ele>1998</ele></trkpt>
<trkpt lat="46.94664" lon="10.37477"><ele>1998</ele></trkpt>
<trkpt lat="46.94668" lon="10.37482"><ele>2008</ele></trkpt>
<trkpt lat="46.94678" lon="10.37508"><ele>2008</ele></trkpt>
<trkpt lat="46.94692" lon="10.37555"><ele>2008</ele></trkpt>
<trkpt lat="46.94706" lon="10.37603"><ele>2008</ele></trkpt>
<trkpt lat="46.94714" lon="10.37628"><ele>2026</ele></trkpt>
<trkpt lat="46.94723" lon="10.37658"><ele>2026</ele></trkpt>
<trkpt lat="46.94729" lon="10.37674"><ele>2026</ele></trkpt>
<trkpt lat="46.94734" lon="10.37688"><ele>2026</ele></trkpt>
<trkpt lat="46.94738" lon="10.37698"><ele>2042</ele></trkpt>
<trkpt lat="46.9474" lon="10.3771"><ele>2042</ele></trkpt>
<trkpt lat="46.9474" lon="10.37721"><ele>2042</ele></trkpt>
<trkpt lat="46.94743" lon="10.37731"><ele>2042</ele></trkpt>
<trkpt lat="46.94753" lon="10.37745"><ele>2038</ele></trkpt>
<trkpt lat="46.94759" lon="10.3775"><ele>2038</ele></trkpt>
<trkpt lat="46.94768" lon="10.37764"><ele>2038</ele></trkpt>
<trkpt lat="46.94773" lon="10.37781"><ele>2038</ele></trkpt>
<trkpt lat="46.94776" lon="10.37786"><ele>2049</ele></trkpt>
<trkpt lat="46.948" lon="10.37819"><ele>2049</ele></trkpt>
<trkpt lat="46.94826" lon="10.37851"><ele>2049</ele></trkpt>
<trkpt lat="46.94834" lon="10.37861"><ele>2049</ele></trkpt>
<trkpt lat="46.94836" lon="10.37867"><ele>2040</ele></trkpt>
<trkpt lat="46.94836" lon="10.37874"><ele>2040</ele></trkpt>
<trkpt lat="46.94835" lon="10.37881"><ele>2040</ele></trkpt>
<trkpt lat="46.94833" lon="10.37892"><ele>2040</ele></trkpt>
<trkpt lat="46.94831" lon="10.37897"><ele>2045</ele></trkpt>
<trkpt lat="46.94828" lon="10.37903"><ele>2045</ele></trkpt>
<trkpt lat="46.94826" lon="10.37908"><ele>2045</ele></trkpt>
<trkpt lat="46.94822" lon="10.37914"><ele>2045</ele></trkpt>
<trkpt lat="46.94819" lon="10.37917"><ele>2052</ele></trkpt>
<trkpt lat="46.94811" lon="10.37923"><ele>2052</ele></trkpt>
<trkpt lat="46.9481" lon="10.37923"><ele>2052</ele></trkpt>
<trkpt lat="46.94802" lon="10.37928"><ele>2052</ele></trkpt>
<trkpt lat="46.94795" lon="10.37933"><ele>2052</ele></trkpt>
<trkpt lat="46.9479" lon="10.37937"><ele>2052</ele></trkpt>
<trkpt lat="46.94785" lon="10.37941"><ele>2052</ele></trkpt>
<trkpt lat="46.94781" lon="10.37945"><ele>2052</ele></trkpt>
<trkpt lat="46.94777" lon="10.37947"><ele>2057</ele></trkpt>
<trkpt lat="46.94774" lon="10.37947"><ele>2057</ele></trkpt>
<trkpt lat="46.94767" lon="10.37946"><ele>2057</ele></trkpt>
<trkpt lat="46.94759" lon="10.37944"><ele>2057</ele></trkpt>
<trkpt lat="46.94753" lon="10.37942"><ele>2063</ele></trkpt>
<trkpt lat="46.94746" lon="10.37945"><ele>2063</ele></trkpt>
<trkpt lat="46.9474" lon="10.37947"><ele>2063</ele></trkpt>
<trkpt lat="46.94734" lon="10.37953"><ele>2063</ele></trkpt>
<trkpt lat="46.94729" lon="10.3796"><ele>2071</ele></trkpt>
<trkpt lat="46.94724" lon="10.37968"><ele>2071</ele></trkpt>
<trkpt lat="46.9472" lon="10.37975"><ele>2071</ele></trkpt>
<trkpt lat="46.94717" lon="10.37975"><ele>2071</ele></trkpt>
<trkpt lat="46.94714" lon="10.37977"><ele>2073</ele></trkpt>
<trkpt lat="46.9471" lon="10.37975"><ele>2073</ele></trkpt>
<trkpt lat="46.94708" lon="10.37972"><ele>2073</ele></trkpt>
<trkpt lat="46.94708" lon="10.37966"><ele>2073</ele></trkpt>
<trkpt lat="46.94712" lon="10.37958"><ele>2079</ele></trkpt>
<trkpt lat="46.94716" lon="10.37951"><ele>2079</ele></trkpt>
<trkpt lat="46.94725" lon="10.37942"><ele>2079</ele></trkpt>
<trkpt lat="46.94736" lon="10.37933"><ele>2079</ele></trkpt>
<trkpt lat="46.94745" lon="10.37926"><ele>2070</ele></trkpt>
<trkpt lat="46.94748" lon="10.37922"><ele>2070</ele></trkpt>
<trkpt lat="46.94751" lon="10.37917"><ele>2070</ele></trkpt>
<trkpt lat="46.94754" lon="10.37909"><ele>2070</ele></trkpt>
<trkpt lat="46.94755" lon="10.37905"><ele>2070</ele></trkpt>
<trkpt lat="46.94755" lon="10.37898"><ele>2070</ele></trkpt>
<trkpt lat="46.94754" lon="10.3789"><ele>2070</ele></trkpt>
<trkpt lat="46.94751" lon="10.37881"><ele>2070</ele></trkpt>
<trkpt lat="46.94748" lon="10.37875"><ele>2073</ele></trkpt>
<trkpt lat="46.94741" lon="10.37865"><ele>2073</ele></trkpt>
<trkpt lat="46.94737" lon="10.3786"><ele>2073</ele></trkpt>
<trkpt lat="46.94726" lon="10.37838"><ele>2073</ele></trkpt>
<trkpt lat="46.94724" lon="10.37836"><ele>2074</ele></trkpt>
<trkpt lat="46.94721" lon="10.37831"><ele>2074</ele></trkpt>
<trkpt lat="46.94715" lon="10.37823"><ele>2074</ele></trkpt>
<trkpt lat="46.94708" lon="10.37815"><ele>2074</ele></trkpt>
<trkpt lat="46.94699" lon="10.37808"><ele>2087</ele></trkpt>
<trkpt lat="46.94686" lon="10.37797"><ele>2087</ele></trkpt>
<trkpt lat="46.94679" lon="10.37789"><ele>2087</ele></trkpt>
<trkpt lat="46.94675" lon="10.37782"><ele>2087</ele></trkpt>
<trkpt lat="46.94673" lon="10.37776"><ele>2096</ele></trkpt>
<trkpt lat="46.94672" lon="10.37768"><ele>2096</ele></trkpt>
<trkpt lat="46.9467" lon="10.37757"><ele>2096</ele></trkpt>
<trkpt lat="46.9467" lon="10.37754"><ele>2096</ele></trkpt>
<trkpt lat="46.94667" lon="10.37745"><ele>2089</ele></trkpt>
<trkpt lat="46.94664" lon="10.37737"><ele>2089</ele></trkpt>
<trkpt lat="46.94659" lon="10.37728"><ele>2089</ele></trkpt>
<trkpt lat="46.94653" lon="10.3772"><ele>2089</ele></trkpt>
<trkpt lat="46.94643" lon="10.3771"><ele>2089</ele></trkpt>
<trkpt lat="46.9462" lon="10.37689"><ele>2089</ele></trkpt>
<trkpt lat="46.94613" lon="10.37684"><ele>2089</ele></trkpt>
<trkpt lat="46.94608" lon="10.37681"><ele>2089</ele></trkpt>
<trkpt lat="46.94603" lon="10.37681"><ele>2087</ele></trkpt>
<trkpt lat="46.94592" lon="10.37681"><ele>2087</ele></trkpt>
<trkpt lat="46.94575" lon="10.37686"><ele>2087</ele></trkpt>
<trkpt lat="46.94567" lon="10.37687"><ele>2087</ele></trkpt>
<trkpt lat="46.94559" lon="10.37687"><ele>2095</ele></trkpt>
<trkpt lat="46.9455" lon="10.37684"><ele>2095</ele></trkpt>
<trkpt lat="46.9454" lon="10.37678"><ele>2095</ele></trkpt>
<trkpt lat="46.94528" lon="10.37675"><ele>2095</ele></trkpt>
<trkpt lat="46.94511" lon="10.37672"><ele>2115</ele></trkpt>
<trkpt lat="46.94504" lon="10.37668"><ele>2115</ele></trkpt>
<trkpt lat="46.94499" lon="10.3766"><ele>2115</ele></trkpt>
<trkpt lat="46.94493" lon="10.37642"><ele>2115</ele></trkpt>
<trkpt lat="46.94488" lon="10.37621"><ele>2114</ele></trkpt>
<trkpt lat="46.94484" lon="10.37609"><ele>2114</ele></trkpt>
<trkpt lat="46.94478" lon="10.376"><ele>2114</ele></trkpt>
<trkpt lat="46.94475" lon="10.37598"><ele>2114</ele></trkpt>
<trkpt lat="46.94459" lon="10.37578"><ele>2118</ele></trkpt>
<trkpt lat="46.94443" lon="10.37559"><ele>2118</ele></trkpt>
<trkpt lat="46.94436" lon="10.3755"><ele>2118</ele></trkpt>
<trkpt lat="46.94428" lon="10.37534"><ele>2118</ele></trkpt>
<trkpt lat="46.94424" lon="10.37528"><ele>2129</ele></trkpt>
<trkpt lat="46.94414" lon="10.37517"><ele>2129</ele></trkpt>
<trkpt lat="46.94405" lon="10.37506"><ele>2129</ele></trkpt>
<trkpt lat="46.94401" lon="10.375"><ele>2129</ele></trkpt>
<trkpt lat="46.94395" lon="10.37485"><ele>2135</ele></trkpt>
<trkpt lat="46.94393" lon="10.37475"><ele>2135</ele></trkpt>
<trkpt lat="46.9439" lon="10.37453"><ele>2135</ele></trkpt>
<trkpt lat="46.94389" lon="10.37447"><ele>2135</ele></trkpt>
<trkpt lat="46.94383" lon="10.37429"><ele>2141</ele></trkpt>
<trkpt lat="46.94378" lon="10.37404"><ele>2141</ele></trkpt>
<trkpt lat="46.94375" lon="10.37393"><ele>2141</ele></trkpt>
<trkpt lat="46.94373" lon="10.37388"><ele>2141</ele></trkpt>
<trkpt lat="46.94363" lon="10.37379"><ele>2138</ele></trkpt>
<trkpt lat="46.94357" lon="10.37374"><ele>2138</ele></trkpt>
<trkpt lat="46.9435" lon="10.37369"><ele>2138</ele></trkpt>
<trkpt lat="46.9434" lon="10.37364"><ele>2138</ele></trkpt>
<trkpt lat="46.94331" lon="10.37359"><ele>2137</ele></trkpt>
<trkpt lat="46.94327" lon="10.37363"><ele>2137</ele></trkpt>
<trkpt lat="46.94324" lon="10.37365"><ele>2137</ele></trkpt>
<trkpt lat="46.94317" lon="10.37365"><ele>2137</ele></trkpt>
<trkpt lat="46.94312" lon="10.3736"><ele>2149</ele></trkpt>
<trkpt lat="46.94303" lon="10.37365"><ele>2149</ele></trkpt>
<trkpt lat="46.94304" lon="10.37377"><ele>2149</ele></trkpt>
<trkpt lat="46.94293" lon="10.37393"><ele>2149</ele></trkpt>
<trkpt lat="46.94301" lon="10.37398"><ele>2156</ele></trkpt>
<trkpt lat="46.94307" lon="10.374"><ele>2156</ele></trkpt>
<trkpt lat="46.94302" lon="10.37407"><ele>2156</ele></trkpt>
<trkpt lat="46.94307" lon="10.3741"><ele>2156</ele></trkpt>
<trkpt lat="46.94312" lon="10.37414"><ele>2159</ele></trkpt>
<trkpt lat="46.94313" lon="10.37421"><ele>2159</ele></trkpt>
<trkpt lat="46.94317" lon="10.37426"><ele>2159</ele></trkpt>
<trkpt lat="46.94302" lon="10.37452"><ele>2159</ele></trkpt>
<trkpt lat="46.94299" lon="10.37451"><ele>2182</ele></trkpt>
<trkpt lat="46.94295" lon="10.37451"><ele>2182</ele></trkpt>
<trkpt lat="46.94284" lon="10.37453"><ele>2182</ele></trkpt>
<trkpt lat="46.94278" lon="10.37457"><ele>2182</ele></trkpt>
<trkpt lat="46.94275" lon="10.37462"><ele>2180</ele></trkpt>
<trkpt lat="46.94283" lon="10.3747"><ele>2180</ele></trkpt>
<trkpt lat="46.94293" lon="10.37484"><ele>2180</ele></trkpt>
<trkpt lat="46.94295" lon="10.37487"><ele>2180</ele></trkpt>
<trkpt lat="46.94299" lon="10.37492"><ele>2193</ele></trkpt>
<trkpt lat="46.94299" lon="10.37496"><ele>2193</ele></trkpt>
<trkpt lat="46.94289" lon="10.37505"><ele>2193</ele></trkpt>
<trkpt lat="46.94286" lon="10.37513"><ele>2193</ele></trkpt>
<trkpt lat="46.94281" lon="10.3752"><ele>2205</ele></trkpt>
<trkpt lat="46.94275" lon="10.37531"><ele>2205</ele></trkpt>
<trkpt lat="46.94274" lon="10.37539"><ele>2205</ele></trkpt>
<trkpt lat="46.94277" lon="10.37545"><ele>2205</ele></trkpt>
<trkpt lat="46.94282" lon="10.37552"><ele>2212</ele></trkpt>
<trkpt lat="46.94285" lon="10.3756"><ele>2212</ele></trkpt>
<trkpt lat="46.94294" lon="10.37571"><ele>2212</ele></trkpt>
<trkpt lat="46.94298" lon="10.37581"><ele>2212</ele></trkpt>
<trkpt lat="46.94301" lon="10.37584"><ele>2215</ele></trkpt>
<trkpt lat="46.94307" lon="10.37595"><ele>2215</ele></trkpt>
<trkpt lat="46.9431" lon="10.37604"><ele>2215</ele></trkpt>
<trkpt lat="46.94313" lon="10.37612"><ele>2215</ele></trkpt>
<trkpt lat="46.94315" lon="10.37618"><ele>2213</ele></trkpt>
<trkpt lat="46.94324" lon="10.37627"><ele>2213</ele></trkpt>
<trkpt lat="46.94328" lon="10.37632"><ele>2213</ele></trkpt>
<trkpt lat="46.94331" lon="10.37632"><ele>2213</ele></trkpt>
<trkpt lat="46.94338" lon="10.37644"><ele>2211</ele></trkpt>
<trkpt lat="46.94343" lon="10.37648"><ele>2211</ele></trkpt>
<trkpt lat="46.94351" lon="10.37659"><ele>2211</ele></trkpt>
<trkpt lat="46.94357" lon="10.37667"><ele>2211</ele></trkpt>
<trkpt lat="46.94357" lon="10.37674"><ele>2209</ele></trkpt>
<trkpt lat="46.94358" lon="10.37681"><ele>2209</ele></trkpt>
<trkpt lat="46.94354" lon="10.37683"><ele>2209</ele></trkpt>
<trkpt lat="46.94358" lon="10.37681"><ele>2209</ele></trkpt>
<trkpt lat="46.94357" lon="10.37674"><ele>2209</ele></trkpt>
<trkpt lat="46.94357" lon="10.37667"><ele>2209</ele></trkpt>
<trkpt lat="46.94364" lon="10.37673"><ele>2209</ele></trkpt>
<trkpt lat="46.94367" lon="10.37683"><ele>2209</ele></trkpt>
<trkpt lat="46.94365" lon="10.37691"><ele>2209</ele></trkpt>
<trkpt lat="46.94363" lon="10.37695"><ele>2209</ele></trkpt>
<trkpt lat="46.94363" lon="10.37698"><ele>2209</ele></trkpt>
<trkpt lat="46.94363" lon="10.37706"><ele>2209</ele></trkpt>
<trkpt lat="46.94365" lon="10.37712"><ele>2217</ele></trkpt>
<trkpt lat="46.94372" lon="10.3772"><ele>2217</ele></trkpt>
<trkpt lat="46.94375" lon="10.37728"><ele>2217</ele></trkpt>
<trkpt lat="46.94382" lon="10.37737"><ele>2217</ele></trkpt>
<trkpt lat="46.94385" lon="10.37738"><ele>2214</ele></trkpt>
<trkpt lat="46.94389" lon="10.3774"><ele>2214</ele></trkpt>
<trkpt lat="46.94394" lon="10.3775"><ele>2214</ele></trkpt>
<trkpt lat="46.94395" lon="10.37754"><ele>2214</ele></trkpt>
<trkpt lat="46.94396" lon="10.37759"><ele>2210</ele></trkpt>
<trkpt lat="46.94398" lon="10.37763"><ele>2210</ele></trkpt>
<trkpt lat="46.94401" lon="10.37772"><ele>2210</ele></trkpt>
<trkpt lat="46.94403" lon="10.37778"><ele>2210</ele></trkpt>
<trkpt lat="46.94407" lon="10.37784"><ele>2217</ele></trkpt>
<trkpt lat="46.94411" lon="10.37796"><ele>2217</ele></trkpt>
<trkpt lat="46.94414" lon="10.37806"><ele>2217</ele></trkpt>
<trkpt lat="46.94421" lon="10.37815"><ele>2217</ele></trkpt>
<trkpt lat="46.94423" lon="10.37823"><ele>2213</ele></trkpt>
<trkpt lat="46.94428" lon="10.37832"><ele>2213</ele></trkpt>
<trkpt lat="46.94432" lon="10.37839"><ele>2213</ele></trkpt>
<trkpt lat="46.9444" lon="10.37855"><ele>2213</ele></trkpt>
<trkpt lat="46.94452" lon="10.37865"><ele>2208</ele></trkpt>
<trkpt lat="46.94455" lon="10.37867"><ele>2208</ele></trkpt>
<trkpt lat="46.94462" lon="10.37872"><ele>2208</ele></trkpt>
<trkpt lat="46.94466" lon="10.37881"><ele>2208</ele></trkpt>
<trkpt lat="46.94467" lon="10.37876"><ele>2203</ele></trkpt>
<trkpt lat="46.94465" lon="10.37866"><ele>2203</ele></trkpt>
<trkpt lat="46.94465" lon="10.37853"><ele>2203</ele></trkpt>
<trkpt lat="46.94464" lon="10.37847"><ele>2203</ele></trkpt>
<trkpt lat="46.94473" lon="10.37856"><ele>2197</ele></trkpt>
<trkpt lat="46.94487" lon="10.37871"><ele>2197</ele></trkpt>
<trkpt lat="46.94498" lon="10.37886"><ele>2197</ele></trkpt>
<trkpt lat="46.94504" lon="10.37895"><ele>2197</ele></trkpt>
<trkpt lat="46.9451" lon="10.37903"><ele>2186</ele></trkpt>
<trkpt lat="46.94516" lon="10.37907"><ele>2186</ele></trkpt>
<trkpt lat="46.94514" lon="10.37911"><ele>2186</ele></trkpt>
<trkpt lat="46.94509" lon="10.37918"><ele>2186</ele></trkpt>
<trkpt lat="46.94505" lon="10.37923"><ele>2186</ele></trkpt>
<trkpt lat="46.94503" lon="10.37927"><ele>2186</ele></trkpt>
<trkpt lat="46.94502" lon="10.37932"><ele>2186</ele></trkpt>
<trkpt lat="46.945" lon="10.37936"><ele>2186</ele></trkpt>
<trkpt lat="46.945" lon="10.37941"><ele>2182</ele></trkpt>
<trkpt lat="46.94499" lon="10.37946"><ele>2182</ele></trkpt>
<trkpt lat="46.94496" lon="10.37951"><ele>2182</ele></trkpt>
<trkpt lat="46.94494" lon="10.37956"><ele>2182</ele></trkpt>
<trkpt lat="46.94492" lon="10.37961"><ele>2191</ele></trkpt>
<trkpt lat="46.9449" lon="10.37967"><ele>2191</ele></trkpt>
<trkpt lat="46.94489" lon="10.37973"><ele>2191</ele></trkpt>
<trkpt lat="46.94489" lon="10.37974"><ele>2191</ele></trkpt>
<trkpt lat="46.94488" lon="10.3798"><ele>2186</ele></trkpt>
<trkpt lat="46.94486" lon="10.37984"><ele>2186</ele></trkpt>
<trkpt lat="46.94484" lon="10.37988"><ele>2186</ele></trkpt>
<trkpt lat="46.94482" lon="10.37993"><ele>2186</ele></trkpt>
<trkpt lat="46.94482" lon="10.38"><ele>2181</ele></trkpt>
<trkpt lat="46.94481" lon="10.38006"><ele>2181</ele></trkpt>
<trkpt lat="46.94482" lon="10.3801"><ele>2181</ele></trkpt>
<trkpt lat="46.9448" lon="10.38014"><ele>2181</ele></trkpt>
<trkpt lat="46.9448" lon="10.38019"><ele>2181</ele></trkpt>
<trkpt lat="46.94481" lon="10.38024"><ele>2181</ele></trkpt>
<trkpt lat="46.94482" lon="10.3803"><ele>2181</ele></trkpt>
<trkpt lat="46.94481" lon="10.38034"><ele>2181</ele></trkpt>
<trkpt lat="46.94479" lon="10.3804"><ele>2176</ele></trkpt>
<trkpt lat="46.94478" lon="10.38045"><ele>2176</ele></trkpt>
<trkpt lat="46.94476" lon="10.3805"><ele>2176</ele></trkpt>
<trkpt lat="46.94475" lon="10.38055"><ele>2176</ele></trkpt>
<trkpt lat="46.94474" lon="10.38055"><ele>2182</ele></trkpt>
<trkpt lat="46.94473" lon="10.38059"><ele>2182</ele></trkpt>
<trkpt lat="46.9447" lon="10.38061"><ele>2182</ele></trkpt>
<trkpt lat="46.94469" lon="10.38064"><ele>2182</ele></trkpt>
<trkpt lat="46.94467" lon="10.38068"><ele>2182</ele></trkpt>
<trkpt lat="46.94465" lon="10.38073"><ele>2182</ele></trkpt>
<trkpt lat="46.94463" lon="10.38077"><ele>2182</ele></trkpt>
<trkpt lat="46.94461" lon="10.38078"><ele>2182</ele></trkpt>
<trkpt lat="46.94456" lon="10.38085"><ele>2172</ele></trkpt>
<trkpt lat="46.94456" lon="10.38091"><ele>2172</ele></trkpt>
<trkpt lat="46.94453" lon="10.38096"><ele>2172</ele></trkpt>
<trkpt lat="46.94452" lon="10.381"><ele>2172</ele></trkpt>
<trkpt lat="46.94451" lon="10.38105"><ele>2186</ele></trkpt>
<trkpt lat="46.94451" lon="10.3811"><ele>2186</ele></trkpt>
<trkpt lat="46.94452" lon="10.38114"><ele>2186</ele></trkpt>
<trkpt lat="46.94454" lon="10.3812"><ele>2186</ele></trkpt>
<trkpt lat="46.94455" lon="10.38125"><ele>2179</ele></trkpt>
<trkpt lat="46.94456" lon="10.38134"><ele>2179</ele></trkpt>
<trkpt lat="46.94457" lon="10.38139"><ele>2179</ele></trkpt>
<trkpt lat="46.94456" lon="10.38143"><ele>2179</ele></trkpt>
<trkpt lat="46.94456" lon="10.38148"><ele>2161</ele></trkpt>
<trkpt lat="46.94456" lon="10.38153"><ele>2161</ele></trkpt>
<trkpt lat="46.94457" lon="10.38158"><ele>2161</ele></trkpt>
<trkpt lat="46.94457" lon="10.38163"><ele>2161</ele></trkpt>
<trkpt lat="46.94455" lon="10.38169"><ele>2175</ele></trkpt>
<trkpt lat="46.94454" lon="10.3818"><ele>2175</ele></trkpt>
<trkpt lat="46.94453" lon="10.38183"><ele>2175</ele></trkpt>
<trkpt lat="46.94453" lon="10.38188"><ele>2175</ele></trkpt>
<trkpt lat="46.94452" lon="10.38193"><ele>2172</ele></trkpt>
<trkpt lat="46.94452" lon="10.38195"><ele>2172</ele></trkpt>
<trkpt lat="46.94453" lon="10.382"><ele>2172</ele></trkpt>
<trkpt lat="46.94453" lon="10.38204"><ele>2172</ele></trkpt>
<trkpt lat="46.94452" lon="10.38209"><ele>2168</ele></trkpt>
<trkpt lat="46.94451" lon="10.38216"><ele>2168</ele></trkpt>
<trkpt lat="46.94449" lon="10.38223"><ele>2168</ele></trkpt>
<trkpt lat="46.94447" lon="10.38228"><ele>2168</ele></trkpt>
<trkpt lat="46.94446" lon="10.38233"><ele>2168</ele></trkpt>
<trkpt lat="46.94446" lon="10.38238"><ele>2168</ele></trkpt>
<trkpt lat="46.94446" lon="10.38244"><ele>2168</ele></trkpt>
<trkpt lat="46.94446" lon="10.38249"><ele>2168</ele></trkpt>
<trkpt lat="46.94445" lon="10.38252"><ele>2165</ele></trkpt>
<trkpt lat="46.94447" lon="10.38258"><ele>2165</ele></trkpt>
<trkpt lat="46.94448" lon="10.38264"><ele>2165</ele></trkpt>
<trkpt lat="46.94449" lon="10.38268"><ele>2165</ele></trkpt>
<trkpt lat="46.94449" lon="10.38274"><ele>2163</ele></trkpt>
<trkpt lat="46.94449" lon="10.3828"><ele>2163</ele></trkpt>
<trkpt lat="46.94444" lon="10.38299"><ele>2163</ele></trkpt>
<trkpt lat="46.94442" lon="10.38302"><ele>2163</ele></trkpt>
<trkpt lat="46.94438" lon="10.38305"><ele>2157</ele></trkpt>
<trkpt lat="46.94438" lon="10.38305"><ele>2157</ele></trkpt>
<trkpt lat="46.94436" lon="10.38307"><ele>2157</ele></trkpt>
<trkpt lat="46.94436" lon="10.38311"><ele>2157</ele></trkpt>
<trkpt lat="46.94436" lon="10.38313"><ele>2157</ele></trkpt>
<trkpt lat="46.94436" lon="10.38319"><ele>2157</ele></trkpt>
<trkpt lat="46.94435" lon="10.38322"><ele>2157</ele></trkpt>
<trkpt lat="46.94432" lon="10.38326"><ele>2157</ele></trkpt>
<trkpt lat="46.94431" lon="10.38327"><ele>2167</ele></trkpt>
<trkpt lat="46.9443" lon="10.38332"><ele>2167</ele></trkpt>
<trkpt lat="46.94431" lon="10.38338"><ele>2167</ele></trkpt>
<trkpt lat="46.94432" lon="10.38341"><ele>2167</ele></trkpt>
<trkpt lat="46.94434" lon="10.38348"><ele>2167</ele></trkpt>
<trkpt lat="46.94435" lon="10.38352"><ele>2167</ele></trkpt>
<trkpt lat="46.94435" lon="10.38357"><ele>2167</ele></trkpt>
<trkpt lat="46.94435" lon="10.38363"><ele>2167</ele></trkpt>
<trkpt lat="46.94435" lon="10.38367"><ele>2170</ele></trkpt>
<trkpt lat="46.94433" lon="10.38369"><ele>2170</ele></trkpt>
<trkpt lat="46.94432" lon="10.38374"><ele>2170</ele></trkpt>
<trkpt lat="46.94431" lon="10.38378"><ele>2170</ele></trkpt>
<trkpt lat="46.94432" lon="10.38382"><ele>2170</ele></trkpt>
<trkpt lat="46.94434" lon="10.38386"><ele>2170</ele></trkpt>
<trkpt lat="46.94436" lon="10.38388"><ele>2170</ele></trkpt>
<trkpt lat="46.94443" lon="10.38401"><ele>2170</ele></trkpt>
<trkpt lat="46.9445" lon="10.38409"><ele>2163</ele></trkpt>
<trkpt lat="46.94451" lon="10.3841"><ele>2163</ele></trkpt>
<trkpt lat="46.94457" lon="10.38418"><ele>2163</ele></trkpt>
<trkpt lat="46.94459" lon="10.38421"><ele>2163</ele></trkpt>
<trkpt lat="46.94462" lon="10.38429"><ele>2162</ele></trkpt>
<trkpt lat="46.94468" lon="10.38444"><ele>2162</ele></trkpt>
<trkpt lat="46.94477" lon="10.38458"><ele>2162</ele></trkpt>
<trkpt lat="46.9448" lon="10.38465"><ele>2162</ele></trkpt>
<trkpt lat="46.94483" lon="10.38468"><ele>2165</ele></trkpt>
<trkpt lat="46.94487" lon="10.38472"><ele>2165</ele></trkpt>
<trkpt lat="46.9449" lon="10.38476"><ele>2165</ele></trkpt>
<trkpt lat="46.94493" lon="10.38482"><ele>2165</ele></trkpt>
<trkpt lat="46.94496" lon="10.38486"><ele>2176</ele></trkpt>
<trkpt lat="46.94501" lon="10.38495"><ele>2176</ele></trkpt>
<trkpt lat="46.94503" lon="10.385"><ele>2176</ele></trkpt>
<trkpt lat="46.94504" lon="10.38505"><ele>2176</ele></trkpt>
<trkpt lat="46.94506" lon="10.3851"><ele>2174</ele></trkpt>
<trkpt lat="46.94509" lon="10.38516"><ele>2174</ele></trkpt>
<trkpt lat="46.9451" lon="10.38523"><ele>2174</ele></trkpt>
<trkpt lat="46.94511" lon="10.38529"><ele>2174</ele></trkpt>
<trkpt lat="46.9451" lon="10.38537"><ele>2177</ele></trkpt>
<trkpt lat="46.9451" lon="10.38543"><ele>2177</ele></trkpt>
<trkpt lat="46.94509" lon="10.38549"><ele>2177</ele></trkpt>
<trkpt lat="46.94508" lon="10.38554"><ele>2177</ele></trkpt>
<trkpt lat="46.94507" lon="10.38559"><ele>2177</ele></trkpt>
<trkpt lat="46.94508" lon="10.38561"><ele>2177</ele></trkpt>
<trkpt lat="46.94507" lon="10.38565"><ele>2177</ele></trkpt>
<trkpt lat="46.94506" lon="10.38568"><ele>2177</ele></trkpt>
<trkpt lat="46.94504" lon="10.38571"><ele>2177</ele></trkpt>
<trkpt lat="46.94504" lon="10.38576"><ele>2177</ele></trkpt>
<trkpt lat="46.94506" lon="10.38578"><ele>2177</ele></trkpt>
<trkpt lat="46.94509" lon="10.38579"><ele>2177</ele></trkpt>
<trkpt lat="46.94512" lon="10.38582"><ele>2177</ele></trkpt>
<trkpt lat="46.94514" lon="10.38584"><ele>2177</ele></trkpt>
<trkpt lat="46.94517" lon="10.38584"><ele>2177</ele></trkpt>
<trkpt lat="46.9452" lon="10.38585"><ele>2177</ele></trkpt>
<trkpt lat="46.94522" lon="10.38585"><ele>2162</ele></trkpt>
<trkpt lat="46.94525" lon="10.38585"><ele>2162</ele></trkpt>
<trkpt lat="46.94528" lon="10.38589"><ele>2162</ele></trkpt>
<trkpt lat="46.94529" lon="10.38591"><ele>2162</ele></trkpt>
<trkpt lat="46.94529" lon="10.38596"><ele>2169</ele></trkpt>
<trkpt lat="46.94528" lon="10.38602"><ele>2169</ele></trkpt>
<trkpt lat="46.94526" lon="10.38608"><ele>2169</ele></trkpt>
<trkpt lat="46.94527" lon="10.38613"><ele>2169</ele></trkpt>
<trkpt lat="46.94528" lon="10.38618"><ele>2169</ele></trkpt>
<trkpt lat="46.94529" lon="10.38624"><ele>2169</ele></trkpt>
<trkpt lat="46.94529" lon="10.3863"><ele>2169</ele></trkpt>
<trkpt lat="46.9453" lon="10.38636"><ele>2169</ele></trkpt>
<trkpt lat="46.94533" lon="10.38638"><ele>2176</ele></trkpt>
<trkpt lat="46.94535" lon="10.38638"><ele>2176</ele></trkpt>
<trkpt lat="46.94538" lon="10.38637"><ele>2176</ele></trkpt>
<trkpt lat="46.9454" lon="10.38635"><ele>2176</ele></trkpt>
<trkpt lat="46.94542" lon="10.38632"><ele>2169</ele></trkpt>
<trkpt lat="46.94545" lon="10.38632"><ele>2169</ele></trkpt>
<trkpt lat="46.94548" lon="10.3863"><ele>2169</ele></trkpt>
<trkpt lat="46.94554" lon="10.38629"><ele>2169</ele></trkpt>
<trkpt lat="46.94558" lon="10.38627"><ele>2169</ele></trkpt>
<trkpt lat="46.94563" lon="10.38626"><ele>2169</ele></trkpt>
<trkpt lat="46.94579" lon="10.38621"><ele>2169</ele></trkpt>
<trkpt lat="46.94587" lon="10.38617"><ele>2169</ele></trkpt>
<trkpt lat="46.94593" lon="10.38616"><ele>2158</ele></trkpt>
<trkpt lat="46.94599" lon="10.38613"><ele>2158</ele></trkpt>
<trkpt lat="46.94606" lon="10.38613"><ele>2158</ele></trkpt>
<trkpt lat="46.94611" lon="10.38612"><ele>2158</ele></trkpt>
<trkpt lat="46.94617" lon="10.38613"><ele>2162</ele></trkpt>
<trkpt lat="46.94622" lon="10.38613"><ele>2162</ele></trkpt>
<trkpt lat="46.9464" lon="10.38617"><ele>2162</ele></trkpt>
<trkpt lat="46.9465" lon="10.38624"><ele>2162</ele></trkpt>
<trkpt lat="46.94654" lon="10.38626"><ele>2160</ele></trkpt>
<trkpt lat="46.94657" lon="10.38629"><ele>2160</ele></trkpt>
<trkpt lat="46.9466" lon="10.38632"><ele>2160</ele></trkpt>
<trkpt lat="46.94661" lon="10.38635"><ele>2160</ele></trkpt>
<trkpt lat="46.94671" lon="10.38645"><ele>2167</ele></trkpt>
<trkpt lat="46.94673" lon="10.38646"><ele>2167</ele></trkpt>
<trkpt lat="46.94679" lon="10.38653"><ele>2167</ele></trkpt>
<trkpt lat="46.94684" lon="10.38658"><ele>2167</ele></trkpt>
<trkpt lat="46.94689" lon="10.38664"><ele>2172</ele></trkpt>
<trkpt lat="46.94693" lon="10.38667"><ele>2172</ele></trkpt>
<trkpt lat="46.94698" lon="10.38673"><ele>2172</ele></trkpt>
<trkpt lat="46.94703" lon="10.38679"><ele>2172</ele></trkpt>
<trkpt lat="46.94708" lon="10.38683"><ele>2164</ele></trkpt>
<trkpt lat="46.94712" lon="10.38688"><ele>2164</ele></trkpt>
<trkpt lat="46.94715" lon="10.38695"><ele>2164</ele></trkpt>
<trkpt lat="46.94718" lon="10.38702"><ele>2164</ele></trkpt>
<trkpt lat="46.94722" lon="10.38707"><ele>2173</ele></trkpt>
<trkpt lat="46.94723" lon="10.38712"><ele>2173</ele></trkpt>
<trkpt lat="46.94723" lon="10.38716"><ele>2173</ele></trkpt>
<trkpt lat="46.94724" lon="10.38721"><ele>2173</ele></trkpt>
<trkpt lat="46.94726" lon="10.38723"><ele>2172</ele></trkpt>
<trkpt lat="46.94729" lon="10.38726"><ele>2172</ele></trkpt>
<trkpt lat="46.94732" lon="10.38733"><ele>2172</ele></trkpt>
<trkpt lat="46.94748" lon="10.38749"><ele>2172</ele></trkpt>
<trkpt lat="46.94752" lon="10.38754"><ele>2170</ele></trkpt>
<trkpt lat="46.94762" lon="10.38763"><ele>2170</ele></trkpt>
<trkpt lat="46.94771" lon="10.38777"><ele>2170</ele></trkpt>
<trkpt lat="46.9479" lon="10.388"><ele>2170</ele></trkpt>
<trkpt lat="46.94793" lon="10.38804"><ele>2154</ele></trkpt>
<trkpt lat="46.94795" lon="10.38808"><ele>2154</ele></trkpt>
<trkpt lat="46.94797" lon="10.38813"><ele>2154</ele></trkpt>
<trkpt lat="46.94799" lon="10.38822"><ele>2154</ele></trkpt>
<trkpt lat="46.94802" lon="10.38829"><ele>2165</ele></trkpt>
<trkpt lat="46.94804" lon="10.38835"><ele>2165</ele></trkpt>
<trkpt lat="46.94806" lon="10.38841"><ele>2165</ele></trkpt>
<trkpt lat="46.94809" lon="10.38843"><ele>2165</ele></trkpt>
<trkpt lat="46.94812" lon="10.38847"><ele>2160</ele></trkpt>
<trkpt lat="46.94815" lon="10.38851"><ele>2160</ele></trkpt>
<trkpt lat="46.94818" lon="10.38855"><ele>2160</ele></trkpt>
<trkpt lat="46.9482" lon="10.3886"><ele>2160</ele></trkpt>
<trkpt lat="46.94822" lon="10.38866"><ele>2160</ele></trkpt>
<trkpt lat="46.94824" lon="10.38873"><ele>2160</ele></trkpt>
<trkpt lat="46.94828" lon="10.38876"><ele>2160</ele></trkpt>
<trkpt lat="46.9483" lon="10.38879"><ele>2160</ele></trkpt>
<trkpt lat="46.94833" lon="10.38881"><ele>2157</ele></trkpt>
<trkpt lat="46.94836" lon="10.38887"><ele>2157</ele></trkpt>
<trkpt lat="46.94836" lon="10.3889"><ele>2157</ele></trkpt>
<trkpt lat="46.94837" lon="10.38894"><ele>2157</ele></trkpt>
<trkpt lat="46.94839" lon="10.38899"><ele>2163</ele></trkpt>
<trkpt lat="46.94839" lon="10.38902"><ele>2163</ele></trkpt>
<trkpt lat="46.9484" lon="10.38904"><ele>2163</ele></trkpt>
<trkpt lat="46.9484" lon="10.38908"><ele>2163</ele></trkpt>
<trkpt lat="46.94842" lon="10.38913"><ele>2163</ele></trkpt>
<trkpt lat="46.94842" lon="10.38917"><ele>2163</ele></trkpt>
<trkpt lat="46.94843" lon="10.38922"><ele>2163</ele></trkpt>
<trkpt lat="46.94843" lon="10.38926"><ele>2163</ele></trkpt>
<trkpt lat="46.94845" lon="10.38932"><ele>2169</ele></trkpt>
<trkpt lat="46.94845" lon="10.38937"><ele>2169</ele></trkpt>
<trkpt lat="46.94846" lon="10.3894"><ele>2169</ele></trkpt>
<trkpt lat="46.94846" lon="10.38944"><ele>2169</ele></trkpt>
<trkpt lat="46.94846" lon="10.38948"><ele>2169</ele></trkpt>
<trkpt lat="46.94847" lon="10.3895"><ele>2169</ele></trkpt>
<trkpt lat="46.94849" lon="10.38951"><ele>2169</ele></trkpt>
<trkpt lat="46.94851" lon="10.38954"><ele>2169</ele></trkpt>
<trkpt lat="46.94853" lon="10.38956"><ele>2161</ele></trkpt>
<trkpt lat="46.94854" lon="10.38959"><ele>2161</ele></trkpt>
<trkpt lat="46.94854" lon="10.3896"><ele>2161</ele></trkpt>
<trkpt lat="46.94853" lon="10.38965"><ele>2161</ele></trkpt>
<trkpt lat="46.94852" lon="10.38969"><ele>2166</ele></trkpt>
<trkpt lat="46.94853" lon="10.38974"><ele>2166</ele></trkpt>
<trkpt lat="46.94855" lon="10.38979"><ele>2166</ele></trkpt>
<trkpt lat="46.94856" lon="10.38982"><ele>2166</ele></trkpt>
<trkpt lat="46.94856" lon="10.38984"><ele>2166</ele></trkpt>
<trkpt lat="46.94858" lon="10.3899"><ele>2166</ele></trkpt>
<trkpt lat="46.94859" lon="10.38995"><ele>2166</ele></trkpt>
<trkpt lat="46.94861" lon="10.38998"><ele>2166</ele></trkpt>
<trkpt lat="46.94862" lon="10.39002"><ele>2171</ele></trkpt>
<trkpt lat="46.94863" lon="10.39006"><ele>2171</ele></trkpt>
<trkpt lat="46.94865" lon="10.39007"><ele>2171</ele></trkpt>
<trkpt lat="46.94867" lon="10.39011"><ele>2171</ele></trkpt>
<trkpt lat="46.9487" lon="10.39014"><ele>2164</ele></trkpt>
<trkpt lat="46.94873" lon="10.39017"><ele>2164</ele></trkpt>
<trkpt lat="46.94876" lon="10.39019"><ele>2164</ele></trkpt>
<trkpt lat="46.94878" lon="10.39021"><ele>2164</ele></trkpt>
<trkpt lat="46.9488" lon="10.3902"><ele>2164</ele></trkpt>
<trkpt lat="46.94882" lon="10.39021"><ele>2164</ele></trkpt>
<trkpt lat="46.94885" lon="10.3902"><ele>2164</ele></trkpt>
<trkpt lat="46.94887" lon="10.39021"><ele>2164</ele></trkpt>
<trkpt lat="46.9489" lon="10.39024"><ele>2157</ele></trkpt>
<trkpt lat="46.94893" lon="10.39026"><ele>2157</ele></trkpt>
<trkpt lat="46.94896" lon="10.39033"><ele>2157</ele></trkpt>
<trkpt lat="46.94899" lon="10.39035"><ele>2157</ele></trkpt>
<trkpt lat="46.94902" lon="10.39038"><ele>2157</ele></trkpt>
<trkpt lat="46.94906" lon="10.3904"><ele>2157</ele></trkpt>
<trkpt lat="46.94909" lon="10.39045"><ele>2157</ele></trkpt>
<trkpt lat="46.94911" lon="10.39047"><ele>2157</ele></trkpt>
<trkpt lat="46.94915" lon="10.39049"><ele>2149</ele></trkpt>
<trkpt lat="46.94917" lon="10.39053"><ele>2149</ele></trkpt>
<trkpt lat="46.94919" lon="10.39058"><ele>2149</ele></trkpt>
<trkpt lat="46.94921" lon="10.39061"><ele>2149</ele></trkpt>
<trkpt lat="46.94922" lon="10.39064"><ele>2149</ele></trkpt>
<trkpt lat="46.94923" lon="10.39065"><ele>2149</ele></trkpt>
<trkpt lat="46.94924" lon="10.39068"><ele>2149</ele></trkpt>
<trkpt lat="46.94924" lon="10.39073"><ele>2149</ele></trkpt>
<trkpt lat="46.94926" lon="10.39077"><ele>2149</ele></trkpt>
<trkpt lat="46.94928" lon="10.39079"><ele>2149</ele></trkpt>
<trkpt lat="46.9493" lon="10.39084"><ele>2149</ele></trkpt>
<trkpt lat="46.94932" lon="10.3909"><ele>2149</ele></trkpt>
<trkpt lat="46.94934" lon="10.39095"><ele>2140</ele></trkpt>
<trkpt lat="46.94936" lon="10.39099"><ele>2140</ele></trkpt>
<trkpt lat="46.94939" lon="10.39103"><ele>2140</ele></trkpt>
<trkpt lat="46.94941" lon="10.39109"><ele>2140</ele></trkpt>
<trkpt lat="46.94942" lon="10.39114"><ele>2138</ele></trkpt>
<trkpt lat="46.94944" lon="10.39119"><ele>2138</ele></trkpt>
<trkpt lat="46.94946" lon="10.39126"><ele>2138</ele></trkpt>
<trkpt lat="46.94948" lon="10.39132"><ele>2138</ele></trkpt>
<trkpt lat="46.94948" lon="10.3914"><ele>2138</ele></trkpt>
<trkpt lat="46.94949" lon="10.39143"><ele>2138</ele></trkpt>
<trkpt lat="46.94952" lon="10.39147"><ele>2138</ele></trkpt>
<trkpt lat="46.94953" lon="10.39151"><ele>2138</ele></trkpt>
<trkpt lat="46.94954" lon="10.39156"><ele>2124</ele></trkpt>
<trkpt lat="46.94956" lon="10.39161"><ele>2124</ele></trkpt>
<trkpt lat="46.94957" lon="10.39166"><ele>2124</ele></trkpt>
<trkpt lat="46.9496" lon="10.39175"><ele>2124</ele></trkpt>
<trkpt lat="46.94961" lon="10.39183"><ele>2123</ele></trkpt>
<trkpt lat="46.94963" lon="10.39189"><ele>2123</ele></trkpt>
<trkpt lat="46.94964" lon="10.39194"><ele>2123</ele></trkpt>
<trkpt lat="46.94967" lon="10.39202"><ele>2123</ele></trkpt>
<trkpt lat="46.94969" lon="10.39209"><ele>2121</ele></trkpt>
<trkpt lat="46.94973" lon="10.39218"><ele>2121</ele></trkpt>
<trkpt lat="46.94975" lon="10.39222"><ele>2121</ele></trkpt>
<trkpt lat="46.94977" lon="10.39227"><ele>2121</ele></trkpt>
<trkpt lat="46.94979" lon="10.39232"><ele>2106</ele></trkpt>
<trkpt lat="46.9498" lon="10.39239"><ele>2106</ele></trkpt>
<trkpt lat="46.94982" lon="10.39248"><ele>2106</ele></trkpt>
<trkpt lat="46.94985" lon="10.39256"><ele>2106</ele></trkpt>
<trkpt lat="46.94989" lon="10.39265"><ele>2107</ele></trkpt>
<trkpt lat="46.94991" lon="10.39272"><ele>2107</ele></trkpt>
<trkpt lat="46.94994" lon="10.39277"><ele>2107</ele></trkpt>
<trkpt lat="46.94996" lon="10.39283"><ele>2107</ele></trkpt>
<trkpt lat="46.94999" lon="10.39288"><ele>2095</ele></trkpt>
<trkpt lat="46.95003" lon="10.39291"><ele>2095</ele></trkpt>
<trkpt lat="46.95006" lon="10.39293"><ele>2095</ele></trkpt>
<trkpt lat="46.95009" lon="10.39298"><ele>2095</ele></trkpt>
<trkpt lat="46.9501" lon="10.39302"><ele>2097</ele></trkpt>
<trkpt lat="46.95012" lon="10.39303"><ele>2097</ele></trkpt>
<trkpt lat="46.95015" lon="10.39305"><ele>2097</ele></trkpt>
<trkpt lat="46.95016" lon="10.39306"><ele>2097</ele></trkpt>
<trkpt lat="46.95018" lon="10.39307"><ele>2086</ele></trkpt>
<trkpt lat="46.9502" lon="10.39311"><ele>2086</ele></trkpt>
<trkpt lat="46.95022" lon="10.39315"><ele>2086</ele></trkpt>
<trkpt lat="46.95026" lon="10.39319"><ele>2086</ele></trkpt>
<trkpt lat="46.95027" lon="10.39324"><ele>2088</ele></trkpt>
<trkpt lat="46.95028" lon="10.39326"><ele>2088</ele></trkpt>
<trkpt lat="46.9503" lon="10.39329"><ele>2088</ele></trkpt>
<trkpt lat="46.9503" lon="10.39337"><ele>2088</ele></trkpt>
<trkpt lat="46.95029" lon="10.3934"><ele>2088</ele></trkpt>
<trkpt lat="46.95029" lon="10.39345"><ele>2088</ele></trkpt>
<trkpt lat="46.95029" lon="10.3935"><ele>2088</ele></trkpt>
<trkpt lat="46.95028" lon="10.39356"><ele>2088</ele></trkpt>
<trkpt lat="46.95026" lon="10.39362"><ele>2087</ele></trkpt>
<trkpt lat="46.95025" lon="10.39369"><ele>2087</ele></trkpt>
<trkpt lat="46.95025" lon="10.39376"><ele>2087</ele></trkpt>
<trkpt lat="46.95024" lon="10.39378"><ele>2087</ele></trkpt>
<trkpt lat="46.95022" lon="10.3939"><ele>2084</ele></trkpt>
<trkpt lat="46.95022" lon="10.39406"><ele>2084</ele></trkpt>
<trkpt lat="46.95022" lon="10.39419"><ele>2084</ele></trkpt>
<trkpt lat="46.95022" lon="10.39428"><ele>2084</ele></trkpt>
<trkpt lat="46.95021" lon="10.39439"><ele>2083</ele></trkpt>
<trkpt lat="46.95022" lon="10.39448"><ele>2083</ele></trkpt>
<trkpt lat="46.95024" lon="10.39457"><ele>2083</ele></trkpt>
<trkpt lat="46.95025" lon="10.39465"><ele>2083</ele></trkpt>
<trkpt lat="46.95025" lon="10.39471"><ele>2083</ele></trkpt>
<trkpt lat="46.95024" lon="10.39476"><ele>2083</ele></trkpt>
<trkpt lat="46.95023" lon="10.39483"><ele>2083</ele></trkpt>
<trkpt lat="46.95023" lon="10.39489"><ele>2083</ele></trkpt>
<trkpt lat="46.95023" lon="10.39495"><ele>2083</ele></trkpt>
<trkpt lat="46.95023" lon="10.39503"><ele>2083</ele></trkpt>
<trkpt lat="46.95022" lon="10.39508"><ele>2083</ele></trkpt>
<trkpt lat="46.95023" lon="10.39514"><ele>2083</ele></trkpt>
<trkpt lat="46.95022" lon="10.39521"><ele>2082</ele></trkpt>
<trkpt lat="46.95021" lon="10.39528"><ele>2082</ele></trkpt>
<trkpt lat="46.9502" lon="10.39533"><ele>2082</ele></trkpt>
<trkpt lat="46.95019" lon="10.39537"><ele>2082</ele></trkpt>
<trkpt lat="46.95019" lon="10.39546"><ele>2080</ele></trkpt>
<trkpt lat="46.9502" lon="10.39553"><ele>2080</ele></trkpt>
<trkpt lat="46.95021" lon="10.39559"><ele>2080</ele></trkpt>
<trkpt lat="46.95022" lon="10.39565"><ele>2080</ele></trkpt>
<trkpt lat="46.95022" lon="10.39569"><ele>2081</ele></trkpt>
<trkpt lat="46.95022" lon="10.39573"><ele>2081</ele></trkpt>
<trkpt lat="46.95024" lon="10.39574"><ele>2081</ele></trkpt>
<trkpt lat="46.95028" lon="10.39578"><ele>2081</ele></trkpt>
<trkpt lat="46.95033" lon="10.39584"><ele>2069</ele></trkpt>
<trkpt lat="46.95038" lon="10.39594"><ele>2069</ele></trkpt>
<trkpt lat="46.95044" lon="10.39601"><ele>2069</ele></trkpt>
<trkpt lat="46.95049" lon="10.39606"><ele>2069</ele></trkpt>
<trkpt lat="46.95054" lon="10.39611"><ele>2060</ele></trkpt>
<trkpt lat="46.9506" lon="10.39616"><ele>2060</ele></trkpt>
<trkpt lat="46.95066" lon="10.3962"><ele>2060</ele></trkpt>
<trkpt lat="46.95069" lon="10.39624"><ele>2060</ele></trkpt>
<trkpt lat="46.95072" lon="10.39631"><ele>2063</ele></trkpt>
<trkpt lat="46.95074" lon="10.39636"><ele>2063</ele></trkpt>
<trkpt lat="46.95077" lon="10.39644"><ele>2063</ele></trkpt>
<trkpt lat="46.95078" lon="10.3965"><ele>2063</ele></trkpt>
<trkpt lat="46.95079" lon="10.39657"><ele>2054</ele></trkpt>
<trkpt lat="46.95082" lon="10.39663"><ele>2054</ele></trkpt>
<trkpt lat="46.95083" lon="10.39669"><ele>2054</ele></trkpt>
<trkpt lat="46.95084" lon="10.39675"><ele>2054</ele></trkpt>
<trkpt lat="46.95084" lon="10.39678"><ele>2054</ele></trkpt>
<trkpt lat="46.95086" lon="10.3968"><ele>2054</ele></trkpt>
<trkpt lat="46.95088" lon="10.39682"><ele>2054</ele></trkpt>
<trkpt lat="46.9509" lon="10.39686"><ele>2054</ele></trkpt>
<trkpt lat="46.95093" lon="10.39692"><ele>2057</ele></trkpt>
<trkpt lat="46.95095" lon="10.39696"><ele>2057</ele></trkpt>
<trkpt lat="46.95097" lon="10.39701"><ele>2057</ele></trkpt>
<trkpt lat="46.95101" lon="10.39718"><ele>2057</ele></trkpt>
<trkpt lat="46.95106" lon="10.39739"><ele>2046</ele></trkpt>
<trkpt lat="46.95109" lon="10.39751"><ele>2046</ele></trkpt>
<trkpt lat="46.95112" lon="10.39762"><ele>2046</ele></trkpt>
<trkpt lat="46.95113" lon="10.39766"><ele>2046</ele></trkpt>
<trkpt lat="46.95115" lon="10.3977"><ele>2033</ele></trkpt>
<trkpt lat="46.95117" lon="10.39776"><ele>2033</ele></trkpt>
<trkpt lat="46.95119" lon="10.3978"><ele>2033</ele></trkpt>
<trkpt lat="46.9512" lon="10.39785"><ele>2033</ele></trkpt>
<trkpt lat="46.9512" lon="10.39791"><ele>2031</ele></trkpt>
<trkpt lat="46.9512" lon="10.39798"><ele>2031</ele></trkpt>
<trkpt lat="46.95121" lon="10.39804"><ele>2031</ele></trkpt>
<trkpt lat="46.95124" lon="10.39795"><ele>2031</ele></trkpt>
<trkpt lat="46.95126" lon="10.39786"><ele>2031</ele></trkpt>
<trkpt lat="46.95127" lon="10.39777"><ele>2031</ele></trkpt>
<trkpt lat="46.9513" lon="10.39746"><ele>2031</ele></trkpt>
<trkpt lat="46.95132" lon="10.39725"><ele>2031</ele></trkpt>
<trkpt lat="46.95133" lon="10.39703"><ele>2030</ele></trkpt>
<trkpt lat="46.95132" lon="10.39688"><ele>2030</ele></trkpt>
<trkpt lat="46.95131" lon="10.39678"><ele>2030</ele></trkpt>
<trkpt lat="46.95131" lon="10.39669"><ele>2030</ele></trkpt>
<trkpt lat="46.95133" lon="10.39664"><ele>2028</ele></trkpt>
<trkpt lat="46.95139" lon="10.39655"><ele>2028</ele></trkpt>
<trkpt lat="46.95142" lon="10.39647"><ele>2028</ele></trkpt>
<trkpt lat="46.95143" lon="10.3964"><ele>2028</ele></trkpt>
<trkpt lat="46.95144" lon="10.39631"><ele>2017</ele></trkpt>
<trkpt lat="46.95149" lon="10.39603"><ele>2017</ele></trkpt>
<trkpt lat="46.95149" lon="10.39602"><ele>2017</ele></trkpt>
<trkpt lat="46.95149" lon="10.39598"><ele>2017</ele></trkpt>
<trkpt lat="46.95151" lon="10.39588"><ele>2013</ele></trkpt>
<trkpt lat="46.95151" lon="10.39581"><ele>2013</ele></trkpt>
<trkpt lat="46.9515" lon="10.39575"><ele>2013</ele></trkpt>
<trkpt lat="46.95149" lon="10.39572"><ele>2013</ele></trkpt>
<trkpt lat="46.95147" lon="10.39569"><ele>2013</ele></trkpt>
<trkpt lat="46.95141" lon="10.39565"><ele>2013</ele></trkpt>
<trkpt lat="46.95133" lon="10.3956"><ele>2013</ele></trkpt>
<trkpt lat="46.95129" lon="10.39556"><ele>2013</ele></trkpt>
<trkpt lat="46.95125" lon="10.3955"><ele>2016</ele></trkpt>
<trkpt lat="46.95123" lon="10.39542"><ele>2016</ele></trkpt>
<trkpt lat="46.95124" lon="10.39533"><ele>2016</ele></trkpt>
<trkpt lat="46.95125" lon="10.39526"><ele>2016</ele></trkpt>
<trkpt lat="46.95125" lon="10.39525"><ele>2014</ele></trkpt>
<trkpt lat="46.95128" lon="10.39516"><ele>2014</ele></trkpt>
<trkpt lat="46.95133" lon="10.39506"><ele>2014</ele></trkpt>
<trkpt lat="46.95139" lon="10.39495"><ele>2014</ele></trkpt>
<trkpt lat="46.95144" lon="10.39484"><ele>2003</ele></trkpt>
<trkpt lat="46.95149" lon="10.39472"><ele>2003</ele></trkpt>
<trkpt lat="46.95152" lon="10.39458"><ele>2003</ele></trkpt>
<trkpt lat="46.95153" lon="10.39443"><ele>2003</ele></trkpt>
<trkpt lat="46.95152" lon="10.39423"><ele>2006</ele></trkpt>
<trkpt lat="46.95151" lon="10.39411"><ele>2006</ele></trkpt>
<trkpt lat="46.95149" lon="10.39398"><ele>2006</ele></trkpt>
<trkpt lat="46.95149" lon="10.39392"><ele>2006</ele></trkpt>
<trkpt lat="46.95149" lon="10.39392"><ele>2004</ele></trkpt>
<trkpt lat="46.95148" lon="10.39378"><ele>2004</ele></trkpt>
<trkpt lat="46.95148" lon="10.39371"><ele>2004</ele></trkpt>
<trkpt lat="46.95148" lon="10.39369"><ele>2004</ele></trkpt>
<trkpt lat="46.9515" lon="10.39362"><ele>2006</ele></trkpt>
<trkpt lat="46.95152" lon="10.39354"><ele>2006</ele></trkpt>
<trkpt lat="46.95158" lon="10.3934"><ele>2006</ele></trkpt>
<trkpt lat="46.95163" lon="10.3933"><ele>2006</ele></trkpt>
<trkpt lat="46.95167" lon="10.39319"><ele>2001</ele></trkpt>
<trkpt lat="46.95172" lon="10.39301"><ele>2001</ele></trkpt>
<trkpt lat="46.95176" lon="10.39287"><ele>2001</ele></trkpt>
<trkpt lat="46.95178" lon="10.39277"><ele>2001</ele></trkpt>
<trkpt lat="46.95179" lon="10.39267"><ele>1990</ele></trkpt>
<trkpt lat="46.95178" lon="10.39253"><ele>1990</ele></trkpt>
<trkpt lat="46.95177" lon="10.39244"><ele>1990</ele></trkpt>
<trkpt lat="46.95178" lon="10.39232"><ele>1990</ele></trkpt>
<trkpt lat="46.95178" lon="10.39232"><ele>1992</ele></trkpt>
<trkpt lat="46.95178" lon="10.39223"><ele>1992</ele></trkpt>
<trkpt lat="46.9518" lon="10.39216"><ele>1992</ele></trkpt>
<trkpt lat="46.95181" lon="10.39214"><ele>1992</ele></trkpt>
<trkpt lat="46.95184" lon="10.39209"><ele>1994</ele></trkpt>
<trkpt lat="46.95191" lon="10.39201"><ele>1994</ele></trkpt>
<trkpt lat="46.95206" lon="10.3919"><ele>1994</ele></trkpt>
<trkpt lat="46.95212" lon="10.39185"><ele>1994</ele></trkpt>
<trkpt lat="46.95216" lon="10.39178"><ele>1985</ele></trkpt>
<trkpt lat="46.95218" lon="10.39171"><ele>1985</ele></trkpt>
<trkpt lat="46.95218" lon="10.39167"><ele>1985</ele></trkpt>
<trkpt lat="46.95219" lon="10.39162"><ele>1985</ele></trkpt>
<trkpt lat="46.95219" lon="10.39154"><ele>1973</ele></trkpt>
<trkpt lat="46.95217" lon="10.39145"><ele>1973</ele></trkpt>
<trkpt lat="46.95211" lon="10.39132"><ele>1973</ele></trkpt>
<trkpt lat="46.95204" lon="10.3912"><ele>1973</ele></trkpt>
<trkpt lat="46.95203" lon="10.39119"><ele>1978</ele></trkpt>
<trkpt lat="46.95192" lon="10.39101"><ele>1978</ele></trkpt>
<trkpt lat="46.95188" lon="10.39094"><ele>1978</ele></trkpt>
<trkpt lat="46.95187" lon="10.39087"><ele>1978</ele></trkpt>
<trkpt lat="46.95186" lon="10.39078"><ele>1979</ele></trkpt>
<trkpt lat="46.95188" lon="10.39072"><ele>1979</ele></trkpt>
<trkpt lat="46.9519" lon="10.39064"><ele>1979</ele></trkpt>
<trkpt lat="46.95199" lon="10.39044"><ele>1979</ele></trkpt>
<trkpt lat="46.95204" lon="10.39028"><ele>1968</ele></trkpt>
<trkpt lat="46.95207" lon="10.39019"><ele>1968</ele></trkpt>
<trkpt lat="46.95209" lon="10.39007"><ele>1968</ele></trkpt>
<trkpt lat="46.9521" lon="10.38992"><ele>1968</ele></trkpt>
<trkpt lat="46.9521" lon="10.38978"><ele>1964</ele></trkpt>
<trkpt lat="46.95209" lon="10.38969"><ele>1964</ele></trkpt>
<trkpt lat="46.95208" lon="10.38964"><ele>1964</ele></trkpt>
<trkpt lat="46.95207" lon="10.38951"><ele>1964</ele></trkpt>
<trkpt lat="46.95205" lon="10.38939"><ele>1958</ele></trkpt>
<trkpt lat="46.952" lon="10.38926"><ele>1958</ele></trkpt>
<trkpt lat="46.95195" lon="10.38916"><ele>1958</ele></trkpt>
<trkpt lat="46.95183" lon="10.38894"><ele>1958</ele></trkpt>
<trkpt lat="46.95171" lon="10.3887"><ele>1961</ele></trkpt>
<trkpt lat="46.95164" lon="10.38856"><ele>1961</ele></trkpt>
<trkpt lat="46.95157" lon="10.38836"><ele>1961</ele></trkpt>
<trkpt lat="46.95155" lon="10.38829"><ele>1961</ele></trkpt>
<trkpt lat="46.95146" lon="10.38801"><ele>1948</ele></trkpt>
<trkpt lat="46.95137" lon="10.38773"><ele>1948</ele></trkpt>
<trkpt lat="46.95132" lon="10.38749"><ele>1948</ele></trkpt>
<trkpt lat="46.95127" lon="10.38724"><ele>1948</ele></trkpt>
<trkpt lat="46.95122" lon="10.38702"><ele>1939</ele></trkpt>
<trkpt lat="46.95118" lon="10.38687"><ele>1939</ele></trkpt>
<trkpt lat="46.9511" lon="10.38659"><ele>1939</ele></trkpt>
<trkpt lat="46.95109" lon="10.38657"><ele>1939</ele></trkpt>
<trkpt lat="46.95103" lon="10.38635"><ele>1938</ele></trkpt>
<trkpt lat="46.95095" lon="10.38599"><ele>1938</ele></trkpt>
<trkpt lat="46.95088" lon="10.38568"><ele>1938</ele></trkpt>
<trkpt lat="46.95082" lon="10.38538"><ele>1938</ele></trkpt>
<trkpt lat="46.95081" lon="10.38533"><ele>1928</ele></trkpt>
<trkpt lat="46.95077" lon="10.38518"><ele>1928</ele></trkpt>
<trkpt lat="46.95076" lon="10.38513"><ele>1928</ele></trkpt>
<trkpt lat="46.95075" lon="10.38507"><ele>1928</ele></trkpt>
<trkpt lat="46.95074" lon="10.385"><ele>1923</ele></trkpt>
<trkpt lat="46.95073" lon="10.38498"><ele>1923</ele></trkpt>
<trkpt lat="46.95071" lon="10.3849"><ele>1923</ele></trkpt>
<trkpt lat="46.95067" lon="10.38477"><ele>1923</ele></trkpt>
<trkpt lat="46.95065" lon="10.38472"><ele>1925</ele></trkpt>
<trkpt lat="46.95061" lon="10.3846"><ele>1925</ele></trkpt>
<trkpt lat="46.95059" lon="10.38444"><ele>1925</ele></trkpt>
<trkpt lat="46.95059" lon="10.38442"><ele>1925</ele></trkpt>
<trkpt lat="46.95057" lon="10.38428"><ele>1920</ele></trkpt>
<trkpt lat="46.95055" lon="10.38419"><ele>1920</ele></trkpt>
<trkpt lat="46.9505" lon="10.38404"><ele>1920</ele></trkpt>
<trkpt lat="46.95049" lon="10.38402"><ele>1920</ele></trkpt>
<trkpt lat="46.95045" lon="10.38397"><ele>1921</ele></trkpt>
<trkpt lat="46.95042" lon="10.38394"><ele>1921</ele></trkpt>
<trkpt lat="46.95039" lon="10.38386"><ele>1921</ele></trkpt>
<trkpt lat="46.95039" lon="10.38385"><ele>1921</ele></trkpt>
<trkpt lat="46.95039" lon="10.38381"><ele>1915</ele></trkpt>
<trkpt lat="46.95041" lon="10.38377"><ele>1915</ele></trkpt>
<trkpt lat="46.95044" lon="10.38374"><ele>1915</ele></trkpt>
<trkpt lat="46.95048" lon="10.38374"><ele>1915</ele></trkpt>
<trkpt lat="46.95052" lon="10.38378"><ele>1915</ele></trkpt>
<trkpt lat="46.95056" lon="10.38383"><ele>1915</ele></trkpt>
<trkpt lat="46.95066" lon="10.38401"><ele>1915</ele></trkpt>
<trkpt lat="46.95068" lon="10.38404"><ele>1915</ele></trkpt>
<trkpt lat="46.95071" lon="10.38409"><ele>1914</ele></trkpt>
<trkpt lat="46.95072" lon="10.38414"><ele>1914</ele></trkpt>
<trkpt lat="46.95076" lon="10.38425"><ele>1914</ele></trkpt>
<trkpt lat="46.9508" lon="10.38441"><ele>1914</ele></trkpt>
<trkpt lat="46.95086" lon="10.38455"><ele>1918</ele></trkpt>
<trkpt lat="46.95093" lon="10.38472"><ele>1918</ele></trkpt>
<trkpt lat="46.951" lon="10.38488"><ele>1918</ele></trkpt>
<trkpt lat="46.95114" lon="10.3851"><ele>1918</ele></trkpt>
<trkpt lat="46.95117" lon="10.38515"><ele>1910</ele></trkpt>
<trkpt lat="46.95127" lon="10.38529"><ele>1910</ele></trkpt>
<trkpt lat="46.9515" lon="10.38564"><ele>1910</ele></trkpt>
<trkpt lat="46.95167" lon="10.38588"><ele>1910</ele></trkpt>
<trkpt lat="46.95189" lon="10.38626"><ele>1894</ele></trkpt>
<trkpt lat="46.95191" lon="10.38629"><ele>1894</ele></trkpt>
<trkpt lat="46.95209" lon="10.38659"><ele>1894</ele></trkpt>
<trkpt lat="46.95224" lon="10.38681"><ele>1894</ele></trkpt>
<trkpt lat="46.9523" lon="10.3869"><ele>1886</ele></trkpt>
<trkpt lat="46.95237" lon="10.38702"><ele>1886</ele></trkpt>
<trkpt lat="46.95244" lon="10.3872"><ele>1886</ele></trkpt>
<trkpt lat="46.95246" lon="10.38726"><ele>1886</ele></trkpt>
<trkpt lat="46.95251" lon="10.38739"><ele>1881</ele></trkpt>
<trkpt lat="46.95256" lon="10.38749"><ele>1881</ele></trkpt>
<trkpt lat="46.9526" lon="10.38756"><ele>1881</ele></trkpt>
<trkpt lat="46.95271" lon="10.38773"><ele>1881</ele></trkpt>
<trkpt lat="46.95282" lon="10.38789"><ele>1875</ele></trkpt>
<trkpt lat="46.95296" lon="10.38815"><ele>1875</ele></trkpt>
<trkpt lat="46.95309" lon="10.3884"><ele>1875</ele></trkpt>
<trkpt lat="46.95312" lon="10.38843"><ele>1875</ele></trkpt>
<trkpt lat="46.95328" lon="10.38869"><ele>1876</ele></trkpt>
<trkpt lat="46.95336" lon="10.38879"><ele>1876</ele></trkpt>
<trkpt lat="46.95346" lon="10.38887"><ele>1876</ele></trkpt>
<trkpt lat="46.95349" lon="10.3889"><ele>1876</ele></trkpt>
<trkpt lat="46.95349" lon="10.3889"><ele>1867</ele></trkpt>
<trkpt lat="46.95358" lon="10.38899"><ele>1867</ele></trkpt>
<trkpt lat="46.95367" lon="10.38908"><ele>1867</ele></trkpt>
<trkpt lat="46.95369" lon="10.38913"><ele>1867</ele></trkpt>
<trkpt lat="46.9538" lon="10.38932"><ele>1870</ele></trkpt>
<trkpt lat="46.9539" lon="10.38948"><ele>1870</ele></trkpt>
<trkpt lat="46.95391" lon="10.38954"><ele>1870</ele></trkpt>
<trkpt lat="46.95392" lon="10.38958"><ele>1870</ele></trkpt>
<trkpt lat="46.95392" lon="10.38968"><ele>1860</ele></trkpt>
<trkpt lat="46.95391" lon="10.38987"><ele>1860</ele></trkpt>
<trkpt lat="46.95391" lon="10.38993"><ele>1860</ele></trkpt>
<trkpt lat="46.95392" lon="10.38997"><ele>1860</ele></trkpt>
<trkpt lat="46.95393" lon="10.38997"><ele>1860</ele></trkpt>
<trkpt lat="46.95395" lon="10.38998"><ele>1860</ele></trkpt>
<trkpt lat="46.954" lon="10.39"><ele>1860</ele></trkpt>
<trkpt lat="46.95406" lon="10.39001"><ele>1860</ele></trkpt>
<trkpt lat="46.95414" lon="10.39002"><ele>1852</ele></trkpt>
<trkpt lat="46.95422" lon="10.39005"><ele>1852</ele></trkpt>
<trkpt lat="46.9543" lon="10.39009"><ele>1852</ele></trkpt>
<trkpt lat="46.95436" lon="10.39015"><ele>1852</ele></trkpt>
<trkpt lat="46.95441" lon="10.39021"><ele>1850</ele></trkpt>
<trkpt lat="46.95447" lon="10.39034"><ele>1850</ele></trkpt>
<trkpt lat="46.95458" lon="10.39053"><ele>1850</ele></trkpt>
<trkpt lat="46.95463" lon="10.39068"><ele>1850</ele></trkpt>
<trkpt lat="46.95466" lon="10.39086"><ele>1837</ele></trkpt>
<trkpt lat="46.95466" lon="10.39104"><ele>1837</ele></trkpt>
<trkpt lat="46.95465" lon="10.39115"><ele>1837</ele></trkpt>
<trkpt lat="46.95461" lon="10.39126"><ele>1837</ele></trkpt>
<trkpt lat="46.95455" lon="10.39136"><ele>1842</ele></trkpt>
<trkpt lat="46.95451" lon="10.39147"><ele>1842</ele></trkpt>
<trkpt lat="46.95449" lon="10.39156"><ele>1842</ele></trkpt>
<trkpt lat="46.9545" lon="10.39166"><ele>1842</ele></trkpt>
<trkpt lat="46.95454" lon="10.39176"><ele>1841</ele></trkpt>
<trkpt lat="46.95459" lon="10.39183"><ele>1841</ele></trkpt>
<trkpt lat="46.95465" lon="10.3919"><ele>1841</ele></trkpt>
<trkpt lat="46.95474" lon="10.39197"><ele>1841</ele></trkpt>
<trkpt lat="46.95482" lon="10.39202"><ele>1837</ele></trkpt>
<trkpt lat="46.9549" lon="10.39209"><ele>1837</ele></trkpt>
<trkpt lat="46.95499" lon="10.39216"><ele>1837</ele></trkpt>
<trkpt lat="46.95507" lon="10.39225"><ele>1837</ele></trkpt>
<trkpt lat="46.95513" lon="10.39232"><ele>1828</ele></trkpt>
<trkpt lat="46.95516" lon="10.39237"><ele>1828</ele></trkpt>
<trkpt lat="46.95519" lon="10.3924"><ele>1828</ele></trkpt>
<trkpt lat="46.95523" lon="10.39242"><ele>1828</ele></trkpt>
<trkpt lat="46.95527" lon="10.39246"><ele>1822</ele></trkpt>
<trkpt lat="46.95534" lon="10.39251"><ele>1822</ele></trkpt>
<trkpt lat="46.9554" lon="10.39256"><ele>1822</ele></trkpt>
<trkpt lat="46.95541" lon="10.39258"><ele>1822</ele></trkpt>
<trkpt lat="46.95545" lon="10.39263"><ele>1828</ele></trkpt>
<trkpt lat="46.95547" lon="10.39265"><ele>1828</ele></trkpt>
<trkpt lat="46.95551" lon="10.3927"><ele>1828</ele></trkpt>
<trkpt lat="46.95567" lon="10.39289"><ele>1828</ele></trkpt>
<trkpt lat="46.9557" lon="10.39293"><ele>1820</ele></trkpt>
<trkpt lat="46.95576" lon="10.39301"><ele>1820</ele></trkpt>
<trkpt lat="46.95578" lon="10.39305"><ele>1820</ele></trkpt>
<trkpt lat="46.95581" lon="10.3931"><ele>1820</ele></trkpt>
<trkpt lat="46.95584" lon="10.39317"><ele>1820</ele></trkpt>
<trkpt lat="46.95586" lon="10.39326"><ele>1820</ele></trkpt>
<trkpt lat="46.95586" lon="10.39338"><ele>1820</ele></trkpt>
<trkpt lat="46.95582" lon="10.3935"><ele>1820</ele></trkpt>
<trkpt lat="46.95573" lon="10.39363"><ele>1816</ele></trkpt>
<trkpt lat="46.95564" lon="10.39375"><ele>1816</ele></trkpt>
<trkpt lat="46.95556" lon="10.39389"><ele>1816</ele></trkpt>
<trkpt lat="46.95546" lon="10.39406"><ele>1816</ele></trkpt>
<trkpt lat="46.95539" lon="10.39419"><ele>1813</ele></trkpt>
<trkpt lat="46.95535" lon="10.39429"><ele>1813</ele></trkpt>
<trkpt lat="46.95532" lon="10.39439"><ele>1813</ele></trkpt>
<trkpt lat="46.9553" lon="10.39451"><ele>1813</ele></trkpt>
<trkpt lat="46.95529" lon="10.39462"><ele>1808</ele></trkpt>
<trkpt lat="46.95529" lon="10.39472"><ele>1808</ele></trkpt>
<trkpt lat="46.9553" lon="10.39488"><ele>1808</ele></trkpt>
<trkpt lat="46.9553" lon="10.39494"><ele>1808</ele></trkpt>
<trkpt lat="46.95529" lon="10.39502"><ele>1799</ele></trkpt>
<trkpt lat="46.95529" lon="10.39511"><ele>1799</ele></trkpt>
<trkpt lat="46.9553" lon="10.39519"><ele>1799</ele></trkpt>
<trkpt lat="46.95534" lon="10.39539"><ele>1799</ele></trkpt>
<trkpt lat="46.95536" lon="10.39547"><ele>1797</ele></trkpt>
<trkpt lat="46.95538" lon="10.39563"><ele>1797</ele></trkpt>
<trkpt lat="46.95539" lon="10.39569"><ele>1797</ele></trkpt>
<trkpt lat="46.95542" lon="10.39586"><ele>1797</ele></trkpt>
<trkpt lat="46.95546" lon="10.39605"><ele>1797</ele></trkpt>
<trkpt lat="46.9555" lon="10.39622"><ele>1797</ele></trkpt>
<trkpt lat="46.95555" lon="10.39641"><ele>1797</ele></trkpt>
<trkpt lat="46.95556" lon="10.39643"><ele>1797</ele></trkpt>
<trkpt lat="46.95556" lon="10.39644"><ele>1789</ele></trkpt>
<trkpt lat="46.95557" lon="10.39645"><ele>1789</ele></trkpt>
<trkpt lat="46.95563" lon="10.39662"><ele>1789</ele></trkpt>
<trkpt lat="46.9557" lon="10.39683"><ele>1789</ele></trkpt>
<trkpt lat="46.95571" lon="10.39688"><ele>1783</ele></trkpt>
<trkpt lat="46.95572" lon="10.39689"><ele>1783</ele></trkpt>
<trkpt lat="46.9558" lon="10.39706"><ele>1783</ele></trkpt>
<trkpt lat="46.95586" lon="10.39727"><ele>1783</ele></trkpt>
<trkpt lat="46.95588" lon="10.39734"><ele>1775</ele></trkpt>
<trkpt lat="46.95588" lon="10.39744"><ele>1775</ele></trkpt>
<trkpt lat="46.95587" lon="10.39753"><ele>1775</ele></trkpt>
<trkpt lat="46.95586" lon="10.39762"><ele>1775</ele></trkpt>
<trkpt lat="46.95585" lon="10.39772"><ele>1778</ele></trkpt>
<trkpt lat="46.95585" lon="10.39789"><ele>1778</ele></trkpt>
<trkpt lat="46.95584" lon="10.39795"><ele>1778</ele></trkpt>
<trkpt lat="46.95582" lon="10.398"><ele>1778</ele></trkpt>
<trkpt lat="46.95577" lon="10.39809"><ele>1776</ele></trkpt>
<trkpt lat="46.95574" lon="10.39817"><ele>1776</ele></trkpt>
<trkpt lat="46.95573" lon="10.39823"><ele>1776</ele></trkpt>
<trkpt lat="46.95573" lon="10.39833"><ele>1776</ele></trkpt>
<trkpt lat="46.95577" lon="10.39841"><ele>1774</ele></trkpt>
<trkpt lat="46.95577" lon="10.39842"><ele>1774</ele></trkpt>
<trkpt lat="46.95581" lon="10.39847"><ele>1774</ele></trkpt>
<trkpt lat="46.95585" lon="10.39852"><ele>1774</ele></trkpt>
<trkpt lat="46.95587" lon="10.39855"><ele>1774</ele></trkpt>
<trkpt lat="46.95595" lon="10.39864"><ele>1774</ele></trkpt>
<trkpt lat="46.95601" lon="10.39871"><ele>1774</ele></trkpt>
<trkpt lat="46.95605" lon="10.39877"><ele>1774</ele></trkpt>
<trkpt lat="46.95611" lon="10.39886"><ele>1761</ele></trkpt>
<trkpt lat="46.95613" lon="10.39889"><ele>1761</ele></trkpt>
<trkpt lat="46.95617" lon="10.39899"><ele>1761</ele></trkpt>
<trkpt lat="46.9562" lon="10.39911"><ele>1761</ele></trkpt>
<trkpt lat="46.95622" lon="10.39916"><ele>1762</ele></trkpt>
<trkpt lat="46.95622" lon="10.39919"><ele>1762</ele></trkpt>
<trkpt lat="46.95625" lon="10.39929"><ele>1762</ele></trkpt>
<trkpt lat="46.95626" lon="10.39947"><ele>1762</ele></trkpt>
<trkpt lat="46.95627" lon="10.39962"><ele>1762</ele></trkpt>
<trkpt lat="46.95628" lon="10.39983"><ele>1762</ele></trkpt>
<trkpt lat="46.95629" lon="10.40002"><ele>1762</ele></trkpt>
<trkpt lat="46.95629" lon="10.40007"><ele>1762</ele></trkpt>
<trkpt lat="46.95629" lon="10.40016"><ele>1753</ele></trkpt>
<trkpt lat="46.95628" lon="10.40028"><ele>1753</ele></trkpt>
<trkpt lat="46.95629" lon="10.40035"><ele>1753</ele></trkpt>
<trkpt lat="46.9563" lon="10.40048"><ele>1753</ele></trkpt>
<trkpt lat="46.95632" lon="10.4007"><ele>1751</ele></trkpt>
<trkpt lat="46.95633" lon="10.40086"><ele>1751</ele></trkpt>
<trkpt lat="46.95635" lon="10.401"><ele>1751</ele></trkpt>
<trkpt lat="46.95637" lon="10.40105"><ele>1751</ele></trkpt>
<trkpt lat="46.95638" lon="10.40107"><ele>1753</ele></trkpt>
<trkpt lat="46.9564" lon="10.40109"><ele>1753</ele></trkpt>
<trkpt lat="46.95642" lon="10.40109"><ele>1753</ele></trkpt>
<trkpt lat="46.95643" lon="10.40109"><ele>1753</ele></trkpt>
<trkpt lat="46.95644" lon="10.40108"><ele>1753</ele></trkpt>
<trkpt lat="46.95645" lon="10.40107"><ele>1753</ele></trkpt>
<trkpt lat="46.95645" lon="10.40105"><ele>1753</ele></trkpt>
<trkpt lat="46.95645" lon="10.40102"><ele>1753</ele></trkpt>
<trkpt lat="46.95645" lon="10.40096"><ele>1751</ele></trkpt>
<trkpt lat="46.95643" lon="10.40086"><ele>1751</ele></trkpt>
<trkpt lat="46.95645" lon="10.40077"><ele>1751</ele></trkpt>
<trkpt lat="46.95647" lon="10.40069"><ele>1751</ele></trkpt>
<trkpt lat="46.9565" lon="10.40062"><ele>1745</ele></trkpt>
<trkpt lat="46.95654" lon="10.40054"><ele>1745</ele></trkpt>
<trkpt lat="46.95665" lon="10.4004"><ele>1745</ele></trkpt>
<trkpt lat="46.95669" lon="10.40035"><ele>1745</ele></trkpt>
<trkpt lat="46.95674" lon="10.40032"><ele>1743</ele></trkpt>
<trkpt lat="46.95681" lon="10.40027"><ele>1743</ele></trkpt>
<trkpt lat="46.95688" lon="10.40023"><ele>1743</ele></trkpt>
<trkpt lat="46.95695" lon="10.40016"><ele>1743</ele></trkpt>
<trkpt lat="46.957" lon="10.40013"><ele>1739</ele></trkpt>
<trkpt lat="46.95705" lon="10.40008"><ele>1739</ele></trkpt>
<trkpt lat="46.95711" lon="10.40001"><ele>1739</ele></trkpt>
<trkpt lat="46.95718" lon="10.39988"><ele>1739</ele></trkpt>
<trkpt lat="46.9573" lon="10.39968"><ele>1736</ele></trkpt>
<trkpt lat="46.95734" lon="10.3996"><ele>1736</ele></trkpt>
<trkpt lat="46.9574" lon="10.3995"><ele>1736</ele></trkpt>
<trkpt lat="46.95745" lon="10.39943"><ele>1736</ele></trkpt>
<trkpt lat="46.9575" lon="10.39936"><ele>1731</ele></trkpt>
<trkpt lat="46.95756" lon="10.39929"><ele>1731</ele></trkpt>
<trkpt lat="46.95761" lon="10.39924"><ele>1731</ele></trkpt>
<trkpt lat="46.95765" lon="10.39918"><ele>1731</ele></trkpt>
<trkpt lat="46.95767" lon="10.39908"><ele>1725</ele></trkpt>
<trkpt lat="46.95768" lon="10.39899"><ele>1725</ele></trkpt>
<trkpt lat="46.95768" lon="10.39892"><ele>1725</ele></trkpt>
<trkpt lat="46.95766" lon="10.39885"><ele>1725</ele></trkpt>
<trkpt lat="46.95764" lon="10.3988"><ele>1725</ele></trkpt>
<trkpt lat="46.95761" lon="10.39877"><ele>1725</ele></trkpt>
<trkpt lat="46.95756" lon="10.39874"><ele>1725</ele></trkpt>
<trkpt lat="46.95752" lon="10.39872"><ele>1725</ele></trkpt>
<trkpt lat="46.95748" lon="10.39868"><ele>1730</ele></trkpt>
<trkpt lat="46.95745" lon="10.39863"><ele>1730</ele></trkpt>
<trkpt lat="46.95744" lon="10.39859"><ele>1730</ele></trkpt>
<trkpt lat="46.95745" lon="10.39854"><ele>1730</ele></trkpt>
<trkpt lat="46.95746" lon="10.3985"><ele>1730</ele></trkpt>
<trkpt lat="46.95748" lon="10.39847"><ele>1730</ele></trkpt>
<trkpt lat="46.95749" lon="10.39846"><ele>1730</ele></trkpt>
<trkpt lat="46.95752" lon="10.39842"><ele>1730</ele></trkpt>
<trkpt lat="46.95762" lon="10.39833"><ele>1726</ele></trkpt>
<trkpt lat="46.95779" lon="10.39819"><ele>1726</ele></trkpt>
<trkpt lat="46.95783" lon="10.39814"><ele>1726</ele></trkpt>
<trkpt lat="46.95786" lon="10.39809"><ele>1726</ele></trkpt>
<trkpt lat="46.95788" lon="10.39802"><ele>1718</ele></trkpt>
<trkpt lat="46.95789" lon="10.39791"><ele>1718</ele></trkpt>
<trkpt lat="46.9579" lon="10.3976"><ele>1718</ele></trkpt>
<trkpt lat="46.95791" lon="10.39747"><ele>1718</ele></trkpt>
<trkpt lat="46.95793" lon="10.39734"><ele>1721</ele></trkpt>
<trkpt lat="46.95796" lon="10.3972"><ele>1721</ele></trkpt>
<trkpt lat="46.95801" lon="10.39706"><ele>1721</ele></trkpt>
<trkpt lat="46.95806" lon="10.39694"><ele>1721</ele></trkpt>
<trkpt lat="46.95811" lon="10.39683"><ele>1713</ele></trkpt>
<trkpt lat="46.95813" lon="10.39675"><ele>1713</ele></trkpt>
<trkpt lat="46.95816" lon="10.39668"><ele>1713</ele></trkpt>
<trkpt lat="46.95817" lon="10.39659"><ele>1713</ele></trkpt>
<trkpt lat="46.95815" lon="10.39639"><ele>1703</ele></trkpt>
<trkpt lat="46.95814" lon="10.39626"><ele>1703</ele></trkpt>
<trkpt lat="46.95814" lon="10.39601"><ele>1703</ele></trkpt>
<trkpt lat="46.95812" lon="10.39592"><ele>1703</ele></trkpt>
<trkpt lat="46.95809" lon="10.3958"><ele>1708</ele></trkpt>
<trkpt lat="46.95808" lon="10.39572"><ele>1708</ele></trkpt>
<trkpt lat="46.95808" lon="10.39561"><ele>1708</ele></trkpt>
<trkpt lat="46.95807" lon="10.39499"><ele>1708</ele></trkpt>
<trkpt lat="46.95808" lon="10.39486"><ele>1703</ele></trkpt>
<trkpt lat="46.95809" lon="10.3948"><ele>1703</ele></trkpt>
<trkpt lat="46.95815" lon="10.39464"><ele>1703</ele></trkpt>
<trkpt lat="46.95819" lon="10.39455"><ele>1703</ele></trkpt>
<trkpt lat="46.95823" lon="10.39448"><ele>1696</ele></trkpt>
<trkpt lat="46.9583" lon="10.39438"><ele>1696</ele></trkpt>
<trkpt lat="46.95832" lon="10.39441"><ele>1696</ele></trkpt>

                    </trkseg>
              </trk>
            </gpx>