<?xml version="1.0" encoding="utf-8" standalone="yes"?>
<gpx version="1.1" creator="discover.swiss" xmlns:xsi="http://www.w3.org/2001/XMLSchema-instance" xmlns:schemaLocation="http://www.topografix.com/GPX/1/1 http://www.topografix.com/GPX/1/1/gpx.xsd" xmlns="http://www.topografix.com/GPX/1/1">
  <metadata>
    <name>7195 Chavrà Trail</name>
  </metadata>
  <trk>
    <trkseg>
      <trkpt lat="46.9407" lon="10.314506">
        <ele>2469</ele>
      </trkpt>
      <trkpt lat="46.940677" lon="10.314484">
        <ele>2469</ele>
      </trkpt>
      <trkpt lat="46.94066" lon="10.314625">
        <ele>2468</ele>
      </trkpt>
      <trkpt lat="46.940666" lon="10.314784">
        <ele>2466</ele>
      </trkpt>
      <trkpt lat="46.940689" lon="10.314916">
        <ele>2465</ele>
      </trkpt>
      <trkpt lat="46.940692" lon="10.315024">
        <ele>2464</ele>
      </trkpt>
      <trkpt lat="46.940668" lon="10.315165">
        <ele>2463</ele>
      </trkpt>
      <trkpt lat="46.940621" lon="10.31524">
        <ele>2461</ele>
      </trkpt>
      <trkpt lat="46.940579" lon="10.31529">
        <ele>2461</ele>
      </trkpt>
      <trkpt lat="46.940553" lon="10.31539">
        <ele>2460</ele>
      </trkpt>
      <trkpt lat="46.94056" lon="10.315491">
        <ele>2459</ele>
      </trkpt>
      <trkpt lat="46.940582" lon="10.315611">
        <ele>2459</ele>
      </trkpt>
      <trkpt lat="46.940581" lon="10.315694">
        <ele>2459</ele>
      </trkpt>
      <trkpt lat="46.940561" lon="10.315783">
        <ele>2459</ele>
      </trkpt>
      <trkpt lat="46.940549" lon="10.315846">
        <ele>2458</ele>
      </trkpt>
      <trkpt lat="46.940562" lon="10.315915">
        <ele>2458</ele>
      </trkpt>
      <trkpt lat="46.940593" lon="10.315994">
        <ele>2456</ele>
      </trkpt>
      <trkpt lat="46.940615" lon="10.316071">
        <ele>2456</ele>
      </trkpt>
      <trkpt lat="46.940619" lon="10.316123">
        <ele>2455</ele>
      </trkpt>
      <trkpt lat="46.940612" lon="10.316263">
        <ele>2454</ele>
      </trkpt>
      <trkpt lat="46.94055" lon="10.316297">
        <ele>2455</ele>
      </trkpt>
      <trkpt lat="46.940474" lon="10.316405">
        <ele>2455</ele>
      </trkpt>
      <trkpt lat="46.940333" lon="10.316588">
        <ele>2453</ele>
      </trkpt>
      <trkpt lat="46.940147" lon="10.316786">
        <ele>2452</ele>
      </trkpt>
      <trkpt lat="46.940125" lon="10.316804">
        <ele>2452</ele>
      </trkpt>
      <trkpt lat="46.940014" lon="10.317051">
        <ele>2451</ele>
      </trkpt>
      <trkpt lat="46.939856" lon="10.317322">
        <ele>2448</ele>
      </trkpt>
      <trkpt lat="46.939765" lon="10.317572">
        <ele>2446</ele>
      </trkpt>
      <trkpt lat="46.939682" lon="10.317683">
        <ele>2445</ele>
      </trkpt>
      <trkpt lat="46.939595" lon="10.317797">
        <ele>2442</ele>
      </trkpt>
      <trkpt lat="46.939534" lon="10.317769">
        <ele>2442</ele>
      </trkpt>
      <trkpt lat="46.939449" lon="10.317823">
        <ele>2443</ele>
      </trkpt>
      <trkpt lat="46.939373" lon="10.317826">
        <ele>2446</ele>
      </trkpt>
      <trkpt lat="46.939244" lon="10.317924">
        <ele>2446</ele>
      </trkpt>
      <trkpt lat="46.939102" lon="10.317989">
        <ele>2448</ele>
      </trkpt>
      <trkpt lat="46.938961" lon="10.318037">
        <ele>2451</ele>
      </trkpt>
      <trkpt lat="46.938849" lon="10.318132">
        <ele>2453</ele>
      </trkpt>
      <trkpt lat="46.938587" lon="10.318396">
        <ele>2455</ele>
      </trkpt>
      <trkpt lat="46.938566" lon="10.318452">
        <ele>2456</ele>
      </trkpt>
      <trkpt lat="46.938625" lon="10.318824">
        <ele>2455</ele>
      </trkpt>
      <trkpt lat="46.938742" lon="10.319178">
        <ele>2455</ele>
      </trkpt>
      <trkpt lat="46.938896" lon="10.319875">
        <ele>2456</ele>
      </trkpt>
      <trkpt lat="46.938962" lon="10.320229">
        <ele>2457</ele>
      </trkpt>
      <trkpt lat="46.938977" lon="10.320647">
        <ele>2453</ele>
      </trkpt>
      <trkpt lat="46.938881" lon="10.321173">
        <ele>2449</ele>
      </trkpt>
      <trkpt lat="46.938808" lon="10.321773">
        <ele>2439</ele>
      </trkpt>
      <trkpt lat="46.938837" lon="10.322063">
        <ele>2438</ele>
      </trkpt>
      <trkpt lat="46.938837" lon="10.322396">
        <ele>2436</ele>
      </trkpt>
      <trkpt lat="46.938858" lon="10.322771">
        <ele>2436</ele>
      </trkpt>
      <trkpt lat="46.938918" lon="10.323029">
        <ele>2433</ele>
      </trkpt>
      <trkpt lat="46.938993" lon="10.323317">
        <ele>2430</ele>
      </trkpt>
      <trkpt lat="46.939099" lon="10.323283">
        <ele>2426</ele>
      </trkpt>
      <trkpt lat="46.939493" lon="10.323326">
        <ele>2414</ele>
      </trkpt>
      <trkpt lat="46.939599" lon="10.323332">
        <ele>2410</ele>
      </trkpt>
      <trkpt lat="46.939654" lon="10.323396">
        <ele>2409</ele>
      </trkpt>
      <trkpt lat="46.939721" lon="10.323405">
        <ele>2408</ele>
      </trkpt>
      <trkpt lat="46.939829" lon="10.323361">
        <ele>2405</ele>
      </trkpt>
      <trkpt lat="46.939876" lon="10.323364">
        <ele>2404</ele>
      </trkpt>
      <trkpt lat="46.939975" lon="10.323371">
        <ele>2402</ele>
      </trkpt>
      <trkpt lat="46.940031" lon="10.323355">
        <ele>2400</ele>
      </trkpt>
      <trkpt lat="46.940055" lon="10.323281">
        <ele>2398</ele>
      </trkpt>
      <trkpt lat="46.940061" lon="10.32315">
        <ele>2395</ele>
      </trkpt>
      <trkpt lat="46.939995" lon="10.322956">
        <ele>2392</ele>
      </trkpt>
      <trkpt lat="46.940008" lon="10.322845">
        <ele>2391</ele>
      </trkpt>
      <trkpt lat="46.940063" lon="10.322791">
        <ele>2390</ele>
      </trkpt>
      <trkpt lat="46.940142" lon="10.322763">
        <ele>2388</ele>
      </trkpt>
      <trkpt lat="46.940378" lon="10.32273">
        <ele>2383</ele>
      </trkpt>
      <trkpt lat="46.940427" lon="10.322643">
        <ele>2382</ele>
      </trkpt>
      <trkpt lat="46.940464" lon="10.32256">
        <ele>2380</ele>
      </trkpt>
      <trkpt lat="46.940637" lon="10.322426">
        <ele>2375</ele>
      </trkpt>
      <trkpt lat="46.940685" lon="10.322326">
        <ele>2374</ele>
      </trkpt>
      <trkpt lat="46.940765" lon="10.322225">
        <ele>2372</ele>
      </trkpt>
      <trkpt lat="46.940777" lon="10.322073">
        <ele>2371</ele>
      </trkpt>
      <trkpt lat="46.940883" lon="10.321913">
        <ele>2366</ele>
      </trkpt>
      <trkpt lat="46.940915" lon="10.321882">
        <ele>2365</ele>
      </trkpt>
      <trkpt lat="46.940977" lon="10.321868">
        <ele>2362</ele>
      </trkpt>
      <trkpt lat="46.941022" lon="10.321798">
        <ele>2361</ele>
      </trkpt>
      <trkpt lat="46.941098" lon="10.321706">
        <ele>2359</ele>
      </trkpt>
      <trkpt lat="46.941208" lon="10.321623">
        <ele>2356</ele>
      </trkpt>
      <trkpt lat="46.941357" lon="10.32153">
        <ele>2351</ele>
      </trkpt>
      <trkpt lat="46.941437" lon="10.32149">
        <ele>2348</ele>
      </trkpt>
      <trkpt lat="46.941491" lon="10.321404">
        <ele>2346</ele>
      </trkpt>
      <trkpt lat="46.941541" lon="10.321326">
        <ele>2345</ele>
      </trkpt>
      <trkpt lat="46.9416" lon="10.321243">
        <ele>2345</ele>
      </trkpt>
      <trkpt lat="46.941665" lon="10.321258">
        <ele>2343</ele>
      </trkpt>
      <trkpt lat="46.941692" lon="10.321303">
        <ele>2341</ele>
      </trkpt>
      <trkpt lat="46.941707" lon="10.321321">
        <ele>2340</ele>
      </trkpt>
      <trkpt lat="46.941776" lon="10.32132">
        <ele>2339</ele>
      </trkpt>
      <trkpt lat="46.941846" lon="10.321348">
        <ele>2336</ele>
      </trkpt>
      <trkpt lat="46.941872" lon="10.321325">
        <ele>2336</ele>
      </trkpt>
      <trkpt lat="46.94189" lon="10.321265">
        <ele>2336</ele>
      </trkpt>
      <trkpt lat="46.941971" lon="10.321283">
        <ele>2332</ele>
      </trkpt>
      <trkpt lat="46.942036" lon="10.321257">
        <ele>2330</ele>
      </trkpt>
      <trkpt lat="46.942175" lon="10.321206">
        <ele>2327</ele>
      </trkpt>
      <trkpt lat="46.942287" lon="10.32121">
        <ele>2322</ele>
      </trkpt>
      <trkpt lat="46.942346" lon="10.321272">
        <ele>2318</ele>
      </trkpt>
      <trkpt lat="46.94242" lon="10.321255">
        <ele>2317</ele>
      </trkpt>
      <trkpt lat="46.942504" lon="10.321239">
        <ele>2316</ele>
      </trkpt>
      <trkpt lat="46.942597" lon="10.321249">
        <ele>2313</ele>
      </trkpt>
      <trkpt lat="46.942659" lon="10.321279">
        <ele>2311</ele>
      </trkpt>
      <trkpt lat="46.942707" lon="10.321302">
        <ele>2308</ele>
      </trkpt>
      <trkpt lat="46.94275" lon="10.32129">
        <ele>2308</ele>
      </trkpt>
      <trkpt lat="46.942769" lon="10.321356">
        <ele>2308</ele>
      </trkpt>
      <trkpt lat="46.942789" lon="10.321421">
        <ele>2307</ele>
      </trkpt>
      <trkpt lat="46.942808" lon="10.321474">
        <ele>2305</ele>
      </trkpt>
      <trkpt lat="46.942859" lon="10.321582">
        <ele>2303</ele>
      </trkpt>
      <trkpt lat="46.942891" lon="10.321674">
        <ele>2301</ele>
      </trkpt>
      <trkpt lat="46.942931" lon="10.321753">
        <ele>2300</ele>
      </trkpt>
      <trkpt lat="46.942953" lon="10.321806">
        <ele>2299</ele>
      </trkpt>
      <trkpt lat="46.943003" lon="10.321891">
        <ele>2299</ele>
      </trkpt>
      <trkpt lat="46.94308" lon="10.322034">
        <ele>2298</ele>
      </trkpt>
      <trkpt lat="46.943133" lon="10.322117">
        <ele>2298</ele>
      </trkpt>
      <trkpt lat="46.943181" lon="10.322225">
        <ele>2299</ele>
      </trkpt>
      <trkpt lat="46.943215" lon="10.322345">
        <ele>2298</ele>
      </trkpt>
      <trkpt lat="46.943219" lon="10.322347">
        <ele>2299</ele>
      </trkpt>
      <trkpt lat="46.943215" lon="10.322345">
        <ele>2298</ele>
      </trkpt>
      <trkpt lat="46.94319" lon="10.322366">
        <ele>2298</ele>
      </trkpt>
      <trkpt lat="46.943177" lon="10.322406">
        <ele>2297</ele>
      </trkpt>
      <trkpt lat="46.943179" lon="10.322486">
        <ele>2297</ele>
      </trkpt>
      <trkpt lat="46.943188" lon="10.322668">
        <ele>2295</ele>
      </trkpt>
      <trkpt lat="46.943177" lon="10.322849">
        <ele>2292</ele>
      </trkpt>
      <trkpt lat="46.943163" lon="10.322993">
        <ele>2290</ele>
      </trkpt>
      <trkpt lat="46.94317" lon="10.323127">
        <ele>2289</ele>
      </trkpt>
      <trkpt lat="46.943183" lon="10.323289">
        <ele>2287</ele>
      </trkpt>
      <trkpt lat="46.943172" lon="10.323394">
        <ele>2285</ele>
      </trkpt>
      <trkpt lat="46.943121" lon="10.32362">
        <ele>2283</ele>
      </trkpt>
      <trkpt lat="46.943098" lon="10.323729">
        <ele>2282</ele>
      </trkpt>
      <trkpt lat="46.94308" lon="10.323845">
        <ele>2280</ele>
      </trkpt>
      <trkpt lat="46.943088" lon="10.324119">
        <ele>2277</ele>
      </trkpt>
      <trkpt lat="46.943132" lon="10.324472">
        <ele>2272</ele>
      </trkpt>
      <trkpt lat="46.943153" lon="10.324822">
        <ele>2268</ele>
      </trkpt>
      <trkpt lat="46.943167" lon="10.325067">
        <ele>2264</ele>
      </trkpt>
      <trkpt lat="46.943178" lon="10.325307">
        <ele>2261</ele>
      </trkpt>
      <trkpt lat="46.943184" lon="10.325467">
        <ele>2259</ele>
      </trkpt>
      <trkpt lat="46.943187" lon="10.325576">
        <ele>2258</ele>
      </trkpt>
      <trkpt lat="46.943184" lon="10.325606">
        <ele>2258</ele>
      </trkpt>
      <trkpt lat="46.943175" lon="10.325639">
        <ele>2257</ele>
      </trkpt>
      <trkpt lat="46.943165" lon="10.325653">
        <ele>2257</ele>
      </trkpt>
      <trkpt lat="46.943149" lon="10.325659">
        <ele>2257</ele>
      </trkpt>
      <trkpt lat="46.94313" lon="10.325661">
        <ele>2256</ele>
      </trkpt>
      <trkpt lat="46.943117" lon="10.325653">
        <ele>2256</ele>
      </trkpt>
      <trkpt lat="46.943102" lon="10.325628">
        <ele>2256</ele>
      </trkpt>
      <trkpt lat="46.943078" lon="10.325515">
        <ele>2255</ele>
      </trkpt>
      <trkpt lat="46.94305" lon="10.32542">
        <ele>2254</ele>
      </trkpt>
      <trkpt lat="46.942983" lon="10.32517">
        <ele>2252</ele>
      </trkpt>
      <trkpt lat="46.942871" lon="10.324875">
        <ele>2249</ele>
      </trkpt>
      <trkpt lat="46.942848" lon="10.324841">
        <ele>2249</ele>
      </trkpt>
      <trkpt lat="46.942822" lon="10.324832">
        <ele>2248</ele>
      </trkpt>
      <trkpt lat="46.942799" lon="10.324839">
        <ele>2248</ele>
      </trkpt>
      <trkpt lat="46.942781" lon="10.324876">
        <ele>2248</ele>
      </trkpt>
      <trkpt lat="46.942776" lon="10.324934">
        <ele>2247</ele>
      </trkpt>
      <trkpt lat="46.942788" lon="10.325021">
        <ele>2246</ele>
      </trkpt>
      <trkpt lat="46.942816" lon="10.325142">
        <ele>2244</ele>
      </trkpt>
      <trkpt lat="46.942823" lon="10.325186">
        <ele>2244</ele>
      </trkpt>
      <trkpt lat="46.942842" lon="10.325384">
        <ele>2243</ele>
      </trkpt>
      <trkpt lat="46.94285" lon="10.325575">
        <ele>2241</ele>
      </trkpt>
      <trkpt lat="46.942841" lon="10.325699">
        <ele>2240</ele>
      </trkpt>
      <trkpt lat="46.942816" lon="10.325881">
        <ele>2238</ele>
      </trkpt>
      <trkpt lat="46.942808" lon="10.325965">
        <ele>2237</ele>
      </trkpt>
      <trkpt lat="46.94281" lon="10.326041">
        <ele>2236</ele>
      </trkpt>
      <trkpt lat="46.942815" lon="10.3261">
        <ele>2236</ele>
      </trkpt>
      <trkpt lat="46.942833" lon="10.326159">
        <ele>2235</ele>
      </trkpt>
      <trkpt lat="46.942869" lon="10.326248">
        <ele>2234</ele>
      </trkpt>
      <trkpt lat="46.942924" lon="10.32635">
        <ele>2232</ele>
      </trkpt>
      <trkpt lat="46.942993" lon="10.326503">
        <ele>2229</ele>
      </trkpt>
      <trkpt lat="46.943066" lon="10.326665">
        <ele>2227</ele>
      </trkpt>
      <trkpt lat="46.943118" lon="10.326813">
        <ele>2224</ele>
      </trkpt>
      <trkpt lat="46.943161" lon="10.32697">
        <ele>2222</ele>
      </trkpt>
      <trkpt lat="46.943186" lon="10.327068">
        <ele>2220</ele>
      </trkpt>
      <trkpt lat="46.943212" lon="10.327197">
        <ele>2218</ele>
      </trkpt>
      <trkpt lat="46.943232" lon="10.327359">
        <ele>2216</ele>
      </trkpt>
      <trkpt lat="46.943229" lon="10.327463">
        <ele>2214</ele>
      </trkpt>
      <trkpt lat="46.943205" lon="10.32755">
        <ele>2213</ele>
      </trkpt>
      <trkpt lat="46.943165" lon="10.327592">
        <ele>2213</ele>
      </trkpt>
      <trkpt lat="46.943111" lon="10.327593">
        <ele>2212</ele>
      </trkpt>
      <trkpt lat="46.943061" lon="10.327557">
        <ele>2211</ele>
      </trkpt>
      <trkpt lat="46.943014" lon="10.327439">
        <ele>2209</ele>
      </trkpt>
      <trkpt lat="46.942915" lon="10.327177">
        <ele>2205</ele>
      </trkpt>
      <trkpt lat="46.942825" lon="10.32702">
        <ele>2202</ele>
      </trkpt>
      <trkpt lat="46.942679" lon="10.326781">
        <ele>2196</ele>
      </trkpt>
      <trkpt lat="46.942521" lon="10.32649">
        <ele>2190</ele>
      </trkpt>
      <trkpt lat="46.94249" lon="10.326453">
        <ele>2189</ele>
      </trkpt>
      <trkpt lat="46.942462" lon="10.326444">
        <ele>2188</ele>
      </trkpt>
      <trkpt lat="46.942437" lon="10.326453">
        <ele>2188</ele>
      </trkpt>
      <trkpt lat="46.942419" lon="10.32648">
        <ele>2187</ele>
      </trkpt>
      <trkpt lat="46.942411" lon="10.326526">
        <ele>2187</ele>
      </trkpt>
      <trkpt lat="46.942423" lon="10.32661">
        <ele>2185</ele>
      </trkpt>
      <trkpt lat="46.942446" lon="10.326738">
        <ele>2183</ele>
      </trkpt>
      <trkpt lat="46.942449" lon="10.32682">
        <ele>2182</ele>
      </trkpt>
      <trkpt lat="46.942445" lon="10.326904">
        <ele>2181</ele>
      </trkpt>
      <trkpt lat="46.942432" lon="10.326962">
        <ele>2181</ele>
      </trkpt>
      <trkpt lat="46.942418" lon="10.327018">
        <ele>2180</ele>
      </trkpt>
      <trkpt lat="46.942381" lon="10.32713">
        <ele>2177</ele>
      </trkpt>
      <trkpt lat="46.942355" lon="10.327196">
        <ele>2176</ele>
      </trkpt>
      <trkpt lat="46.94232" lon="10.327267">
        <ele>2174</ele>
      </trkpt>
      <trkpt lat="46.942238" lon="10.327379">
        <ele>2172</ele>
      </trkpt>
      <trkpt lat="46.942117" lon="10.327482">
        <ele>2169</ele>
      </trkpt>
      <trkpt lat="46.942007" lon="10.327578">
        <ele>2166</ele>
      </trkpt>
      <trkpt lat="46.941892" lon="10.32768">
        <ele>2163</ele>
      </trkpt>
      <trkpt lat="46.94179" lon="10.327792">
        <ele>2160</ele>
      </trkpt>
      <trkpt lat="46.941685" lon="10.327874">
        <ele>2157</ele>
      </trkpt>
      <trkpt lat="46.941613" lon="10.32793">
        <ele>2156</ele>
      </trkpt>
      <trkpt lat="46.941451" lon="10.328029">
        <ele>2151</ele>
      </trkpt>
      <trkpt lat="46.941336" lon="10.328085">
        <ele>2149</ele>
      </trkpt>
      <trkpt lat="46.941245" lon="10.328143">
        <ele>2147</ele>
      </trkpt>
      <trkpt lat="46.941156" lon="10.32822">
        <ele>2144</ele>
      </trkpt>
      <trkpt lat="46.941075" lon="10.328322">
        <ele>2142</ele>
      </trkpt>
      <trkpt lat="46.941007" lon="10.328403">
        <ele>2141</ele>
      </trkpt>
      <trkpt lat="46.940942" lon="10.328493">
        <ele>2139</ele>
      </trkpt>
      <trkpt lat="46.9409" lon="10.328589">
        <ele>2137</ele>
      </trkpt>
      <trkpt lat="46.940889" lon="10.328706">
        <ele>2136</ele>
      </trkpt>
      <trkpt lat="46.940918" lon="10.328813">
        <ele>2134</ele>
      </trkpt>
      <trkpt lat="46.940989" lon="10.328966">
        <ele>2132</ele>
      </trkpt>
      <trkpt lat="46.941027" lon="10.329094">
        <ele>2130</ele>
      </trkpt>
      <trkpt lat="46.941016" lon="10.329189">
        <ele>2129</ele>
      </trkpt>
      <trkpt lat="46.940984" lon="10.329265">
        <ele>2128</ele>
      </trkpt>
      <trkpt lat="46.940917" lon="10.329382">
        <ele>2126</ele>
      </trkpt>
      <trkpt lat="46.940863" lon="10.32953">
        <ele>2124</ele>
      </trkpt>
      <trkpt lat="46.94083" lon="10.32966">
        <ele>2122</ele>
      </trkpt>
      <trkpt lat="46.940822" lon="10.329752">
        <ele>2120</ele>
      </trkpt>
      <trkpt lat="46.940815" lon="10.329811">
        <ele>2119</ele>
      </trkpt>
      <trkpt lat="46.940807" lon="10.329844">
        <ele>2118</ele>
      </trkpt>
      <trkpt lat="46.940788" lon="10.329858">
        <ele>2118</ele>
      </trkpt>
      <trkpt lat="46.940765" lon="10.329865">
        <ele>2118</ele>
      </trkpt>
      <trkpt lat="46.940737" lon="10.329848">
        <ele>2118</ele>
      </trkpt>
      <trkpt lat="46.940712" lon="10.329805">
        <ele>2117</ele>
      </trkpt>
      <trkpt lat="46.940691" lon="10.329727">
        <ele>2116</ele>
      </trkpt>
      <trkpt lat="46.94068" lon="10.329661">
        <ele>2116</ele>
      </trkpt>
      <trkpt lat="46.940684" lon="10.329531">
        <ele>2114</ele>
      </trkpt>
      <trkpt lat="46.940685" lon="10.329433">
        <ele>2113</ele>
      </trkpt>
      <trkpt lat="46.940665" lon="10.329357">
        <ele>2112</ele>
      </trkpt>
      <trkpt lat="46.940625" lon="10.329318">
        <ele>2112</ele>
      </trkpt>
      <trkpt lat="46.940558" lon="10.329306">
        <ele>2111</ele>
      </trkpt>
      <trkpt lat="46.940489" lon="10.329288">
        <ele>2111</ele>
      </trkpt>
      <trkpt lat="46.940397" lon="10.329244">
        <ele>2109</ele>
      </trkpt>
      <trkpt lat="46.940336" lon="10.329193">
        <ele>2108</ele>
      </trkpt>
      <trkpt lat="46.940246" lon="10.329117">
        <ele>2105</ele>
      </trkpt>
      <trkpt lat="46.940075" lon="10.32894">
        <ele>2101</ele>
      </trkpt>
      <trkpt lat="46.940014" lon="10.328849">
        <ele>2100</ele>
      </trkpt>
      <trkpt lat="46.939988" lon="10.328736">
        <ele>2099</ele>
      </trkpt>
      <trkpt lat="46.939964" lon="10.328622">
        <ele>2097</ele>
      </trkpt>
      <trkpt lat="46.939907" lon="10.32854">
        <ele>2097</ele>
      </trkpt>
      <trkpt lat="46.939826" lon="10.328511">
        <ele>2096</ele>
      </trkpt>
      <trkpt lat="46.939745" lon="10.328519">
        <ele>2094</ele>
      </trkpt>
      <trkpt lat="46.939655" lon="10.328564">
        <ele>2093</ele>
      </trkpt>
      <trkpt lat="46.939491" lon="10.328655">
        <ele>2090</ele>
      </trkpt>
      <trkpt lat="46.93944" lon="10.328701">
        <ele>2089</ele>
      </trkpt>
      <trkpt lat="46.939403" lon="10.328755">
        <ele>2088</ele>
      </trkpt>
      <trkpt lat="46.939346" lon="10.328911">
        <ele>2086</ele>
      </trkpt>
      <trkpt lat="46.93932" lon="10.329056">
        <ele>2084</ele>
      </trkpt>
      <trkpt lat="46.939317" lon="10.329225">
        <ele>2082</ele>
      </trkpt>
      <trkpt lat="46.939338" lon="10.329772">
        <ele>2077</ele>
      </trkpt>
      <trkpt lat="46.939359" lon="10.330318">
        <ele>2072</ele>
      </trkpt>
      <trkpt lat="46.939365" lon="10.330574">
        <ele>2069</ele>
      </trkpt>
      <trkpt lat="46.939362" lon="10.330789">
        <ele>2068</ele>
      </trkpt>
      <trkpt lat="46.939361" lon="10.330997">
        <ele>2065</ele>
      </trkpt>
      <trkpt lat="46.939376" lon="10.331172">
        <ele>2063</ele>
      </trkpt>
      <trkpt lat="46.939403" lon="10.331504">
        <ele>2057</ele>
      </trkpt>
      <trkpt lat="46.939436" lon="10.331886">
        <ele>2052</ele>
      </trkpt>
      <trkpt lat="46.939454" lon="10.332176">
        <ele>2048</ele>
      </trkpt>
      <trkpt lat="46.939477" lon="10.332459">
        <ele>2045</ele>
      </trkpt>
      <trkpt lat="46.939512" lon="10.332748">
        <ele>2041</ele>
      </trkpt>
      <trkpt lat="46.939548" lon="10.333098">
        <ele>2036</ele>
      </trkpt>
      <trkpt lat="46.939576" lon="10.333343">
        <ele>2033</ele>
      </trkpt>
      <trkpt lat="46.939583" lon="10.333529">
        <ele>2031</ele>
      </trkpt>
      <trkpt lat="46.939586" lon="10.333926">
        <ele>2026</ele>
      </trkpt>
      <trkpt lat="46.939585" lon="10.334024">
        <ele>2025</ele>
      </trkpt>
      <trkpt lat="46.939602" lon="10.334263">
        <ele>2022</ele>
      </trkpt>
      <trkpt lat="46.93962" lon="10.334556">
        <ele>2018</ele>
      </trkpt>
      <trkpt lat="46.939624" lon="10.334747">
        <ele>2016</ele>
      </trkpt>
      <trkpt lat="46.939624" lon="10.334943">
        <ele>2013</ele>
      </trkpt>
      <trkpt lat="46.939616" lon="10.335194">
        <ele>2009</ele>
      </trkpt>
      <trkpt lat="46.939601" lon="10.33558">
        <ele>2004</ele>
      </trkpt>
      <trkpt lat="46.93959" lon="10.335844">
        <ele>2002</ele>
      </trkpt>
      <trkpt lat="46.939591" lon="10.336059">
        <ele>1999</ele>
      </trkpt>
      <trkpt lat="46.939613" lon="10.336202">
        <ele>1997</ele>
      </trkpt>
      <trkpt lat="46.939661" lon="10.336495">
        <ele>1993</ele>
      </trkpt>
      <trkpt lat="46.939674" lon="10.336617">
        <ele>1991</ele>
      </trkpt>
      <trkpt lat="46.939706" lon="10.336909">
        <ele>1989</ele>
      </trkpt>
      <trkpt lat="46.939726" lon="10.337176">
        <ele>1986</ele>
      </trkpt>
      <trkpt lat="46.939771" lon="10.337606">
        <ele>1983</ele>
      </trkpt>
      <trkpt lat="46.939815" lon="10.337911">
        <ele>1979</ele>
      </trkpt>
      <trkpt lat="46.939831" lon="10.338101">
        <ele>1978</ele>
      </trkpt>
      <trkpt lat="46.939837" lon="10.338236">
        <ele>1977</ele>
      </trkpt>
      <trkpt lat="46.939813" lon="10.338375">
        <ele>1976</ele>
      </trkpt>
      <trkpt lat="46.939789" lon="10.338461">
        <ele>1975</ele>
      </trkpt>
      <trkpt lat="46.939757" lon="10.338523">
        <ele>1974</ele>
      </trkpt>
      <trkpt lat="46.939726" lon="10.33858">
        <ele>1974</ele>
      </trkpt>
      <trkpt lat="46.939639" lon="10.338722">
        <ele>1972</ele>
      </trkpt>
      <trkpt lat="46.939565" lon="10.338858">
        <ele>1971</ele>
      </trkpt>
      <trkpt lat="46.939506" lon="10.338988">
        <ele>1970</ele>
      </trkpt>
      <trkpt lat="46.939452" lon="10.339115">
        <ele>1969</ele>
      </trkpt>
      <trkpt lat="46.939396" lon="10.339273">
        <ele>1968</ele>
      </trkpt>
      <trkpt lat="46.939341" lon="10.33943">
        <ele>1967</ele>
      </trkpt>
      <trkpt lat="46.939295" lon="10.339565">
        <ele>1966</ele>
      </trkpt>
      <trkpt lat="46.939239" lon="10.33972">
        <ele>1964</ele>
      </trkpt>
      <trkpt lat="46.93919" lon="10.339875">
        <ele>1963</ele>
      </trkpt>
      <trkpt lat="46.939163" lon="10.339981">
        <ele>1962</ele>
      </trkpt>
      <trkpt lat="46.939131" lon="10.340091">
        <ele>1961</ele>
      </trkpt>
      <trkpt lat="46.939098" lon="10.340161">
        <ele>1961</ele>
      </trkpt>
      <trkpt lat="46.939042" lon="10.340244">
        <ele>1960</ele>
      </trkpt>
      <trkpt lat="46.938995" lon="10.340316">
        <ele>1959</ele>
      </trkpt>
      <trkpt lat="46.938956" lon="10.340426">
        <ele>1959</ele>
      </trkpt>
      <trkpt lat="46.938929" lon="10.340526">
        <ele>1958</ele>
      </trkpt>
      <trkpt lat="46.93888" lon="10.340766">
        <ele>1956</ele>
      </trkpt>
      <trkpt lat="46.938825" lon="10.340989">
        <ele>1954</ele>
      </trkpt>
      <trkpt lat="46.938773" lon="10.341186">
        <ele>1953</ele>
      </trkpt>
      <trkpt lat="46.938712" lon="10.341383">
        <ele>1951</ele>
      </trkpt>
      <trkpt lat="46.938626" lon="10.341674">
        <ele>1949</ele>
      </trkpt>
      <trkpt lat="46.938578" lon="10.341884">
        <ele>1948</ele>
      </trkpt>
      <trkpt lat="46.938553" lon="10.342027">
        <ele>1947</ele>
      </trkpt>
      <trkpt lat="46.938541" lon="10.342092">
        <ele>1947</ele>
      </trkpt>
      <trkpt lat="46.938528" lon="10.342249">
        <ele>1946</ele>
      </trkpt>
      <trkpt lat="46.938509" lon="10.342549">
        <ele>1946</ele>
      </trkpt>
      <trkpt lat="46.938499" lon="10.342785">
        <ele>1946</ele>
      </trkpt>
      <trkpt lat="46.938503" lon="10.342897">
        <ele>1946</ele>
      </trkpt>
      <trkpt lat="46.938524" lon="10.343022">
        <ele>1946</ele>
      </trkpt>
      <trkpt lat="46.938565" lon="10.343179">
        <ele>1945</ele>
      </trkpt>
      <trkpt lat="46.938587" lon="10.343281">
        <ele>1945</ele>
      </trkpt>
      <trkpt lat="46.938613" lon="10.343424">
        <ele>1944</ele>
      </trkpt>
      <trkpt lat="46.938642" lon="10.343599">
        <ele>1943</ele>
      </trkpt>
      <trkpt lat="46.938684" lon="10.343801">
        <ele>1942</ele>
      </trkpt>
      <trkpt lat="46.938746" lon="10.344034">
        <ele>1941</ele>
      </trkpt>
      <trkpt lat="46.93889" lon="10.34455">
        <ele>1938</ele>
      </trkpt>
      <trkpt lat="46.938944" lon="10.34478">
        <ele>1936</ele>
      </trkpt>
      <trkpt lat="46.938983" lon="10.344946">
        <ele>1934</ele>
      </trkpt>
      <trkpt lat="46.939031" lon="10.345079">
        <ele>1933</ele>
      </trkpt>
      <trkpt lat="46.93909" lon="10.345233">
        <ele>1933</ele>
      </trkpt>
      <trkpt lat="46.9391" lon="10.345272">
        <ele>1932</ele>
      </trkpt>
      <trkpt lat="46.939124" lon="10.345358">
        <ele>1932</ele>
      </trkpt>
      <trkpt lat="46.93913" lon="10.345417">
        <ele>1931</ele>
      </trkpt>
      <trkpt lat="46.939132" lon="10.345461">
        <ele>1931</ele>
      </trkpt>
      <trkpt lat="46.939127" lon="10.345537">
        <ele>1931</ele>
      </trkpt>
      <trkpt lat="46.939125" lon="10.345611">
        <ele>1930</ele>
      </trkpt>
      <trkpt lat="46.939128" lon="10.345691">
        <ele>1930</ele>
      </trkpt>
      <trkpt lat="46.939138" lon="10.345768">
        <ele>1930</ele>
      </trkpt>
      <trkpt lat="46.939163" lon="10.3459">
        <ele>1929</ele>
      </trkpt>
      <trkpt lat="46.939192" lon="10.34601">
        <ele>1928</ele>
      </trkpt>
      <trkpt lat="46.939215" lon="10.346095">
        <ele>1928</ele>
      </trkpt>
      <trkpt lat="46.939227" lon="10.346172">
        <ele>1928</ele>
      </trkpt>
      <trkpt lat="46.939252" lon="10.346251">
        <ele>1927</ele>
      </trkpt>
      <trkpt lat="46.939309" lon="10.346398">
        <ele>1926</ele>
      </trkpt>
      <trkpt lat="46.939389" lon="10.346669">
        <ele>1924</ele>
      </trkpt>
      <trkpt lat="46.939486" lon="10.347032">
        <ele>1922</ele>
      </trkpt>
      <trkpt lat="46.939588" lon="10.347408">
        <ele>1919</ele>
      </trkpt>
      <trkpt lat="46.939643" lon="10.347635">
        <ele>1917</ele>
      </trkpt>
      <trkpt lat="46.93967" lon="10.347818">
        <ele>1916</ele>
      </trkpt>
      <trkpt lat="46.939684" lon="10.348009">
        <ele>1916</ele>
      </trkpt>
      <trkpt lat="46.9397" lon="10.348186">
        <ele>1915</ele>
      </trkpt>
      <trkpt lat="46.939732" lon="10.348343">
        <ele>1914</ele>
      </trkpt>
      <trkpt lat="46.939771" lon="10.348514">
        <ele>1913</ele>
      </trkpt>
      <trkpt lat="46.939808" lon="10.34867">
        <ele>1912</ele>
      </trkpt>
      <trkpt lat="46.939844" lon="10.348852">
        <ele>1912</ele>
      </trkpt>
      <trkpt lat="46.939893" lon="10.34921">
        <ele>1909</ele>
      </trkpt>
      <trkpt lat="46.939922" lon="10.349476">
        <ele>1908</ele>
      </trkpt>
      <trkpt lat="46.939941" lon="10.349622">
        <ele>1908</ele>
      </trkpt>
      <trkpt lat="46.939951" lon="10.349698">
        <ele>1907</ele>
      </trkpt>
      <trkpt lat="46.939971" lon="10.349792">
        <ele>1907</ele>
      </trkpt>
      <trkpt lat="46.940007" lon="10.349914">
        <ele>1907</ele>
      </trkpt>
      <trkpt lat="46.940075" lon="10.3501">
        <ele>1906</ele>
      </trkpt>
      <trkpt lat="46.940207" lon="10.350399">
        <ele>1906</ele>
      </trkpt>
      <trkpt lat="46.940309" lon="10.350654">
        <ele>1906</ele>
      </trkpt>
      <trkpt lat="46.940373" lon="10.35079">
        <ele>1906</ele>
      </trkpt>
      <trkpt lat="46.940421" lon="10.350877">
        <ele>1905</ele>
      </trkpt>
      <trkpt lat="46.940489" lon="10.350965">
        <ele>1905</ele>
      </trkpt>
      <trkpt lat="46.940545" lon="10.351067">
        <ele>1904</ele>
      </trkpt>
      <trkpt lat="46.940618" lon="10.351191">
        <ele>1903</ele>
      </trkpt>
      <trkpt lat="46.940669" lon="10.351287">
        <ele>1902</ele>
      </trkpt>
      <trkpt lat="46.940711" lon="10.351402">
        <ele>1902</ele>
      </trkpt>
      <trkpt lat="46.940759" lon="10.351564">
        <ele>1900</ele>
      </trkpt>
      <trkpt lat="46.940814" lon="10.3518">
        <ele>1898</ele>
      </trkpt>
      <trkpt lat="46.940821" lon="10.351832">
        <ele>1898</ele>
      </trkpt>
      <trkpt lat="46.94085" lon="10.35196">
        <ele>1897</ele>
      </trkpt>
      <trkpt lat="46.940901" lon="10.352184">
        <ele>1896</ele>
      </trkpt>
      <trkpt lat="46.94093" lon="10.352324">
        <ele>1894</ele>
      </trkpt>
      <trkpt lat="46.940961" lon="10.352488">
        <ele>1893</ele>
      </trkpt>
      <trkpt lat="46.940975" lon="10.352646">
        <ele>1892</ele>
      </trkpt>
      <trkpt lat="46.940998" lon="10.352859">
        <ele>1890</ele>
      </trkpt>
      <trkpt lat="46.941013" lon="10.353096">
        <ele>1888</ele>
      </trkpt>
      <trkpt lat="46.941037" lon="10.353241">
        <ele>1887</ele>
      </trkpt>
      <trkpt lat="46.941076" lon="10.353396">
        <ele>1886</ele>
      </trkpt>
      <trkpt lat="46.941165" lon="10.353674">
        <ele>1885</ele>
      </trkpt>
      <trkpt lat="46.941263" lon="10.353999">
        <ele>1881</ele>
      </trkpt>
      <trkpt lat="46.94132" lon="10.354243">
        <ele>1879</ele>
      </trkpt>
      <trkpt lat="46.941381" lon="10.354542">
        <ele>1875</ele>
      </trkpt>
      <trkpt lat="46.941391" lon="10.354591">
        <ele>1874</ele>
      </trkpt>
      <trkpt lat="46.941443" lon="10.354842">
        <ele>1871</ele>
      </trkpt>
      <trkpt lat="46.941537" lon="10.355309">
        <ele>1866</ele>
      </trkpt>
      <trkpt lat="46.9416" lon="10.355608">
        <ele>1864</ele>
      </trkpt>
      <trkpt lat="46.941641" lon="10.355799">
        <ele>1862</ele>
      </trkpt>
      <trkpt lat="46.941654" lon="10.35586">
        <ele>1862</ele>
      </trkpt>
      <trkpt lat="46.94174" lon="10.356289">
        <ele>1861</ele>
      </trkpt>
      <trkpt lat="46.941818" lon="10.356592">
        <ele>1860</ele>
      </trkpt>
    </trkseg>
  </trk>
</gpx>