<?xml version="1.0" encoding="utf-8"?>
            <gpx xmlns="http://www.topografix.com/GPX/1/1" xmlns:xsd="http://www.w3.org/2001/XMLSchema" xmlns:xsi="http://www.w3.org/2001/XMLSchema-instance" version="1.1" creator="Fugawi 4,5,14,1696 http://www.fugawi.com/" xsi:schemaLocation="http://www.topografix.com/GPX/1/1 http://www.topografix.com/GPX/1/1/gpx.xsd">
                <trk>
                    <name>I.15 Fimbapass Trail (Samnaun)</name>
                    <desc></desc>
                    <trkseg>
                        <trkpt lat="46.9099" lon="10.25961"><ele>2274</ele></trkpt>
<trkpt lat="46.90989" lon="10.25969"><ele>2274</ele></trkpt>
<trkpt lat="46.90983" lon="10.25991"><ele>2274</ele></trkpt>
<trkpt lat="46.90979" lon="10.26002"><ele>2274</ele></trkpt>
<trkpt lat="46.90964" lon="10.26015"><ele>2277</ele></trkpt>
<trkpt lat="46.90964" lon="10.26015"><ele>2277</ele></trkpt>
<trkpt lat="46.90969" lon="10.26042"><ele>2277</ele></trkpt>
<trkpt lat="46.90969" lon="10.26052"><ele>2277</ele></trkpt>
<trkpt lat="46.90968" lon="10.2606"><ele>2273</ele></trkpt>
<trkpt lat="46.90962" lon="10.26085"><ele>2273</ele></trkpt>
<trkpt lat="46.90952" lon="10.26096"><ele>2273</ele></trkpt>
<trkpt lat="46.90948" lon="10.26108"><ele>2273</ele></trkpt>
<trkpt lat="46.90952" lon="10.26122"><ele>2266</ele></trkpt>
<trkpt lat="46.90956" lon="10.26129"><ele>2266</ele></trkpt>
<trkpt lat="46.90957" lon="10.26134"><ele>2266</ele></trkpt>
<trkpt lat="46.90957" lon="10.26139"><ele>2266</ele></trkpt>
<trkpt lat="46.90952" lon="10.26149"><ele>2270</ele></trkpt>
<trkpt lat="46.9095" lon="10.26155"><ele>2270</ele></trkpt>
<trkpt lat="46.90949" lon="10.26165"><ele>2270</ele></trkpt>
<trkpt lat="46.90952" lon="10.26174"><ele>2270</ele></trkpt>
<trkpt lat="46.90955" lon="10.26183"><ele>2276</ele></trkpt>
<trkpt lat="46.90954" lon="10.26197"><ele>2276</ele></trkpt>
<trkpt lat="46.90963" lon="10.26209"><ele>2276</ele></trkpt>
<trkpt lat="46.90967" lon="10.26219"><ele>2276</ele></trkpt>
<trkpt lat="46.90966" lon="10.26229"><ele>2281</ele></trkpt>
<trkpt lat="46.90965" lon="10.26233"><ele>2281</ele></trkpt>
<trkpt lat="46.90961" lon="10.26247"><ele>2281</ele></trkpt>
<trkpt lat="46.90956" lon="10.26258"><ele>2281</ele></trkpt>
<trkpt lat="46.90932" lon="10.26291"><ele>2292</ele></trkpt>
<trkpt lat="46.9093" lon="10.26301"><ele>2292</ele></trkpt>
<trkpt lat="46.90927" lon="10.26331"><ele>2292</ele></trkpt>
<trkpt lat="46.90929" lon="10.26359"><ele>2292</ele></trkpt>
<trkpt lat="46.90933" lon="10.26376"><ele>2307</ele></trkpt>
<trkpt lat="46.90934" lon="10.26397"><ele>2307</ele></trkpt>
<trkpt lat="46.90936" lon="10.26401"><ele>2307</ele></trkpt>
<trkpt lat="46.90944" lon="10.26407"><ele>2307</ele></trkpt>
<trkpt lat="46.90964" lon="10.26417"><ele>2318</ele></trkpt>
<trkpt lat="46.90964" lon="10.26417"><ele>2318</ele></trkpt>
<trkpt lat="46.90959" lon="10.26421"><ele>2318</ele></trkpt>
<trkpt lat="46.90958" lon="10.26427"><ele>2318</ele></trkpt>
<trkpt lat="46.90952" lon="10.2644"><ele>2317</ele></trkpt>
<trkpt lat="46.9095" lon="10.26445"><ele>2317</ele></trkpt>
<trkpt lat="46.90952" lon="10.26451"><ele>2317</ele></trkpt>
<trkpt lat="46.90954" lon="10.2646"><ele>2317</ele></trkpt>
<trkpt lat="46.90953" lon="10.26469"><ele>2324</ele></trkpt>
<trkpt lat="46.90955" lon="10.26477"><ele>2324</ele></trkpt>
<trkpt lat="46.90955" lon="10.26483"><ele>2324</ele></trkpt>
<trkpt lat="46.90955" lon="10.26488"><ele>2324</ele></trkpt>
<trkpt lat="46.90955" lon="10.26495"><ele>2332</ele></trkpt>
<trkpt lat="46.90953" lon="10.26501"><ele>2332</ele></trkpt>
<trkpt lat="46.9095" lon="10.26506"><ele>2332</ele></trkpt>
<trkpt lat="46.90943" lon="10.26506"><ele>2332</ele></trkpt>
<trkpt lat="46.90938" lon="10.26507"><ele>2339</ele></trkpt>
<trkpt lat="46.9093" lon="10.26519"><ele>2339</ele></trkpt>
<trkpt lat="46.90925" lon="10.26521"><ele>2339</ele></trkpt>
<trkpt lat="46.90922" lon="10.26524"><ele>2339</ele></trkpt>
<trkpt lat="46.90919" lon="10.26525"><ele>2340</ele></trkpt>
<trkpt lat="46.90916" lon="10.26528"><ele>2340</ele></trkpt>
<trkpt lat="46.90917" lon="10.2654"><ele>2340</ele></trkpt>
<trkpt lat="46.90914" lon="10.26554"><ele>2340</ele></trkpt>
<trkpt lat="46.90908" lon="10.26565"><ele>2348</ele></trkpt>
<trkpt lat="46.90901" lon="10.26573"><ele>2348</ele></trkpt>
<trkpt lat="46.90893" lon="10.26579"><ele>2348</ele></trkpt>
<trkpt lat="46.9089" lon="10.26582"><ele>2348</ele></trkpt>
<trkpt lat="46.90887" lon="10.26584"><ele>2358</ele></trkpt>
<trkpt lat="46.90882" lon="10.26585"><ele>2358</ele></trkpt>
<trkpt lat="46.90879" lon="10.26587"><ele>2358</ele></trkpt>
<trkpt lat="46.90878" lon="10.26591"><ele>2358</ele></trkpt>
<trkpt lat="46.90873" lon="10.26595"><ele>2358</ele></trkpt>
<trkpt lat="46.90867" lon="10.26606"><ele>2358</ele></trkpt>
<trkpt lat="46.90862" lon="10.26615"><ele>2358</ele></trkpt>
<trkpt lat="46.9086" lon="10.26627"><ele>2358</ele></trkpt>
<trkpt lat="46.90858" lon="10.26632"><ele>2372</ele></trkpt>
<trkpt lat="46.90852" lon="10.26638"><ele>2372</ele></trkpt>
<trkpt lat="46.90848" lon="10.26641"><ele>2372</ele></trkpt>
<trkpt lat="46.90844" lon="10.26647"><ele>2372</ele></trkpt>
<trkpt lat="46.90842" lon="10.26647"><ele>2372</ele></trkpt>
<trkpt lat="46.90842" lon="10.26651"><ele>2372</ele></trkpt>
<trkpt lat="46.90843" lon="10.26655"><ele>2372</ele></trkpt>
<trkpt lat="46.90843" lon="10.26662"><ele>2372</ele></trkpt>
<trkpt lat="46.9084" lon="10.2667"><ele>2381</ele></trkpt>
<trkpt lat="46.90837" lon="10.26673"><ele>2381</ele></trkpt>
<trkpt lat="46.90837" lon="10.26673"><ele>2381</ele></trkpt>
<trkpt lat="46.90832" lon="10.26671"><ele>2381</ele></trkpt>
<trkpt lat="46.90827" lon="10.26674"><ele>2382</ele></trkpt>
<trkpt lat="46.90825" lon="10.26679"><ele>2382</ele></trkpt>
<trkpt lat="46.90824" lon="10.26681"><ele>2382</ele></trkpt>
<trkpt lat="46.90821" lon="10.26679"><ele>2382</ele></trkpt>
<trkpt lat="46.90818" lon="10.26678"><ele>2382</ele></trkpt>
<trkpt lat="46.90808" lon="10.26676"><ele>2382</ele></trkpt>
<trkpt lat="46.90804" lon="10.26676"><ele>2382</ele></trkpt>
<trkpt lat="46.90798" lon="10.26681"><ele>2382</ele></trkpt>
<trkpt lat="46.90793" lon="10.26681"><ele>2385</ele></trkpt>
<trkpt lat="46.90789" lon="10.2668"><ele>2385</ele></trkpt>
<trkpt lat="46.90787" lon="10.26676"><ele>2385</ele></trkpt>
<trkpt lat="46.90772" lon="10.26669"><ele>2385</ele></trkpt>
<trkpt lat="46.90764" lon="10.26666"><ele>2396</ele></trkpt>
<trkpt lat="46.90757" lon="10.26662"><ele>2396</ele></trkpt>
<trkpt lat="46.90751" lon="10.26662"><ele>2396</ele></trkpt>
<trkpt lat="46.90747" lon="10.26664"><ele>2396</ele></trkpt>
<trkpt lat="46.90736" lon="10.26662"><ele>2402</ele></trkpt>
<trkpt lat="46.90728" lon="10.26667"><ele>2402</ele></trkpt>
<trkpt lat="46.90723" lon="10.26669"><ele>2402</ele></trkpt>
<trkpt lat="46.90716" lon="10.26678"><ele>2402</ele></trkpt>
<trkpt lat="46.90707" lon="10.26681"><ele>2407</ele></trkpt>
<trkpt lat="46.90677" lon="10.26694"><ele>2407</ele></trkpt>
<trkpt lat="46.9064" lon="10.2673"><ele>2407</ele></trkpt>
<trkpt lat="46.90568" lon="10.26767"><ele>2407</ele></trkpt>
<trkpt lat="46.90523" lon="10.26778"><ele>2414</ele></trkpt>
<trkpt lat="46.90491" lon="10.26803"><ele>2414</ele></trkpt>
<trkpt lat="46.90457" lon="10.26819"><ele>2414</ele></trkpt>
<trkpt lat="46.904" lon="10.26878"><ele>2414</ele></trkpt>
<trkpt lat="46.90318" lon="10.2695"><ele>2445</ele></trkpt>
<trkpt lat="46.90265" lon="10.26999"><ele>2445</ele></trkpt>
<trkpt lat="46.90188" lon="10.26999"><ele>2445</ele></trkpt>
<trkpt lat="46.90155" lon="10.27005"><ele>2445</ele></trkpt>
<trkpt lat="46.90123" lon="10.27009"><ele>2477</ele></trkpt>
<trkpt lat="46.9009" lon="10.27053"><ele>2477</ele></trkpt>
<trkpt lat="46.90062" lon="10.27077"><ele>2477</ele></trkpt>
<trkpt lat="46.90052" lon="10.27094"><ele>2477</ele></trkpt>
<trkpt lat="46.90037" lon="10.27101"><ele>2490</ele></trkpt>
<trkpt lat="46.90027" lon="10.27122"><ele>2490</ele></trkpt>
<trkpt lat="46.90001" lon="10.27139"><ele>2490</ele></trkpt>
<trkpt lat="46.89978" lon="10.27144"><ele>2490</ele></trkpt>
<trkpt lat="46.89967" lon="10.27166"><ele>2503</ele></trkpt>
<trkpt lat="46.89939" lon="10.27189"><ele>2503</ele></trkpt>
<trkpt lat="46.89896" lon="10.27209"><ele>2503</ele></trkpt>
<trkpt lat="46.89883" lon="10.27238"><ele>2503</ele></trkpt>
<trkpt lat="46.89859" lon="10.2726"><ele>2518</ele></trkpt>
<trkpt lat="46.89839" lon="10.27271"><ele>2518</ele></trkpt>
<trkpt lat="46.89831" lon="10.27293"><ele>2518</ele></trkpt>
<trkpt lat="46.89818" lon="10.273"><ele>2518</ele></trkpt>
<trkpt lat="46.89803" lon="10.27326"><ele>2529</ele></trkpt>
<trkpt lat="46.89797" lon="10.27328"><ele>2529</ele></trkpt>
<trkpt lat="46.89786" lon="10.27325"><ele>2529</ele></trkpt>
<trkpt lat="46.8978" lon="10.27333"><ele>2529</ele></trkpt>
<trkpt lat="46.89778" lon="10.27341"><ele>2543</ele></trkpt>
<trkpt lat="46.89762" lon="10.27346"><ele>2543</ele></trkpt>
<trkpt lat="46.89762" lon="10.27361"><ele>2543</ele></trkpt>
<trkpt lat="46.89758" lon="10.27375"><ele>2543</ele></trkpt>
<trkpt lat="46.89741" lon="10.2737"><ele>2557</ele></trkpt>
<trkpt lat="46.89733" lon="10.27385"><ele>2557</ele></trkpt>
<trkpt lat="46.89721" lon="10.27394"><ele>2557</ele></trkpt>
<trkpt lat="46.89721" lon="10.27415"><ele>2557</ele></trkpt>
<trkpt lat="46.89707" lon="10.27422"><ele>2572</ele></trkpt>
<trkpt lat="46.89693" lon="10.27472"><ele>2572</ele></trkpt>
<trkpt lat="46.8969" lon="10.27523"><ele>2572</ele></trkpt>
<trkpt lat="46.89656" lon="10.27619"><ele>2572</ele></trkpt>
<trkpt lat="46.89638" lon="10.27732"><ele>2597</ele></trkpt>
<trkpt lat="46.8964" lon="10.27759"><ele>2597</ele></trkpt>
<trkpt lat="46.89633" lon="10.27788"><ele>2597</ele></trkpt>
<trkpt lat="46.89634" lon="10.2782"><ele>2597</ele></trkpt>
<trkpt lat="46.89634" lon="10.2782"><ele>2608</ele></trkpt>
<trkpt lat="46.89634" lon="10.2782"><ele>2608</ele></trkpt>
<trkpt lat="46.89634" lon="10.2782"><ele>2608</ele></trkpt>
<trkpt lat="46.89634" lon="10.2782"><ele>2608</ele></trkpt>
<trkpt lat="46.89634" lon="10.2782"><ele>2608</ele></trkpt>
<trkpt lat="46.89635" lon="10.27835"><ele>2608</ele></trkpt>
<trkpt lat="46.89633" lon="10.27845"><ele>2608</ele></trkpt>
<trkpt lat="46.89617" lon="10.27871"><ele>2608</ele></trkpt>
<trkpt lat="46.89613" lon="10.27895"><ele>2609</ele></trkpt>
<trkpt lat="46.89621" lon="10.27957"><ele>2609</ele></trkpt>
<trkpt lat="46.89619" lon="10.28002"><ele>2609</ele></trkpt>
<trkpt lat="46.89621" lon="10.28015"><ele>2609</ele></trkpt>
<trkpt lat="46.89634" lon="10.2805"><ele>2584</ele></trkpt>
<trkpt lat="46.89633" lon="10.28074"><ele>2584</ele></trkpt>
<trkpt lat="46.89637" lon="10.28079"><ele>2584</ele></trkpt>
<trkpt lat="46.89646" lon="10.28082"><ele>2584</ele></trkpt>
<trkpt lat="46.89677" lon="10.28081"><ele>2559</ele></trkpt>
<trkpt lat="46.89704" lon="10.28087"><ele>2559</ele></trkpt>
<trkpt lat="46.89731" lon="10.28105"><ele>2559</ele></trkpt>
<trkpt lat="46.8974" lon="10.28117"><ele>2559</ele></trkpt>
<trkpt lat="46.89761" lon="10.28158"><ele>2524</ele></trkpt>
<trkpt lat="46.89778" lon="10.28176"><ele>2524</ele></trkpt>
<trkpt lat="46.89803" lon="10.2821"><ele>2524</ele></trkpt>
<trkpt lat="46.89838" lon="10.28253"><ele>2524</ele></trkpt>
<trkpt lat="46.89847" lon="10.28267"><ele>2485</ele></trkpt>
<trkpt lat="46.89859" lon="10.28299"><ele>2485</ele></trkpt>
<trkpt lat="46.89864" lon="10.28306"><ele>2485</ele></trkpt>
<trkpt lat="46.89887" lon="10.2833"><ele>2485</ele></trkpt>
<trkpt lat="46.89915" lon="10.28382"><ele>2470</ele></trkpt>
<trkpt lat="46.89918" lon="10.28391"><ele>2470</ele></trkpt>
<trkpt lat="46.89927" lon="10.2843"><ele>2470</ele></trkpt>
<trkpt lat="46.89928" lon="10.28466"><ele>2470</ele></trkpt>
<trkpt lat="46.89935" lon="10.28553"><ele>2459</ele></trkpt>
<trkpt lat="46.89938" lon="10.28562"><ele>2459</ele></trkpt>
<trkpt lat="46.89944" lon="10.28576"><ele>2459</ele></trkpt>
<trkpt lat="46.89956" lon="10.28591"><ele>2459</ele></trkpt>
<trkpt lat="46.89979" lon="10.28608"><ele>2447</ele></trkpt>
<trkpt lat="46.89997" lon="10.28614"><ele>2447</ele></trkpt>
<trkpt lat="46.90011" lon="10.28623"><ele>2447</ele></trkpt>
<trkpt lat="46.90018" lon="10.28627"><ele>2447</ele></trkpt>
<trkpt lat="46.90032" lon="10.28626"><ele>2434</ele></trkpt>
<trkpt lat="46.90039" lon="10.28628"><ele>2434</ele></trkpt>
<trkpt lat="46.90045" lon="10.28636"><ele>2434</ele></trkpt>
<trkpt lat="46.90059" lon="10.28658"><ele>2434</ele></trkpt>
<trkpt lat="46.90085" lon="10.28679"><ele>2416</ele></trkpt>
<trkpt lat="46.90103" lon="10.28705"><ele>2416</ele></trkpt>
<trkpt lat="46.90117" lon="10.28721"><ele>2416</ele></trkpt>
<trkpt lat="46.9013" lon="10.28743"><ele>2416</ele></trkpt>
<trkpt lat="46.90129" lon="10.28749"><ele>2401</ele></trkpt>
<trkpt lat="46.90125" lon="10.28752"><ele>2401</ele></trkpt>
<trkpt lat="46.90088" lon="10.28766"><ele>2401</ele></trkpt>
<trkpt lat="46.90064" lon="10.28773"><ele>2401</ele></trkpt>
<trkpt lat="46.90022" lon="10.28797"><ele>2386</ele></trkpt>
<trkpt lat="46.90017" lon="10.28797"><ele>2386</ele></trkpt>
<trkpt lat="46.9" lon="10.28787"><ele>2386</ele></trkpt>
<trkpt lat="46.89986" lon="10.28783"><ele>2386</ele></trkpt>
<trkpt lat="46.89958" lon="10.28783"><ele>2374</ele></trkpt>
<trkpt lat="46.89952" lon="10.28785"><ele>2374</ele></trkpt>
<trkpt lat="46.89947" lon="10.28791"><ele>2374</ele></trkpt>
<trkpt lat="46.8994" lon="10.28801"><ele>2374</ele></trkpt>
<trkpt lat="46.89925" lon="10.2883"><ele>2371</ele></trkpt>
<trkpt lat="46.89924" lon="10.28836"><ele>2371</ele></trkpt>
<trkpt lat="46.8993" lon="10.28877"><ele>2371</ele></trkpt>
<trkpt lat="46.89936" lon="10.28891"><ele>2371</ele></trkpt>
<trkpt lat="46.89958" lon="10.28932"><ele>2357</ele></trkpt>
<trkpt lat="46.89966" lon="10.2896"><ele>2357</ele></trkpt>
<trkpt lat="46.89972" lon="10.28975"><ele>2357</ele></trkpt>
<trkpt lat="46.89993" lon="10.29008"><ele>2357</ele></trkpt>
<trkpt lat="46.90007" lon="10.29039"><ele>2346</ele></trkpt>
<trkpt lat="46.90041" lon="10.29082"><ele>2346</ele></trkpt>
<trkpt lat="46.90053" lon="10.29101"><ele>2346</ele></trkpt>
<trkpt lat="46.90067" lon="10.29116"><ele>2346</ele></trkpt>
<trkpt lat="46.90089" lon="10.29149"><ele>2315</ele></trkpt>
<trkpt lat="46.90107" lon="10.29172"><ele>2315</ele></trkpt>
<trkpt lat="46.90122" lon="10.29182"><ele>2315</ele></trkpt>
<trkpt lat="46.90127" lon="10.29191"><ele>2315</ele></trkpt>
<trkpt lat="46.90129" lon="10.29199"><ele>2291</ele></trkpt>
<trkpt lat="46.90133" lon="10.29226"><ele>2291</ele></trkpt>
<trkpt lat="46.90139" lon="10.29238"><ele>2291</ele></trkpt>
<trkpt lat="46.90142" lon="10.29254"><ele>2291</ele></trkpt>
<trkpt lat="46.9015" lon="10.29257"><ele>2276</ele></trkpt>
<trkpt lat="46.90165" lon="10.29252"><ele>2276</ele></trkpt>
<trkpt lat="46.90175" lon="10.29247"><ele>2276</ele></trkpt>
<trkpt lat="46.90181" lon="10.29249"><ele>2276</ele></trkpt>
<trkpt lat="46.90183" lon="10.29252"><ele>2255</ele></trkpt>
<trkpt lat="46.90184" lon="10.29262"><ele>2255</ele></trkpt>
<trkpt lat="46.90183" lon="10.29292"><ele>2255</ele></trkpt>
<trkpt lat="46.90186" lon="10.29304"><ele>2255</ele></trkpt>
<trkpt lat="46.90193" lon="10.29308"><ele>2252</ele></trkpt>
<trkpt lat="46.90206" lon="10.29308"><ele>2252</ele></trkpt>
<trkpt lat="46.90211" lon="10.29325"><ele>2252</ele></trkpt>
<trkpt lat="46.90231" lon="10.29327"><ele>2252</ele></trkpt>
<trkpt lat="46.90263" lon="10.29363"><ele>2221</ele></trkpt>
<trkpt lat="46.90275" lon="10.29385"><ele>2221</ele></trkpt>
<trkpt lat="46.90284" lon="10.29421"><ele>2221</ele></trkpt>
<trkpt lat="46.9029" lon="10.2943"><ele>2221</ele></trkpt>
<trkpt lat="46.90304" lon="10.2944"><ele>2208</ele></trkpt>
<trkpt lat="46.90314" lon="10.29452"><ele>2208</ele></trkpt>
<trkpt lat="46.90312" lon="10.29463"><ele>2208</ele></trkpt>
<trkpt lat="46.90303" lon="10.29466"><ele>2208</ele></trkpt>
<trkpt lat="46.90296" lon="10.29468"><ele>2202</ele></trkpt>
<trkpt lat="46.90285" lon="10.29468"><ele>2202</ele></trkpt>
<trkpt lat="46.90277" lon="10.29473"><ele>2202</ele></trkpt>
<trkpt lat="46.90272" lon="10.29482"><ele>2202</ele></trkpt>
<trkpt lat="46.90257" lon="10.29524"><ele>2197</ele></trkpt>
<trkpt lat="46.90259" lon="10.29534"><ele>2197</ele></trkpt>
<trkpt lat="46.90275" lon="10.29559"><ele>2197</ele></trkpt>
<trkpt lat="46.90284" lon="10.29576"><ele>2197</ele></trkpt>
<trkpt lat="46.90291" lon="10.29613"><ele>2186</ele></trkpt>
<trkpt lat="46.90301" lon="10.29632"><ele>2186</ele></trkpt>
<trkpt lat="46.90315" lon="10.29651"><ele>2186</ele></trkpt>
<trkpt lat="46.90323" lon="10.29673"><ele>2186</ele></trkpt>
<trkpt lat="46.90338" lon="10.29728"><ele>2156</ele></trkpt>
<trkpt lat="46.90342" lon="10.29756"><ele>2156</ele></trkpt>
<trkpt lat="46.90351" lon="10.29791"><ele>2156</ele></trkpt>
<trkpt lat="46.90353" lon="10.29817"><ele>2156</ele></trkpt>
<trkpt lat="46.90358" lon="10.2984"><ele>2142</ele></trkpt>
<trkpt lat="46.90358" lon="10.2985"><ele>2142</ele></trkpt>
<trkpt lat="46.90355" lon="10.29874"><ele>2142</ele></trkpt>
<trkpt lat="46.90348" lon="10.29897"><ele>2142</ele></trkpt>
<trkpt lat="46.90344" lon="10.29932"><ele>2127</ele></trkpt>
<trkpt lat="46.90344" lon="10.29962"><ele>2127</ele></trkpt>
<trkpt lat="46.90341" lon="10.29993"><ele>2127</ele></trkpt>
<trkpt lat="46.90336" lon="10.30019"><ele>2127</ele></trkpt>
<trkpt lat="46.90334" lon="10.30028"><ele>2117</ele></trkpt>
<trkpt lat="46.9032" lon="10.30058"><ele>2117</ele></trkpt>
<trkpt lat="46.90303" lon="10.30111"><ele>2117</ele></trkpt>
<trkpt lat="46.90298" lon="10.30134"><ele>2117</ele></trkpt>
<trkpt lat="46.90285" lon="10.30153"><ele>2105</ele></trkpt>
<trkpt lat="46.90285" lon="10.30153"><ele>2105</ele></trkpt>
<trkpt lat="46.90285" lon="10.30167"><ele>2105</ele></trkpt>
<trkpt lat="46.90284" lon="10.30172"><ele>2105</ele></trkpt>
<trkpt lat="46.90271" lon="10.302"><ele>2095</ele></trkpt>
<trkpt lat="46.90255" lon="10.30238"><ele>2095</ele></trkpt>
<trkpt lat="46.90246" lon="10.30249"><ele>2095</ele></trkpt>
<trkpt lat="46.90239" lon="10.30264"><ele>2095</ele></trkpt>
<trkpt lat="46.90219" lon="10.30291"><ele>2082</ele></trkpt>
<trkpt lat="46.90215" lon="10.30303"><ele>2082</ele></trkpt>
<trkpt lat="46.90204" lon="10.30314"><ele>2082</ele></trkpt>
<trkpt lat="46.902" lon="10.30322"><ele>2082</ele></trkpt>
<trkpt lat="46.90179" lon="10.30347"><ele>2077</ele></trkpt>
<trkpt lat="46.90173" lon="10.3038"><ele>2077</ele></trkpt>
<trkpt lat="46.90167" lon="10.30396"><ele>2077</ele></trkpt>
<trkpt lat="46.9016" lon="10.30408"><ele>2077</ele></trkpt>
<trkpt lat="46.9014" lon="10.30425"><ele>2075</ele></trkpt>
<trkpt lat="46.90129" lon="10.30443"><ele>2075</ele></trkpt>
<trkpt lat="46.90128" lon="10.3045"><ele>2075</ele></trkpt>
<trkpt lat="46.90127" lon="10.30453"><ele>2075</ele></trkpt>
<trkpt lat="46.90125" lon="10.30458"><ele>2067</ele></trkpt>
<trkpt lat="46.90124" lon="10.30465"><ele>2067</ele></trkpt>
<trkpt lat="46.90121" lon="10.30467"><ele>2067</ele></trkpt>
<trkpt lat="46.90118" lon="10.30482"><ele>2067</ele></trkpt>
<trkpt lat="46.90115" lon="10.30491"><ele>2062</ele></trkpt>
<trkpt lat="46.90116" lon="10.305"><ele>2062</ele></trkpt>
<trkpt lat="46.90116" lon="10.30511"><ele>2062</ele></trkpt>
<trkpt lat="46.90104" lon="10.30538"><ele>2062</ele></trkpt>
<trkpt lat="46.90097" lon="10.30545"><ele>2063</ele></trkpt>
<trkpt lat="46.90094" lon="10.30558"><ele>2063</ele></trkpt>
<trkpt lat="46.9009" lon="10.30566"><ele>2063</ele></trkpt>
<trkpt lat="46.9009" lon="10.30566"><ele>2063</ele></trkpt>
<trkpt lat="46.90094" lon="10.30598"><ele>2057</ele></trkpt>
<trkpt lat="46.90089" lon="10.30674"><ele>2057</ele></trkpt>
<trkpt lat="46.90057" lon="10.30704"><ele>2057</ele></trkpt>
<trkpt lat="46.89995" lon="10.30784"><ele>2057</ele></trkpt>
<trkpt lat="46.89965" lon="10.30833"><ele>2042</ele></trkpt>
<trkpt lat="46.89963" lon="10.30838"><ele>2042</ele></trkpt>
<trkpt lat="46.89956" lon="10.30848"><ele>2042</ele></trkpt>
<trkpt lat="46.89896" lon="10.30878"><ele>2042</ele></trkpt>
<trkpt lat="46.89826" lon="10.30897"><ele>2037</ele></trkpt>
<trkpt lat="46.89808" lon="10.30918"><ele>2037</ele></trkpt>
<trkpt lat="46.89797" lon="10.3093"><ele>2037</ele></trkpt>
<trkpt lat="46.89792" lon="10.30939"><ele>2037</ele></trkpt>
<trkpt lat="46.89791" lon="10.30979"><ele>2025</ele></trkpt>
<trkpt lat="46.89775" lon="10.31015"><ele>2025</ele></trkpt>
<trkpt lat="46.89767" lon="10.31016"><ele>2025</ele></trkpt>
<trkpt lat="46.89758" lon="10.31021"><ele>2025</ele></trkpt>
<trkpt lat="46.89745" lon="10.31025"><ele>2023</ele></trkpt>
<trkpt lat="46.89719" lon="10.31034"><ele>2023</ele></trkpt>
<trkpt lat="46.8971" lon="10.31038"><ele>2023</ele></trkpt>
<trkpt lat="46.89701" lon="10.31038"><ele>2023</ele></trkpt>
<trkpt lat="46.89677" lon="10.31066"><ele>2016</ele></trkpt>
<trkpt lat="46.8965" lon="10.31101"><ele>2016</ele></trkpt>
<trkpt lat="46.89627" lon="10.31118"><ele>2016</ele></trkpt>
<trkpt lat="46.89623" lon="10.31122"><ele>2016</ele></trkpt>
<trkpt lat="46.89622" lon="10.31129"><ele>2017</ele></trkpt>
<trkpt lat="46.89621" lon="10.31134"><ele>2017</ele></trkpt>
<trkpt lat="46.89619" lon="10.31137"><ele>2017</ele></trkpt>
<trkpt lat="46.89616" lon="10.31141"><ele>2017</ele></trkpt>
<trkpt lat="46.89607" lon="10.31147"><ele>2014</ele></trkpt>
<trkpt lat="46.89598" lon="10.31146"><ele>2014</ele></trkpt>
<trkpt lat="46.89578" lon="10.31154"><ele>2014</ele></trkpt>
<trkpt lat="46.89563" lon="10.31157"><ele>2014</ele></trkpt>
<trkpt lat="46.89537" lon="10.31176"><ele>2007</ele></trkpt>
<trkpt lat="46.89528" lon="10.31189"><ele>2007</ele></trkpt>
<trkpt lat="46.89525" lon="10.31199"><ele>2007</ele></trkpt>
<trkpt lat="46.89508" lon="10.31222"><ele>2007</ele></trkpt>
<trkpt lat="46.89499" lon="10.3124"><ele>2009</ele></trkpt>
<trkpt lat="46.89487" lon="10.31258"><ele>2009</ele></trkpt>
<trkpt lat="46.89476" lon="10.31272"><ele>2009</ele></trkpt>
<trkpt lat="46.89446" lon="10.31289"><ele>2009</ele></trkpt>
<trkpt lat="46.89423" lon="10.31305"><ele>1996</ele></trkpt>
<trkpt lat="46.89412" lon="10.31315"><ele>1996</ele></trkpt>
<trkpt lat="46.89409" lon="10.3132"><ele>1996</ele></trkpt>
<trkpt lat="46.89404" lon="10.31338"><ele>1996</ele></trkpt>
<trkpt lat="46.89399" lon="10.31352"><ele>1993</ele></trkpt>
<trkpt lat="46.89393" lon="10.31359"><ele>1993</ele></trkpt>
<trkpt lat="46.89362" lon="10.31398"><ele>1993</ele></trkpt>
<trkpt lat="46.89345" lon="10.31424"><ele>1993</ele></trkpt>
<trkpt lat="46.89341" lon="10.31431"><ele>1980</ele></trkpt>
<trkpt lat="46.89319" lon="10.31464"><ele>1980</ele></trkpt>
<trkpt lat="46.89302" lon="10.31518"><ele>1980</ele></trkpt>
<trkpt lat="46.89293" lon="10.31564"><ele>1980</ele></trkpt>
<trkpt lat="46.89275" lon="10.31619"><ele>1978</ele></trkpt>
<trkpt lat="46.89263" lon="10.3164"><ele>1978</ele></trkpt>
<trkpt lat="46.89249" lon="10.31657"><ele>1978</ele></trkpt>
<trkpt lat="46.89219" lon="10.31673"><ele>1978</ele></trkpt>
<trkpt lat="46.89188" lon="10.31697"><ele>1960</ele></trkpt>
<trkpt lat="46.89174" lon="10.31717"><ele>1960</ele></trkpt>
<trkpt lat="46.89165" lon="10.31725"><ele>1960</ele></trkpt>
<trkpt lat="46.89164" lon="10.31727"><ele>1960</ele></trkpt>
<trkpt lat="46.89155" lon="10.31732"><ele>1953</ele></trkpt>
<trkpt lat="46.89138" lon="10.31741"><ele>1953</ele></trkpt>
<trkpt lat="46.89125" lon="10.31756"><ele>1953</ele></trkpt>
<trkpt lat="46.89102" lon="10.31779"><ele>1953</ele></trkpt>
<trkpt lat="46.89089" lon="10.318"><ele>1943</ele></trkpt>
<trkpt lat="46.89073" lon="10.31846"><ele>1943</ele></trkpt>
<trkpt lat="46.89063" lon="10.31875"><ele>1943</ele></trkpt>
<trkpt lat="46.89054" lon="10.31908"><ele>1943</ele></trkpt>
<trkpt lat="46.89052" lon="10.31915"><ele>1945</ele></trkpt>
<trkpt lat="46.89048" lon="10.31926"><ele>1945</ele></trkpt>
<trkpt lat="46.89034" lon="10.31947"><ele>1945</ele></trkpt>
<trkpt lat="46.88963" lon="10.32036"><ele>1945</ele></trkpt>
<trkpt lat="46.88929" lon="10.32077"><ele>1920</ele></trkpt>
<trkpt lat="46.88917" lon="10.32112"><ele>1920</ele></trkpt>
<trkpt lat="46.88897" lon="10.32123"><ele>1920</ele></trkpt>
<trkpt lat="46.88892" lon="10.32126"><ele>1920</ele></trkpt>
<trkpt lat="46.88884" lon="10.32135"><ele>1919</ele></trkpt>
<trkpt lat="46.8888" lon="10.32143"><ele>1919</ele></trkpt>
<trkpt lat="46.88876" lon="10.3216"><ele>1919</ele></trkpt>
<trkpt lat="46.88862" lon="10.32183"><ele>1919</ele></trkpt>
<trkpt lat="46.88856" lon="10.32187"><ele>1932</ele></trkpt>
<trkpt lat="46.88839" lon="10.32194"><ele>1932</ele></trkpt>
<trkpt lat="46.88831" lon="10.32202"><ele>1932</ele></trkpt>
<trkpt lat="46.88827" lon="10.3221"><ele>1932</ele></trkpt>
<trkpt lat="46.8882" lon="10.32221"><ele>1920</ele></trkpt>
<trkpt lat="46.88816" lon="10.32224"><ele>1920</ele></trkpt>
<trkpt lat="46.88796" lon="10.3223"><ele>1920</ele></trkpt>
<trkpt lat="46.88788" lon="10.32235"><ele>1920</ele></trkpt>
<trkpt lat="46.88778" lon="10.32244"><ele>1906</ele></trkpt>
<trkpt lat="46.8876" lon="10.32255"><ele>1906</ele></trkpt>
<trkpt lat="46.8875" lon="10.32266"><ele>1906</ele></trkpt>
<trkpt lat="46.88742" lon="10.32274"><ele>1906</ele></trkpt>
<trkpt lat="46.8874" lon="10.3228"><ele>1896</ele></trkpt>
<trkpt lat="46.88741" lon="10.32286"><ele>1896</ele></trkpt>
<trkpt lat="46.88745" lon="10.32295"><ele>1896</ele></trkpt>
<trkpt lat="46.88747" lon="10.323"><ele>1896</ele></trkpt>
<trkpt lat="46.88746" lon="10.32305"><ele>1900</ele></trkpt>
<trkpt lat="46.88744" lon="10.3231"><ele>1900</ele></trkpt>
<trkpt lat="46.88738" lon="10.32315"><ele>1900</ele></trkpt>
<trkpt lat="46.8873" lon="10.32313"><ele>1900</ele></trkpt>
<trkpt lat="46.8872" lon="10.32311"><ele>1894</ele></trkpt>
<trkpt lat="46.88712" lon="10.32311"><ele>1894</ele></trkpt>
<trkpt lat="46.88688" lon="10.32338"><ele>1894</ele></trkpt>
<trkpt lat="46.88653" lon="10.32377"><ele>1894</ele></trkpt>
<trkpt lat="46.88652" lon="10.32394"><ele>1885</ele></trkpt>
<trkpt lat="46.88646" lon="10.32404"><ele>1885</ele></trkpt>
<trkpt lat="46.88637" lon="10.32414"><ele>1885</ele></trkpt>
<trkpt lat="46.88633" lon="10.32424"><ele>1885</ele></trkpt>
<trkpt lat="46.88631" lon="10.32441"><ele>1881</ele></trkpt>
<trkpt lat="46.88628" lon="10.32462"><ele>1881</ele></trkpt>
<trkpt lat="46.88626" lon="10.32492"><ele>1881</ele></trkpt>
<trkpt lat="46.88624" lon="10.32504"><ele>1881</ele></trkpt>
<trkpt lat="46.88621" lon="10.32513"><ele>1878</ele></trkpt>
<trkpt lat="46.88616" lon="10.3252"><ele>1878</ele></trkpt>
<trkpt lat="46.88599" lon="10.32536"><ele>1878</ele></trkpt>
<trkpt lat="46.88589" lon="10.32555"><ele>1878</ele></trkpt>
<trkpt lat="46.88581" lon="10.32577"><ele>1865</ele></trkpt>
<trkpt lat="46.88566" lon="10.32601"><ele>1865</ele></trkpt>
<trkpt lat="46.8854" lon="10.32632"><ele>1865</ele></trkpt>
<trkpt lat="46.88521" lon="10.32659"><ele>1865</ele></trkpt>
<trkpt lat="46.88513" lon="10.32666"><ele>1857</ele></trkpt>
<trkpt lat="46.88477" lon="10.32698"><ele>1857</ele></trkpt>
<trkpt lat="46.88444" lon="10.32734"><ele>1857</ele></trkpt>
<trkpt lat="46.88408" lon="10.32784"><ele>1857</ele></trkpt>
<trkpt lat="46.88371" lon="10.32827"><ele>1836</ele></trkpt>
<trkpt lat="46.88346" lon="10.3285"><ele>1836</ele></trkpt>
<trkpt lat="46.88303" lon="10.32868"><ele>1836</ele></trkpt>
<trkpt lat="46.88256" lon="10.32891"><ele>1836</ele></trkpt>
<trkpt lat="46.88238" lon="10.32909"><ele>1830</ele></trkpt>
<trkpt lat="46.88222" lon="10.32929"><ele>1830</ele></trkpt>
<trkpt lat="46.88199" lon="10.32954"><ele>1830</ele></trkpt>
<trkpt lat="46.88163" lon="10.33001"><ele>1830</ele></trkpt>
<trkpt lat="46.88157" lon="10.33019"><ele>1829</ele></trkpt>
<trkpt lat="46.88153" lon="10.33039"><ele>1829</ele></trkpt>
<trkpt lat="46.88147" lon="10.33053"><ele>1829</ele></trkpt>
<trkpt lat="46.88134" lon="10.33062"><ele>1829</ele></trkpt>
<trkpt lat="46.88101" lon="10.33072"><ele>1820</ele></trkpt>
<trkpt lat="46.88095" lon="10.33079"><ele>1820</ele></trkpt>
<trkpt lat="46.88063" lon="10.33123"><ele>1820</ele></trkpt>
<trkpt lat="46.88048" lon="10.33154"><ele>1820</ele></trkpt>
<trkpt lat="46.88043" lon="10.33172"><ele>1821</ele></trkpt>
<trkpt lat="46.88042" lon="10.33189"><ele>1821</ele></trkpt>
<trkpt lat="46.88038" lon="10.33203"><ele>1821</ele></trkpt>
<trkpt lat="46.88032" lon="10.33212"><ele>1821</ele></trkpt>
<trkpt lat="46.88015" lon="10.33198"><ele>1819</ele></trkpt>
<trkpt lat="46.88007" lon="10.33196"><ele>1819</ele></trkpt>
<trkpt lat="46.87994" lon="10.33196"><ele>1819</ele></trkpt>
<trkpt lat="46.87979" lon="10.33189"><ele>1819</ele></trkpt>
<trkpt lat="46.87924" lon="10.33189"><ele>1819</ele></trkpt>
<trkpt lat="46.87867" lon="10.33212"><ele>1819</ele></trkpt>
<trkpt lat="46.87775" lon="10.33239"><ele>1819</ele></trkpt>
<trkpt lat="46.87725" lon="10.33257"><ele>1819</ele></trkpt>
<trkpt lat="46.87707" lon="10.33283"><ele>1825</ele></trkpt>
<trkpt lat="46.87705" lon="10.33322"><ele>1825</ele></trkpt>
<trkpt lat="46.8771" lon="10.33358"><ele>1825</ele></trkpt>
<trkpt lat="46.87709" lon="10.33375"><ele>1825</ele></trkpt>
<trkpt lat="46.877" lon="10.33386"><ele>1833</ele></trkpt>
<trkpt lat="46.87681" lon="10.33391"><ele>1833</ele></trkpt>
<trkpt lat="46.8765" lon="10.33384"><ele>1833</ele></trkpt>
<trkpt lat="46.87616" lon="10.33376"><ele>1833</ele></trkpt>
<trkpt lat="46.87605" lon="10.33381"><ele>1829</ele></trkpt>
<trkpt lat="46.87596" lon="10.334"><ele>1829</ele></trkpt>
<trkpt lat="46.87595" lon="10.3343"><ele>1829</ele></trkpt>
<trkpt lat="46.87585" lon="10.33451"><ele>1829</ele></trkpt>
<trkpt lat="46.87573" lon="10.33456"><ele>1836</ele></trkpt>
<trkpt lat="46.87555" lon="10.33453"><ele>1836</ele></trkpt>
<trkpt lat="46.87524" lon="10.3345"><ele>1836</ele></trkpt>
<trkpt lat="46.87493" lon="10.3347"><ele>1836</ele></trkpt>
<trkpt lat="46.87457" lon="10.33488"><ele>1836</ele></trkpt>
<trkpt lat="46.87402" lon="10.33549"><ele>1836</ele></trkpt>
<trkpt lat="46.87249" lon="10.33721"><ele>1836</ele></trkpt>
<trkpt lat="46.87142" lon="10.33808"><ele>1836</ele></trkpt>
<trkpt lat="46.8713" lon="10.33832"><ele>1822</ele></trkpt>
<trkpt lat="46.87127" lon="10.33857"><ele>1822</ele></trkpt>
<trkpt lat="46.87122" lon="10.33879"><ele>1822</ele></trkpt>
<trkpt lat="46.87109" lon="10.33897"><ele>1822</ele></trkpt>
<trkpt lat="46.87087" lon="10.33918"><ele>1814</ele></trkpt>
<trkpt lat="46.87059" lon="10.33963"><ele>1814</ele></trkpt>
<trkpt lat="46.87043" lon="10.33974"><ele>1814</ele></trkpt>
<trkpt lat="46.87024" lon="10.33979"><ele>1814</ele></trkpt>
<trkpt lat="46.87013" lon="10.33996"><ele>1805</ele></trkpt>
<trkpt lat="46.87012" lon="10.34038"><ele>1805</ele></trkpt>
<trkpt lat="46.87014" lon="10.34051"><ele>1805</ele></trkpt>
<trkpt lat="46.87014" lon="10.34051"><ele>1805</ele></trkpt>
<trkpt lat="46.87004" lon="10.34068"><ele>1815</ele></trkpt>
<trkpt lat="46.87004" lon="10.34068"><ele>1815</ele></trkpt>
<trkpt lat="46.86998" lon="10.34066"><ele>1815</ele></trkpt>
<trkpt lat="46.86978" lon="10.34008"><ele>1815</ele></trkpt>
<trkpt lat="46.86952" lon="10.33938"><ele>1810</ele></trkpt>
<trkpt lat="46.86925" lon="10.33904"><ele>1810</ele></trkpt>
<trkpt lat="46.86912" lon="10.33883"><ele>1810</ele></trkpt>
<trkpt lat="46.86901" lon="10.33871"><ele>1810</ele></trkpt>
<trkpt lat="46.86892" lon="10.33863"><ele>1814</ele></trkpt>
<trkpt lat="46.86841" lon="10.33836"><ele>1814</ele></trkpt>
<trkpt lat="46.86818" lon="10.33831"><ele>1814</ele></trkpt>
<trkpt lat="46.86797" lon="10.33832"><ele>1814</ele></trkpt>
<trkpt lat="46.86788" lon="10.3383"><ele>1810</ele></trkpt>
<trkpt lat="46.86769" lon="10.33826"><ele>1810</ele></trkpt>
<trkpt lat="46.86732" lon="10.33825"><ele>1810</ele></trkpt>
<trkpt lat="46.86688" lon="10.33818"><ele>1810</ele></trkpt>
<trkpt lat="46.86629" lon="10.33821"><ele>1806</ele></trkpt>
<trkpt lat="46.86586" lon="10.33835"><ele>1806</ele></trkpt>
<trkpt lat="46.86566" lon="10.33855"><ele>1806</ele></trkpt>
<trkpt lat="46.86552" lon="10.33858"><ele>1806</ele></trkpt>
<trkpt lat="46.86535" lon="10.3385"><ele>1807</ele></trkpt>
<trkpt lat="46.86528" lon="10.33849"><ele>1807</ele></trkpt>
<trkpt lat="46.86513" lon="10.33851"><ele>1807</ele></trkpt>
<trkpt lat="46.86494" lon="10.33858"><ele>1807</ele></trkpt>
<trkpt lat="46.86468" lon="10.33868"><ele>1804</ele></trkpt>
<trkpt lat="46.86456" lon="10.33869"><ele>1804</ele></trkpt>
<trkpt lat="46.86441" lon="10.33867"><ele>1804</ele></trkpt>
<trkpt lat="46.86409" lon="10.33845"><ele>1804</ele></trkpt>
<trkpt lat="46.86399" lon="10.33845"><ele>1794</ele></trkpt>
<trkpt lat="46.86384" lon="10.33858"><ele>1794</ele></trkpt>
<trkpt lat="46.86374" lon="10.33863"><ele>1794</ele></trkpt>
<trkpt lat="46.86365" lon="10.33863"><ele>1794</ele></trkpt>
<trkpt lat="46.8634" lon="10.33864"><ele>1796</ele></trkpt>
<trkpt lat="46.86321" lon="10.33872"><ele>1796</ele></trkpt>
<trkpt lat="46.86296" lon="10.33887"><ele>1796</ele></trkpt>
<trkpt lat="46.86283" lon="10.33891"><ele>1796</ele></trkpt>
<trkpt lat="46.86276" lon="10.33892"><ele>1780</ele></trkpt>
<trkpt lat="46.86265" lon="10.339"><ele>1780</ele></trkpt>
<trkpt lat="46.86252" lon="10.33911"><ele>1780</ele></trkpt>
<trkpt lat="46.86237" lon="10.33923"><ele>1780</ele></trkpt>
<trkpt lat="46.86207" lon="10.33934"><ele>1783</ele></trkpt>
<trkpt lat="46.86176" lon="10.33935"><ele>1783</ele></trkpt>
<trkpt lat="46.86157" lon="10.33932"><ele>1783</ele></trkpt>
<trkpt lat="46.86112" lon="10.33912"><ele>1783</ele></trkpt>
<trkpt lat="46.86077" lon="10.33907"><ele>1769</ele></trkpt>
<trkpt lat="46.86039" lon="10.33909"><ele>1769</ele></trkpt>
<trkpt lat="46.86001" lon="10.33906"><ele>1769</ele></trkpt>
<trkpt lat="46.85963" lon="10.33911"><ele>1769</ele></trkpt>
<trkpt lat="46.85937" lon="10.33919"><ele>1753</ele></trkpt>
<trkpt lat="46.85913" lon="10.33926"><ele>1753</ele></trkpt>
<trkpt lat="46.85895" lon="10.33923"><ele>1753</ele></trkpt>
<trkpt lat="46.85877" lon="10.33918"><ele>1753</ele></trkpt>
<trkpt lat="46.85858" lon="10.3392"><ele>1739</ele></trkpt>
<trkpt lat="46.85812" lon="10.33939"><ele>1739</ele></trkpt>
<trkpt lat="46.85771" lon="10.33956"><ele>1739</ele></trkpt>
<trkpt lat="46.85732" lon="10.33979"><ele>1739</ele></trkpt>
<trkpt lat="46.85719" lon="10.33996"><ele>1734</ele></trkpt>
<trkpt lat="46.85712" lon="10.34017"><ele>1734</ele></trkpt>
<trkpt lat="46.85707" lon="10.34022"><ele>1734</ele></trkpt>
<trkpt lat="46.85695" lon="10.34026"><ele>1734</ele></trkpt>
<trkpt lat="46.85687" lon="10.34029"><ele>1733</ele></trkpt>
<trkpt lat="46.85666" lon="10.34052"><ele>1733</ele></trkpt>
<trkpt lat="46.85627" lon="10.3407"><ele>1733</ele></trkpt>
<trkpt lat="46.85617" lon="10.34079"><ele>1733</ele></trkpt>
<trkpt lat="46.85597" lon="10.34098"><ele>1728</ele></trkpt>
<trkpt lat="46.85546" lon="10.3413"><ele>1728</ele></trkpt>
<trkpt lat="46.85522" lon="10.34149"><ele>1728</ele></trkpt>
<trkpt lat="46.855" lon="10.34176"><ele>1728</ele></trkpt>
<trkpt lat="46.85489" lon="10.34183"><ele>1727</ele></trkpt>
<trkpt lat="46.85462" lon="10.34198"><ele>1727</ele></trkpt>
<trkpt lat="46.85441" lon="10.34225"><ele>1727</ele></trkpt>
<trkpt lat="46.85412" lon="10.34259"><ele>1727</ele></trkpt>
<trkpt lat="46.85355" lon="10.34282"><ele>1710</ele></trkpt>
<trkpt lat="46.85302" lon="10.34303"><ele>1710</ele></trkpt>
<trkpt lat="46.85265" lon="10.34329"><ele>1710</ele></trkpt>
<trkpt lat="46.85238" lon="10.34352"><ele>1710</ele></trkpt>
<trkpt lat="46.85177" lon="10.34407"><ele>1708</ele></trkpt>
<trkpt lat="46.85141" lon="10.34455"><ele>1708</ele></trkpt>
<trkpt lat="46.85121" lon="10.34497"><ele>1708</ele></trkpt>
<trkpt lat="46.85102" lon="10.34519"><ele>1708</ele></trkpt>
<trkpt lat="46.85068" lon="10.3454"><ele>1706</ele></trkpt>
<trkpt lat="46.85043" lon="10.34559"><ele>1706</ele></trkpt>
<trkpt lat="46.85023" lon="10.34584"><ele>1706</ele></trkpt>
<trkpt lat="46.85" lon="10.34624"><ele>1706</ele></trkpt>
<trkpt lat="46.84989" lon="10.34636"><ele>1703</ele></trkpt>
<trkpt lat="46.84978" lon="10.34646"><ele>1703</ele></trkpt>
<trkpt lat="46.84974" lon="10.34659"><ele>1703</ele></trkpt>
<trkpt lat="46.84968" lon="10.34689"><ele>1703</ele></trkpt>
<trkpt lat="46.8496" lon="10.34704"><ele>1707</ele></trkpt>
<trkpt lat="46.8495" lon="10.34712"><ele>1707</ele></trkpt>
<trkpt lat="46.84928" lon="10.34723"><ele>1707</ele></trkpt>
<trkpt lat="46.84917" lon="10.34737"><ele>1707</ele></trkpt>
<trkpt lat="46.84898" lon="10.34775"><ele>1702</ele></trkpt>
<trkpt lat="46.84878" lon="10.34822"><ele>1702</ele></trkpt>
<trkpt lat="46.8487" lon="10.34835"><ele>1702</ele></trkpt>
<trkpt lat="46.84823" lon="10.34894"><ele>1702</ele></trkpt>
<trkpt lat="46.84776" lon="10.34963"><ele>1696</ele></trkpt>
<trkpt lat="46.84765" lon="10.3499"><ele>1696</ele></trkpt>
<trkpt lat="46.8475" lon="10.35026"><ele>1696</ele></trkpt>
<trkpt lat="46.84741" lon="10.35061"><ele>1696</ele></trkpt>
<trkpt lat="46.84727" lon="10.35098"><ele>1681</ele></trkpt>
<trkpt lat="46.8472" lon="10.35127"><ele>1681</ele></trkpt>
<trkpt lat="46.84716" lon="10.35155"><ele>1681</ele></trkpt>
<trkpt lat="46.8471" lon="10.35192"><ele>1681</ele></trkpt>
<trkpt lat="46.84713" lon="10.35216"><ele>1692</ele></trkpt>
<trkpt lat="46.84705" lon="10.35296"><ele>1692</ele></trkpt>
<trkpt lat="46.84699" lon="10.35319"><ele>1692</ele></trkpt>
<trkpt lat="46.84693" lon="10.35337"><ele>1692</ele></trkpt>
<trkpt lat="46.84687" lon="10.35347"><ele>1676</ele></trkpt>
<trkpt lat="46.84682" lon="10.35352"><ele>1676</ele></trkpt>
<trkpt lat="46.84676" lon="10.35356"><ele>1676</ele></trkpt>
<trkpt lat="46.84665" lon="10.3536"><ele>1676</ele></trkpt>
<trkpt lat="46.84655" lon="10.35366"><ele>1668</ele></trkpt>
<trkpt lat="46.84651" lon="10.35377"><ele>1668</ele></trkpt>
<trkpt lat="46.84647" lon="10.35404"><ele>1668</ele></trkpt>
<trkpt lat="46.84644" lon="10.35446"><ele>1668</ele></trkpt>
<trkpt lat="46.8464" lon="10.35464"><ele>1672</ele></trkpt>
<trkpt lat="46.84633" lon="10.35476"><ele>1672</ele></trkpt>
<trkpt lat="46.84622" lon="10.35485"><ele>1672</ele></trkpt>
<trkpt lat="46.84615" lon="10.35488"><ele>1672</ele></trkpt>
<trkpt lat="46.84606" lon="10.35501"><ele>1657</ele></trkpt>
<trkpt lat="46.84579" lon="10.35549"><ele>1657</ele></trkpt>
<trkpt lat="46.8455" lon="10.35617"><ele>1657</ele></trkpt>
<trkpt lat="46.84532" lon="10.35668"><ele>1657</ele></trkpt>
<trkpt lat="46.84524" lon="10.35694"><ele>1643</ele></trkpt>
<trkpt lat="46.84518" lon="10.3572"><ele>1643</ele></trkpt>
<trkpt lat="46.84518" lon="10.35741"><ele>1643</ele></trkpt>
<trkpt lat="46.84516" lon="10.35753"><ele>1643</ele></trkpt>
<trkpt lat="46.84514" lon="10.35762"><ele>1649</ele></trkpt>
<trkpt lat="46.84511" lon="10.35767"><ele>1649</ele></trkpt>
<trkpt lat="46.845" lon="10.35771"><ele>1649</ele></trkpt>
<trkpt lat="46.84493" lon="10.35774"><ele>1649</ele></trkpt>
<trkpt lat="46.84488" lon="10.35781"><ele>1642</ele></trkpt>
<trkpt lat="46.84485" lon="10.35786"><ele>1642</ele></trkpt>
<trkpt lat="46.84485" lon="10.35786"><ele>1642</ele></trkpt>
<trkpt lat="46.8448" lon="10.35791"><ele>1642</ele></trkpt>
<trkpt lat="46.84456" lon="10.35852"><ele>1632</ele></trkpt>
<trkpt lat="46.84442" lon="10.35906"><ele>1632</ele></trkpt>
<trkpt lat="46.84424" lon="10.35933"><ele>1632</ele></trkpt>
<trkpt lat="46.84401" lon="10.35959"><ele>1632</ele></trkpt>
<trkpt lat="46.84375" lon="10.36018"><ele>1611</ele></trkpt>
<trkpt lat="46.8437" lon="10.36022"><ele>1611</ele></trkpt>
<trkpt lat="46.84367" lon="10.3602"><ele>1611</ele></trkpt>
<trkpt lat="46.8436" lon="10.36035"><ele>1611</ele></trkpt>
<trkpt lat="46.84355" lon="10.36053"><ele>1606</ele></trkpt>
<trkpt lat="46.84352" lon="10.36067"><ele>1606</ele></trkpt>
<trkpt lat="46.84352" lon="10.36067"><ele>1606</ele></trkpt>
<trkpt lat="46.84349" lon="10.36069"><ele>1606</ele></trkpt>
<trkpt lat="46.84347" lon="10.36074"><ele>1608</ele></trkpt>
<trkpt lat="46.84346" lon="10.36081"><ele>1608</ele></trkpt>
<trkpt lat="46.84344" lon="10.36093"><ele>1608</ele></trkpt>
<trkpt lat="46.84341" lon="10.36103"><ele>1608</ele></trkpt>
<trkpt lat="46.84335" lon="10.36117"><ele>1603</ele></trkpt>
<trkpt lat="46.84326" lon="10.36137"><ele>1603</ele></trkpt>
<trkpt lat="46.84308" lon="10.3617"><ele>1603</ele></trkpt>
<trkpt lat="46.84302" lon="10.36184"><ele>1603</ele></trkpt>
<trkpt lat="46.84295" lon="10.36212"><ele>1594</ele></trkpt>
<trkpt lat="46.84291" lon="10.36238"><ele>1594</ele></trkpt>
<trkpt lat="46.84285" lon="10.36299"><ele>1594</ele></trkpt>
<trkpt lat="46.84282" lon="10.36328"><ele>1594</ele></trkpt>
<trkpt lat="46.84278" lon="10.36341"><ele>1603</ele></trkpt>
<trkpt lat="46.84278" lon="10.36341"><ele>1603</ele></trkpt>
<trkpt lat="46.84272" lon="10.36342"><ele>1603</ele></trkpt>
<trkpt lat="46.84247" lon="10.36364"><ele>1603</ele></trkpt>
<trkpt lat="46.8422" lon="10.36393"><ele>1589</ele></trkpt>
<trkpt lat="46.84209" lon="10.36407"><ele>1589</ele></trkpt>
<trkpt lat="46.84196" lon="10.36433"><ele>1589</ele></trkpt>
<trkpt lat="46.84181" lon="10.36462"><ele>1589</ele></trkpt>
<trkpt lat="46.84167" lon="10.36476"><ele>1558</ele></trkpt>
<trkpt lat="46.84122" lon="10.36549"><ele>1558</ele></trkpt>
<trkpt lat="46.84093" lon="10.36616"><ele>1558</ele></trkpt>
<trkpt lat="46.84071" lon="10.36685"><ele>1558</ele></trkpt>
<trkpt lat="46.84039" lon="10.3675"><ele>1553</ele></trkpt>
<trkpt lat="46.84" lon="10.36815"><ele>1553</ele></trkpt>
<trkpt lat="46.83975" lon="10.36871"><ele>1553</ele></trkpt>
<trkpt lat="46.83951" lon="10.36922"><ele>1553</ele></trkpt>
<trkpt lat="46.83943" lon="10.36973"><ele>1525</ele></trkpt>
<trkpt lat="46.83938" lon="10.36994"><ele>1525</ele></trkpt>
<trkpt lat="46.83938" lon="10.37012"><ele>1525</ele></trkpt>
<trkpt lat="46.83892" lon="10.37106"><ele>1525</ele></trkpt>
<trkpt lat="46.83856" lon="10.3714"><ele>1496</ele></trkpt>
<trkpt lat="46.83831" lon="10.3718"><ele>1496</ele></trkpt>
<trkpt lat="46.8382" lon="10.37226"><ele>1496</ele></trkpt>
<trkpt lat="46.838" lon="10.37297"><ele>1496</ele></trkpt>
<trkpt lat="46.83797" lon="10.37346"><ele>1451</ele></trkpt>
<trkpt lat="46.83791" lon="10.3736"><ele>1451</ele></trkpt>
<trkpt lat="46.83789" lon="10.37365"><ele>1451</ele></trkpt>
<trkpt lat="46.8377" lon="10.37407"><ele>1451</ele></trkpt>
<trkpt lat="46.83761" lon="10.37396"><ele>1433</ele></trkpt>
<trkpt lat="46.83761" lon="10.37396"><ele>1433</ele></trkpt>
<trkpt lat="46.83758" lon="10.37419"><ele>1433</ele></trkpt>
<trkpt lat="46.83742" lon="10.37451"><ele>1433</ele></trkpt>
<trkpt lat="46.83734" lon="10.37473"><ele>1422</ele></trkpt>
<trkpt lat="46.83713" lon="10.37499"><ele>1422</ele></trkpt>
<trkpt lat="46.83701" lon="10.37523"><ele>1422</ele></trkpt>
<trkpt lat="46.83694" lon="10.3754"><ele>1422</ele></trkpt>
<trkpt lat="46.83695" lon="10.37554"><ele>1397</ele></trkpt>
<trkpt lat="46.83687" lon="10.37627"><ele>1397</ele></trkpt>
<trkpt lat="46.8368" lon="10.37689"><ele>1397</ele></trkpt>
<trkpt lat="46.83671" lon="10.37742"><ele>1397</ele></trkpt>
<trkpt lat="46.83667" lon="10.37792"><ele>1363</ele></trkpt>
<trkpt lat="46.83666" lon="10.37803"><ele>1363</ele></trkpt>
<trkpt lat="46.83661" lon="10.37831"><ele>1363</ele></trkpt>
<trkpt lat="46.83655" lon="10.37883"><ele>1363</ele></trkpt>
<trkpt lat="46.8365" lon="10.37933"><ele>1339</ele></trkpt>
<trkpt lat="46.83642" lon="10.37989"><ele>1339</ele></trkpt>
<trkpt lat="46.83637" lon="10.38019"><ele>1339</ele></trkpt>
<trkpt lat="46.8363" lon="10.38026"><ele>1339</ele></trkpt>
<trkpt lat="46.83613" lon="10.38034"><ele>1303</ele></trkpt>
<trkpt lat="46.83607" lon="10.38031"><ele>1303</ele></trkpt>
<trkpt lat="46.83602" lon="10.38035"><ele>1303</ele></trkpt>
<trkpt lat="46.83597" lon="10.38044"><ele>1303</ele></trkpt>
<trkpt lat="46.83586" lon="10.38062"><ele>1292</ele></trkpt>
<trkpt lat="46.83571" lon="10.38071"><ele>1292</ele></trkpt>
<trkpt lat="46.83558" lon="10.38066"><ele>1292</ele></trkpt>
<trkpt lat="46.83551" lon="10.38068"><ele>1292</ele></trkpt>
<trkpt lat="46.83535" lon="10.38064"><ele>1271</ele></trkpt>
<trkpt lat="46.83526" lon="10.38062"><ele>1271</ele></trkpt>
<trkpt lat="46.83514" lon="10.38061"><ele>1271</ele></trkpt>
<trkpt lat="46.835" lon="10.38058"><ele>1271</ele></trkpt>
<trkpt lat="46.835" lon="10.38058"><ele>1264</ele></trkpt>
<trkpt lat="46.83497" lon="10.38055"><ele>1264</ele></trkpt>
<trkpt lat="46.83497" lon="10.38055"><ele>1264</ele></trkpt>
<trkpt lat="46.8349" lon="10.38058"><ele>1264</ele></trkpt>
<trkpt lat="46.83479" lon="10.38062"><ele>1258</ele></trkpt>
<trkpt lat="46.83458" lon="10.38073"><ele>1258</ele></trkpt>
<trkpt lat="46.83451" lon="10.38078"><ele>1258</ele></trkpt>
<trkpt lat="46.83444" lon="10.38086"><ele>1258</ele></trkpt>
<trkpt lat="46.83444" lon="10.38086"><ele>1245</ele></trkpt>
<trkpt lat="46.83443" lon="10.38115"><ele>1245</ele></trkpt>
<trkpt lat="46.8344" lon="10.38119"><ele>1245</ele></trkpt>
<trkpt lat="46.83437" lon="10.38123"><ele>1245</ele></trkpt>
<trkpt lat="46.83437" lon="10.38123"><ele>1243</ele></trkpt>
<trkpt lat="46.8344" lon="10.38167"><ele>1243</ele></trkpt>
<trkpt lat="46.83441" lon="10.3818"><ele>1243</ele></trkpt>
<trkpt lat="46.83442" lon="10.38186"><ele>1243</ele></trkpt>
<trkpt lat="46.83446" lon="10.38205"><ele>1236</ele></trkpt>
<trkpt lat="46.83455" lon="10.3823"><ele>1236</ele></trkpt>
<trkpt lat="46.83455" lon="10.3823"><ele>1236</ele></trkpt>
<trkpt lat="46.83452" lon="10.38242"><ele>1236</ele></trkpt>
<trkpt lat="46.83452" lon="10.38242"><ele>1233</ele></trkpt>
<trkpt lat="46.83457" lon="10.38272"><ele>1233</ele></trkpt>
<trkpt lat="46.83458" lon="10.38286"><ele>1233</ele></trkpt>

                    </trkseg>
              </trk>
            </gpx>