<?xml version="1.0" encoding="UTF-8" standalone="yes"?>
<gpx version="1.1" creator="outdooractive - http://www.outdooractive.com" xmlns="http://www.topografix.com/GPX/1/1" xmlns:oa="http://www.outdooractive.com/GPX/Extensions/1" xmlns:xsi="http://www.w3.org/2001/XMLSchema-instance" xsi:schemaLocation="http://www.topografix.com/GPX/1/1 http://www.topografix.com/GPX/1/1/gpx.xsd http://www.outdooractive.com/GPX/Extensions/1 https://www.outdooractive.com/schema/gpx_extensions.xsd">
  <metadata>
    <name>Gateway</name>
    <author>
      <name>Saalfelden Leogang - Saalfelden Leogang Touristik GmbH</name>
    </author>
    <link href="https://www.outdooractive.com/r/809414759"/>
    <time>2026-02-12T09:11:59.427Z</time>
    <extensions>
      <oa:oaCategory>mountainbiking</oa:oaCategory>
    </extensions>
  </metadata>
  <trk>
    <name>Gateway</name>
    <desc>Flowiger Verbindungstrail</desc>
    <type>mountainbiking</type>
    <trkseg>
      <trkpt lat="47.420043" lon="12.730613">
        <ele>1397.37768</ele>
        <name>Leogang, Zell am See</name>
        <extensions>
          <oa:Extension>
            <oa:mapZoom>12</oa:mapZoom>
          </oa:Extension>
        </extensions>
      </trkpt>
      <trkpt lat="47.420035" lon="12.73063">
        <ele>1397.69134</ele>
      </trkpt>
      <trkpt lat="47.420038" lon="12.73064">
        <ele>1397.53093</ele>
      </trkpt>
      <trkpt lat="47.420033" lon="12.730615">
        <ele>1397.82816</ele>
      </trkpt>
      <trkpt lat="47.420027" lon="12.730599">
        <ele>1398.17059</ele>
      </trkpt>
      <trkpt lat="47.420231" lon="12.730516">
        <ele>1388.47664</ele>
      </trkpt>
      <trkpt lat="47.420198" lon="12.730401">
        <ele>1389.03852</ele>
      </trkpt>
      <trkpt lat="47.420165" lon="12.73032">
        <ele>1390.26059</ele>
      </trkpt>
      <trkpt lat="47.420156" lon="12.730215">
        <ele>1390.13461</ele>
      </trkpt>
      <trkpt lat="47.4202" lon="12.730088">
        <ele>1386.45462</ele>
      </trkpt>
      <trkpt lat="47.420226" lon="12.730002">
        <ele>1384.40017</ele>
      </trkpt>
      <trkpt lat="47.420198" lon="12.729874">
        <ele>1384.41344</ele>
      </trkpt>
      <trkpt lat="47.420133" lon="12.729741">
        <ele>1385.28872</ele>
      </trkpt>
      <trkpt lat="47.42009" lon="12.72968">
        <ele>1387.23582</ele>
      </trkpt>
      <trkpt lat="47.420032" lon="12.729595">
        <ele>1390.55763</ele>
      </trkpt>
      <trkpt lat="47.42002" lon="12.729574">
        <ele>1391.2516</ele>
      </trkpt>
      <trkpt lat="47.42" lon="12.729385">
        <ele>1392.75617</ele>
      </trkpt>
      <trkpt lat="47.420024" lon="12.729212">
        <ele>1392.14104</ele>
      </trkpt>
      <trkpt lat="47.420044" lon="12.729108">
        <ele>1392.13682</ele>
      </trkpt>
      <trkpt lat="47.420076" lon="12.72901">
        <ele>1391.08699</ele>
      </trkpt>
      <trkpt lat="47.420124" lon="12.728879">
        <ele>1387.93693</ele>
      </trkpt>
      <trkpt lat="47.420109" lon="12.72881">
        <ele>1388.84757</ele>
      </trkpt>
      <trkpt lat="47.4201" lon="12.728667">
        <ele>1390.36123</ele>
      </trkpt>
      <trkpt lat="47.420109" lon="12.728535">
        <ele>1389.40922</ele>
      </trkpt>
      <trkpt lat="47.420087" lon="12.728371">
        <ele>1387.92019</ele>
      </trkpt>
      <trkpt lat="47.420046" lon="12.728152">
        <ele>1384.78895</ele>
      </trkpt>
      <trkpt lat="47.420106" lon="12.728032">
        <ele>1379.23159</ele>
      </trkpt>
      <trkpt lat="47.420151" lon="12.727991">
        <ele>1378.39045</ele>
      </trkpt>
      <trkpt lat="47.420289" lon="12.72787">
        <ele>1377.26607</ele>
      </trkpt>
      <trkpt lat="47.420395" lon="12.727713">
        <ele>1376.84855</ele>
      </trkpt>
      <trkpt lat="47.420515" lon="12.72764">
        <ele>1374.35155</ele>
      </trkpt>
      <trkpt lat="47.420614" lon="12.727556">
        <ele>1372.1515</ele>
      </trkpt>
      <trkpt lat="47.420697" lon="12.72739">
        <ele>1370.85452</ele>
      </trkpt>
      <trkpt lat="47.420792" lon="12.727294">
        <ele>1369.54452</ele>
      </trkpt>
      <trkpt lat="47.420937" lon="12.727237">
        <ele>1366.83083</ele>
      </trkpt>
      <trkpt lat="47.421045" lon="12.727228">
        <ele>1364.75698</ele>
      </trkpt>
      <trkpt lat="47.421211" lon="12.727156">
        <ele>1361.84237</ele>
      </trkpt>
      <trkpt lat="47.42132" lon="12.727135">
        <ele>1360.75674</ele>
      </trkpt>
      <trkpt lat="47.421431" lon="12.727175">
        <ele>1357.79122</ele>
      </trkpt>
      <trkpt lat="47.421608" lon="12.727154">
        <ele>1355.19992</ele>
      </trkpt>
      <trkpt lat="47.421744" lon="12.727073">
        <ele>1355.29232</ele>
      </trkpt>
      <trkpt lat="47.421916" lon="12.7269">
        <ele>1354.91688</ele>
      </trkpt>
      <trkpt lat="47.42202" lon="12.726824">
        <ele>1353.24156</ele>
      </trkpt>
      <trkpt lat="47.422135" lon="12.726716">
        <ele>1353.1029</ele>
      </trkpt>
      <trkpt lat="47.422179" lon="12.726663">
        <ele>1353.73789</ele>
      </trkpt>
      <trkpt lat="47.42221" lon="12.726643">
        <ele>1353.57625</ele>
      </trkpt>
      <trkpt lat="47.422331" lon="12.726581">
        <ele>1351.57123</ele>
      </trkpt>
      <trkpt lat="47.422352" lon="12.726398">
        <ele>1354.51202</ele>
      </trkpt>
      <trkpt lat="47.422429" lon="12.726301">
        <ele>1353.25178</ele>
      </trkpt>
      <trkpt lat="47.42247" lon="12.726262">
        <ele>1352.31816</ele>
      </trkpt>
      <trkpt lat="47.422469" lon="12.726255">
        <ele>1352.41782</ele>
        <name>Leogang, Zell am See</name>
        <extensions>
          <oa:Extension>
            <oa:mapZoom>12</oa:mapZoom>
          </oa:Extension>
        </extensions>
      </trkpt>
    </trkseg>
  </trk>
</gpx>