<?xml version="1.0" encoding="UTF-8" standalone="yes"?>
<gpx version="1.1" creator="outdooractive - http://www.outdooractive.com" xmlns="http://www.topografix.com/GPX/1/1" xmlns:oa="http://www.outdooractive.com/GPX/Extensions/1" xmlns:xsi="http://www.w3.org/2001/XMLSchema-instance" xsi:schemaLocation="http://www.topografix.com/GPX/1/1 http://www.topografix.com/GPX/1/1/gpx.xsd http://www.outdooractive.com/GPX/Extensions/1 https://www.outdooractive.com/schema/gpx_extensions.xsd">
  <metadata>
    <name>T-LINE by GoPro</name>
    <author>
      <name>Leoganger Bergbahnen - Saalfelden Leogang Touristik GmbH</name>
    </author>
    <link href="https://www.outdooractive.com/r/809414716"/>
    <time>2026-04-23T11:37:04.386Z</time>
    <extensions>
      <oa:oaCategory>mountainbiking</oa:oaCategory>
    </extensions>
  </metadata>
  <trk>
    <name>T-LINE by GoPro</name>
    <desc>Rollercoaster Feeling garantiert</desc>
    <type>mountainbiking</type>
    <trkseg>
      <trkpt lat="47.434816" lon="12.715116">
        <ele>1022.08282</ele>
        <name>Leogang, Zell am See</name>
        <extensions>
          <oa:Extension>
            <oa:mapZoom>12</oa:mapZoom>
          </oa:Extension>
        </extensions>
      </trkpt>
      <trkpt lat="47.434793" lon="12.715105">
        <ele>1022.3906</ele>
      </trkpt>
      <trkpt lat="47.434793" lon="12.715091">
        <ele>1022.42537</ele>
      </trkpt>
      <trkpt lat="47.43485" lon="12.715011">
        <ele>1021.78298</ele>
      </trkpt>
      <trkpt lat="47.434903" lon="12.714994">
        <ele>1020.99056</ele>
      </trkpt>
      <trkpt lat="47.434926" lon="12.714989">
        <ele>1020.57069</ele>
      </trkpt>
      <trkpt lat="47.434951" lon="12.714985">
        <ele>1020.09779</ele>
      </trkpt>
      <trkpt lat="47.434977" lon="12.714973">
        <ele>1019.64358</ele>
      </trkpt>
      <trkpt lat="47.435003" lon="12.714963">
        <ele>1019.21749</ele>
      </trkpt>
      <trkpt lat="47.435034" lon="12.714948">
        <ele>1018.75028</ele>
      </trkpt>
      <trkpt lat="47.435074" lon="12.714931">
        <ele>1018.12388</ele>
      </trkpt>
      <trkpt lat="47.435106" lon="12.714919">
        <ele>1017.59337</ele>
      </trkpt>
      <trkpt lat="47.435119" lon="12.714916">
        <ele>1017.3564</ele>
      </trkpt>
      <trkpt lat="47.435167" lon="12.714899">
        <ele>1016.52517</ele>
      </trkpt>
      <trkpt lat="47.43521" lon="12.714883">
        <ele>1015.75524</ele>
      </trkpt>
      <trkpt lat="47.435266" lon="12.714826">
        <ele>1014.80274</ele>
      </trkpt>
      <trkpt lat="47.435297" lon="12.714732">
        <ele>1014.68876</ele>
      </trkpt>
      <trkpt lat="47.435343" lon="12.714705">
        <ele>1013.04455</ele>
      </trkpt>
      <trkpt lat="47.435394" lon="12.714625">
        <ele>1010.91553</ele>
      </trkpt>
      <trkpt lat="47.435422" lon="12.714553">
        <ele>1009.82323</ele>
      </trkpt>
      <trkpt lat="47.435467" lon="12.714579">
        <ele>1007.12794</ele>
      </trkpt>
      <trkpt lat="47.435474" lon="12.71472">
        <ele>1005.74372</ele>
      </trkpt>
      <trkpt lat="47.435453" lon="12.714878">
        <ele>1005.13416</ele>
      </trkpt>
      <trkpt lat="47.435456" lon="12.715018">
        <ele>1003.46722</ele>
      </trkpt>
      <trkpt lat="47.435444" lon="12.715172">
        <ele>1003.38993</ele>
      </trkpt>
      <trkpt lat="47.435432" lon="12.715225">
        <ele>1003.96915</ele>
      </trkpt>
      <trkpt lat="47.435444" lon="12.715278">
        <ele>1003.01958</ele>
      </trkpt>
      <trkpt lat="47.435478" lon="12.715324">
        <ele>1001.04648</ele>
      </trkpt>
      <trkpt lat="47.43552" lon="12.715235">
        <ele>998.79764</ele>
      </trkpt>
      <trkpt lat="47.435534" lon="12.715177">
        <ele>997.89438</ele>
      </trkpt>
      <trkpt lat="47.435568" lon="12.715052">
        <ele>996.10565</ele>
      </trkpt>
      <trkpt lat="47.435558" lon="12.715003">
        <ele>997.10741</ele>
      </trkpt>
      <trkpt lat="47.435548" lon="12.714961">
        <ele>998.17985</ele>
      </trkpt>
      <trkpt lat="47.43556" lon="12.714896">
        <ele>997.61034</ele>
      </trkpt>
      <trkpt lat="47.43562" lon="12.714919">
        <ele>992.73602</ele>
      </trkpt>
      <trkpt lat="47.435622" lon="12.714937">
        <ele>992.48654</ele>
      </trkpt>
      <trkpt lat="47.435627" lon="12.714974">
        <ele>991.96489</ele>
      </trkpt>
      <trkpt lat="47.435643" lon="12.715096">
        <ele>990.70487</ele>
      </trkpt>
      <trkpt lat="47.435644" lon="12.715108">
        <ele>990.5683</ele>
      </trkpt>
      <trkpt lat="47.435642" lon="12.715129">
        <ele>990.56798</ele>
      </trkpt>
      <trkpt lat="47.435623" lon="12.71519">
        <ele>991.45149</ele>
      </trkpt>
      <trkpt lat="47.435673" lon="12.715219">
        <ele>987.48202</ele>
      </trkpt>
      <trkpt lat="47.435701" lon="12.715086">
        <ele>986.4182</ele>
      </trkpt>
      <trkpt lat="47.435704" lon="12.715017">
        <ele>986.29219</ele>
      </trkpt>
      <trkpt lat="47.435725" lon="12.714947">
        <ele>984.73632</ele>
      </trkpt>
      <trkpt lat="47.435778" lon="12.71499">
        <ele>981.04129</ele>
      </trkpt>
      <trkpt lat="47.435796" lon="12.71515">
        <ele>978.95938</ele>
      </trkpt>
      <trkpt lat="47.43576" lon="12.715266">
        <ele>980.76446</ele>
      </trkpt>
      <trkpt lat="47.435752" lon="12.715347">
        <ele>980.73107</ele>
      </trkpt>
      <trkpt lat="47.435805" lon="12.715321">
        <ele>976.90307</ele>
      </trkpt>
      <trkpt lat="47.435827" lon="12.715208">
        <ele>976.50298</ele>
      </trkpt>
      <trkpt lat="47.435852" lon="12.715146">
        <ele>975.20273</ele>
      </trkpt>
      <trkpt lat="47.435904" lon="12.715181">
        <ele>971.69197</ele>
      </trkpt>
      <trkpt lat="47.435901" lon="12.715201">
        <ele>971.85342</ele>
      </trkpt>
      <trkpt lat="47.435873" lon="12.71529">
        <ele>972.55482</ele>
      </trkpt>
      <trkpt lat="47.435923" lon="12.715366">
        <ele>968.87962</ele>
      </trkpt>
      <trkpt lat="47.435933" lon="12.715265">
        <ele>969.7608</ele>
      </trkpt>
      <trkpt lat="47.436001" lon="12.715246">
        <ele>966.1523</ele>
      </trkpt>
      <trkpt lat="47.435995" lon="12.715277">
        <ele>966.29979</ele>
      </trkpt>
      <trkpt lat="47.43599" lon="12.715283">
        <ele>966.53103</ele>
      </trkpt>
      <trkpt lat="47.435988" lon="12.715311">
        <ele>966.32305</ele>
      </trkpt>
      <trkpt lat="47.435993" lon="12.715503">
        <ele>962.87571</ele>
      </trkpt>
      <trkpt lat="47.435999" lon="12.715568">
        <ele>961.54116</ele>
      </trkpt>
      <trkpt lat="47.435994" lon="12.715686">
        <ele>961.36061</ele>
      </trkpt>
      <trkpt lat="47.436002" lon="12.715763">
        <ele>961.13663</ele>
      </trkpt>
      <trkpt lat="47.436002" lon="12.71583">
        <ele>960.98324</ele>
      </trkpt>
      <trkpt lat="47.435996" lon="12.71597">
        <ele>960.97573</ele>
      </trkpt>
      <trkpt lat="47.435996" lon="12.716063">
        <ele>961.28533</ele>
      </trkpt>
      <trkpt lat="47.436008" lon="12.716078">
        <ele>960.82947</ele>
      </trkpt>
      <trkpt lat="47.436089" lon="12.716133">
        <ele>956.66999</ele>
      </trkpt>
      <trkpt lat="47.436115" lon="12.716198">
        <ele>954.9428</ele>
      </trkpt>
      <trkpt lat="47.436084" lon="12.716299">
        <ele>956.52747</ele>
      </trkpt>
      <trkpt lat="47.436138" lon="12.716359">
        <ele>952.74589</ele>
      </trkpt>
      <trkpt lat="47.436172" lon="12.716227">
        <ele>951.48701</ele>
      </trkpt>
      <trkpt lat="47.436179" lon="12.716125">
        <ele>951.1563</ele>
      </trkpt>
      <trkpt lat="47.436189" lon="12.716046">
        <ele>950.72071</ele>
      </trkpt>
      <trkpt lat="47.436224" lon="12.715966">
        <ele>948.94369</ele>
      </trkpt>
      <trkpt lat="47.436278" lon="12.715923">
        <ele>946.42027</ele>
      </trkpt>
      <trkpt lat="47.436336" lon="12.715978">
        <ele>944.24705</ele>
      </trkpt>
      <trkpt lat="47.43636" lon="12.716021">
        <ele>943.24218</ele>
      </trkpt>
      <trkpt lat="47.436367" lon="12.716056">
        <ele>942.83361</ele>
      </trkpt>
      <trkpt lat="47.436346" lon="12.716131">
        <ele>943.44434</ele>
      </trkpt>
      <trkpt lat="47.436328" lon="12.71619">
        <ele>944.10398</ele>
      </trkpt>
      <trkpt lat="47.436387" lon="12.716285">
        <ele>941.46523</ele>
      </trkpt>
      <trkpt lat="47.436418" lon="12.716247">
        <ele>940.30416</ele>
      </trkpt>
      <trkpt lat="47.436483" lon="12.716166">
        <ele>936.26421</ele>
      </trkpt>
      <trkpt lat="47.436507" lon="12.716055">
        <ele>935.30125</ele>
      </trkpt>
      <trkpt lat="47.436506" lon="12.716013">
        <ele>935.68526</ele>
      </trkpt>
      <trkpt lat="47.436507" lon="12.715992">
        <ele>935.7478</ele>
      </trkpt>
      <trkpt lat="47.436602" lon="12.715932">
        <ele>930.55357</ele>
      </trkpt>
      <trkpt lat="47.436626" lon="12.715998">
        <ele>929.10273</ele>
      </trkpt>
      <trkpt lat="47.436631" lon="12.716151">
        <ele>927.51823</ele>
      </trkpt>
      <trkpt lat="47.436637" lon="12.716175">
        <ele>927.18021</ele>
      </trkpt>
      <trkpt lat="47.436637" lon="12.716334">
        <ele>927.10662</ele>
      </trkpt>
      <trkpt lat="47.436677" lon="12.716422">
        <ele>924.6515</ele>
      </trkpt>
      <trkpt lat="47.436706" lon="12.716304">
        <ele>923.15641</ele>
      </trkpt>
      <trkpt lat="47.436749" lon="12.716167">
        <ele>921.16026</ele>
      </trkpt>
      <trkpt lat="47.436794" lon="12.716228">
        <ele>918.56992</ele>
      </trkpt>
      <trkpt lat="47.436791" lon="12.716402">
        <ele>919.38241</ele>
      </trkpt>
      <trkpt lat="47.436785" lon="12.716442">
        <ele>919.67707</ele>
      </trkpt>
      <trkpt lat="47.436824" lon="12.716516">
        <ele>917.53899</ele>
      </trkpt>
      <trkpt lat="47.436854" lon="12.71638">
        <ele>916.13214</ele>
      </trkpt>
      <trkpt lat="47.436856" lon="12.716322">
        <ele>915.7825</ele>
      </trkpt>
      <trkpt lat="47.436925" lon="12.7163">
        <ele>912.17665</ele>
      </trkpt>
      <trkpt lat="47.436968" lon="12.716441">
        <ele>910.81963</ele>
      </trkpt>
      <trkpt lat="47.43698" lon="12.716492">
        <ele>910.00728</ele>
      </trkpt>
      <trkpt lat="47.436954" lon="12.716597">
        <ele>910.38665</ele>
      </trkpt>
      <trkpt lat="47.436995" lon="12.716645">
        <ele>907.32289</ele>
      </trkpt>
      <trkpt lat="47.437014" lon="12.716589">
        <ele>907.05864</ele>
      </trkpt>
      <trkpt lat="47.437083" lon="12.716539">
        <ele>904.02038</ele>
      </trkpt>
      <trkpt lat="47.437094" lon="12.716506">
        <ele>903.95604</ele>
      </trkpt>
      <trkpt lat="47.43711" lon="12.716392">
        <ele>904.21657</ele>
      </trkpt>
      <trkpt lat="47.437161" lon="12.716454">
        <ele>901.74965</ele>
      </trkpt>
      <trkpt lat="47.437146" lon="12.716504">
        <ele>901.66009</ele>
      </trkpt>
      <trkpt lat="47.437102" lon="12.716647">
        <ele>901.57087</ele>
      </trkpt>
      <trkpt lat="47.437092" lon="12.716655">
        <ele>901.93048</ele>
      </trkpt>
      <trkpt lat="47.437104" lon="12.716759">
        <ele>899.87403</ele>
      </trkpt>
      <trkpt lat="47.437129" lon="12.716749">
        <ele>898.83995</ele>
      </trkpt>
      <trkpt lat="47.437175" lon="12.716676">
        <ele>897.62122</ele>
      </trkpt>
      <trkpt lat="47.437177" lon="12.716635">
        <ele>898.16746</ele>
      </trkpt>
      <trkpt lat="47.437181" lon="12.716603">
        <ele>898.52113</ele>
      </trkpt>
      <trkpt lat="47.437211" lon="12.716525">
        <ele>898.38657</ele>
      </trkpt>
      <trkpt lat="47.43726" lon="12.716517">
        <ele>896.07675</ele>
      </trkpt>
      <trkpt lat="47.437278" lon="12.716486">
        <ele>895.61234</ele>
      </trkpt>
      <trkpt lat="47.437288" lon="12.716452">
        <ele>895.53426</ele>
      </trkpt>
      <trkpt lat="47.437273" lon="12.716399">
        <ele>896.55238</ele>
      </trkpt>
      <trkpt lat="47.437322" lon="12.71636">
        <ele>893.23777</ele>
      </trkpt>
      <trkpt lat="47.437349" lon="12.716457">
        <ele>892.02165</ele>
      </trkpt>
      <trkpt lat="47.437334" lon="12.716588">
        <ele>890.94817</ele>
      </trkpt>
      <trkpt lat="47.437313" lon="12.71668">
        <ele>890.53312</ele>
      </trkpt>
      <trkpt lat="47.43729" lon="12.716817">
        <ele>890.19045</ele>
      </trkpt>
      <trkpt lat="47.437283" lon="12.716904">
        <ele>889.00215</ele>
      </trkpt>
      <trkpt lat="47.437263" lon="12.716952">
        <ele>888.53021</ele>
      </trkpt>
      <trkpt lat="47.437264" lon="12.71702">
        <ele>886.11435</ele>
      </trkpt>
      <trkpt lat="47.437279" lon="12.717117">
        <ele>882.7835</ele>
      </trkpt>
      <trkpt lat="47.437368" lon="12.717164">
        <ele>878.74442</ele>
      </trkpt>
      <trkpt lat="47.437389" lon="12.717136">
        <ele>878.40747</ele>
      </trkpt>
      <trkpt lat="47.437438" lon="12.717078">
        <ele>877.14139</ele>
      </trkpt>
      <trkpt lat="47.437506" lon="12.717033">
        <ele>874.64385</ele>
      </trkpt>
      <trkpt lat="47.437588" lon="12.716909">
        <ele>872.85722</ele>
      </trkpt>
      <trkpt lat="47.437581" lon="12.716818">
        <ele>873.96341</ele>
      </trkpt>
      <trkpt lat="47.437637" lon="12.716776">
        <ele>872.17721</ele>
      </trkpt>
      <trkpt lat="47.437646" lon="12.71679">
        <ele>871.71084</ele>
      </trkpt>
      <trkpt lat="47.437661" lon="12.716966">
        <ele>869.34808</ele>
      </trkpt>
      <trkpt lat="47.437636" lon="12.717035">
        <ele>869.19219</ele>
      </trkpt>
      <trkpt lat="47.43758" lon="12.7172">
        <ele>868.57815</ele>
      </trkpt>
      <trkpt lat="47.437516" lon="12.717246">
        <ele>870.98465</ele>
      </trkpt>
      <trkpt lat="47.437513" lon="12.717267">
        <ele>870.91062</ele>
      </trkpt>
      <trkpt lat="47.437507" lon="12.717288">
        <ele>870.97474</ele>
      </trkpt>
      <trkpt lat="47.437553" lon="12.7174">
        <ele>868.25648</ele>
      </trkpt>
      <trkpt lat="47.437601" lon="12.717315">
        <ele>866.7113</ele>
      </trkpt>
      <trkpt lat="47.437616" lon="12.717284">
        <ele>866.36003</ele>
      </trkpt>
      <trkpt lat="47.437639" lon="12.717226">
        <ele>866.12712</ele>
      </trkpt>
      <trkpt lat="47.437678" lon="12.71714">
        <ele>866.08601</ele>
      </trkpt>
      <trkpt lat="47.437701" lon="12.717084">
        <ele>866.2433</ele>
      </trkpt>
      <trkpt lat="47.437793" lon="12.716966">
        <ele>865.00355</ele>
      </trkpt>
      <trkpt lat="47.437797" lon="12.716918">
        <ele>865.50918</ele>
      </trkpt>
      <trkpt lat="47.437863" lon="12.716932">
        <ele>863.37642</ele>
      </trkpt>
      <trkpt lat="47.437865" lon="12.716993">
        <ele>862.32818</ele>
      </trkpt>
      <trkpt lat="47.43786" lon="12.717129">
        <ele>860.49239</ele>
      </trkpt>
      <trkpt lat="47.437841" lon="12.717219">
        <ele>859.95837</ele>
      </trkpt>
      <trkpt lat="47.437814" lon="12.717266">
        <ele>860.21485</ele>
      </trkpt>
      <trkpt lat="47.437845" lon="12.717447">
        <ele>858.31153</ele>
      </trkpt>
      <trkpt lat="47.437912" lon="12.7174">
        <ele>856.93019</ele>
      </trkpt>
      <trkpt lat="47.437909" lon="12.717338">
        <ele>857.29361</ele>
      </trkpt>
      <trkpt lat="47.437909" lon="12.717298">
        <ele>857.58959</ele>
      </trkpt>
      <trkpt lat="47.438" lon="12.717302">
        <ele>856.17149</ele>
      </trkpt>
      <trkpt lat="47.438023" lon="12.717383">
        <ele>855.23512</ele>
      </trkpt>
      <trkpt lat="47.438023" lon="12.717416">
        <ele>854.9699</ele>
        <name>Leogang, Zell am See</name>
        <extensions>
          <oa:Extension>
            <oa:mapZoom>12</oa:mapZoom>
          </oa:Extension>
        </extensions>
      </trkpt>
    </trkseg>
  </trk>
</gpx>