<?xml version="1.0" encoding="UTF-8" standalone="yes"?>
<gpx version="1.1" creator="outdooractive - http://www.outdooractive.com" xmlns="http://www.topografix.com/GPX/1/1" xmlns:oa="http://www.outdooractive.com/GPX/Extensions/1" xmlns:xsi="http://www.w3.org/2001/XMLSchema-instance" xsi:schemaLocation="http://www.topografix.com/GPX/1/1 http://www.topografix.com/GPX/1/1/gpx.xsd http://www.outdooractive.com/GPX/Extensions/1 https://www.outdooractive.com/schema/gpx_extensions.xsd">
  <metadata>
    <name>Back to the Roots</name>
    <author>
      <name>Saalfelden Leogang - Saalfelden Leogang Touristik GmbH</name>
    </author>
    <link href="https://www.outdooractive.com/r/809414787"/>
    <time>2026-02-12T06:23:09.494Z</time>
    <extensions>
      <oa:oaCategory>mountainbiking</oa:oaCategory>
    </extensions>
  </metadata>
  <trk>
    <name>Back to the Roots</name>
    <desc>Pure Nature, Just Like the Old Days!</desc>
    <type>mountainbiking</type>
    <trkseg>
      <trkpt lat="47.421169" lon="12.724979">
        <ele>1406.14153</ele>
        <name>Leogang, Zell am See</name>
        <extensions>
          <oa:Extension>
            <oa:mapZoom>10</oa:mapZoom>
          </oa:Extension>
        </extensions>
      </trkpt>
      <trkpt lat="47.420968" lon="12.725211">
        <ele>1419.36165</ele>
      </trkpt>
      <trkpt lat="47.420969" lon="12.725189">
        <ele>1418.83535</ele>
      </trkpt>
      <trkpt lat="47.420983" lon="12.72519">
        <ele>1418.335</ele>
      </trkpt>
      <trkpt lat="47.420995" lon="12.725188">
        <ele>1417.96271</ele>
      </trkpt>
      <trkpt lat="47.421008" lon="12.725163">
        <ele>1417.41448</ele>
      </trkpt>
      <trkpt lat="47.421028" lon="12.725149">
        <ele>1417.07144</ele>
      </trkpt>
      <trkpt lat="47.42104" lon="12.725136">
        <ele>1416.78023</ele>
      </trkpt>
      <trkpt lat="47.42105" lon="12.725135">
        <ele>1416.66243</ele>
      </trkpt>
      <trkpt lat="47.421067" lon="12.725123">
        <ele>1416.13154</ele>
      </trkpt>
      <trkpt lat="47.421077" lon="12.725073">
        <ele>1414.27546</ele>
      </trkpt>
      <trkpt lat="47.421088" lon="12.725058">
        <ele>1413.26035</ele>
      </trkpt>
      <trkpt lat="47.421149" lon="12.725073">
        <ele>1411.17198</ele>
      </trkpt>
      <trkpt lat="47.4212" lon="12.725038">
        <ele>1407.58296</ele>
      </trkpt>
      <trkpt lat="47.421253" lon="12.725033">
        <ele>1405.28892</ele>
      </trkpt>
      <trkpt lat="47.421319" lon="12.725041">
        <ele>1402.71441</ele>
      </trkpt>
      <trkpt lat="47.421393" lon="12.725098">
        <ele>1400.46086</ele>
      </trkpt>
      <trkpt lat="47.421475" lon="12.725167">
        <ele>1397.21178</ele>
      </trkpt>
      <trkpt lat="47.421515" lon="12.725244">
        <ele>1395.8789</ele>
      </trkpt>
      <trkpt lat="47.421561" lon="12.725299">
        <ele>1393.49096</ele>
      </trkpt>
      <trkpt lat="47.421598" lon="12.725404">
        <ele>1391.89489</ele>
      </trkpt>
      <trkpt lat="47.421635" lon="12.725448">
        <ele>1390.11788</ele>
      </trkpt>
      <trkpt lat="47.421659" lon="12.725391">
        <ele>1388.54083</ele>
      </trkpt>
      <trkpt lat="47.421681" lon="12.725317">
        <ele>1386.83878</ele>
      </trkpt>
      <trkpt lat="47.42168" lon="12.72524">
        <ele>1386.21334</ele>
      </trkpt>
      <trkpt lat="47.421709" lon="12.725248">
        <ele>1384.6853</ele>
      </trkpt>
      <trkpt lat="47.421747" lon="12.725267">
        <ele>1382.99399</ele>
      </trkpt>
      <trkpt lat="47.4218" lon="12.7253">
        <ele>1380.91106</ele>
      </trkpt>
      <trkpt lat="47.421848" lon="12.725324">
        <ele>1378.95101</ele>
      </trkpt>
      <trkpt lat="47.421914" lon="12.725306">
        <ele>1375.19981</ele>
      </trkpt>
      <trkpt lat="47.421954" lon="12.725342">
        <ele>1374.00961</ele>
      </trkpt>
      <trkpt lat="47.421996" lon="12.725349">
        <ele>1372.16295</ele>
      </trkpt>
      <trkpt lat="47.422054" lon="12.725382">
        <ele>1370.31656</ele>
      </trkpt>
      <trkpt lat="47.422103" lon="12.725382">
        <ele>1368.44906</ele>
      </trkpt>
      <trkpt lat="47.422156" lon="12.725353">
        <ele>1365.97711</ele>
      </trkpt>
      <trkpt lat="47.422196" lon="12.725331">
        <ele>1364.10316</ele>
      </trkpt>
      <trkpt lat="47.4222" lon="12.725338">
        <ele>1364.19859</ele>
      </trkpt>
      <trkpt lat="47.422225" lon="12.725342">
        <ele>1363.59063</ele>
      </trkpt>
      <trkpt lat="47.422221" lon="12.725338">
        <ele>1363.58982</ele>
      </trkpt>
      <trkpt lat="47.422224" lon="12.725335">
        <ele>1363.41318</ele>
      </trkpt>
      <trkpt lat="47.422207" lon="12.725388">
        <ele>1365.17318</ele>
      </trkpt>
      <trkpt lat="47.422192" lon="12.725378">
        <ele>1365.41825</ele>
      </trkpt>
      <trkpt lat="47.422181" lon="12.725379">
        <ele>1365.76975</ele>
      </trkpt>
      <trkpt lat="47.422205" lon="12.725456">
        <ele>1366.30976</ele>
      </trkpt>
      <trkpt lat="47.422256" lon="12.725495">
        <ele>1365.21809</ele>
      </trkpt>
      <trkpt lat="47.422308" lon="12.725484">
        <ele>1363.41689</ele>
      </trkpt>
      <trkpt lat="47.422368" lon="12.725465">
        <ele>1361.00657</ele>
      </trkpt>
      <trkpt lat="47.422423" lon="12.725439">
        <ele>1358.41764</ele>
      </trkpt>
      <trkpt lat="47.422487" lon="12.72544">
        <ele>1355.90601</ele>
      </trkpt>
      <trkpt lat="47.42255" lon="12.725445">
        <ele>1353.72852</ele>
      </trkpt>
      <trkpt lat="47.422596" lon="12.72553">
        <ele>1352.65261</ele>
      </trkpt>
      <trkpt lat="47.422647" lon="12.725593">
        <ele>1350.95515</ele>
      </trkpt>
      <trkpt lat="47.422712" lon="12.725552">
        <ele>1348.73532</ele>
      </trkpt>
      <trkpt lat="47.422762" lon="12.725517">
        <ele>1346.91213</ele>
      </trkpt>
      <trkpt lat="47.422826" lon="12.725493">
        <ele>1344.64205</ele>
      </trkpt>
      <trkpt lat="47.422869" lon="12.725475">
        <ele>1343.15829</ele>
      </trkpt>
      <trkpt lat="47.422945" lon="12.725525">
        <ele>1341.16308</ele>
      </trkpt>
      <trkpt lat="47.422991" lon="12.725587">
        <ele>1339.99872</ele>
      </trkpt>
      <trkpt lat="47.423052" lon="12.72557">
        <ele>1338.08148</ele>
      </trkpt>
      <trkpt lat="47.423107" lon="12.725475">
        <ele>1336.10699</ele>
      </trkpt>
      <trkpt lat="47.423152" lon="12.725405">
        <ele>1334.43623</ele>
      </trkpt>
      <trkpt lat="47.423202" lon="12.725324">
        <ele>1332.53765</ele>
      </trkpt>
      <trkpt lat="47.423252" lon="12.725289">
        <ele>1331.13726</ele>
      </trkpt>
      <trkpt lat="47.423309" lon="12.725242">
        <ele>1329.6296</ele>
      </trkpt>
      <trkpt lat="47.423354" lon="12.725238">
        <ele>1328.97452</ele>
      </trkpt>
      <trkpt lat="47.423369" lon="12.725274">
        <ele>1329.38129</ele>
      </trkpt>
      <trkpt lat="47.423425" lon="12.725238">
        <ele>1328.26897</ele>
      </trkpt>
      <trkpt lat="47.423482" lon="12.725187">
        <ele>1326.83549</ele>
      </trkpt>
      <trkpt lat="47.423501" lon="12.725165">
        <ele>1326.19324</ele>
      </trkpt>
      <trkpt lat="47.423517" lon="12.725134">
        <ele>1325.27206</ele>
      </trkpt>
      <trkpt lat="47.423594" lon="12.725174">
        <ele>1325.2653</ele>
      </trkpt>
      <trkpt lat="47.423687" lon="12.725155">
        <ele>1323.84238</ele>
      </trkpt>
      <trkpt lat="47.42373" lon="12.725083">
        <ele>1321.82775</ele>
      </trkpt>
      <trkpt lat="47.423791" lon="12.725058">
        <ele>1321.24354</ele>
      </trkpt>
      <trkpt lat="47.42386" lon="12.725017">
        <ele>1319.7389</ele>
      </trkpt>
      <trkpt lat="47.423912" lon="12.724975">
        <ele>1318.268</ele>
      </trkpt>
      <trkpt lat="47.423989" lon="12.724961">
        <ele>1316.97421</ele>
      </trkpt>
      <trkpt lat="47.424007" lon="12.724933">
        <ele>1316.08195</ele>
      </trkpt>
      <trkpt lat="47.424072" lon="12.724947">
        <ele>1315.32992</ele>
      </trkpt>
      <trkpt lat="47.424176" lon="12.724944">
        <ele>1312.89319</ele>
      </trkpt>
      <trkpt lat="47.42426" lon="12.724929">
        <ele>1310.69906</ele>
      </trkpt>
      <trkpt lat="47.424359" lon="12.724932">
        <ele>1309.25069</ele>
      </trkpt>
      <trkpt lat="47.424405" lon="12.724973">
        <ele>1309.61278</ele>
      </trkpt>
      <trkpt lat="47.42447" lon="12.725006">
        <ele>1308.97142</ele>
      </trkpt>
      <trkpt lat="47.424507" lon="12.724995">
        <ele>1307.96634</ele>
      </trkpt>
      <trkpt lat="47.424513" lon="12.725029">
        <ele>1308.03619</ele>
      </trkpt>
      <trkpt lat="47.424539" lon="12.725053">
        <ele>1307.30792</ele>
      </trkpt>
      <trkpt lat="47.424603" lon="12.725061">
        <ele>1304.9395</ele>
      </trkpt>
      <trkpt lat="47.42466" lon="12.725058">
        <ele>1302.45795</ele>
      </trkpt>
      <trkpt lat="47.424694" lon="12.725026">
        <ele>1300.88409</ele>
      </trkpt>
      <trkpt lat="47.424737" lon="12.724996">
        <ele>1298.7449</ele>
      </trkpt>
      <trkpt lat="47.424787" lon="12.724951">
        <ele>1296.23795</ele>
      </trkpt>
      <trkpt lat="47.424813" lon="12.724896">
        <ele>1294.70358</ele>
      </trkpt>
      <trkpt lat="47.424839" lon="12.724833">
        <ele>1292.84571</ele>
      </trkpt>
      <trkpt lat="47.424896" lon="12.724836">
        <ele>1290.47836</ele>
      </trkpt>
      <trkpt lat="47.424952" lon="12.724818">
        <ele>1287.97109</ele>
      </trkpt>
      <trkpt lat="47.42497" lon="12.7248">
        <ele>1287.02979</ele>
      </trkpt>
      <trkpt lat="47.425008" lon="12.724837">
        <ele>1286.23191</ele>
      </trkpt>
      <trkpt lat="47.425052" lon="12.724804">
        <ele>1284.32865</ele>
      </trkpt>
      <trkpt lat="47.425119" lon="12.724844">
        <ele>1283.02952</ele>
      </trkpt>
      <trkpt lat="47.425183" lon="12.724894">
        <ele>1281.7566</ele>
      </trkpt>
      <trkpt lat="47.425242" lon="12.724911">
        <ele>1279.69194</ele>
      </trkpt>
      <trkpt lat="47.425288" lon="12.72494">
        <ele>1277.75879</ele>
      </trkpt>
      <trkpt lat="47.425311" lon="12.724954">
        <ele>1276.725</ele>
      </trkpt>
      <trkpt lat="47.425373" lon="12.724942">
        <ele>1273.64117</ele>
      </trkpt>
      <trkpt lat="47.425383" lon="12.724898">
        <ele>1272.93303</ele>
      </trkpt>
      <trkpt lat="47.425403" lon="12.724896">
        <ele>1271.89095</ele>
      </trkpt>
      <trkpt lat="47.425434" lon="12.724887">
        <ele>1270.17586</ele>
      </trkpt>
      <trkpt lat="47.425455" lon="12.724879">
        <ele>1268.98082</ele>
      </trkpt>
      <trkpt lat="47.425505" lon="12.724855">
        <ele>1266.16086</ele>
      </trkpt>
      <trkpt lat="47.425529" lon="12.724792">
        <ele>1264.42955</ele>
      </trkpt>
      <trkpt lat="47.425546" lon="12.724766">
        <ele>1263.31453</ele>
      </trkpt>
      <trkpt lat="47.425584" lon="12.72478">
        <ele>1261.61958</ele>
      </trkpt>
      <trkpt lat="47.425666" lon="12.724816">
        <ele>1257.59232</ele>
      </trkpt>
      <trkpt lat="47.42571" lon="12.724788">
        <ele>1255.26917</ele>
      </trkpt>
      <trkpt lat="47.425736" lon="12.724736">
        <ele>1253.55766</ele>
      </trkpt>
      <trkpt lat="47.425767" lon="12.724665">
        <ele>1250.86533</ele>
      </trkpt>
      <trkpt lat="47.425767" lon="12.724621">
        <ele>1250.04455</ele>
      </trkpt>
      <trkpt lat="47.425759" lon="12.724578">
        <ele>1249.55587</ele>
      </trkpt>
      <trkpt lat="47.425755" lon="12.724527">
        <ele>1248.51932</ele>
      </trkpt>
      <trkpt lat="47.425751" lon="12.724462">
        <ele>1246.94988</ele>
      </trkpt>
      <trkpt lat="47.425733" lon="12.724444">
        <ele>1247.31731</ele>
      </trkpt>
      <trkpt lat="47.425765" lon="12.724429">
        <ele>1245.25735</ele>
      </trkpt>
      <trkpt lat="47.425863" lon="12.724439">
        <ele>1240.63331</ele>
      </trkpt>
      <trkpt lat="47.42593" lon="12.724447">
        <ele>1237.83642</ele>
      </trkpt>
      <trkpt lat="47.425995" lon="12.724463">
        <ele>1235.54486</ele>
      </trkpt>
      <trkpt lat="47.42604" lon="12.724482">
        <ele>1233.9837</ele>
      </trkpt>
      <trkpt lat="47.42608" lon="12.724539">
        <ele>1232.92899</ele>
      </trkpt>
      <trkpt lat="47.426089" lon="12.724548">
        <ele>1232.61435</ele>
      </trkpt>
      <trkpt lat="47.426154" lon="12.724533">
        <ele>1229.25548</ele>
      </trkpt>
      <trkpt lat="47.426166" lon="12.724463">
        <ele>1227.58306</ele>
      </trkpt>
      <trkpt lat="47.426182" lon="12.724392">
        <ele>1225.49976</ele>
      </trkpt>
      <trkpt lat="47.426185" lon="12.724326">
        <ele>1223.93978</ele>
      </trkpt>
      <trkpt lat="47.426177" lon="12.72428">
        <ele>1223.20573</ele>
      </trkpt>
      <trkpt lat="47.426199" lon="12.72427">
        <ele>1221.87056</ele>
      </trkpt>
      <trkpt lat="47.426249" lon="12.724319">
        <ele>1220.64231</ele>
      </trkpt>
      <trkpt lat="47.426304" lon="12.724341">
        <ele>1218.46989</ele>
      </trkpt>
      <trkpt lat="47.426325" lon="12.724346">
        <ele>1217.58276</ele>
      </trkpt>
      <trkpt lat="47.426418" lon="12.72438">
        <ele>1214.09415</ele>
      </trkpt>
      <trkpt lat="47.426495" lon="12.724422">
        <ele>1211.8959</ele>
      </trkpt>
      <trkpt lat="47.426553" lon="12.724428">
        <ele>1209.91761</ele>
      </trkpt>
      <trkpt lat="47.426619" lon="12.724439">
        <ele>1207.36675</ele>
      </trkpt>
      <trkpt lat="47.426693" lon="12.724486">
        <ele>1205.11921</ele>
      </trkpt>
      <trkpt lat="47.426761" lon="12.724562">
        <ele>1203.51622</ele>
      </trkpt>
      <trkpt lat="47.426784" lon="12.724694">
        <ele>1203.66167</ele>
      </trkpt>
      <trkpt lat="47.426858" lon="12.72472">
        <ele>1201.88886</ele>
      </trkpt>
      <trkpt lat="47.42691" lon="12.724716">
        <ele>1200.90102</ele>
      </trkpt>
      <trkpt lat="47.42695" lon="12.724742">
        <ele>1199.86743</ele>
      </trkpt>
      <trkpt lat="47.427003" lon="12.724818">
        <ele>1197.48457</ele>
      </trkpt>
      <trkpt lat="47.427053" lon="12.724879">
        <ele>1194.83793</ele>
      </trkpt>
      <trkpt lat="47.427119" lon="12.724934">
        <ele>1191.63921</ele>
      </trkpt>
      <trkpt lat="47.427137" lon="12.724998">
        <ele>1190.44106</ele>
      </trkpt>
      <trkpt lat="47.427197" lon="12.725075">
        <ele>1187.44818</ele>
      </trkpt>
      <trkpt lat="47.42721" lon="12.725157">
        <ele>1186.04298</ele>
      </trkpt>
      <trkpt lat="47.427186" lon="12.72529">
        <ele>1185.02233</ele>
      </trkpt>
      <trkpt lat="47.427199" lon="12.725437">
        <ele>1181.85903</ele>
      </trkpt>
      <trkpt lat="47.427226" lon="12.725438">
        <ele>1180.45421</ele>
      </trkpt>
      <trkpt lat="47.427228" lon="12.72538">
        <ele>1181.39242</ele>
      </trkpt>
      <trkpt lat="47.427215" lon="12.725364">
        <ele>1182.35921</ele>
        <name>Leogang, Zell am See</name>
        <extensions>
          <oa:Extension>
            <oa:mapZoom>10</oa:mapZoom>
          </oa:Extension>
        </extensions>
      </trkpt>
    </trkseg>
  </trk>
</gpx>