<?xml version="1.0" encoding="utf-8"?>
<gpx xmlns:xsd="http://www.w3.org/2001/XMLSchema" xmlns:xsi="http://www.w3.org/2001/XMLSchema-instance" creator="eT4 META" version="1.1" xsi:schemaLocation="http://www.topografix.com/GPX/1/1 http://www.topografix.com/GPX/1/1/gpx.xsd" xmlns="http://www.topografix.com/GPX/1/1">
  <trk>
    <name>Green Trails Willingen Ruthenaar-Double (RUD)</name>
    <trkseg>
      <trkpt lat="51.28955" lon="8.59282">
        <ele>587.42</ele>
        <time>2026-08-11T00:00:00.0000000+00:00</time>
      </trkpt>
      <trkpt lat="51.28969" lon="8.59312">
        <ele>587.62</ele>
        <time>2026-08-11T00:00:31.1840000+00:00</time>
      </trkpt>
      <trkpt lat="51.2898" lon="8.59337">
        <ele>587.78</ele>
        <time>2026-08-11T00:00:56.6500000+00:00</time>
      </trkpt>
      <trkpt lat="51.28991" lon="8.59369">
        <ele>588.1</ele>
        <time>2026-08-11T00:01:27.0710000+00:00</time>
      </trkpt>
      <trkpt lat="51.2902" lon="8.59439">
        <ele>587.11</ele>
        <time>2026-08-11T00:02:37.0230000+00:00</time>
      </trkpt>
      <trkpt lat="51.29041" lon="8.59494">
        <ele>585.62</ele>
        <time>2026-08-11T00:03:30.7070000+00:00</time>
      </trkpt>
      <trkpt lat="51.29048" lon="8.5951">
        <ele>585.01</ele>
        <time>2026-08-11T00:03:46.9750000+00:00</time>
      </trkpt>
      <trkpt lat="51.29047" lon="8.59493">
        <ele>584.57</ele>
        <time>2026-08-11T00:04:01.2000000+00:00</time>
      </trkpt>
      <trkpt lat="51.29035" lon="8.59448">
        <ele>584.97</ele>
        <time>2026-08-11T00:04:41.9550000+00:00</time>
      </trkpt>
      <trkpt lat="51.29035" lon="8.59442">
        <ele>584.76</ele>
        <time>2026-08-11T00:04:46.9540000+00:00</time>
      </trkpt>
      <trkpt lat="51.29055" lon="8.59426">
        <ele>581.06</ele>
        <time>2026-08-11T00:05:16.7450000+00:00</time>
      </trkpt>
      <trkpt lat="51.29061" lon="8.59424">
        <ele>580.32</ele>
        <time>2026-08-11T00:05:24.9100000+00:00</time>
      </trkpt>
      <trkpt lat="51.29073" lon="8.59438">
        <ele>580.18</ele>
        <time>2026-08-11T00:05:44.6980000+00:00</time>
      </trkpt>
      <trkpt lat="51.29084" lon="8.59446">
        <ele>579.79</ele>
        <time>2026-08-11T00:06:00.7960000+00:00</time>
      </trkpt>
      <trkpt lat="51.29089" lon="8.59446">
        <ele>579.57</ele>
        <time>2026-08-11T00:06:07.4570000+00:00</time>
      </trkpt>
      <trkpt lat="51.29101" lon="8.59441">
        <ele>579.1</ele>
        <time>2026-08-11T00:06:23.9770000+00:00</time>
      </trkpt>
      <trkpt lat="51.29111" lon="8.59445">
        <ele>578.62</ele>
        <time>2026-08-11T00:06:37.7090000+00:00</time>
      </trkpt>
      <trkpt lat="51.29119" lon="8.59457">
        <ele>578.08</ele>
        <time>2026-08-11T00:06:52.3210000+00:00</time>
      </trkpt>
      <trkpt lat="51.29125" lon="8.59473">
        <ele>577.58</ele>
        <time>2026-08-11T00:07:07.8620000+00:00</time>
      </trkpt>
      <trkpt lat="51.29125" lon="8.59473">
        <ele>577.58</ele>
        <time>2026-08-11T00:07:07.8620000+00:00</time>
      </trkpt>
      <trkpt lat="51.29125" lon="8.59473">
        <ele>577.58</ele>
        <time>2026-08-11T00:07:07.8620000+00:00</time>
      </trkpt>
      <trkpt lat="51.29119" lon="8.59457">
        <ele>578.08</ele>
        <time>2026-08-11T00:07:23.4040000+00:00</time>
      </trkpt>
      <trkpt lat="51.29111" lon="8.59445">
        <ele>578.62</ele>
        <time>2026-08-11T00:07:38.0160000+00:00</time>
      </trkpt>
      <trkpt lat="51.29101" lon="8.59441">
        <ele>579.1</ele>
        <time>2026-08-11T00:07:51.7480000+00:00</time>
      </trkpt>
      <trkpt lat="51.29089" lon="8.59446">
        <ele>579.57</ele>
        <time>2026-08-11T00:08:08.2670000+00:00</time>
      </trkpt>
      <trkpt lat="51.29084" lon="8.59446">
        <ele>579.79</ele>
        <time>2026-08-11T00:08:14.9280000+00:00</time>
      </trkpt>
      <trkpt lat="51.29073" lon="8.59438">
        <ele>580.18</ele>
        <time>2026-08-11T00:08:31.0270000+00:00</time>
      </trkpt>
      <trkpt lat="51.29061" lon="8.59424">
        <ele>580.32</ele>
        <time>2026-08-11T00:08:50.8140000+00:00</time>
      </trkpt>
      <trkpt lat="51.29055" lon="8.59426">
        <ele>581.06</ele>
        <time>2026-08-11T00:08:58.9800000+00:00</time>
      </trkpt>
      <trkpt lat="51.29035" lon="8.59442">
        <ele>584.76</ele>
        <time>2026-08-11T00:09:28.7710000+00:00</time>
      </trkpt>
      <trkpt lat="51.29035" lon="8.59448">
        <ele>584.97</ele>
        <time>2026-08-11T00:09:33.7700000+00:00</time>
      </trkpt>
      <trkpt lat="51.29047" lon="8.59493">
        <ele>584.57</ele>
        <time>2026-08-11T00:10:14.5250000+00:00</time>
      </trkpt>
      <trkpt lat="51.29048" lon="8.5951">
        <ele>585.01</ele>
        <time>2026-08-11T00:10:28.7500000+00:00</time>
      </trkpt>
      <trkpt lat="51.29041" lon="8.59494">
        <ele>585.62</ele>
        <time>2026-08-11T00:10:45.0170000+00:00</time>
      </trkpt>
      <trkpt lat="51.2902" lon="8.59439">
        <ele>587.11</ele>
        <time>2026-08-11T00:11:38.7020000+00:00</time>
      </trkpt>
      <trkpt lat="51.28991" lon="8.59369">
        <ele>588.1</ele>
        <time>2026-08-11T00:12:48.6540000+00:00</time>
      </trkpt>
      <trkpt lat="51.2898" lon="8.59337">
        <ele>587.78</ele>
        <time>2026-08-11T00:13:19.0750000+00:00</time>
      </trkpt>
      <trkpt lat="51.28969" lon="8.59312">
        <ele>587.62</ele>
        <time>2026-08-11T00:13:44.5400000+00:00</time>
      </trkpt>
      <trkpt lat="51.28948" lon="8.59265">
        <ele>587.43</ele>
        <time>2026-08-11T00:14:32.6630000+00:00</time>
      </trkpt>
      <trkpt lat="51.2893" lon="8.59237">
        <ele>587.52</ele>
        <time>2026-08-11T00:15:06.1160000+00:00</time>
      </trkpt>
      <trkpt lat="51.28888" lon="8.59159">
        <ele>587.63</ele>
        <time>2026-08-11T00:16:31.8660000+00:00</time>
      </trkpt>
      <trkpt lat="51.28881" lon="8.59152">
        <ele>589.3</ele>
        <time>2026-08-11T00:16:42.8640000+00:00</time>
      </trkpt>
      <trkpt lat="51.28867" lon="8.59134">
        <ele>592.78</ele>
        <time>2026-08-11T00:17:06.7950000+00:00</time>
      </trkpt>
      <trkpt lat="51.2886" lon="8.5912">
        <ele>594.61</ele>
        <time>2026-08-11T00:17:21.7280000+00:00</time>
      </trkpt>
      <trkpt lat="51.28843" lon="8.59091">
        <ele>598.66</ele>
        <time>2026-08-11T00:17:54.8430000+00:00</time>
      </trkpt>
      <trkpt lat="51.28794" lon="8.58989">
        <ele>605.73</ele>
        <time>2026-08-11T00:19:41.9980000+00:00</time>
      </trkpt>
      <trkpt lat="51.28746" lon="8.5887">
        <ele>610.02</ele>
        <time>2026-08-11T00:21:39.9730000+00:00</time>
      </trkpt>
      <trkpt lat="51.28718" lon="8.58789">
        <ele>609.55</ele>
        <time>2026-08-11T00:22:57.0790000+00:00</time>
      </trkpt>
      <trkpt lat="51.28709" lon="8.58747">
        <ele>609.34</ele>
        <time>2026-08-11T00:23:34.0680000+00:00</time>
      </trkpt>
      <trkpt lat="51.28707" lon="8.58734">
        <ele>609.2</ele>
        <time>2026-08-11T00:23:45.2220000+00:00</time>
      </trkpt>
      <trkpt lat="51.28706" lon="8.58711">
        <ele>608.29</ele>
        <time>2026-08-11T00:24:04.4310000+00:00</time>
      </trkpt>
      <trkpt lat="51.28701" lon="8.58677">
        <ele>608.62</ele>
        <time>2026-08-11T00:24:33.5300000+00:00</time>
      </trkpt>
      <trkpt lat="51.28691" lon="8.58646">
        <ele>610.96</ele>
        <time>2026-08-11T00:25:02.5910000+00:00</time>
      </trkpt>
      <trkpt lat="51.28682" lon="8.58632">
        <ele>613.53</ele>
        <time>2026-08-11T00:25:19.3180000+00:00</time>
      </trkpt>
      <trkpt lat="51.28664" lon="8.58609">
        <ele>618.23</ele>
        <time>2026-08-11T00:25:50.0130000+00:00</time>
      </trkpt>
      <trkpt lat="51.28616" lon="8.58564">
        <ele>624.17</ele>
        <time>2026-08-11T00:27:04.1370000+00:00</time>
      </trkpt>
      <trkpt lat="51.28596" lon="8.58553">
        <ele>626.71</ele>
        <time>2026-08-11T00:27:32.3120000+00:00</time>
      </trkpt>
      <trkpt lat="51.2858" lon="8.58549">
        <ele>629.43</ele>
        <time>2026-08-11T00:27:53.8850000+00:00</time>
      </trkpt>
      <trkpt lat="51.28527" lon="8.58566">
        <ele>638.81</ele>
        <time>2026-08-11T00:29:05.8950000+00:00</time>
      </trkpt>
      <trkpt lat="51.28449" lon="8.5861">
        <ele>651.15</ele>
        <time>2026-08-11T00:30:56.0790000+00:00</time>
      </trkpt>
      <trkpt lat="51.28431" lon="8.58622">
        <ele>652.82</ele>
        <time>2026-08-11T00:31:22.0590000+00:00</time>
      </trkpt>
      <trkpt lat="51.28357" lon="8.58695">
        <ele>668.39</ele>
        <time>2026-08-11T00:33:17.8920000+00:00</time>
      </trkpt>
      <trkpt lat="51.28327" lon="8.58717">
        <ele>671.77</ele>
        <time>2026-08-11T00:34:01.8600000+00:00</time>
      </trkpt>
      <trkpt lat="51.28292" lon="8.58736">
        <ele>676.19</ele>
        <time>2026-08-11T00:34:51.0990000+00:00</time>
      </trkpt>
      <trkpt lat="51.28253" lon="8.5875">
        <ele>680.04</ele>
        <time>2026-08-11T00:35:44.3460000+00:00</time>
      </trkpt>
      <trkpt lat="51.28198" lon="8.58769">
        <ele>683.97</ele>
        <time>2026-08-11T00:36:59.3050000+00:00</time>
      </trkpt>
      <trkpt lat="51.28179" lon="8.58781">
        <ele>685.77</ele>
        <time>2026-08-11T00:37:26.5190000+00:00</time>
      </trkpt>
      <trkpt lat="51.28157" lon="8.58801">
        <ele>689.59</ele>
        <time>2026-08-11T00:38:00.2330000+00:00</time>
      </trkpt>
      <trkpt lat="51.28128" lon="8.58835">
        <ele>697.63</ele>
        <time>2026-08-11T00:38:48.1390000+00:00</time>
      </trkpt>
      <trkpt lat="51.2812" lon="8.5884">
        <ele>698.82</ele>
        <time>2026-08-11T00:38:59.5820000+00:00</time>
      </trkpt>
      <trkpt lat="51.28109" lon="8.58843">
        <ele>699.38</ele>
        <time>2026-08-11T00:39:14.4470000+00:00</time>
      </trkpt>
      <trkpt lat="51.28083" lon="8.58846">
        <ele>699.58</ele>
        <time>2026-08-11T00:39:49.1730000+00:00</time>
      </trkpt>
      <trkpt lat="51.2806" lon="8.58852">
        <ele>700.69</ele>
        <time>2026-08-11T00:40:20.2170000+00:00</time>
      </trkpt>
      <trkpt lat="51.28038" lon="8.58861">
        <ele>703.26</ele>
        <time>2026-08-11T00:40:50.4690000+00:00</time>
      </trkpt>
      <trkpt lat="51.27962" lon="8.58903">
        <ele>716.76</ele>
        <time>2026-08-11T00:42:37.5900000+00:00</time>
      </trkpt>
      <trkpt lat="51.2793" lon="8.58923">
        <ele>724.54</ele>
        <time>2026-08-11T00:43:23.3600000+00:00</time>
      </trkpt>
      <trkpt lat="51.2791" lon="8.58929">
        <ele>727.37</ele>
        <time>2026-08-11T00:43:50.4680000+00:00</time>
      </trkpt>
      <trkpt lat="51.27888" lon="8.58927">
        <ele>727.98</ele>
        <time>2026-08-11T00:44:19.8230000+00:00</time>
      </trkpt>
      <trkpt lat="51.27855" lon="8.58917">
        <ele>727.46</ele>
        <time>2026-08-11T00:45:04.5660000+00:00</time>
      </trkpt>
      <trkpt lat="51.27831" lon="8.58915">
        <ele>728.72</ele>
        <time>2026-08-11T00:45:36.5810000+00:00</time>
      </trkpt>
      <trkpt lat="51.2782" lon="8.58917">
        <ele>730.24</ele>
        <time>2026-08-11T00:45:51.3290000+00:00</time>
      </trkpt>
      <trkpt lat="51.27804" lon="8.58924">
        <ele>732.96</ele>
        <time>2026-08-11T00:46:13.4270000+00:00</time>
      </trkpt>
      <trkpt lat="51.27791" lon="8.58932">
        <ele>734.76</ele>
        <time>2026-08-11T00:46:31.9830000+00:00</time>
      </trkpt>
      <trkpt lat="51.27765" lon="8.58948">
        <ele>737.91</ele>
        <time>2026-08-11T00:47:09.0970000+00:00</time>
      </trkpt>
      <trkpt lat="51.27721" lon="8.58978">
        <ele>742.48</ele>
        <time>2026-08-11T00:48:12.8190000+00:00</time>
      </trkpt>
      <trkpt lat="51.27695" lon="8.59002">
        <ele>745.59</ele>
        <time>2026-08-11T00:48:52.8150000+00:00</time>
      </trkpt>
      <trkpt lat="51.27605" lon="8.59103">
        <ele>755.57</ele>
        <time>2026-08-11T00:51:19.3010000+00:00</time>
      </trkpt>
      <trkpt lat="51.27582" lon="8.59135">
        <ele>758.24</ele>
        <time>2026-08-11T00:51:59.9200000+00:00</time>
      </trkpt>
      <trkpt lat="51.27567" lon="8.59161">
        <ele>760.41</ele>
        <time>2026-08-11T00:52:29.3950000+00:00</time>
      </trkpt>
      <trkpt lat="51.2755" lon="8.592">
        <ele>763.52</ele>
        <time>2026-08-11T00:53:09.0080000+00:00</time>
      </trkpt>
      <trkpt lat="51.27538" lon="8.59236">
        <ele>766.1</ele>
        <time>2026-08-11T00:53:43.0020000+00:00</time>
      </trkpt>
      <trkpt lat="51.27524" lon="8.59282">
        <ele>769.85</ele>
        <time>2026-08-11T00:54:25.6320000+00:00</time>
      </trkpt>
      <trkpt lat="51.27513" lon="8.59316">
        <ele>772.65</ele>
        <time>2026-08-11T00:54:57.5310000+00:00</time>
      </trkpt>
      <trkpt lat="51.27503" lon="8.59337">
        <ele>773.93</ele>
        <time>2026-08-11T00:55:19.5250000+00:00</time>
      </trkpt>
      <trkpt lat="51.27478" lon="8.59378">
        <ele>775.72</ele>
        <time>2026-08-11T00:56:07.2390000+00:00</time>
      </trkpt>
      <trkpt lat="51.27472" lon="8.59391">
        <ele>776.2</ele>
        <time>2026-08-11T00:56:20.7020000+00:00</time>
      </trkpt>
      <trkpt lat="51.27448" lon="8.59466">
        <ele>782.14</ele>
        <time>2026-08-11T00:57:30.9070000+00:00</time>
      </trkpt>
      <trkpt lat="51.27424" lon="8.59515">
        <ele>784.6</ele>
        <time>2026-08-11T00:58:22.7690000+00:00</time>
      </trkpt>
      <trkpt lat="51.27406" lon="8.59546">
        <ele>786.32</ele>
        <time>2026-08-11T00:58:58.0170000+00:00</time>
      </trkpt>
      <trkpt lat="51.27381" lon="8.59576">
        <ele>788.48</ele>
        <time>2026-08-11T00:59:39.6600000+00:00</time>
      </trkpt>
      <trkpt lat="51.27364" lon="8.59589">
        <ele>788.24</ele>
        <time>2026-08-11T01:00:04.7650000+00:00</time>
      </trkpt>
      <trkpt lat="51.27353" lon="8.596">
        <ele>788.39</ele>
        <time>2026-08-11T01:00:22.0490000+00:00</time>
      </trkpt>
      <trkpt lat="51.27347" lon="8.59609">
        <ele>788.94</ele>
        <time>2026-08-11T01:00:33.0100000+00:00</time>
      </trkpt>
      <trkpt lat="51.27341" lon="8.59622">
        <ele>790.23</ele>
        <time>2026-08-11T01:00:46.4740000+00:00</time>
      </trkpt>
      <trkpt lat="51.27331" lon="8.59653">
        <ele>794.64</ele>
        <time>2026-08-11T01:01:15.5420000+00:00</time>
      </trkpt>
      <trkpt lat="51.2732" lon="8.59695">
        <ele>801.47</ele>
        <time>2026-08-11T01:01:53.4880000+00:00</time>
      </trkpt>
      <trkpt lat="51.27307" lon="8.59737">
        <ele>806.91</ele>
        <time>2026-08-11T01:02:32.5400000+00:00</time>
      </trkpt>
      <trkpt lat="51.27299" lon="8.59759">
        <ele>810.4</ele>
        <time>2026-08-11T01:02:53.7470000+00:00</time>
      </trkpt>
      <trkpt lat="51.27289" lon="8.59779">
        <ele>813.16</ele>
        <time>2026-08-11T01:03:15.0850000+00:00</time>
      </trkpt>
      <trkpt lat="51.2728" lon="8.59789">
        <ele>814</ele>
        <time>2026-08-11T01:03:29.6860000+00:00</time>
      </trkpt>
      <trkpt lat="51.27261" lon="8.59806">
        <ele>814.65</ele>
        <time>2026-08-11T01:03:58.6930000+00:00</time>
      </trkpt>
      <trkpt lat="51.27235" lon="8.59824">
        <ele>814.73</ele>
        <time>2026-08-11T01:04:36.4380000+00:00</time>
      </trkpt>
      <trkpt lat="51.27228" lon="8.59831">
        <ele>814.74</ele>
        <time>2026-08-11T01:04:47.4380000+00:00</time>
      </trkpt>
      <trkpt lat="51.27234" lon="8.59839">
        <ele>815.29</ele>
        <time>2026-08-11T01:04:57.8460000+00:00</time>
      </trkpt>
      <trkpt lat="51.27228" lon="8.59831">
        <ele>814.74</ele>
        <time>2026-08-11T01:05:08.2530000+00:00</time>
      </trkpt>
      <trkpt lat="51.27235" lon="8.59824">
        <ele>814.73</ele>
        <time>2026-08-11T01:05:19.2530000+00:00</time>
      </trkpt>
      <trkpt lat="51.27261" lon="8.59806">
        <ele>814.65</ele>
        <time>2026-08-11T01:05:56.9980000+00:00</time>
      </trkpt>
      <trkpt lat="51.2728" lon="8.59789">
        <ele>814</ele>
        <time>2026-08-11T01:06:26.0050000+00:00</time>
      </trkpt>
      <trkpt lat="51.27289" lon="8.59779">
        <ele>813.16</ele>
        <time>2026-08-11T01:06:40.6060000+00:00</time>
      </trkpt>
      <trkpt lat="51.27299" lon="8.59759">
        <ele>810.4</ele>
        <time>2026-08-11T01:07:01.9440000+00:00</time>
      </trkpt>
      <trkpt lat="51.27307" lon="8.59737">
        <ele>806.91</ele>
        <time>2026-08-11T01:07:23.1510000+00:00</time>
      </trkpt>
      <trkpt lat="51.2732" lon="8.59695">
        <ele>801.47</ele>
        <time>2026-08-11T01:08:02.2030000+00:00</time>
      </trkpt>
      <trkpt lat="51.27331" lon="8.59653">
        <ele>794.64</ele>
        <time>2026-08-11T01:08:40.1500000+00:00</time>
      </trkpt>
      <trkpt lat="51.27341" lon="8.59622">
        <ele>790.23</ele>
        <time>2026-08-11T01:09:09.2170000+00:00</time>
      </trkpt>
      <trkpt lat="51.27347" lon="8.59609">
        <ele>788.94</ele>
        <time>2026-08-11T01:09:22.6810000+00:00</time>
      </trkpt>
      <trkpt lat="51.27353" lon="8.596">
        <ele>788.39</ele>
        <time>2026-08-11T01:09:33.6420000+00:00</time>
      </trkpt>
      <trkpt lat="51.27364" lon="8.59589">
        <ele>788.24</ele>
        <time>2026-08-11T01:09:50.9260000+00:00</time>
      </trkpt>
      <trkpt lat="51.27381" lon="8.59576">
        <ele>788.48</ele>
        <time>2026-08-11T01:10:16.0310000+00:00</time>
      </trkpt>
      <trkpt lat="51.27406" lon="8.59546">
        <ele>786.32</ele>
        <time>2026-08-11T01:10:57.6740000+00:00</time>
      </trkpt>
      <trkpt lat="51.27424" lon="8.59515">
        <ele>784.6</ele>
        <time>2026-08-11T01:11:32.9220000+00:00</time>
      </trkpt>
      <trkpt lat="51.27448" lon="8.59466">
        <ele>782.14</ele>
        <time>2026-08-11T01:12:24.7840000+00:00</time>
      </trkpt>
      <trkpt lat="51.27472" lon="8.59391">
        <ele>776.2</ele>
        <time>2026-08-11T01:13:34.9890000+00:00</time>
      </trkpt>
      <trkpt lat="51.27478" lon="8.59378">
        <ele>775.72</ele>
        <time>2026-08-11T01:13:48.4520000+00:00</time>
      </trkpt>
      <trkpt lat="51.27503" lon="8.59337">
        <ele>773.93</ele>
        <time>2026-08-11T01:14:36.1660000+00:00</time>
      </trkpt>
      <trkpt lat="51.27513" lon="8.59316">
        <ele>772.65</ele>
        <time>2026-08-11T01:14:58.1600000+00:00</time>
      </trkpt>
      <trkpt lat="51.27538" lon="8.59236">
        <ele>766.1</ele>
        <time>2026-08-11T01:16:12.6840000+00:00</time>
      </trkpt>
      <trkpt lat="51.2755" lon="8.592">
        <ele>763.52</ele>
        <time>2026-08-11T01:16:46.6780000+00:00</time>
      </trkpt>
      <trkpt lat="51.27567" lon="8.59161">
        <ele>760.41</ele>
        <time>2026-08-11T01:17:26.2910000+00:00</time>
      </trkpt>
      <trkpt lat="51.27582" lon="8.59135">
        <ele>758.24</ele>
        <time>2026-08-11T01:17:55.7650000+00:00</time>
      </trkpt>
      <trkpt lat="51.27605" lon="8.59103">
        <ele>755.57</ele>
        <time>2026-08-11T01:18:36.3840000+00:00</time>
      </trkpt>
      <trkpt lat="51.27679" lon="8.5902">
        <ele>748.13</ele>
        <time>2026-08-11T01:20:36.8080000+00:00</time>
      </trkpt>
      <trkpt lat="51.27695" lon="8.59002">
        <ele>745.59</ele>
        <time>2026-08-11T01:21:02.8710000+00:00</time>
      </trkpt>
      <trkpt lat="51.27721" lon="8.58978">
        <ele>742.48</ele>
        <time>2026-08-11T01:21:42.8660000+00:00</time>
      </trkpt>
      <trkpt lat="51.27765" lon="8.58948">
        <ele>737.91</ele>
        <time>2026-08-11T01:22:46.5890000+00:00</time>
      </trkpt>
      <trkpt lat="51.27804" lon="8.58924">
        <ele>732.96</ele>
        <time>2026-08-11T01:23:42.2590000+00:00</time>
      </trkpt>
      <trkpt lat="51.2782" lon="8.58917">
        <ele>730.24</ele>
        <time>2026-08-11T01:24:04.3570000+00:00</time>
      </trkpt>
      <trkpt lat="51.27831" lon="8.58915">
        <ele>728.72</ele>
        <time>2026-08-11T01:24:19.1050000+00:00</time>
      </trkpt>
      <trkpt lat="51.27855" lon="8.58917">
        <ele>727.46</ele>
        <time>2026-08-11T01:24:51.1200000+00:00</time>
      </trkpt>
      <trkpt lat="51.27888" lon="8.58927">
        <ele>727.98</ele>
        <time>2026-08-11T01:25:35.8630000+00:00</time>
      </trkpt>
      <trkpt lat="51.2791" lon="8.58929">
        <ele>727.37</ele>
        <time>2026-08-11T01:26:05.2180000+00:00</time>
      </trkpt>
      <trkpt lat="51.2793" lon="8.58923">
        <ele>724.54</ele>
        <time>2026-08-11T01:26:32.3260000+00:00</time>
      </trkpt>
      <trkpt lat="51.27962" lon="8.58903">
        <ele>716.76</ele>
        <time>2026-08-11T01:27:18.0960000+00:00</time>
      </trkpt>
      <trkpt lat="51.28038" lon="8.58861">
        <ele>703.26</ele>
        <time>2026-08-11T01:29:05.2170000+00:00</time>
      </trkpt>
      <trkpt lat="51.28055" lon="8.58868">
        <ele>705.1</ele>
        <time>2026-08-11T01:29:28.6020000+00:00</time>
      </trkpt>
      <trkpt lat="51.28084" lon="8.58872">
        <ele>706.65</ele>
        <time>2026-08-11T01:30:07.3780000+00:00</time>
      </trkpt>
      <trkpt lat="51.28106" lon="8.58883">
        <ele>709.56</ele>
        <time>2026-08-11T01:30:38.0850000+00:00</time>
      </trkpt>
      <trkpt lat="51.28127" lon="8.589">
        <ele>713.29</ele>
        <time>2026-08-11T01:31:09.4420000+00:00</time>
      </trkpt>
      <trkpt lat="51.28136" lon="8.58905">
        <ele>714.24</ele>
        <time>2026-08-11T01:31:22.1350000+00:00</time>
      </trkpt>
      <trkpt lat="51.28142" lon="8.58905">
        <ele>714.19</ele>
        <time>2026-08-11T01:31:30.1280000+00:00</time>
      </trkpt>
      <trkpt lat="51.28149" lon="8.589">
        <ele>713.67</ele>
        <time>2026-08-11T01:31:40.3410000+00:00</time>
      </trkpt>
      <trkpt lat="51.28184" lon="8.5887">
        <ele>710.41</ele>
        <time>2026-08-11T01:32:33.2450000+00:00</time>
      </trkpt>
      <trkpt lat="51.28214" lon="8.58858">
        <ele>709.45</ele>
        <time>2026-08-11T01:33:14.4410000+00:00</time>
      </trkpt>
      <trkpt lat="51.28237" lon="8.58856">
        <ele>708.91</ele>
        <time>2026-08-11T01:33:45.1260000+00:00</time>
      </trkpt>
      <trkpt lat="51.28261" lon="8.58854">
        <ele>706.4</ele>
        <time>2026-08-11T01:34:17.1400000+00:00</time>
      </trkpt>
      <trkpt lat="51.28286" lon="8.58865">
        <ele>706.72</ele>
        <time>2026-08-11T01:34:51.6820000+00:00</time>
      </trkpt>
      <trkpt lat="51.28304" lon="8.58875">
        <ele>706.81</ele>
        <time>2026-08-11T01:35:17.0670000+00:00</time>
      </trkpt>
      <trkpt lat="51.28328" lon="8.5889">
        <ele>705.08</ele>
        <time>2026-08-11T01:35:51.3940000+00:00</time>
      </trkpt>
      <trkpt lat="51.28341" lon="8.58902">
        <ele>704.31</ele>
        <time>2026-08-11T01:36:11.3910000+00:00</time>
      </trkpt>
      <trkpt lat="51.28357" lon="8.58922">
        <ele>703.95</ele>
        <time>2026-08-11T01:36:38.4470000+00:00</time>
      </trkpt>
      <trkpt lat="51.2836" lon="8.58918">
        <ele>702.72</ele>
        <time>2026-08-11T01:36:43.6500000+00:00</time>
      </trkpt>
      <trkpt lat="51.2837" lon="8.5891">
        <ele>699.44</ele>
        <time>2026-08-11T01:36:58.5460000+00:00</time>
      </trkpt>
      <trkpt lat="51.284" lon="8.58884">
        <ele>690.38</ele>
        <time>2026-08-11T01:37:44.0040000+00:00</time>
      </trkpt>
      <trkpt lat="51.28409" lon="8.58871">
        <ele>687.7</ele>
        <time>2026-08-11T01:38:00.1620000+00:00</time>
      </trkpt>
      <trkpt lat="51.28418" lon="8.58854">
        <ele>685.25</ele>
        <time>2026-08-11T01:38:18.7190000+00:00</time>
      </trkpt>
      <trkpt lat="51.28427" lon="8.58845">
        <ele>683.65</ele>
        <time>2026-08-11T01:38:32.8600000+00:00</time>
      </trkpt>
      <trkpt lat="51.28441" lon="8.58836">
        <ele>681.59</ele>
        <time>2026-08-11T01:38:52.9610000+00:00</time>
      </trkpt>
      <trkpt lat="51.2845" lon="8.58826">
        <ele>680.03</ele>
        <time>2026-08-11T01:39:07.5610000+00:00</time>
      </trkpt>
      <trkpt lat="51.28462" lon="8.58811">
        <ele>677.91</ele>
        <time>2026-08-11T01:39:27.8520000+00:00</time>
      </trkpt>
      <trkpt lat="51.28469" lon="8.58808">
        <ele>677.08</ele>
        <time>2026-08-11T01:39:37.5050000+00:00</time>
      </trkpt>
      <trkpt lat="51.28485" lon="8.58801">
        <ele>673.65</ele>
        <time>2026-08-11T01:39:59.6030000+00:00</time>
      </trkpt>
      <trkpt lat="51.28503" lon="8.58789">
        <ele>667.72</ele>
        <time>2026-08-11T01:40:25.5820000+00:00</time>
      </trkpt>
      <trkpt lat="51.28521" lon="8.58773">
        <ele>661.85</ele>
        <time>2026-08-11T01:40:53.0180000+00:00</time>
      </trkpt>
      <trkpt lat="51.28531" lon="8.58768">
        <ele>658.96</ele>
        <time>2026-08-11T01:41:06.9750000+00:00</time>
      </trkpt>
      <trkpt lat="51.28544" lon="8.58767">
        <ele>655.32</ele>
        <time>2026-08-11T01:41:24.3130000+00:00</time>
      </trkpt>
      <trkpt lat="51.28553" lon="8.58764">
        <ele>652.81</ele>
        <time>2026-08-11T01:41:36.5600000+00:00</time>
      </trkpt>
      <trkpt lat="51.28561" lon="8.58746">
        <ele>650.58</ele>
        <time>2026-08-11T01:41:54.9580000+00:00</time>
      </trkpt>
      <trkpt lat="51.28574" lon="8.58726">
        <ele>646.76</ele>
        <time>2026-08-11T01:42:18.9910000+00:00</time>
      </trkpt>
      <trkpt lat="51.28597" lon="8.58696">
        <ele>639.62</ele>
        <time>2026-08-11T01:42:58.5320000+00:00</time>
      </trkpt>
      <trkpt lat="51.28603" lon="8.58693">
        <ele>637.76</ele>
        <time>2026-08-11T01:43:06.9070000+00:00</time>
      </trkpt>
      <trkpt lat="51.28637" lon="8.58681">
        <ele>627.67</ele>
        <time>2026-08-11T01:43:53.2900000+00:00</time>
      </trkpt>
      <trkpt lat="51.2865" lon="8.58679">
        <ele>623.86</ele>
        <time>2026-08-11T01:44:10.6880000+00:00</time>
      </trkpt>
      <trkpt lat="51.2866" lon="8.58679">
        <ele>620.88</ele>
        <time>2026-08-11T01:44:24.0090000+00:00</time>
      </trkpt>
      <trkpt lat="51.28678" lon="8.58683">
        <ele>615.58</ele>
        <time>2026-08-11T01:44:48.2170000+00:00</time>
      </trkpt>
      <trkpt lat="51.28693" lon="8.58697">
        <ele>611.44</ele>
        <time>2026-08-11T01:45:11.3540000+00:00</time>
      </trkpt>
      <trkpt lat="51.28707" lon="8.58734">
        <ele>609.2</ele>
        <time>2026-08-11T01:45:47.3840000+00:00</time>
      </trkpt>
      <trkpt lat="51.28706" lon="8.58711">
        <ele>608.29</ele>
        <time>2026-08-11T01:46:06.5920000+00:00</time>
      </trkpt>
      <trkpt lat="51.28701" lon="8.58677">
        <ele>608.62</ele>
        <time>2026-08-11T01:46:35.6920000+00:00</time>
      </trkpt>
      <trkpt lat="51.28691" lon="8.58646">
        <ele>610.96</ele>
        <time>2026-08-11T01:47:04.7520000+00:00</time>
      </trkpt>
      <trkpt lat="51.28682" lon="8.58632">
        <ele>613.53</ele>
        <time>2026-08-11T01:47:21.4790000+00:00</time>
      </trkpt>
      <trkpt lat="51.28664" lon="8.58609">
        <ele>618.23</ele>
        <time>2026-08-11T01:47:52.1740000+00:00</time>
      </trkpt>
      <trkpt lat="51.28616" lon="8.58564">
        <ele>624.17</ele>
        <time>2026-08-11T01:49:06.2980000+00:00</time>
      </trkpt>
      <trkpt lat="51.28608" lon="8.5856">
        <ele>625.28</ele>
        <time>2026-08-11T01:49:17.4640000+00:00</time>
      </trkpt>
      <trkpt lat="51.28616" lon="8.58564">
        <ele>624.17</ele>
        <time>2026-08-11T01:49:28.6310000+00:00</time>
      </trkpt>
      <trkpt lat="51.28664" lon="8.58609">
        <ele>618.23</ele>
        <time>2026-08-11T01:50:42.7540000+00:00</time>
      </trkpt>
      <trkpt lat="51.28682" lon="8.58632">
        <ele>613.53</ele>
        <time>2026-08-11T01:51:13.4490000+00:00</time>
      </trkpt>
      <trkpt lat="51.28691" lon="8.58646">
        <ele>610.96</ele>
        <time>2026-08-11T01:51:30.1760000+00:00</time>
      </trkpt>
      <trkpt lat="51.28701" lon="8.58677">
        <ele>608.62</ele>
        <time>2026-08-11T01:51:59.2370000+00:00</time>
      </trkpt>
      <trkpt lat="51.28706" lon="8.58711">
        <ele>608.29</ele>
        <time>2026-08-11T01:52:28.3360000+00:00</time>
      </trkpt>
      <trkpt lat="51.28709" lon="8.58747">
        <ele>609.34</ele>
        <time>2026-08-11T01:52:58.5940000+00:00</time>
      </trkpt>
      <trkpt lat="51.28718" lon="8.58789">
        <ele>609.55</ele>
        <time>2026-08-11T01:53:35.5830000+00:00</time>
      </trkpt>
      <trkpt lat="51.28746" lon="8.5887">
        <ele>610.02</ele>
        <time>2026-08-11T01:54:52.6900000+00:00</time>
      </trkpt>
      <trkpt lat="51.28794" lon="8.58989">
        <ele>605.73</ele>
        <time>2026-08-11T01:56:50.6650000+00:00</time>
      </trkpt>
      <trkpt lat="51.28843" lon="8.59091">
        <ele>598.66</ele>
        <time>2026-08-11T01:58:37.8200000+00:00</time>
      </trkpt>
      <trkpt lat="51.2886" lon="8.5912">
        <ele>594.61</ele>
        <time>2026-08-11T01:59:10.9340000+00:00</time>
      </trkpt>
      <trkpt lat="51.28867" lon="8.59134">
        <ele>592.78</ele>
        <time>2026-08-11T01:59:25.8680000+00:00</time>
      </trkpt>
      <trkpt lat="51.28881" lon="8.59152">
        <ele>589.3</ele>
        <time>2026-08-11T01:59:49.7990000+00:00</time>
      </trkpt>
      <trkpt lat="51.28888" lon="8.59159">
        <ele>587.63</ele>
        <time>2026-08-11T02:00:00.7970000+00:00</time>
      </trkpt>
      <trkpt lat="51.2893" lon="8.59237">
        <ele>587.52</ele>
        <time>2026-08-11T02:01:26.5470000+00:00</time>
      </trkpt>
      <trkpt lat="51.28948" lon="8.59265">
        <ele>587.43</ele>
        <time>2026-08-11T02:02:00.0000000+00:00</time>
      </trkpt>
    </trkseg>
  </trk>
</gpx>