<?xml version="1.0" encoding="UTF-8" standalone="yes"?>
<gpx version="1.1" creator="outdooractive - http://www.outdooractive.com" xmlns="http://www.topografix.com/GPX/1/1" xmlns:oa="http://www.outdooractive.com/GPX/Extensions/1" xmlns:xsi="http://www.w3.org/2001/XMLSchema-instance" xsi:schemaLocation="http://www.topografix.com/GPX/1/1 http://www.topografix.com/GPX/1/1/gpx.xsd http://www.outdooractive.com/GPX/Extensions/1 https://www.outdooractive.com/schema/gpx_extensions.xsd">
  <metadata>
    <name>Lolo Wahle Ramp</name>
    <author>
      <name>Timo Sommer - Ferienwelt Winterberg</name>
    </author>
    <link href="https://www.outdooractive.com/r/807107477"/>
    <time>2026-06-22T14:22:09.019Z</time>
    <extensions>
      <oa:oaCategory>mountainbiking</oa:oaCategory>
    </extensions>
  </metadata>
  <trk>
    <name>Lolo Wahle Ramp</name>
    <desc>Established enduro trail with open curves and off-camber sections</desc>
    <type>mountainbiking</type>
    <trkseg>
      <trkpt lat="51.192791" lon="8.501396">
        <ele>758.25853</ele>
        <name>Endless Trees, Winterberg</name>
        <extensions>
          <oa:Extension>
            <oa:mapZoom>19</oa:mapZoom>
          </oa:Extension>
        </extensions>
      </trkpt>
      <trkpt lat="51.192735" lon="8.501535">
        <ele>758.53056</ele>
      </trkpt>
      <trkpt lat="51.192654" lon="8.501693">
        <ele>758.6751</ele>
      </trkpt>
      <trkpt lat="51.19232" lon="8.502433">
        <ele>759.43835</ele>
      </trkpt>
      <trkpt lat="51.192256" lon="8.502623">
        <ele>758.60835</ele>
      </trkpt>
      <trkpt lat="51.192318" lon="8.502785">
        <ele>757.19174</ele>
      </trkpt>
      <trkpt lat="51.192414" lon="8.502988">
        <ele>754.22408</ele>
      </trkpt>
      <trkpt lat="51.19249" lon="8.503158">
        <ele>751.65568</ele>
      </trkpt>
      <trkpt lat="51.192498" lon="8.503336">
        <ele>749.61712</ele>
      </trkpt>
      <trkpt lat="51.192507" lon="8.503474">
        <ele>748.44496</ele>
      </trkpt>
      <trkpt lat="51.192548" lon="8.503743">
        <ele>746.36854</ele>
      </trkpt>
      <trkpt lat="51.192555" lon="8.504003">
        <ele>744.10459</ele>
      </trkpt>
      <trkpt lat="51.19261" lon="8.504192">
        <ele>742.0903</ele>
      </trkpt>
      <trkpt lat="51.192737" lon="8.504302">
        <ele>738.03674</ele>
      </trkpt>
      <trkpt lat="51.192802" lon="8.504293">
        <ele>737.2437</ele>
      </trkpt>
      <trkpt lat="51.192963" lon="8.504337">
        <ele>734.05484</ele>
      </trkpt>
      <trkpt lat="51.193065" lon="8.504452">
        <ele>731.46995</ele>
      </trkpt>
      <trkpt lat="51.193077" lon="8.504612">
        <ele>729.64532</ele>
      </trkpt>
      <trkpt lat="51.193103" lon="8.504636">
        <ele>728.90305</ele>
      </trkpt>
      <trkpt lat="51.193327" lon="8.504625">
        <ele>724.97518</ele>
      </trkpt>
      <trkpt lat="51.193396" lon="8.504585">
        <ele>724.17535</ele>
      </trkpt>
      <trkpt lat="51.193504" lon="8.504546">
        <ele>722.45798</ele>
      </trkpt>
      <trkpt lat="51.193585" lon="8.504529">
        <ele>721.02592</ele>
      </trkpt>
      <trkpt lat="51.193634" lon="8.504507">
        <ele>720.44715</ele>
      </trkpt>
      <trkpt lat="51.19377" lon="8.504363">
        <ele>718.15063</ele>
      </trkpt>
      <trkpt lat="51.193859" lon="8.504195">
        <ele>717.53479</ele>
      </trkpt>
      <trkpt lat="51.193961" lon="8.504027">
        <ele>716.18811</ele>
      </trkpt>
      <trkpt lat="51.194057" lon="8.503856">
        <ele>714.921</ele>
      </trkpt>
      <trkpt lat="51.194097" lon="8.503795">
        <ele>714.43593</ele>
      </trkpt>
      <trkpt lat="51.194182" lon="8.50362">
        <ele>713.02384</ele>
      </trkpt>
      <trkpt lat="51.19421" lon="8.503588">
        <ele>712.09938</ele>
      </trkpt>
      <trkpt lat="51.194283" lon="8.503603">
        <ele>709.37441</ele>
      </trkpt>
      <trkpt lat="51.194314" lon="8.503651">
        <ele>707.8089</ele>
      </trkpt>
      <trkpt lat="51.19438" lon="8.503535">
        <ele>706.45135</ele>
      </trkpt>
      <trkpt lat="51.194447" lon="8.50357">
        <ele>704.15319</ele>
      </trkpt>
      <trkpt lat="51.194605" lon="8.503466">
        <ele>700.86349</ele>
      </trkpt>
      <trkpt lat="51.194684" lon="8.503543">
        <ele>698.48041</ele>
      </trkpt>
      <trkpt lat="51.194801" lon="8.503748">
        <ele>694.92251</ele>
      </trkpt>
      <trkpt lat="51.195043" lon="8.504331">
        <ele>688.34626</ele>
      </trkpt>
      <trkpt lat="51.195132" lon="8.504575">
        <ele>687.06246</ele>
      </trkpt>
      <trkpt lat="51.195293" lon="8.505183">
        <ele>685.93024</ele>
      </trkpt>
      <trkpt lat="51.195648" lon="8.506141">
        <ele>683.77644</ele>
      </trkpt>
      <trkpt lat="51.195777" lon="8.506451">
        <ele>682.79077</ele>
      </trkpt>
      <trkpt lat="51.195921" lon="8.506718">
        <ele>681.99513</ele>
      </trkpt>
      <trkpt lat="51.196027" lon="8.506867">
        <ele>681.14838</ele>
        <name>Talstation Büre Bremberg-Xpress, Winterberg</name>
        <extensions>
          <oa:Extension>
            <oa:mapZoom>18</oa:mapZoom>
          </oa:Extension>
        </extensions>
      </trkpt>
    </trkseg>
  </trk>
</gpx>