<?xml version='1.0' encoding='UTF-8'?>
<gpx version="1.1" creator="https://www.komoot.de" xmlns="http://www.topografix.com/GPX/1/1" xmlns:xsi="http://www.w3.org/2001/XMLSchema-instance" xsi:schemaLocation="http://www.topografix.com/GPX/1/1 http://www.topografix.com/GPX/1/1/gpx.xsd">
  <metadata>
    <name>Bartiges Bödele/Rettenbachtrail/Leiterbergtrail – Signature Trail in Sölden</name>
    <author>
      <link href="https://www.komoot.de">
        <text>komoot</text>
        <type>text/html</type>
      </link>
    </author>
  </metadata>
  <wpt lat="46.958798" lon="10.985458">
    <name>Bartigs Bödele-Trail (nicht mehr vorhanden)</name>
    <sym>Flag, Blue</sym>
  </wpt>
  <wpt lat="46.961010" lon="10.969163">
    <name>Rettenbachtrail (nicht mehr vorhanden)</name>
    <sym>Flag, Blue</sym>
  </wpt>
  <wpt lat="46.978327" lon="10.986371">
    <name>Oberer Abschnitt des Leiterbergtrails</name>
    <sym>Flag, Blue</sym>
  </wpt>
  <wpt lat="46.982017" lon="10.998960">
    <name>Maria's Alm</name>
    <sym>Fishing Hot Spot Facility</sym>
  </wpt>
  <wpt lat="46.984315" lon="11.002593">
    <name>Unterer Abschnitt des Leiterbergtrails</name>
    <sym>Flag, Blue</sym>
  </wpt>
  <trk>
    <name>Bartiges Bödele/Rettenbachtrail/Leiterbergtrail – Signature Trail in Sölden</name>
    <type>mtb</type>
    <trkseg>
      <trkpt lat="46.951823" lon="10.986724">
        <ele>2165.458488</ele>
        <time>2018-01-15T10:21:10.000Z</time>
      </trkpt>
      <trkpt lat="46.951809" lon="10.986730">
        <ele>2165.458488</ele>
        <time>2018-01-15T10:21:11.733Z</time>
      </trkpt>
      <trkpt lat="46.951864" lon="10.986874">
        <ele>2165.332060</ele>
        <time>2018-01-15T10:21:13.990Z</time>
      </trkpt>
      <trkpt lat="46.952001" lon="10.987040">
        <ele>2163.814221</ele>
        <time>2018-01-15T10:21:18.082Z</time>
      </trkpt>
      <trkpt lat="46.952399" lon="10.986941">
        <ele>2159.960928</ele>
        <time>2018-01-15T10:21:26.826Z</time>
      </trkpt>
      <trkpt lat="46.952378" lon="10.987020">
        <ele>2159.386398</ele>
        <time>2018-01-15T10:21:28.112Z</time>
      </trkpt>
      <trkpt lat="46.952183" lon="10.987141">
        <ele>2156.957537</ele>
        <time>2018-01-15T10:21:32.521Z</time>
      </trkpt>
      <trkpt lat="46.952218" lon="10.987213">
        <ele>2156.255329</ele>
        <time>2018-01-15T10:21:33.835Z</time>
      </trkpt>
      <trkpt lat="46.952485" lon="10.987100">
        <ele>2153.019492</ele>
        <time>2018-01-15T10:21:39.635Z</time>
      </trkpt>
      <trkpt lat="46.953518" lon="10.987079">
        <ele>2141.061805</ele>
        <time>2018-01-15T10:22:01.349Z</time>
      </trkpt>
      <trkpt lat="46.954067" lon="10.986944">
        <ele>2135.581330</ele>
        <time>2018-01-15T10:22:13.341Z</time>
      </trkpt>
      <trkpt lat="46.954273" lon="10.986894">
        <ele>2133.539306</ele>
        <time>2018-01-15T10:22:17.825Z</time>
      </trkpt>
      <trkpt lat="46.954339" lon="10.986889">
        <ele>2132.905158</ele>
        <time>2018-01-15T10:22:19.264Z</time>
      </trkpt>
      <trkpt lat="46.954361" lon="10.986944">
        <ele>2132.487628</ele>
        <time>2018-01-15T10:22:20.222Z</time>
      </trkpt>
      <trkpt lat="46.954197" lon="10.987069">
        <ele>2130.642880</ele>
        <time>2018-01-15T10:22:24.214Z</time>
      </trkpt>
      <trkpt lat="46.954254" lon="10.987160">
        <ele>2129.808468</ele>
        <time>2018-01-15T10:22:26.014Z</time>
      </trkpt>
      <trkpt lat="46.955242" lon="10.986954">
        <ele>2121.716870</ele>
        <time>2018-01-15T10:22:48.084Z</time>
      </trkpt>
      <trkpt lat="46.955736" lon="10.986973">
        <ele>2119.109606</ele>
        <time>2018-01-15T10:23:00.173Z</time>
      </trkpt>
      <trkpt lat="46.955860" lon="10.986931">
        <ele>2118.491305</ele>
        <time>2018-01-15T10:23:03.159Z</time>
      </trkpt>
      <trkpt lat="46.955894" lon="10.986931">
        <ele>2118.334620</ele>
        <time>2018-01-15T10:23:03.981Z</time>
      </trkpt>
      <trkpt lat="46.956093" lon="10.986928">
        <ele>2117.432126</ele>
        <time>2018-01-15T10:23:08.999Z</time>
      </trkpt>
      <trkpt lat="46.956200" lon="10.986866">
        <ele>2116.928628</ele>
        <time>2018-01-15T10:23:11.714Z</time>
      </trkpt>
      <trkpt lat="46.956331" lon="10.986713">
        <ele>2116.239740</ele>
        <time>2018-01-15T10:23:16.160Z</time>
      </trkpt>
      <trkpt lat="46.956383" lon="10.986653">
        <ele>2115.974356</ele>
        <time>2018-01-15T10:23:17.721Z</time>
      </trkpt>
      <trkpt lat="46.956799" lon="10.986446">
        <ele>2113.842177</ele>
        <time>2018-01-15T10:23:28.281Z</time>
      </trkpt>
      <trkpt lat="46.956880" lon="10.986335">
        <ele>2113.461214</ele>
        <time>2018-01-15T10:23:31.030Z</time>
      </trkpt>
      <trkpt lat="46.956899" lon="10.986215">
        <ele>2113.259065</ele>
        <time>2018-01-15T10:23:33.691Z</time>
      </trkpt>
      <trkpt lat="46.957357" lon="10.986250">
        <ele>2112.115746</ele>
        <time>2018-01-15T10:23:45.730Z</time>
      </trkpt>
      <trkpt lat="46.957716" lon="10.986250">
        <ele>2111.844974</ele>
        <time>2018-01-15T10:23:56.438Z</time>
      </trkpt>
      <trkpt lat="46.957941" lon="10.986132">
        <ele>2111.684668</ele>
        <time>2018-01-15T10:24:04.547Z</time>
      </trkpt>
      <trkpt lat="46.958059" lon="10.986062">
        <ele>2111.411619</ele>
        <time>2018-01-15T10:24:07.665Z</time>
      </trkpt>
      <trkpt lat="46.958230" lon="10.985959">
        <ele>2111.240401</ele>
        <time>2018-01-15T10:24:13.327Z</time>
      </trkpt>
      <trkpt lat="46.958291" lon="10.985926">
        <ele>2111.179500</ele>
        <time>2018-01-15T10:24:15.743Z</time>
      </trkpt>
      <trkpt lat="46.958474" lon="10.985686">
        <ele>2110.645425</ele>
        <time>2018-01-15T10:24:22.122Z</time>
      </trkpt>
      <trkpt lat="46.958790" lon="10.985431">
        <ele>2110.053318</ele>
        <time>2018-01-15T10:24:32.262Z</time>
      </trkpt>
      <trkpt lat="46.958798" lon="10.985432">
        <ele>2110.042580</ele>
        <time>2018-01-15T10:24:32.681Z</time>
      </trkpt>
      <trkpt lat="46.959115" lon="10.985443">
        <ele>2109.840260</ele>
        <time>2018-01-15T10:24:42.300Z</time>
      </trkpt>
      <trkpt lat="46.959400" lon="10.985268">
        <ele>2110.004817</ele>
        <time>2018-01-15T10:24:52.290Z</time>
      </trkpt>
      <trkpt lat="46.959468" lon="10.985119">
        <ele>2110.147312</ele>
        <time>2018-01-15T10:24:57.632Z</time>
      </trkpt>
      <trkpt lat="46.960850" lon="10.984308">
        <ele>2111.670166</ele>
        <time>2018-01-15T10:25:53.288Z</time>
      </trkpt>
      <trkpt lat="46.961459" lon="10.983598">
        <ele>2110.556156</ele>
        <time>2018-01-15T10:26:15.216Z</time>
      </trkpt>
      <trkpt lat="46.961638" lon="10.983608">
        <ele>2110.147210</ele>
        <time>2018-01-15T10:26:19.854Z</time>
      </trkpt>
      <trkpt lat="46.961789" lon="10.983499">
        <ele>2109.608943</ele>
        <time>2018-01-15T10:26:24.765Z</time>
      </trkpt>
      <trkpt lat="46.961819" lon="10.983498">
        <ele>2109.511884</ele>
        <time>2018-01-15T10:26:25.408Z</time>
      </trkpt>
      <trkpt lat="46.961837" lon="10.983473">
        <ele>2109.431664</ele>
        <time>2018-01-15T10:26:25.942Z</time>
      </trkpt>
      <trkpt lat="46.962079" lon="10.982262">
        <ele>2106.644170</ele>
        <time>2018-01-15T10:26:48.340Z</time>
      </trkpt>
      <trkpt lat="46.962099" lon="10.981955">
        <ele>2105.885452</ele>
        <time>2018-01-15T10:26:53.555Z</time>
      </trkpt>
      <trkpt lat="46.962050" lon="10.981604">
        <ele>2105.157360</ele>
        <time>2018-01-15T10:27:00.125Z</time>
      </trkpt>
      <trkpt lat="46.962234" lon="10.981131">
        <ele>2104.054670</ele>
        <time>2018-01-15T10:27:09.633Z</time>
      </trkpt>
      <trkpt lat="46.962388" lon="10.980237">
        <ele>2102.940630</ele>
        <time>2018-01-15T10:27:27.373Z</time>
      </trkpt>
      <trkpt lat="46.962383" lon="10.979655">
        <ele>2102.597401</ele>
        <time>2018-01-15T10:27:39.159Z</time>
      </trkpt>
      <trkpt lat="46.962306" lon="10.978968">
        <ele>2102.203307</ele>
        <time>2018-01-15T10:27:53.349Z</time>
      </trkpt>
      <trkpt lat="46.962222" lon="10.978605">
        <ele>2102.009922</ele>
        <time>2018-01-15T10:28:01.042Z</time>
      </trkpt>
      <trkpt lat="46.962236" lon="10.977882">
        <ele>2101.665940</ele>
        <time>2018-01-15T10:28:15.957Z</time>
      </trkpt>
      <trkpt lat="46.962149" lon="10.977417">
        <ele>2101.292058</ele>
        <time>2018-01-15T10:28:25.488Z</time>
      </trkpt>
      <trkpt lat="46.962159" lon="10.977340">
        <ele>2101.222466</ele>
        <time>2018-01-15T10:28:27.351Z</time>
      </trkpt>
      <trkpt lat="46.962153" lon="10.977293">
        <ele>2101.179800</ele>
        <time>2018-01-15T10:28:28.118Z</time>
      </trkpt>
      <trkpt lat="46.962173" lon="10.977176">
        <ele>2101.072177</ele>
        <time>2018-01-15T10:28:30.465Z</time>
      </trkpt>
      <trkpt lat="46.962005" lon="10.975382">
        <ele>2100.843935</ele>
        <time>2018-01-15T10:29:09.140Z</time>
      </trkpt>
      <trkpt lat="46.961824" lon="10.974439">
        <ele>2102.490088</ele>
        <time>2018-01-15T10:29:38.662Z</time>
      </trkpt>
      <trkpt lat="46.961518" lon="10.973989">
        <ele>2104.463457</ele>
        <time>2018-01-15T10:29:57.613Z</time>
      </trkpt>
      <trkpt lat="46.961326" lon="10.973532">
        <ele>2106.688493</ele>
        <time>2018-01-15T10:30:16.637Z</time>
      </trkpt>
      <trkpt lat="46.961230" lon="10.973305">
        <ele>2107.873570</ele>
        <time>2018-01-15T10:30:25.682Z</time>
      </trkpt>
      <trkpt lat="46.960975" lon="10.971985">
        <ele>2114.620635</ele>
        <time>2018-01-15T10:31:19.045Z</time>
      </trkpt>
      <trkpt lat="46.960891" lon="10.971543">
        <ele>2116.468246</ele>
        <time>2018-01-15T10:31:34.472Z</time>
      </trkpt>
      <trkpt lat="46.960862" lon="10.971333">
        <ele>2117.219786</ele>
        <time>2018-01-15T10:31:41.197Z</time>
      </trkpt>
      <trkpt lat="46.960861" lon="10.971309">
        <ele>2117.304127</ele>
        <time>2018-01-15T10:31:42.008Z</time>
      </trkpt>
      <trkpt lat="46.960843" lon="10.970920">
        <ele>2118.692436</ele>
        <time>2018-01-15T10:31:54.213Z</time>
      </trkpt>
      <trkpt lat="46.960805" lon="10.970604">
        <ele>2119.779341</ele>
        <time>2018-01-15T10:32:04.008Z</time>
      </trkpt>
      <trkpt lat="46.960460" lon="10.969635">
        <ele>2122.940901</ele>
        <time>2018-01-15T10:32:35.228Z</time>
      </trkpt>
      <trkpt lat="46.960304" lon="10.968836">
        <ele>2124.948731</ele>
        <time>2018-01-15T10:32:56.303Z</time>
      </trkpt>
      <trkpt lat="46.960177" lon="10.968423">
        <ele>2126.298860</ele>
        <time>2018-01-15T10:33:09.708Z</time>
      </trkpt>
      <trkpt lat="46.959925" lon="10.967968">
        <ele>2128.127456</ele>
        <time>2018-01-15T10:33:26.674Z</time>
      </trkpt>
      <trkpt lat="46.959762" lon="10.967713">
        <ele>2129.355893</ele>
        <time>2018-01-15T10:33:37.961Z</time>
      </trkpt>
      <trkpt lat="46.959573" lon="10.967485">
        <ele>2130.414749</ele>
        <time>2018-01-15T10:33:48.111Z</time>
      </trkpt>
      <trkpt lat="46.959480" lon="10.967259">
        <ele>2131.204185</ele>
        <time>2018-01-15T10:33:55.662Z</time>
      </trkpt>
      <trkpt lat="46.959478" lon="10.967243">
        <ele>2131.252843</ele>
        <time>2018-01-15T10:33:57.079Z</time>
      </trkpt>
      <trkpt lat="46.959480" lon="10.967259">
        <ele>2131.299873</ele>
        <time>2018-01-15T10:33:57.209Z</time>
      </trkpt>
      <trkpt lat="46.959619" lon="10.967298">
        <ele>2131.895445</ele>
        <time>2018-01-15T10:34:04.859Z</time>
      </trkpt>
      <trkpt lat="46.959706" lon="10.967319">
        <ele>2132.256570</ele>
        <time>2018-01-15T10:34:09.671Z</time>
      </trkpt>
      <trkpt lat="46.959862" lon="10.967365">
        <ele>2132.814938</ele>
        <time>2018-01-15T10:34:17.080Z</time>
      </trkpt>
      <trkpt lat="46.959966" lon="10.967391">
        <ele>2133.157986</ele>
        <time>2018-01-15T10:34:22.387Z</time>
      </trkpt>
      <trkpt lat="46.960094" lon="10.967395">
        <ele>2133.542844</ele>
        <time>2018-01-15T10:34:28.680Z</time>
      </trkpt>
      <trkpt lat="46.960134" lon="10.967418">
        <ele>2133.671727</ele>
        <time>2018-01-15T10:34:30.428Z</time>
      </trkpt>
      <trkpt lat="46.960177" lon="10.967462">
        <ele>2133.737889</ele>
        <time>2018-01-15T10:34:32.540Z</time>
      </trkpt>
      <trkpt lat="46.960349" lon="10.967655">
        <ele>2133.972115</ele>
        <time>2018-01-15T10:34:40.525Z</time>
      </trkpt>
      <trkpt lat="46.960492" lon="10.967828">
        <ele>2134.034212</ele>
        <time>2018-01-15T10:34:46.875Z</time>
      </trkpt>
      <trkpt lat="46.960828" lon="10.968453">
        <ele>2133.169210</ele>
        <time>2018-01-15T10:35:02.195Z</time>
      </trkpt>
      <trkpt lat="46.960846" lon="10.968660">
        <ele>2132.862587</ele>
        <time>2018-01-15T10:35:06.079Z</time>
      </trkpt>
      <trkpt lat="46.960854" lon="10.968683">
        <ele>2132.799053</ele>
        <time>2018-01-15T10:35:06.525Z</time>
      </trkpt>
      <trkpt lat="46.961007" lon="10.969165">
        <ele>2131.283745</ele>
        <time>2018-01-15T10:35:15.624Z</time>
      </trkpt>
      <trkpt lat="46.961043" lon="10.969278">
        <ele>2130.841642</ele>
        <time>2018-01-15T10:35:17.535Z</time>
      </trkpt>
      <trkpt lat="46.961072" lon="10.969552">
        <ele>2129.737790</ele>
        <time>2018-01-15T10:35:22.075Z</time>
      </trkpt>
      <trkpt lat="46.961442" lon="10.970626">
        <ele>2123.622510</ele>
        <time>2018-01-15T10:35:40.658Z</time>
      </trkpt>
      <trkpt lat="46.961554" lon="10.970763">
        <ele>2122.418294</ele>
        <time>2018-01-15T10:35:43.844Z</time>
      </trkpt>
      <trkpt lat="46.961665" lon="10.971029">
        <ele>2120.571288</ele>
        <time>2018-01-15T10:35:48.545Z</time>
      </trkpt>
      <trkpt lat="46.961688" lon="10.971247">
        <ele>2119.234031</ele>
        <time>2018-01-15T10:35:51.828Z</time>
      </trkpt>
      <trkpt lat="46.962093" lon="10.972483">
        <ele>2111.518580</ele>
        <time>2018-01-15T10:36:12.663Z</time>
      </trkpt>
      <trkpt lat="46.962467" lon="10.972831">
        <ele>2108.087435</ele>
        <time>2018-01-15T10:36:22.589Z</time>
      </trkpt>
      <trkpt lat="46.962769" lon="10.972993">
        <ele>2105.525052</ele>
        <time>2018-01-15T10:36:29.779Z</time>
      </trkpt>
      <trkpt lat="46.962782" lon="10.973300">
        <ele>2103.833960</ele>
        <time>2018-01-15T10:36:34.485Z</time>
      </trkpt>
      <trkpt lat="46.962836" lon="10.973417">
        <ele>2103.030031</ele>
        <time>2018-01-15T10:36:36.586Z</time>
      </trkpt>
      <trkpt lat="46.963057" lon="10.973546">
        <ele>2101.054047</ele>
        <time>2018-01-15T10:36:41.885Z</time>
      </trkpt>
      <trkpt lat="46.963135" lon="10.973772">
        <ele>2099.568587</ele>
        <time>2018-01-15T10:36:45.665Z</time>
      </trkpt>
      <trkpt lat="46.963283" lon="10.973920">
        <ele>2098.021999</ele>
        <time>2018-01-15T10:36:49.657Z</time>
      </trkpt>
      <trkpt lat="46.963381" lon="10.974272">
        <ele>2095.726518</ele>
        <time>2018-01-15T10:36:55.351Z</time>
      </trkpt>
      <trkpt lat="46.963616" lon="10.974443">
        <ele>2093.421895</ele>
        <time>2018-01-15T10:37:01.103Z</time>
      </trkpt>
      <trkpt lat="46.963718" lon="10.974640">
        <ele>2091.957354</ele>
        <time>2018-01-15T10:37:04.834Z</time>
      </trkpt>
      <trkpt lat="46.963724" lon="10.974788">
        <ele>2091.077707</ele>
        <time>2018-01-15T10:37:07.048Z</time>
      </trkpt>
      <trkpt lat="46.963822" lon="10.974926">
        <ele>2089.813436</ele>
        <time>2018-01-15T10:37:09.994Z</time>
      </trkpt>
      <trkpt lat="46.963941" lon="10.975439">
        <ele>2086.409499</ele>
        <time>2018-01-15T10:37:18.070Z</time>
      </trkpt>
      <trkpt lat="46.964349" lon="10.976189">
        <ele>2080.537961</ele>
        <time>2018-01-15T10:37:32.416Z</time>
      </trkpt>
      <trkpt lat="46.964383" lon="10.976439">
        <ele>2079.105751</ele>
        <time>2018-01-15T10:37:36.279Z</time>
      </trkpt>
      <trkpt lat="46.964670" lon="10.977126">
        <ele>2074.769127</ele>
        <time>2018-01-15T10:37:48.561Z</time>
      </trkpt>
      <trkpt lat="46.964824" lon="10.977364">
        <ele>2073.217175</ele>
        <time>2018-01-15T10:37:53.688Z</time>
      </trkpt>
      <trkpt lat="46.965055" lon="10.978008">
        <ele>2070.078514</ele>
        <time>2018-01-15T10:38:05.201Z</time>
      </trkpt>
      <trkpt lat="46.965668" lon="10.978960">
        <ele>2065.673140</ele>
        <time>2018-01-15T10:38:26.766Z</time>
      </trkpt>
      <trkpt lat="46.966068" lon="10.979832">
        <ele>2064.176043</ele>
        <time>2018-01-15T10:38:46.502Z</time>
      </trkpt>
      <trkpt lat="46.966083" lon="10.979869">
        <ele>2064.132546</ele>
        <time>2018-01-15T10:38:47.169Z</time>
      </trkpt>
      <trkpt lat="46.966201" lon="10.980121">
        <ele>2064.401853</ele>
        <time>2018-01-15T10:38:56.082Z</time>
      </trkpt>
      <trkpt lat="46.966493" lon="10.980544">
        <ele>2065.135117</ele>
        <time>2018-01-15T10:39:13.287Z</time>
      </trkpt>
      <trkpt lat="46.966606" lon="10.980739">
        <ele>2065.611790</ele>
        <time>2018-01-15T10:39:19.512Z</time>
      </trkpt>
      <trkpt lat="46.966654" lon="10.980806">
        <ele>2065.881299</ele>
        <time>2018-01-15T10:39:24.964Z</time>
      </trkpt>
      <trkpt lat="46.966796" lon="10.980858">
        <ele>2066.463347</ele>
        <time>2018-01-15T10:39:31.883Z</time>
      </trkpt>
      <trkpt lat="46.966970" lon="10.981220">
        <ele>2067.660188</ele>
        <time>2018-01-15T10:39:48.023Z</time>
      </trkpt>
      <trkpt lat="46.967150" lon="10.981421">
        <ele>2068.702510</ele>
        <time>2018-01-15T10:39:58.927Z</time>
      </trkpt>
      <trkpt lat="46.967161" lon="10.981436">
        <ele>2068.775942</ele>
        <time>2018-01-15T10:40:01.101Z</time>
      </trkpt>
      <trkpt lat="46.967431" lon="10.981658">
        <ele>2070.533013</ele>
        <time>2018-01-15T10:40:18.880Z</time>
      </trkpt>
      <trkpt lat="46.967559" lon="10.981692">
        <ele>2071.531021</ele>
        <time>2018-01-15T10:40:28.863Z</time>
      </trkpt>
      <trkpt lat="46.967831" lon="10.981947">
        <ele>2073.817238</ele>
        <time>2018-01-15T10:40:50.233Z</time>
      </trkpt>
      <trkpt lat="46.968384" lon="10.982211">
        <ele>2077.923265</ele>
        <time>2018-01-15T10:41:29.724Z</time>
      </trkpt>
      <trkpt lat="46.969267" lon="10.982199">
        <ele>2083.033470</ele>
        <time>2018-01-15T10:42:22.838Z</time>
      </trkpt>
      <trkpt lat="46.969365" lon="10.982260">
        <ele>2083.632933</ele>
        <time>2018-01-15T10:42:29.680Z</time>
      </trkpt>
      <trkpt lat="46.969398" lon="10.982276">
        <ele>2083.801999</ele>
        <time>2018-01-15T10:42:31.855Z</time>
      </trkpt>
      <trkpt lat="46.969571" lon="10.982291">
        <ele>2084.650310</ele>
        <time>2018-01-15T10:42:40.992Z</time>
      </trkpt>
      <trkpt lat="46.969631" lon="10.982194">
        <ele>2085.131384</ele>
        <time>2018-01-15T10:42:46.202Z</time>
      </trkpt>
      <trkpt lat="46.969706" lon="10.982104">
        <ele>2085.653377</ele>
        <time>2018-01-15T10:42:52.177Z</time>
      </trkpt>
      <trkpt lat="46.970192" lon="10.981831">
        <ele>2088.101034</ele>
        <time>2018-01-15T10:43:20.528Z</time>
      </trkpt>
      <trkpt lat="46.970536" lon="10.981786">
        <ele>2089.699194</ele>
        <time>2018-01-15T10:43:39.701Z</time>
      </trkpt>
      <trkpt lat="46.970726" lon="10.981575">
        <ele>2090.783752</ele>
        <time>2018-01-15T10:43:53.069Z</time>
      </trkpt>
      <trkpt lat="46.970836" lon="10.981447">
        <ele>2091.328951</ele>
        <time>2018-01-15T10:44:00.112Z</time>
      </trkpt>
      <trkpt lat="46.971101" lon="10.981418">
        <ele>2092.196071</ele>
        <time>2018-01-15T10:44:12.567Z</time>
      </trkpt>
      <trkpt lat="46.971221" lon="10.981337">
        <ele>2092.569025</ele>
        <time>2018-01-15T10:44:18.903Z</time>
      </trkpt>
      <trkpt lat="46.971510" lon="10.980778">
        <ele>2093.652118</ele>
        <time>2018-01-15T10:44:39.679Z</time>
      </trkpt>
      <trkpt lat="46.971879" lon="10.980764">
        <ele>2094.103467</ele>
        <time>2018-01-15T10:44:53.755Z</time>
      </trkpt>
      <trkpt lat="46.972610" lon="10.979818">
        <ele>2092.474569</ele>
        <time>2018-01-15T10:45:21.139Z</time>
      </trkpt>
      <trkpt lat="46.972964" lon="10.979455">
        <ele>2090.726808</ele>
        <time>2018-01-15T10:45:31.833Z</time>
      </trkpt>
      <trkpt lat="46.973045" lon="10.979480">
        <ele>2090.284450</ele>
        <time>2018-01-15T10:45:33.820Z</time>
      </trkpt>
      <trkpt lat="46.973129" lon="10.979685">
        <ele>2089.404837</ele>
        <time>2018-01-15T10:45:37.697Z</time>
      </trkpt>
      <trkpt lat="46.973330" lon="10.980580">
        <ele>2085.936259</ele>
        <time>2018-01-15T10:45:53.017Z</time>
      </trkpt>
      <trkpt lat="46.973457" lon="10.981853">
        <ele>2081.865443</ele>
        <time>2018-01-15T10:46:14.416Z</time>
      </trkpt>
      <trkpt lat="46.973550" lon="10.981919">
        <ele>2081.574373</ele>
        <time>2018-01-15T10:46:17.199Z</time>
      </trkpt>
      <trkpt lat="46.973880" lon="10.981943">
        <ele>2080.890826</ele>
        <time>2018-01-15T10:46:26.174Z</time>
      </trkpt>
      <trkpt lat="46.973889" lon="10.981944">
        <ele>2080.884167</ele>
        <time>2018-01-15T10:46:26.523Z</time>
      </trkpt>
      <trkpt lat="46.974206" lon="10.981560">
        <ele>2080.608255</ele>
        <time>2018-01-15T10:46:38.911Z</time>
      </trkpt>
      <trkpt lat="46.974379" lon="10.981438">
        <ele>2080.526622</ele>
        <time>2018-01-15T10:46:44.714Z</time>
      </trkpt>
      <trkpt lat="46.974645" lon="10.981041">
        <ele>2080.516572</ele>
        <time>2018-01-15T10:46:56.910Z</time>
      </trkpt>
      <trkpt lat="46.974917" lon="10.980759">
        <ele>2080.411421</ele>
        <time>2018-01-15T10:47:07.974Z</time>
      </trkpt>
      <trkpt lat="46.975019" lon="10.980721">
        <ele>2080.707745</ele>
        <time>2018-01-15T10:47:10.437Z</time>
      </trkpt>
      <trkpt lat="46.975142" lon="10.980783">
        <ele>2081.210987</ele>
        <time>2018-01-15T10:47:22.324Z</time>
      </trkpt>
      <trkpt lat="46.975338" lon="10.981048">
        <ele>2081.734899</ele>
        <time>2018-01-15T10:47:31.332Z</time>
      </trkpt>
      <trkpt lat="46.975661" lon="10.981837">
        <ele>2083.512137</ele>
        <time>2018-01-15T10:48:02.462Z</time>
      </trkpt>
      <trkpt lat="46.975687" lon="10.981877">
        <ele>2083.564344</ele>
        <time>2018-01-15T10:48:03.185Z</time>
      </trkpt>
      <trkpt lat="46.975730" lon="10.981916">
        <ele>2083.614246</ele>
        <time>2018-01-15T10:48:08.001Z</time>
      </trkpt>
      <trkpt lat="46.976099" lon="10.981858">
        <ele>2084.230457</ele>
        <time>2018-01-15T10:48:21.850Z</time>
      </trkpt>
      <trkpt lat="46.976125" lon="10.981855">
        <ele>2084.161844</ele>
        <time>2018-01-15T10:48:25.665Z</time>
      </trkpt>
      <trkpt lat="46.976167" lon="10.981849">
        <ele>2083.940523</ele>
        <time>2018-01-15T10:48:27.081Z</time>
      </trkpt>
      <trkpt lat="46.976318" lon="10.981876">
        <ele>2083.142703</ele>
        <time>2018-01-15T10:48:30.372Z</time>
      </trkpt>
      <trkpt lat="46.976379" lon="10.981905">
        <ele>2082.793530</ele>
        <time>2018-01-15T10:48:31.733Z</time>
      </trkpt>
      <trkpt lat="46.976407" lon="10.981914">
        <ele>2082.635899</ele>
        <time>2018-01-15T10:48:32.356Z</time>
      </trkpt>
      <trkpt lat="46.976719" lon="10.981952">
        <ele>2081.310994</ele>
        <time>2018-01-15T10:48:40.426Z</time>
      </trkpt>
      <trkpt lat="46.976953" lon="10.981907">
        <ele>2080.152130</ele>
        <time>2018-01-15T10:48:46.572Z</time>
      </trkpt>
      <trkpt lat="46.977077" lon="10.981984">
        <ele>2079.418397</ele>
        <time>2018-01-15T10:48:49.367Z</time>
      </trkpt>
      <trkpt lat="46.977193" lon="10.982142">
        <ele>2078.505403</ele>
        <time>2018-01-15T10:48:54.946Z</time>
      </trkpt>
      <trkpt lat="46.977350" lon="10.982331">
        <ele>2076.909258</ele>
        <time>2018-01-15T10:48:57.354Z</time>
      </trkpt>
      <trkpt lat="46.977433" lon="10.982457">
        <ele>2075.574421</ele>
        <time>2018-01-15T10:48:59.034Z</time>
      </trkpt>
      <trkpt lat="46.977463" lon="10.982562">
        <ele>2074.706834</ele>
        <time>2018-01-15T10:48:59.933Z</time>
      </trkpt>
      <trkpt lat="46.977478" lon="10.982719">
        <ele>2072.958475</ele>
        <time>2018-01-15T10:49:01.131Z</time>
      </trkpt>
      <trkpt lat="46.977714" lon="10.983301">
        <ele>2065.176246</ele>
        <time>2018-01-15T10:49:06.391Z</time>
      </trkpt>
      <trkpt lat="46.977432" lon="10.984268">
        <ele>2051.510539</ele>
        <time>2018-01-15T10:49:14.401Z</time>
      </trkpt>
      <trkpt lat="46.977357" lon="10.984547">
        <ele>2047.199400</ele>
        <time>2018-01-15T10:49:16.667Z</time>
      </trkpt>
      <trkpt lat="46.977328" lon="10.984659">
        <ele>2045.412008</ele>
        <time>2018-01-15T10:49:17.581Z</time>
      </trkpt>
      <trkpt lat="46.977280" lon="10.984916">
        <ele>2042.626295</ele>
        <time>2018-01-15T10:49:19.728Z</time>
      </trkpt>
      <trkpt lat="46.977416" lon="10.985864">
        <ele>2031.998716</ele>
        <time>2018-01-15T10:49:27.220Z</time>
      </trkpt>
      <trkpt lat="46.977394" lon="10.986011">
        <ele>2030.227591</ele>
        <time>2018-01-15T10:49:28.428Z</time>
      </trkpt>
      <trkpt lat="46.977363" lon="10.986075">
        <ele>2029.089524</ele>
        <time>2018-01-15T10:49:29.025Z</time>
      </trkpt>
      <trkpt lat="46.977323" lon="10.986110">
        <ele>2028.099485</ele>
        <time>2018-01-15T10:49:29.569Z</time>
      </trkpt>
      <trkpt lat="46.976917" lon="10.986073">
        <ele>2022.462757</ele>
        <time>2018-01-15T10:49:34.275Z</time>
      </trkpt>
      <trkpt lat="46.976825" lon="10.986239">
        <ele>2021.424321</ele>
        <time>2018-01-15T10:49:36.565Z</time>
      </trkpt>
      <trkpt lat="46.976836" lon="10.986411">
        <ele>2020.186382</ele>
        <time>2018-01-15T10:49:37.946Z</time>
      </trkpt>
      <trkpt lat="46.976849" lon="10.986443">
        <ele>2019.917394</ele>
        <time>2018-01-15T10:49:38.265Z</time>
      </trkpt>
      <trkpt lat="46.976871" lon="10.986458">
        <ele>2019.660543</ele>
        <time>2018-01-15T10:49:39.957Z</time>
      </trkpt>
      <trkpt lat="46.976914" lon="10.986461">
        <ele>2019.204843</ele>
        <time>2018-01-15T10:49:42.314Z</time>
      </trkpt>
      <trkpt lat="46.976975" lon="10.986462">
        <ele>2018.852927</ele>
        <time>2018-01-15T10:49:43.705Z</time>
      </trkpt>
      <trkpt lat="46.977051" lon="10.986462">
        <ele>2018.556613</ele>
        <time>2018-01-15T10:49:45.465Z</time>
      </trkpt>
      <trkpt lat="46.977098" lon="10.986469">
        <ele>2018.372423</ele>
        <time>2018-01-15T10:49:46.435Z</time>
      </trkpt>
      <trkpt lat="46.977135" lon="10.986483">
        <ele>2018.223435</ele>
        <time>2018-01-15T10:49:47.096Z</time>
      </trkpt>
      <trkpt lat="46.977166" lon="10.986504">
        <ele>2018.022436</ele>
        <time>2018-01-15T10:49:47.617Z</time>
      </trkpt>
      <trkpt lat="46.977364" lon="10.986710">
        <ele>2015.860807</ele>
        <time>2018-01-15T10:49:51.753Z</time>
      </trkpt>
      <trkpt lat="46.977414" lon="10.986767">
        <ele>2015.136353</ele>
        <time>2018-01-15T10:49:52.683Z</time>
      </trkpt>
      <trkpt lat="46.977434" lon="10.986823">
        <ele>2014.643129</ele>
        <time>2018-01-15T10:49:53.176Z</time>
      </trkpt>
      <trkpt lat="46.977442" lon="10.986858">
        <ele>2014.355099</ele>
        <time>2018-01-15T10:49:53.453Z</time>
      </trkpt>
      <trkpt lat="46.977435" lon="10.986880">
        <ele>2014.165680</ele>
        <time>2018-01-15T10:49:53.674Z</time>
      </trkpt>
      <trkpt lat="46.977426" lon="10.986880">
        <ele>2014.062748</ele>
        <time>2018-01-15T10:49:53.782Z</time>
      </trkpt>
      <trkpt lat="46.977435" lon="10.986880">
        <ele>2013.959817</ele>
        <time>2018-01-15T10:49:54.156Z</time>
      </trkpt>
      <trkpt lat="46.977442" lon="10.986858">
        <ele>2013.770397</ele>
        <time>2018-01-15T10:49:56.432Z</time>
      </trkpt>
      <trkpt lat="46.977490" lon="10.986869">
        <ele>2013.514514</ele>
        <time>2018-01-15T10:49:59.582Z</time>
      </trkpt>
      <trkpt lat="46.977613" lon="10.986790">
        <ele>2013.004595</ele>
        <time>2018-01-15T10:50:08.265Z</time>
      </trkpt>
      <trkpt lat="46.977651" lon="10.986766">
        <ele>2012.847479</ele>
        <time>2018-01-15T10:50:10.936Z</time>
      </trkpt>
      <trkpt lat="46.977993" lon="10.986371">
        <ele>2010.904841</ele>
        <time>2018-01-15T10:50:37.096Z</time>
      </trkpt>
      <trkpt lat="46.978011" lon="10.986559">
        <ele>2010.320746</ele>
        <time>2018-01-15T10:50:44.359Z</time>
      </trkpt>
      <trkpt lat="46.978051" lon="10.986575">
        <ele>2010.136895</ele>
        <time>2018-01-15T10:50:47.037Z</time>
      </trkpt>
      <trkpt lat="46.978210" lon="10.986430">
        <ele>2009.295827</ele>
        <time>2018-01-15T10:50:58.858Z</time>
      </trkpt>
      <trkpt lat="46.978269" lon="10.986425">
        <ele>2009.027983</ele>
        <time>2018-01-15T10:51:02.127Z</time>
      </trkpt>
      <trkpt lat="46.978433" lon="10.986328">
        <ele>2008.167117</ele>
        <time>2018-01-15T10:51:04.844Z</time>
      </trkpt>
      <trkpt lat="46.978717" lon="10.986188">
        <ele>2006.351590</ele>
        <time>2018-01-15T10:51:09.331Z</time>
      </trkpt>
      <trkpt lat="46.979340" lon="10.986192">
        <ele>1999.143618</ele>
        <time>2018-01-15T10:51:17.589Z</time>
      </trkpt>
      <trkpt lat="46.979756" lon="10.985809">
        <ele>1992.120575</ele>
        <time>2018-01-15T10:51:23.946Z</time>
      </trkpt>
      <trkpt lat="46.979980" lon="10.985593">
        <ele>1988.194725</ele>
        <time>2018-01-15T10:51:27.414Z</time>
      </trkpt>
      <trkpt lat="46.980032" lon="10.985613">
        <ele>1987.128039</ele>
        <time>2018-01-15T10:51:28.112Z</time>
      </trkpt>
      <trkpt lat="46.980093" lon="10.985781">
        <ele>1984.551828</ele>
        <time>2018-01-15T10:51:29.738Z</time>
      </trkpt>
      <trkpt lat="46.980361" lon="10.985998">
        <ele>1979.233904</ele>
        <time>2018-01-15T10:51:33.651Z</time>
      </trkpt>
      <trkpt lat="46.980552" lon="10.987330">
        <ele>1961.524189</ele>
        <time>2018-01-15T10:51:45.347Z</time>
      </trkpt>
      <trkpt lat="46.980597" lon="10.988336">
        <ele>1948.813323</ele>
        <time>2018-01-15T10:51:54.043Z</time>
      </trkpt>
      <trkpt lat="46.980820" lon="10.988830">
        <ele>1943.264593</ele>
        <time>2018-01-15T10:51:59.335Z</time>
      </trkpt>
      <trkpt lat="46.980824" lon="10.989006">
        <ele>1941.857207</ele>
        <time>2018-01-15T10:52:00.934Z</time>
      </trkpt>
      <trkpt lat="46.980550" lon="10.989412">
        <ele>1938.096027</ele>
        <time>2018-01-15T10:52:06.255Z</time>
      </trkpt>
      <trkpt lat="46.980547" lon="10.989902">
        <ele>1935.495809</ele>
        <time>2018-01-15T10:52:10.994Z</time>
      </trkpt>
      <trkpt lat="46.980585" lon="10.990134">
        <ele>1934.593015</ele>
        <time>2018-01-15T10:52:13.457Z</time>
      </trkpt>
      <trkpt lat="46.980732" lon="10.990295">
        <ele>1933.785872</ele>
        <time>2018-01-15T10:52:16.207Z</time>
      </trkpt>
      <trkpt lat="46.980730" lon="10.991269">
        <ele>1931.611305</ele>
        <time>2018-01-15T10:52:27.104Z</time>
      </trkpt>
      <trkpt lat="46.980796" lon="10.992208">
        <ele>1930.414633</ele>
        <time>2018-01-15T10:52:38.771Z</time>
      </trkpt>
      <trkpt lat="46.980950" lon="10.992433">
        <ele>1930.042682</ele>
        <time>2018-01-15T10:52:42.775Z</time>
      </trkpt>
      <trkpt lat="46.981096" lon="10.992546">
        <ele>1929.673263</ele>
        <time>2018-01-15T10:52:45.586Z</time>
      </trkpt>
      <trkpt lat="46.981268" lon="10.992953">
        <ele>1928.412941</ele>
        <time>2018-01-15T10:52:50.851Z</time>
      </trkpt>
      <trkpt lat="46.981422" lon="10.993817">
        <ele>1925.027139</ele>
        <time>2018-01-15T10:52:59.889Z</time>
      </trkpt>
      <trkpt lat="46.981583" lon="10.994128">
        <ele>1922.948943</ele>
        <time>2018-01-15T10:53:03.675Z</time>
      </trkpt>
      <trkpt lat="46.981587" lon="10.994235">
        <ele>1922.259398</ele>
        <time>2018-01-15T10:53:04.712Z</time>
      </trkpt>
      <trkpt lat="46.981444" lon="10.994488">
        <ele>1919.704783</ele>
        <time>2018-01-15T10:53:07.654Z</time>
      </trkpt>
      <trkpt lat="46.981396" lon="10.994826">
        <ele>1916.714196</ele>
        <time>2018-01-15T10:53:10.774Z</time>
      </trkpt>
      <trkpt lat="46.981385" lon="10.995410">
        <ele>1911.180042</ele>
        <time>2018-01-15T10:53:15.961Z</time>
      </trkpt>
      <trkpt lat="46.981287" lon="10.995898">
        <ele>1906.184729</ele>
        <time>2018-01-15T10:53:20.467Z</time>
      </trkpt>
      <trkpt lat="46.981312" lon="10.996408">
        <ele>1900.962044</ele>
        <time>2018-01-15T10:53:24.978Z</time>
      </trkpt>
      <trkpt lat="46.981355" lon="10.996554">
        <ele>1899.307840</ele>
        <time>2018-01-15T10:53:26.346Z</time>
      </trkpt>
      <trkpt lat="46.981354" lon="10.996510">
        <ele>1898.840274</ele>
        <time>2018-01-15T10:53:30.986Z</time>
      </trkpt>
      <trkpt lat="46.981355" lon="10.996554">
        <ele>1898.372709</ele>
        <time>2018-01-15T10:53:32.460Z</time>
      </trkpt>
      <trkpt lat="46.981411" lon="10.996773">
        <ele>1895.871165</ele>
        <time>2018-01-15T10:53:40.496Z</time>
      </trkpt>
      <trkpt lat="46.981480" lon="10.996934">
        <ele>1893.612427</ele>
        <time>2018-01-15T10:53:46.960Z</time>
      </trkpt>
      <trkpt lat="46.981480" lon="10.997309">
        <ele>1888.699179</ele>
        <time>2018-01-15T10:53:59.431Z</time>
      </trkpt>
      <trkpt lat="46.981614" lon="10.997609">
        <ele>1883.624494</ele>
        <time>2018-01-15T10:54:11.157Z</time>
      </trkpt>
      <trkpt lat="46.981988" lon="10.998818">
        <ele>1866.832994</ele>
        <time>2018-01-15T10:54:55.556Z</time>
      </trkpt>
      <trkpt lat="46.982063" lon="10.998927">
        <ele>1864.693185</ele>
        <time>2018-01-15T10:55:01.131Z</time>
      </trkpt>
      <trkpt lat="46.982057" lon="10.998960">
        <ele>1864.200657</ele>
        <time>2018-01-15T10:55:02.475Z</time>
      </trkpt>
      <trkpt lat="46.982022" lon="10.998940">
        <ele>1863.406553</ele>
        <time>2018-01-15T10:55:03.193Z</time>
      </trkpt>
      <trkpt lat="46.981696" lon="10.998756">
        <ele>1857.986281</ele>
        <time>2018-01-15T10:55:10.317Z</time>
      </trkpt>
      <trkpt lat="46.981097" lon="10.998340">
        <ele>1850.231108</ele>
        <time>2018-01-15T10:55:24.507Z</time>
      </trkpt>
      <trkpt lat="46.981085" lon="10.998364">
        <ele>1849.892849</ele>
        <time>2018-01-15T10:55:24.995Z</time>
      </trkpt>
      <trkpt lat="46.981083" lon="10.998390">
        <ele>1849.595407</ele>
        <time>2018-01-15T10:55:25.347Z</time>
      </trkpt>
      <trkpt lat="46.981353" lon="10.998842">
        <ele>1844.129550</ele>
        <time>2018-01-15T10:55:33.938Z</time>
      </trkpt>
      <trkpt lat="46.981561" lon="10.999345">
        <ele>1840.659339</ele>
        <time>2018-01-15T10:55:42.886Z</time>
      </trkpt>
      <trkpt lat="46.981819" lon="10.999570">
        <ele>1837.995254</ele>
        <time>2018-01-15T10:55:49.389Z</time>
      </trkpt>
      <trkpt lat="46.981979" lon="10.999849">
        <ele>1836.003297</ele>
        <time>2018-01-15T10:55:55.025Z</time>
      </trkpt>
      <trkpt lat="46.982549" lon="11.000490">
        <ele>1829.915686</ele>
        <time>2018-01-15T10:56:10.861Z</time>
      </trkpt>
      <trkpt lat="46.982638" lon="11.000624">
        <ele>1828.781203</ele>
        <time>2018-01-15T10:56:13.749Z</time>
      </trkpt>
      <trkpt lat="46.982721" lon="11.000729">
        <ele>1827.599055</ele>
        <time>2018-01-15T10:56:15.981Z</time>
      </trkpt>
      <trkpt lat="46.983023" lon="11.001619">
        <ele>1821.396952</ele>
        <time>2018-01-15T10:56:30.951Z</time>
      </trkpt>
      <trkpt lat="46.983182" lon="11.002488">
        <ele>1814.734401</ele>
        <time>2018-01-15T10:56:44.048Z</time>
      </trkpt>
      <trkpt lat="46.983453" lon="11.002733">
        <ele>1810.049408</ele>
        <time>2018-01-15T10:56:50.462Z</time>
      </trkpt>
      <trkpt lat="46.983599" lon="11.002787">
        <ele>1807.546071</ele>
        <time>2018-01-15T10:56:53.506Z</time>
      </trkpt>
      <trkpt lat="46.983995" lon="11.002635">
        <ele>1800.067593</ele>
        <time>2018-01-15T10:57:01.548Z</time>
      </trkpt>
      <trkpt lat="46.984289" lon="11.002513">
        <ele>1794.595971</ele>
        <time>2018-01-15T10:57:07.709Z</time>
      </trkpt>
      <trkpt lat="46.984301" lon="11.002597">
        <ele>1793.456389</ele>
        <time>2018-01-15T10:57:08.851Z</time>
      </trkpt>
      <trkpt lat="46.984307" lon="11.002643">
        <ele>1792.834517</ele>
        <time>2018-01-15T10:57:09.484Z</time>
      </trkpt>
      <trkpt lat="46.984084" lon="11.003203">
        <ele>1784.620035</ele>
        <time>2018-01-15T10:57:18.292Z</time>
      </trkpt>
      <trkpt lat="46.984094" lon="11.003478">
        <ele>1780.616526</ele>
        <time>2018-01-15T10:57:21.974Z</time>
      </trkpt>
      <trkpt lat="46.984234" lon="11.003808">
        <ele>1774.096850</ele>
        <time>2018-01-15T10:57:27.148Z</time>
      </trkpt>
      <trkpt lat="46.984273" lon="11.003788">
        <ele>1772.964290</ele>
        <time>2018-01-15T10:57:27.970Z</time>
      </trkpt>
      <trkpt lat="46.984309" lon="11.003852">
        <ele>1771.399641</ele>
        <time>2018-01-15T10:57:29.076Z</time>
      </trkpt>
      <trkpt lat="46.984416" lon="11.003815">
        <ele>1768.359931</ele>
        <time>2018-01-15T10:57:31.263Z</time>
      </trkpt>
      <trkpt lat="46.984566" lon="11.003757">
        <ele>1764.129103</ele>
        <time>2018-01-15T10:57:34.284Z</time>
      </trkpt>
      <trkpt lat="46.984611" lon="11.003688">
        <ele>1762.356941</ele>
        <time>2018-01-15T10:57:35.547Z</time>
      </trkpt>
      <trkpt lat="46.984810" lon="11.003561">
        <ele>1755.621260</ele>
        <time>2018-01-15T10:57:39.826Z</time>
      </trkpt>
      <trkpt lat="46.984984" lon="11.003437">
        <ele>1749.717714</ele>
        <time>2018-01-15T10:57:43.624Z</time>
      </trkpt>
      <trkpt lat="46.985248" lon="11.003160">
        <ele>1739.651458</ele>
        <time>2018-01-15T10:57:50.019Z</time>
      </trkpt>
      <trkpt lat="46.985478" lon="11.003095">
        <ele>1732.666645</ele>
        <time>2018-01-15T10:57:54.621Z</time>
      </trkpt>
      <trkpt lat="46.985734" lon="11.003132">
        <ele>1725.352933</ele>
        <time>2018-01-15T10:57:59.622Z</time>
      </trkpt>
      <trkpt lat="46.985900" lon="11.003732">
        <ele>1710.847204</ele>
        <time>2018-01-15T10:58:08.374Z</time>
      </trkpt>
      <trkpt lat="46.986239" lon="11.004042">
        <ele>1695.825358</ele>
        <time>2018-01-15T10:58:16.373Z</time>
      </trkpt>
      <trkpt lat="46.986406" lon="11.003835">
        <ele>1687.141858</ele>
        <time>2018-01-15T10:58:20.770Z</time>
      </trkpt>
      <trkpt lat="46.987039" lon="11.003807">
        <ele>1662.399147</ele>
        <time>2018-01-15T10:58:33.481Z</time>
      </trkpt>
      <trkpt lat="46.987321" lon="11.003977">
        <ele>1650.585853</ele>
        <time>2018-01-15T10:58:39.604Z</time>
      </trkpt>
      <trkpt lat="46.987172" lon="11.004088">
        <ele>1644.289429</ele>
        <time>2018-01-15T10:58:42.944Z</time>
      </trkpt>
      <trkpt lat="46.987185" lon="11.004162">
        <ele>1642.334929</ele>
        <time>2018-01-15T10:58:43.987Z</time>
      </trkpt>
      <trkpt lat="46.987282" lon="11.004181">
        <ele>1638.667924</ele>
        <time>2018-01-15T10:58:45.947Z</time>
      </trkpt>
      <trkpt lat="46.987209" lon="11.004619">
        <ele>1626.830589</ele>
        <time>2018-01-15T10:59:01.206Z</time>
      </trkpt>
      <trkpt lat="46.987223" lon="11.004943">
        <ele>1618.308095</ele>
        <time>2018-01-15T10:59:12.136Z</time>
      </trkpt>
      <trkpt lat="46.987225" lon="11.004974">
        <ele>1617.523671</ele>
        <time>2018-01-15T10:59:13.263Z</time>
      </trkpt>
      <trkpt lat="46.987082" lon="11.005631">
        <ele>1600.730875</ele>
        <time>2018-01-15T10:59:36.362Z</time>
      </trkpt>
      <trkpt lat="46.986869" lon="11.005841">
        <ele>1593.015000</ele>
        <time>2018-01-15T10:59:48.761Z</time>
      </trkpt>
      <trkpt lat="46.986756" lon="11.006122">
        <ele>1587.299052</ele>
        <time>2018-01-15T10:59:59.402Z</time>
      </trkpt>
      <trkpt lat="46.986380" lon="11.006573">
        <ele>1575.844797</ele>
        <time>2018-01-15T11:00:22.624Z</time>
      </trkpt>
      <trkpt lat="46.986314" lon="11.006586">
        <ele>1574.443326</ele>
        <time>2018-01-15T11:00:23.943Z</time>
      </trkpt>
      <trkpt lat="46.985904" lon="11.006481">
        <ele>1566.433879</ele>
        <time>2018-01-15T11:00:32.159Z</time>
      </trkpt>
      <trkpt lat="46.985341" lon="11.006698">
        <ele>1553.390725</ele>
        <time>2018-01-15T11:00:43.420Z</time>
      </trkpt>
      <trkpt lat="46.985291" lon="11.006806">
        <ele>1551.613474</ele>
        <time>2018-01-15T11:00:45.177Z</time>
      </trkpt>
      <trkpt lat="46.985373" lon="11.006863">
        <ele>1549.804560</ele>
        <time>2018-01-15T11:00:46.966Z</time>
      </trkpt>
      <trkpt lat="46.985828" lon="11.006741">
        <ele>1541.397185</ele>
        <time>2018-01-15T11:00:56.083Z</time>
      </trkpt>
      <trkpt lat="46.986073" lon="11.007082">
        <ele>1536.429999</ele>
        <time>2018-01-15T11:01:03.080Z</time>
      </trkpt>
      <trkpt lat="46.986106" lon="11.007136">
        <ele>1535.618551</ele>
        <time>2018-01-15T11:01:04.060Z</time>
      </trkpt>
      <trkpt lat="46.986658" lon="11.008028">
        <ele>1525.869324</ele>
        <time>2018-01-15T11:01:21.314Z</time>
      </trkpt>
      <trkpt lat="46.986463" lon="11.008081">
        <ele>1524.192814</ele>
        <time>2018-01-15T11:01:26.104Z</time>
      </trkpt>
      <trkpt lat="46.985889" lon="11.007633">
        <ele>1518.497300</ele>
        <time>2018-01-15T11:01:40.099Z</time>
      </trkpt>
      <trkpt lat="46.985079" lon="11.007421">
        <ele>1516.091639</ele>
        <time>2018-01-15T11:02:02.134Z</time>
      </trkpt>
      <trkpt lat="46.984751" lon="11.007549">
        <ele>1515.057999</ele>
        <time>2018-01-15T11:02:11.108Z</time>
      </trkpt>
      <trkpt lat="46.984704" lon="11.007690">
        <ele>1514.604250</ele>
        <time>2018-01-15T11:02:13.639Z</time>
      </trkpt>
      <trkpt lat="46.984616" lon="11.007743">
        <ele>1514.046341</ele>
        <time>2018-01-15T11:02:15.989Z</time>
      </trkpt>
      <trkpt lat="46.984436" lon="11.008123">
        <ele>1511.768925</ele>
        <time>2018-01-15T11:02:23.125Z</time>
      </trkpt>
      <trkpt lat="46.984564" lon="11.008228">
        <ele>1510.538793</ele>
        <time>2018-01-15T11:02:26.374Z</time>
      </trkpt>
      <trkpt lat="46.984591" lon="11.008316">
        <ele>1509.951988</ele>
        <time>2018-01-15T11:02:27.829Z</time>
      </trkpt>
      <trkpt lat="46.984548" lon="11.008427">
        <ele>1509.173540</ele>
        <time>2018-01-15T11:02:29.710Z</time>
      </trkpt>
      <trkpt lat="46.984468" lon="11.008445">
        <ele>1508.416368</ele>
        <time>2018-01-15T11:02:31.501Z</time>
      </trkpt>
      <trkpt lat="46.984141" lon="11.008761">
        <ele>1504.555655</ele>
        <time>2018-01-15T11:02:39.922Z</time>
      </trkpt>
      <trkpt lat="46.983777" lon="11.008848">
        <ele>1500.510906</ele>
        <time>2018-01-15T11:02:47.714Z</time>
      </trkpt>
      <trkpt lat="46.983618" lon="11.008983">
        <ele>1498.495681</ele>
        <time>2018-01-15T11:02:51.619Z</time>
      </trkpt>
      <trkpt lat="46.983418" lon="11.009001">
        <ele>1496.355487</ele>
        <time>2018-01-15T11:02:55.857Z</time>
      </trkpt>
      <trkpt lat="46.983251" lon="11.008901">
        <ele>1494.486264</ele>
        <time>2018-01-15T11:02:59.729Z</time>
      </trkpt>
      <trkpt lat="46.983127" lon="11.008940">
        <ele>1493.195646</ele>
        <time>2018-01-15T11:03:02.445Z</time>
      </trkpt>
      <trkpt lat="46.983063" lon="11.008960">
        <ele>1492.551378</ele>
        <time>2018-01-15T11:03:03.845Z</time>
      </trkpt>
      <trkpt lat="46.982927" lon="11.008837">
        <ele>1491.043390</ele>
        <time>2018-01-15T11:03:07.315Z</time>
      </trkpt>
      <trkpt lat="46.982660" lon="11.008784">
        <ele>1488.704315</ele>
        <time>2018-01-15T11:03:13.242Z</time>
      </trkpt>
      <trkpt lat="46.982569" lon="11.008658">
        <ele>1487.779894</ele>
        <time>2018-01-15T11:03:16.008Z</time>
      </trkpt>
      <trkpt lat="46.981889" lon="11.007713">
        <ele>1482.590538</ele>
        <time>2018-01-15T11:03:38.291Z</time>
      </trkpt>
      <trkpt lat="46.981694" lon="11.007538">
        <ele>1481.761451</ele>
        <time>2018-01-15T11:03:44.109Z</time>
      </trkpt>
      <trkpt lat="46.981127" lon="11.006689">
        <ele>1479.983728</ele>
        <time>2018-01-15T11:04:06.135Z</time>
      </trkpt>
      <trkpt lat="46.980783" lon="11.006280">
        <ele>1479.622931</ele>
        <time>2018-01-15T11:04:19.241Z</time>
      </trkpt>
      <trkpt lat="46.980400" lon="11.006087">
        <ele>1479.527093</ele>
        <time>2018-01-15T11:04:31.911Z</time>
      </trkpt>
      <trkpt lat="46.980197" lon="11.005835">
        <ele>1479.771651</ele>
        <time>2018-01-15T11:04:40.833Z</time>
      </trkpt>
      <trkpt lat="46.980181" lon="11.005519">
        <ele>1480.328233</ele>
        <time>2018-01-15T11:04:51.623Z</time>
      </trkpt>
      <trkpt lat="46.980093" lon="11.005595">
        <ele>1480.609712</ele>
        <time>2018-01-15T11:04:55.902Z</time>
      </trkpt>
      <trkpt lat="46.979514" lon="11.005344">
        <ele>1482.246223</ele>
        <time>2018-01-15T11:05:23.564Z</time>
      </trkpt>
      <trkpt lat="46.979414" lon="11.005063">
        <ele>1482.685489</ele>
        <time>2018-01-15T11:05:32.780Z</time>
      </trkpt>
      <trkpt lat="46.979163" lon="11.004782">
        <ele>1483.209240</ele>
        <time>2018-01-15T11:05:45.030Z</time>
      </trkpt>
      <trkpt lat="46.979035" lon="11.004419">
        <ele>1483.640557</ele>
        <time>2018-01-15T11:05:56.461Z</time>
      </trkpt>
      <trkpt lat="46.978823" lon="11.004214">
        <ele>1483.550140</ele>
        <time>2018-01-15T11:06:04.578Z</time>
      </trkpt>
      <trkpt lat="46.978255" lon="11.003945">
        <ele>1481.512487</ele>
        <time>2018-01-15T11:06:19.950Z</time>
      </trkpt>
      <trkpt lat="46.978222" lon="11.003971">
        <ele>1481.335715</ele>
        <time>2018-01-15T11:06:20.694Z</time>
      </trkpt>
      <trkpt lat="46.978007" lon="11.003874">
        <ele>1480.562140</ele>
        <time>2018-01-15T11:06:27.299Z</time>
      </trkpt>
      <trkpt lat="46.977594" lon="11.003958">
        <ele>1477.994067</ele>
        <time>2018-01-15T11:06:36.945Z</time>
      </trkpt>
      <trkpt lat="46.977344" lon="11.004147">
        <ele>1475.475676</ele>
        <time>2018-01-15T11:06:43.106Z</time>
      </trkpt>
      <trkpt lat="46.977259" lon="11.004163">
        <ele>1474.441986</ele>
        <time>2018-01-15T11:06:44.906Z</time>
      </trkpt>
      <trkpt lat="46.977192" lon="11.004214">
        <ele>1473.531341</ele>
        <time>2018-01-15T11:06:45.794Z</time>
      </trkpt>
      <trkpt lat="46.977481" lon="11.004382">
        <ele>1471.403696</ele>
        <time>2018-01-15T11:06:50.189Z</time>
      </trkpt>
      <trkpt lat="46.977443" lon="11.004549">
        <ele>1470.786331</ele>
        <time>2018-01-15T11:06:51.814Z</time>
      </trkpt>
      <trkpt lat="46.976749" lon="11.004702">
        <ele>1468.920636</ele>
        <time>2018-01-15T11:07:03.023Z</time>
      </trkpt>
      <trkpt lat="46.976595" lon="11.004652">
        <ele>1468.443977</ele>
        <time>2018-01-15T11:07:05.659Z</time>
      </trkpt>
      <trkpt lat="46.976512" lon="11.004531">
        <ele>1468.146281</ele>
        <time>2018-01-15T11:07:07.243Z</time>
      </trkpt>
      <trkpt lat="46.976470" lon="11.004338">
        <ele>1468.263897</ele>
        <time>2018-01-15T11:07:12.315Z</time>
      </trkpt>
      <trkpt lat="46.976319" lon="11.003819">
        <ele>1468.457309</ele>
        <time>2018-01-15T11:07:21.250Z</time>
      </trkpt>
      <trkpt lat="46.976262" lon="11.003762">
        <ele>1468.464443</ele>
        <time>2018-01-15T11:07:22.248Z</time>
      </trkpt>
      <trkpt lat="46.976189" lon="11.003729">
        <ele>1468.503518</ele>
        <time>2018-01-15T11:07:25.246Z</time>
      </trkpt>
      <trkpt lat="46.976086" lon="11.003734">
        <ele>1468.762052</ele>
        <time>2018-01-15T11:07:28.697Z</time>
      </trkpt>
      <trkpt lat="46.976004" lon="11.003782">
        <ele>1468.983563</ele>
        <time>2018-01-15T11:07:33.009Z</time>
      </trkpt>
      <trkpt lat="46.975957" lon="11.003810">
        <ele>1469.091562</ele>
        <time>2018-01-15T11:07:33.687Z</time>
      </trkpt>
      <trkpt lat="46.975424" lon="11.004743">
        <ele>1470.675555</ele>
        <time>2018-01-15T11:07:59.706Z</time>
      </trkpt>
      <trkpt lat="46.974987" lon="11.004837">
        <ele>1471.254936</ele>
        <time>2018-01-15T11:08:11.941Z</time>
      </trkpt>
      <trkpt lat="46.974567" lon="11.004835">
        <ele>1470.534137</ele>
        <time>2018-01-15T11:08:19.048Z</time>
      </trkpt>
      <trkpt lat="46.974429" lon="11.004815">
        <ele>1470.139097</ele>
        <time>2018-01-15T11:08:21.008Z</time>
      </trkpt>
      <trkpt lat="46.974187" lon="11.004780">
        <ele>1469.439471</ele>
        <time>2018-01-15T11:08:24.959Z</time>
      </trkpt>
      <trkpt lat="46.973881" lon="11.004685">
        <ele>1468.438280</ele>
        <time>2018-01-15T11:08:29.755Z</time>
      </trkpt>
      <trkpt lat="46.973621" lon="11.004598">
        <ele>1467.354519</ele>
        <time>2018-01-15T11:08:33.651Z</time>
      </trkpt>
      <trkpt lat="46.973419" lon="11.004514">
        <ele>1466.639678</ele>
        <time>2018-01-15T11:08:36.862Z</time>
      </trkpt>
      <trkpt lat="46.973257" lon="11.004411">
        <ele>1465.888703</ele>
        <time>2018-01-15T11:08:39.440Z</time>
      </trkpt>
      <trkpt lat="46.973199" lon="11.004328">
        <ele>1465.523044</ele>
        <time>2018-01-15T11:08:40.667Z</time>
      </trkpt>
      <trkpt lat="46.972971" lon="11.004242">
        <ele>1464.026564</ele>
        <time>2018-01-15T11:08:43.866Z</time>
      </trkpt>
      <trkpt lat="46.971938" lon="11.003960">
        <ele>1455.112778</ele>
        <time>2018-01-15T11:08:57.564Z</time>
      </trkpt>
      <trkpt lat="46.971774" lon="11.003992">
        <ele>1453.340206</ele>
        <time>2018-01-15T11:08:59.653Z</time>
      </trkpt>
      <trkpt lat="46.971635" lon="11.004247">
        <ele>1450.687242</ele>
        <time>2018-01-15T11:09:02.382Z</time>
      </trkpt>
      <trkpt lat="46.971401" lon="11.004591">
        <ele>1446.810281</ele>
        <time>2018-01-15T11:09:06.537Z</time>
      </trkpt>
      <trkpt lat="46.971054" lon="11.005158">
        <ele>1440.895737</ele>
        <time>2018-01-15T11:09:13.056Z</time>
      </trkpt>
      <trkpt lat="46.971014" lon="11.005225">
        <ele>1440.158043</ele>
        <time>2018-01-15T11:09:13.775Z</time>
      </trkpt>
      <trkpt lat="46.970837" lon="11.005475">
        <ele>1437.408041</ele>
        <time>2018-01-15T11:09:16.925Z</time>
      </trkpt>
      <trkpt lat="46.970564" lon="11.005645">
        <ele>1434.110353</ele>
        <time>2018-01-15T11:09:20.628Z</time>
      </trkpt>
      <trkpt lat="46.970403" lon="11.005629">
        <ele>1432.511279</ele>
        <time>2018-01-15T11:09:22.648Z</time>
      </trkpt>
      <trkpt lat="46.969611" lon="11.005188">
        <ele>1426.397445</ele>
        <time>2018-01-15T11:09:33.951Z</time>
      </trkpt>
      <trkpt lat="46.969414" lon="11.005207">
        <ele>1425.396004</ele>
        <time>2018-01-15T11:09:36.924Z</time>
      </trkpt>
      <trkpt lat="46.969184" lon="11.005237">
        <ele>1424.217322</ele>
        <time>2018-01-15T11:09:40.134Z</time>
      </trkpt>
      <trkpt lat="46.968957" lon="11.005267">
        <ele>1422.915033</ele>
        <time>2018-01-15T11:09:43.369Z</time>
      </trkpt>
      <trkpt lat="46.968609" lon="11.005278">
        <ele>1420.517048</ele>
        <time>2018-01-15T11:09:48.053Z</time>
      </trkpt>
      <trkpt lat="46.968390" lon="11.005251">
        <ele>1418.613833</ele>
        <time>2018-01-15T11:09:50.883Z</time>
      </trkpt>
      <trkpt lat="46.968244" lon="11.005196">
        <ele>1417.118586</ele>
        <time>2018-01-15T11:09:52.836Z</time>
      </trkpt>
      <trkpt lat="46.968027" lon="11.005101">
        <ele>1414.662120</ele>
        <time>2018-01-15T11:09:55.659Z</time>
      </trkpt>
      <trkpt lat="46.968000" lon="11.005102">
        <ele>1414.354017</ele>
        <time>2018-01-15T11:09:55.986Z</time>
      </trkpt>
      <trkpt lat="46.967918" lon="11.005197">
        <ele>1413.140670</ele>
        <time>2018-01-15T11:09:57.342Z</time>
      </trkpt>
      <trkpt lat="46.967861" lon="11.005297">
        <ele>1412.060257</ele>
        <time>2018-01-15T11:09:58.429Z</time>
      </trkpt>
      <trkpt lat="46.967859" lon="11.005360">
        <ele>1411.537293</ele>
        <time>2018-01-15T11:09:58.930Z</time>
      </trkpt>
      <trkpt lat="46.967752" lon="11.005494">
        <ele>1409.965827</ele>
        <time>2018-01-15T11:10:00.810Z</time>
      </trkpt>
      <trkpt lat="46.967630" lon="11.005547">
        <ele>1408.652100</ele>
        <time>2018-01-15T11:10:02.412Z</time>
      </trkpt>
      <trkpt lat="46.967261" lon="11.005681">
        <ele>1403.990683</ele>
        <time>2018-01-15T11:10:07.141Z</time>
      </trkpt>
      <trkpt lat="46.967199" lon="11.005693">
        <ele>1403.152477</ele>
        <time>2018-01-15T11:10:07.871Z</time>
      </trkpt>
      <trkpt lat="46.966983" lon="11.005734">
        <ele>1400.445771</ele>
        <time>2018-01-15T11:10:10.645Z</time>
      </trkpt>
      <trkpt lat="46.966800" lon="11.005749">
        <ele>1397.712496</ele>
        <time>2018-01-15T11:10:12.824Z</time>
      </trkpt>
      <trkpt lat="46.966408" lon="11.005919">
        <ele>1391.977656</ele>
        <time>2018-01-15T11:10:17.790Z</time>
      </trkpt>
      <trkpt lat="46.965566" lon="11.005987">
        <ele>1381.618520</ele>
        <time>2018-01-15T11:10:28.234Z</time>
      </trkpt>
      <trkpt lat="46.965160" lon="11.006115">
        <ele>1377.533577</ele>
        <time>2018-01-15T11:10:33.543Z</time>
      </trkpt>
      <trkpt lat="46.964563" lon="11.006513">
        <ele>1371.814854</ele>
        <time>2018-01-15T11:10:42.062Z</time>
      </trkpt>
      <trkpt lat="46.964167" lon="11.006902">
        <ele>1367.947177</ele>
        <time>2018-01-15T11:10:48.299Z</time>
      </trkpt>
      <trkpt lat="46.963860" lon="11.007089">
        <ele>1365.709519</ele>
        <time>2018-01-15T11:10:52.810Z</time>
      </trkpt>
      <trkpt lat="46.963619" lon="11.007141">
        <ele>1364.341998</ele>
        <time>2018-01-15T11:10:56.256Z</time>
      </trkpt>
      <trkpt lat="46.963552" lon="11.007199">
        <ele>1363.930024</ele>
        <time>2018-01-15T11:10:57.300Z</time>
      </trkpt>
      <trkpt lat="46.963506" lon="11.007349">
        <ele>1363.389409</ele>
        <time>2018-01-15T11:10:58.894Z</time>
      </trkpt>
      <trkpt lat="46.963513" lon="11.007643">
        <ele>1362.465323</ele>
        <time>2018-01-15T11:11:01.881Z</time>
      </trkpt>
      <trkpt lat="46.963521" lon="11.007849">
        <ele>1361.861476</ele>
        <time>2018-01-15T11:11:03.872Z</time>
      </trkpt>
      <trkpt lat="46.962993" lon="11.007943">
        <ele>1360.485824</ele>
        <time>2018-01-15T11:11:11.593Z</time>
      </trkpt>
      <trkpt lat="46.961315" lon="11.008133">
        <ele>1360.704352</ele>
        <time>2018-01-15T11:11:46.357Z</time>
      </trkpt>
      <trkpt lat="46.961234" lon="11.008142">
        <ele>1360.812480</ele>
        <time>2018-01-15T11:11:48.260Z</time>
      </trkpt>
      <trkpt lat="46.960991" lon="11.008170">
        <ele>1361.243076</ele>
        <time>2018-01-15T11:11:55.959Z</time>
      </trkpt>
      <trkpt lat="46.960051" lon="11.008456">
        <ele>1362.958757</ele>
        <time>2018-01-15T11:12:22.266Z</time>
      </trkpt>
      <trkpt lat="46.959988" lon="11.008489">
        <ele>1363.099133</ele>
        <time>2018-01-15T11:12:25.111Z</time>
      </trkpt>
      <trkpt lat="46.959827" lon="11.008581">
        <ele>1363.145295</ele>
        <time>2018-01-15T11:12:28.947Z</time>
      </trkpt>
    </trkseg>
  </trk>
</gpx>