<?xml version="1.0" encoding="UTF-8" standalone="yes"?>
<gpx version="1.1" creator="outdooractive - http://www.outdooractive.com" xmlns="http://www.topografix.com/GPX/1/1" xmlns:oa="http://www.outdooractive.com/GPX/Extensions/1" xmlns:xsi="http://www.w3.org/2001/XMLSchema-instance" xsi:schemaLocation="http://www.topografix.com/GPX/1/1 http://www.topografix.com/GPX/1/1/gpx.xsd http://www.outdooractive.com/GPX/Extensions/1 https://www.outdooractive.com/schema/gpx_extensions.xsd">
  <metadata>
    <name>Löple Trail (678)</name>
    <author>
      <name>Bergbahnen Sölden, Mag. Jakob Falkner - Ötztal</name>
    </author>
    <link href="https://www.outdooractive.com/r/19506423"/>
    <time>2025-10-11T17:26:04.040Z</time>
    <extensions>
      <oa:oaCategory>mountainbiking</oa:oaCategory>
    </extensions>
  </metadata>
  <trk>
    <name>Löple Trail (678)</name>
    <desc>Eine Verbindung zwischen zwei Almen, ein Auf und Ab – und ein großer Spaß: Der rote Löple Trail verläuft über einen guten Kilometer / am Rande der Republik.</desc>
    <type>mountainbiking</type>
    <trkseg>
      <trkpt lat="46.933893" lon="10.996968">
        <ele>1959.80496</ele>
      </trkpt>
      <trkpt lat="46.933951" lon="10.996995">
        <ele>1962.95728</ele>
      </trkpt>
      <trkpt lat="46.933977" lon="10.997076">
        <ele>1964.36146</ele>
      </trkpt>
      <trkpt lat="46.934003" lon="10.997145">
        <ele>1965.82412</ele>
      </trkpt>
      <trkpt lat="46.934017" lon="10.997234">
        <ele>1965.62338</ele>
      </trkpt>
      <trkpt lat="46.934032" lon="10.997304">
        <ele>1965.23309</ele>
      </trkpt>
      <trkpt lat="46.934058" lon="10.997384">
        <ele>1965.4523</ele>
      </trkpt>
      <trkpt lat="46.934081" lon="10.997451">
        <ele>1966.04115</ele>
      </trkpt>
      <trkpt lat="46.934116" lon="10.997502">
        <ele>1967.90206</ele>
      </trkpt>
      <trkpt lat="46.934147" lon="10.997545">
        <ele>1969.25113</ele>
      </trkpt>
      <trkpt lat="46.934191" lon="10.997618">
        <ele>1970.18922</ele>
      </trkpt>
      <trkpt lat="46.934211" lon="10.997682">
        <ele>1969.86348</ele>
      </trkpt>
      <trkpt lat="46.934243" lon="10.997789">
        <ele>1970.32132</ele>
      </trkpt>
      <trkpt lat="46.934268" lon="10.997902">
        <ele>1970.65222</ele>
      </trkpt>
      <trkpt lat="46.934332" lon="10.997969">
        <ele>1971.41953</ele>
      </trkpt>
      <trkpt lat="46.934395" lon="10.99806">
        <ele>1972.86273</ele>
      </trkpt>
      <trkpt lat="46.934415" lon="10.998192">
        <ele>1973.34505</ele>
      </trkpt>
      <trkpt lat="46.93445" lon="10.99835">
        <ele>1974.78034</ele>
      </trkpt>
      <trkpt lat="46.934468" lon="10.998454">
        <ele>1975.29596</ele>
      </trkpt>
      <trkpt lat="46.934506" lon="10.998538">
        <ele>1976.71841</ele>
      </trkpt>
      <trkpt lat="46.934472" lon="10.998921">
        <ele>1972.85046</ele>
      </trkpt>
      <trkpt lat="46.934493" lon="10.998999">
        <ele>1973.76228</ele>
      </trkpt>
      <trkpt lat="46.934499" lon="10.999136">
        <ele>1972.14563</ele>
      </trkpt>
      <trkpt lat="46.934513" lon="10.999196">
        <ele>1972.18134</ele>
      </trkpt>
      <trkpt lat="46.934526" lon="10.999247">
        <ele>1972.20365</ele>
      </trkpt>
      <trkpt lat="46.934561" lon="10.999375">
        <ele>1971.91753</ele>
      </trkpt>
      <trkpt lat="46.934573" lon="10.999414">
        <ele>1971.80507</ele>
      </trkpt>
      <trkpt lat="46.934583" lon="10.999447">
        <ele>1971.74412</ele>
      </trkpt>
      <trkpt lat="46.934592" lon="10.999495">
        <ele>1971.61427</ele>
      </trkpt>
      <trkpt lat="46.934609" lon="10.999549">
        <ele>1971.79905</ele>
      </trkpt>
      <trkpt lat="46.934625" lon="10.99961">
        <ele>1971.94476</ele>
      </trkpt>
      <trkpt lat="46.934636" lon="10.999669">
        <ele>1971.87833</ele>
      </trkpt>
      <trkpt lat="46.934666" lon="10.999728">
        <ele>1972.675</ele>
      </trkpt>
      <trkpt lat="46.9347" lon="10.999801">
        <ele>1972.76171</ele>
      </trkpt>
      <trkpt lat="46.934833" lon="11.000081">
        <ele>1972.31366</ele>
      </trkpt>
      <trkpt lat="46.934858" lon="11.000144">
        <ele>1972.32977</ele>
      </trkpt>
      <trkpt lat="46.934878" lon="11.000197">
        <ele>1972.20798</ele>
      </trkpt>
      <trkpt lat="46.934899" lon="11.000253">
        <ele>1972.09971</ele>
      </trkpt>
      <trkpt lat="46.934918" lon="11.000307">
        <ele>1972.00621</ele>
      </trkpt>
      <trkpt lat="46.934945" lon="11.000386">
        <ele>1972.00542</ele>
      </trkpt>
      <trkpt lat="46.934962" lon="11.000432">
        <ele>1971.85837</ele>
      </trkpt>
      <trkpt lat="46.934982" lon="11.000485">
        <ele>1971.68215</ele>
      </trkpt>
      <trkpt lat="46.935001" lon="11.000533">
        <ele>1971.63315</ele>
      </trkpt>
      <trkpt lat="46.935029" lon="11.000599">
        <ele>1971.31613</ele>
      </trkpt>
      <trkpt lat="46.935044" lon="11.000631">
        <ele>1970.96073</ele>
      </trkpt>
      <trkpt lat="46.935055" lon="11.000654">
        <ele>1970.55938</ele>
      </trkpt>
      <trkpt lat="46.935066" lon="11.000676">
        <ele>1970.07736</ele>
      </trkpt>
      <trkpt lat="46.935078" lon="11.000697">
        <ele>1969.57616</ele>
      </trkpt>
      <trkpt lat="46.935089" lon="11.000717">
        <ele>1969.08215</ele>
      </trkpt>
      <trkpt lat="46.935101" lon="11.000736">
        <ele>1968.65266</ele>
      </trkpt>
      <trkpt lat="46.935114" lon="11.000754">
        <ele>1968.28259</ele>
      </trkpt>
      <trkpt lat="46.935124" lon="11.000768">
        <ele>1967.94563</ele>
      </trkpt>
      <trkpt lat="46.935137" lon="11.000784">
        <ele>1967.49433</ele>
      </trkpt>
      <trkpt lat="46.935147" lon="11.000796">
        <ele>1967.10041</ele>
      </trkpt>
      <trkpt lat="46.935169" lon="11.000818">
        <ele>1966.33149</ele>
      </trkpt>
      <trkpt lat="46.935207" lon="11.000852">
        <ele>1965.48338</ele>
      </trkpt>
      <trkpt lat="46.935255" lon="11.000892">
        <ele>1964.94229</ele>
      </trkpt>
      <trkpt lat="46.935299" lon="11.000926">
        <ele>1964.44383</ele>
      </trkpt>
      <trkpt lat="46.935348" lon="11.000961">
        <ele>1964.2498</ele>
      </trkpt>
      <trkpt lat="46.935399" lon="11.000995">
        <ele>1963.92598</ele>
      </trkpt>
      <trkpt lat="46.935428" lon="11.001012">
        <ele>1963.60523</ele>
      </trkpt>
      <trkpt lat="46.935446" lon="11.001022">
        <ele>1963.34154</ele>
      </trkpt>
      <trkpt lat="46.935469" lon="11.001033">
        <ele>1963.02985</ele>
      </trkpt>
      <trkpt lat="46.93549" lon="11.001042">
        <ele>1962.76292</ele>
      </trkpt>
      <trkpt lat="46.935512" lon="11.00105">
        <ele>1962.52583</ele>
      </trkpt>
      <trkpt lat="46.935536" lon="11.001057">
        <ele>1962.38404</ele>
      </trkpt>
      <trkpt lat="46.935611" lon="11.001075">
        <ele>1962.61556</ele>
      </trkpt>
      <trkpt lat="46.935637" lon="11.001082">
        <ele>1962.85084</ele>
      </trkpt>
      <trkpt lat="46.935657" lon="11.001089">
        <ele>1963.1583</ele>
      </trkpt>
      <trkpt lat="46.935676" lon="11.001096">
        <ele>1963.65799</ele>
      </trkpt>
      <trkpt lat="46.93569" lon="11.001102">
        <ele>1964.10556</ele>
      </trkpt>
      <trkpt lat="46.935702" lon="11.001109">
        <ele>1964.45533</ele>
      </trkpt>
      <trkpt lat="46.935712" lon="11.001116">
        <ele>1964.70112</ele>
      </trkpt>
      <trkpt lat="46.935721" lon="11.001125">
        <ele>1964.81543</ele>
      </trkpt>
      <trkpt lat="46.935729" lon="11.001135">
        <ele>1964.83124</ele>
      </trkpt>
      <trkpt lat="46.935734" lon="11.001143">
        <ele>1964.77629</ele>
      </trkpt>
      <trkpt lat="46.935741" lon="11.001159">
        <ele>1964.54858</ele>
      </trkpt>
      <trkpt lat="46.935747" lon="11.001171">
        <ele>1964.42539</ele>
      </trkpt>
      <trkpt lat="46.935755" lon="11.001184">
        <ele>1964.38686</ele>
      </trkpt>
      <trkpt lat="46.935764" lon="11.001197">
        <ele>1964.44527</ele>
      </trkpt>
      <trkpt lat="46.935784" lon="11.001223">
        <ele>1964.74978</ele>
      </trkpt>
      <trkpt lat="46.935809" lon="11.001251">
        <ele>1965.18242</ele>
      </trkpt>
      <trkpt lat="46.935834" lon="11.001275">
        <ele>1965.51891</ele>
      </trkpt>
      <trkpt lat="46.935862" lon="11.001301">
        <ele>1965.78962</ele>
      </trkpt>
      <trkpt lat="46.936043" lon="11.001455">
        <ele>1967.10575</ele>
      </trkpt>
      <trkpt lat="46.936081" lon="11.001489">
        <ele>1967.30962</ele>
      </trkpt>
      <trkpt lat="46.936111" lon="11.001518">
        <ele>1967.69341</ele>
      </trkpt>
      <trkpt lat="46.936138" lon="11.001546">
        <ele>1968.01428</ele>
      </trkpt>
      <trkpt lat="46.936206" lon="11.001579">
        <ele>1968.87242</ele>
      </trkpt>
      <trkpt lat="46.936277" lon="11.001678">
        <ele>1968.97296</ele>
      </trkpt>
      <trkpt lat="46.936362" lon="11.00178">
        <ele>1969.03525</ele>
      </trkpt>
      <trkpt lat="46.93639" lon="11.00184">
        <ele>1968.36956</ele>
      </trkpt>
      <trkpt lat="46.936421" lon="11.001873">
        <ele>1968.33392</ele>
      </trkpt>
      <trkpt lat="46.936451" lon="11.001902">
        <ele>1968.2733</ele>
      </trkpt>
      <trkpt lat="46.936477" lon="11.001925">
        <ele>1968.18847</ele>
      </trkpt>
      <trkpt lat="46.936509" lon="11.001949">
        <ele>1968.18529</ele>
      </trkpt>
      <trkpt lat="46.936573" lon="11.001997">
        <ele>1968.11812</ele>
      </trkpt>
      <trkpt lat="46.936659" lon="11.002057">
        <ele>1968.41599</ele>
      </trkpt>
      <trkpt lat="46.936743" lon="11.002113">
        <ele>1969.00592</ele>
      </trkpt>
      <trkpt lat="46.936814" lon="11.002157">
        <ele>1969.34139</ele>
      </trkpt>
      <trkpt lat="46.936852" lon="11.00218">
        <ele>1969.6051</ele>
      </trkpt>
      <trkpt lat="46.936884" lon="11.002199">
        <ele>1969.8518</ele>
      </trkpt>
      <trkpt lat="46.937034" lon="11.002279">
        <ele>1971.0977</ele>
      </trkpt>
      <trkpt lat="46.937151" lon="11.002342">
        <ele>1972.02763</ele>
      </trkpt>
      <trkpt lat="46.937205" lon="11.002374">
        <ele>1972.64178</ele>
      </trkpt>
      <trkpt lat="46.937251" lon="11.002403">
        <ele>1973.09454</ele>
      </trkpt>
      <trkpt lat="46.937296" lon="11.002432">
        <ele>1973.49574</ele>
      </trkpt>
      <trkpt lat="46.937337" lon="11.002461">
        <ele>1973.87666</ele>
      </trkpt>
      <trkpt lat="46.937429" lon="11.002531">
        <ele>1974.87443</ele>
      </trkpt>
      <trkpt lat="46.937521" lon="11.002603">
        <ele>1975.86256</ele>
      </trkpt>
      <trkpt lat="46.937553" lon="11.002626">
        <ele>1976.25156</ele>
      </trkpt>
      <trkpt lat="46.937574" lon="11.00264">
        <ele>1976.47656</ele>
      </trkpt>
      <trkpt lat="46.937589" lon="11.002649">
        <ele>1976.60822</ele>
      </trkpt>
      <trkpt lat="46.937601" lon="11.002654">
        <ele>1976.70071</ele>
      </trkpt>
      <trkpt lat="46.937613" lon="11.002657">
        <ele>1976.77979</ele>
      </trkpt>
      <trkpt lat="46.937625" lon="11.002684">
        <ele>1976.8924</ele>
      </trkpt>
      <trkpt lat="46.937636" lon="11.00269">
        <ele>1976.95552</ele>
      </trkpt>
      <trkpt lat="46.937649" lon="11.00269">
        <ele>1976.99098</ele>
      </trkpt>
      <trkpt lat="46.937656" lon="11.002687">
        <ele>1976.99704</ele>
      </trkpt>
      <trkpt lat="46.937662" lon="11.002671">
        <ele>1976.97342</ele>
      </trkpt>
      <trkpt lat="46.937664" lon="11.002652">
        <ele>1976.9728</ele>
      </trkpt>
      <trkpt lat="46.937665" lon="11.002639">
        <ele>1976.98989</ele>
      </trkpt>
      <trkpt lat="46.937669" lon="11.002632">
        <ele>1977.00962</ele>
      </trkpt>
      <trkpt lat="46.937674" lon="11.002621">
        <ele>1977.04142</ele>
      </trkpt>
      <trkpt lat="46.937678" lon="11.002609">
        <ele>1977.07706</ele>
      </trkpt>
      <trkpt lat="46.937681" lon="11.002598">
        <ele>1977.11128</ele>
      </trkpt>
      <trkpt lat="46.937692" lon="11.002555">
        <ele>1977.24769</ele>
      </trkpt>
      <trkpt lat="46.937704" lon="11.002514">
        <ele>1977.36557</ele>
      </trkpt>
      <trkpt lat="46.937723" lon="11.002454">
        <ele>1977.56196</ele>
      </trkpt>
      <trkpt lat="46.93773" lon="11.002431">
        <ele>1977.65031</ele>
      </trkpt>
      <trkpt lat="46.937736" lon="11.002414">
        <ele>1977.71655</ele>
      </trkpt>
      <trkpt lat="46.937749" lon="11.002386">
        <ele>1977.82204</ele>
      </trkpt>
      <trkpt lat="46.937762" lon="11.002359">
        <ele>1977.94008</ele>
      </trkpt>
      <trkpt lat="46.937777" lon="11.002335">
        <ele>1978.04969</ele>
      </trkpt>
      <trkpt lat="46.937793" lon="11.002312">
        <ele>1978.17339</ele>
      </trkpt>
      <trkpt lat="46.937808" lon="11.002294">
        <ele>1978.28705</ele>
      </trkpt>
      <trkpt lat="46.937839" lon="11.002262">
        <ele>1978.55371</ele>
      </trkpt>
      <trkpt lat="46.937874" lon="11.002228">
        <ele>1978.95809</ele>
      </trkpt>
      <trkpt lat="46.93791" lon="11.002195">
        <ele>1979.47699</ele>
      </trkpt>
      <trkpt lat="46.937983" lon="11.00213">
        <ele>1980.73812</ele>
      </trkpt>
      <trkpt lat="46.938025" lon="11.002095">
        <ele>1981.43647</ele>
      </trkpt>
      <trkpt lat="46.938081" lon="11.00205">
        <ele>1982.3529</ele>
      </trkpt>
      <trkpt lat="46.938099" lon="11.002034">
        <ele>1982.68281</ele>
      </trkpt>
      <trkpt lat="46.938116" lon="11.002018">
        <ele>1982.99553</ele>
      </trkpt>
      <trkpt lat="46.938133" lon="11.002001">
        <ele>1983.32249</ele>
      </trkpt>
      <trkpt lat="46.938149" lon="11.001983">
        <ele>1983.66198</ele>
      </trkpt>
      <trkpt lat="46.938166" lon="11.001962">
        <ele>1984.05129</ele>
      </trkpt>
      <trkpt lat="46.938182" lon="11.001939">
        <ele>1984.47158</ele>
      </trkpt>
      <trkpt lat="46.938198" lon="11.001914">
        <ele>1984.89293</ele>
      </trkpt>
      <trkpt lat="46.938239" lon="11.001848">
        <ele>1985.74834</ele>
      </trkpt>
      <trkpt lat="46.938276" lon="11.001789">
        <ele>1986.19634</ele>
      </trkpt>
      <trkpt lat="46.938289" lon="11.001766">
        <ele>1986.38344</ele>
      </trkpt>
      <trkpt lat="46.9383" lon="11.001745">
        <ele>1986.57994</ele>
      </trkpt>
      <trkpt lat="46.938309" lon="11.001724">
        <ele>1986.85612</ele>
      </trkpt>
      <trkpt lat="46.938318" lon="11.001704">
        <ele>1987.11729</ele>
      </trkpt>
      <trkpt lat="46.938329" lon="11.001673">
        <ele>1987.6529</ele>
      </trkpt>
      <trkpt lat="46.938338" lon="11.001654">
        <ele>1987.9131</ele>
      </trkpt>
      <trkpt lat="46.938348" lon="11.001632">
        <ele>1988.23923</ele>
      </trkpt>
      <trkpt lat="46.93836" lon="11.001612">
        <ele>1988.45207</ele>
      </trkpt>
      <trkpt lat="46.938376" lon="11.001585">
        <ele>1988.77872</ele>
      </trkpt>
      <trkpt lat="46.938412" lon="11.001533">
        <ele>1989.38714</ele>
      </trkpt>
      <trkpt lat="46.938438" lon="11.001494">
        <ele>1989.96127</ele>
      </trkpt>
      <trkpt lat="46.938463" lon="11.001455">
        <ele>1990.38258</ele>
      </trkpt>
      <trkpt lat="46.938478" lon="11.001429">
        <ele>1990.49242</ele>
      </trkpt>
      <trkpt lat="46.938489" lon="11.001407">
        <ele>1990.54382</ele>
      </trkpt>
      <trkpt lat="46.9385" lon="11.001385">
        <ele>1990.56357</ele>
      </trkpt>
      <trkpt lat="46.93851" lon="11.00136">
        <ele>1990.72724</ele>
      </trkpt>
      <trkpt lat="46.938526" lon="11.001318">
        <ele>1991.29955</ele>
      </trkpt>
      <trkpt lat="46.938533" lon="11.001304">
        <ele>1991.54322</ele>
      </trkpt>
      <trkpt lat="46.93854" lon="11.00129">
        <ele>1991.84849</ele>
      </trkpt>
      <trkpt lat="46.938551" lon="11.001274">
        <ele>1992.18747</ele>
      </trkpt>
      <trkpt lat="46.938561" lon="11.00126">
        <ele>1992.53352</ele>
      </trkpt>
      <trkpt lat="46.938573" lon="11.001246">
        <ele>1992.88096</ele>
      </trkpt>
      <trkpt lat="46.938587" lon="11.001232">
        <ele>1993.22788</ele>
      </trkpt>
      <trkpt lat="46.938606" lon="11.001216">
        <ele>1993.60628</ele>
      </trkpt>
      <trkpt lat="46.938626" lon="11.001202">
        <ele>1993.89982</ele>
      </trkpt>
      <trkpt lat="46.93865" lon="11.001188">
        <ele>1994.12365</ele>
      </trkpt>
      <trkpt lat="46.938675" lon="11.001176">
        <ele>1994.231</ele>
      </trkpt>
      <trkpt lat="46.938699" lon="11.001166">
        <ele>1994.29852</ele>
      </trkpt>
      <trkpt lat="46.93884" lon="11.001111">
        <ele>1995.12229</ele>
      </trkpt>
      <trkpt lat="46.938906" lon="11.001084">
        <ele>1995.51868</ele>
      </trkpt>
      <trkpt lat="46.938965" lon="11.001058">
        <ele>1995.9363</ele>
      </trkpt>
      <trkpt lat="46.939057" lon="11.001015">
        <ele>1995.99899</ele>
      </trkpt>
      <trkpt lat="46.939089" lon="11.001001">
        <ele>1995.91529</ele>
      </trkpt>
      <trkpt lat="46.939107" lon="11.000994">
        <ele>1995.83845</ele>
      </trkpt>
      <trkpt lat="46.939126" lon="11.000988">
        <ele>1995.68699</ele>
      </trkpt>
      <trkpt lat="46.939186" lon="11.000971">
        <ele>1994.91078</ele>
      </trkpt>
      <trkpt lat="46.939217" lon="11.000959">
        <ele>1994.47819</ele>
      </trkpt>
      <trkpt lat="46.939236" lon="11.00095">
        <ele>1994.25242</ele>
      </trkpt>
      <trkpt lat="46.93926" lon="11.000937">
        <ele>1994.04978</ele>
      </trkpt>
      <trkpt lat="46.939291" lon="11.000919">
        <ele>1993.77264</ele>
      </trkpt>
      <trkpt lat="46.939327" lon="11.000897">
        <ele>1993.68543</ele>
      </trkpt>
      <trkpt lat="46.939343" lon="11.000889">
        <ele>1993.73105</ele>
      </trkpt>
      <trkpt lat="46.939358" lon="11.000882">
        <ele>1993.88435</ele>
      </trkpt>
      <trkpt lat="46.939373" lon="11.000876">
        <ele>1994.09675</ele>
      </trkpt>
      <trkpt lat="46.939388" lon="11.00087">
        <ele>1994.37096</ele>
      </trkpt>
      <trkpt lat="46.939414" lon="11.000862">
        <ele>1994.73255</ele>
      </trkpt>
      <trkpt lat="46.93943" lon="11.000856">
        <ele>1994.93694</ele>
      </trkpt>
      <trkpt lat="46.939449" lon="11.000846">
        <ele>1995.22528</ele>
      </trkpt>
      <trkpt lat="46.939468" lon="11.000834">
        <ele>1995.55891</ele>
      </trkpt>
      <trkpt lat="46.939482" lon="11.000822">
        <ele>1995.88023</ele>
      </trkpt>
      <trkpt lat="46.939518" lon="11.000788">
        <ele>1996.38419</ele>
      </trkpt>
      <trkpt lat="46.939549" lon="11.000759">
        <ele>1996.11347</ele>
      </trkpt>
      <trkpt lat="46.939556" lon="11.000752">
        <ele>1995.98516</ele>
      </trkpt>
      <trkpt lat="46.939564" lon="11.000744">
        <ele>1995.81811</ele>
      </trkpt>
      <trkpt lat="46.939575" lon="11.000728">
        <ele>1995.67136</ele>
      </trkpt>
      <trkpt lat="46.939587" lon="11.00071">
        <ele>1995.4883</ele>
      </trkpt>
      <trkpt lat="46.939598" lon="11.00069">
        <ele>1995.38777</ele>
      </trkpt>
      <trkpt lat="46.939616" lon="11.000656">
        <ele>1995.29847</ele>
      </trkpt>
      <trkpt lat="46.939628" lon="11.000635">
        <ele>1995.24903</ele>
      </trkpt>
      <trkpt lat="46.939637" lon="11.000622">
        <ele>1995.1879</ele>
      </trkpt>
      <trkpt lat="46.939645" lon="11.000612">
        <ele>1995.12955</ele>
      </trkpt>
      <trkpt lat="46.939653" lon="11.000602">
        <ele>1995.09832</ele>
      </trkpt>
      <trkpt lat="46.939661" lon="11.000594">
        <ele>1995.04529</ele>
      </trkpt>
      <trkpt lat="46.939669" lon="11.000586">
        <ele>1995.01992</ele>
      </trkpt>
      <trkpt lat="46.939678" lon="11.000578">
        <ele>1994.99645</ele>
      </trkpt>
      <trkpt lat="46.939708" lon="11.000556">
        <ele>1994.97182</ele>
      </trkpt>
      <trkpt lat="46.939734" lon="11.00054">
        <ele>1995.06835</ele>
      </trkpt>
      <trkpt lat="46.939775" lon="11.000516">
        <ele>1995.0714</ele>
      </trkpt>
      <trkpt lat="46.939787" lon="11.000508">
        <ele>1994.99572</ele>
      </trkpt>
      <trkpt lat="46.939797" lon="11.000499">
        <ele>1994.96901</ele>
      </trkpt>
      <trkpt lat="46.939806" lon="11.000491">
        <ele>1994.91545</ele>
      </trkpt>
      <trkpt lat="46.939826" lon="11.000471">
        <ele>1994.7811</ele>
      </trkpt>
      <trkpt lat="46.939846" lon="11.000448">
        <ele>1994.60904</ele>
      </trkpt>
      <trkpt lat="46.939866" lon="11.000421">
        <ele>1994.42535</ele>
      </trkpt>
      <trkpt lat="46.939882" lon="11.000398">
        <ele>1994.27022</ele>
      </trkpt>
      <trkpt lat="46.939915" lon="11.000348">
        <ele>1994.12164</ele>
      </trkpt>
      <trkpt lat="46.939938" lon="11.000315">
        <ele>1994.17496</ele>
      </trkpt>
      <trkpt lat="46.939958" lon="11.000287">
        <ele>1994.25111</ele>
      </trkpt>
      <trkpt lat="46.939973" lon="11.000268">
        <ele>1994.22048</ele>
      </trkpt>
      <trkpt lat="46.939983" lon="11.000256">
        <ele>1994.15688</ele>
      </trkpt>
      <trkpt lat="46.939998" lon="11.000242">
        <ele>1993.87671</ele>
      </trkpt>
      <trkpt lat="46.940018" lon="11.000224">
        <ele>1993.41532</ele>
      </trkpt>
      <trkpt lat="46.940057" lon="11.000192">
        <ele>1992.3504</ele>
      </trkpt>
      <trkpt lat="46.940073" lon="11.000176">
        <ele>1992.01281</ele>
      </trkpt>
      <trkpt lat="46.94009" lon="11.000158">
        <ele>1991.7081</ele>
      </trkpt>
      <trkpt lat="46.940111" lon="11.000134">
        <ele>1991.46437</ele>
      </trkpt>
      <trkpt lat="46.940127" lon="11.000113">
        <ele>1991.44335</ele>
      </trkpt>
      <trkpt lat="46.940137" lon="11.000098">
        <ele>1991.52852</ele>
      </trkpt>
      <trkpt lat="46.940149" lon="11.000077">
        <ele>1991.76029</ele>
      </trkpt>
      <trkpt lat="46.940156" lon="11.000066">
        <ele>1991.84831</ele>
      </trkpt>
      <trkpt lat="46.940168" lon="11.000052">
        <ele>1991.81575</ele>
      </trkpt>
      <trkpt lat="46.940182" lon="11.000038">
        <ele>1991.71487</ele>
      </trkpt>
      <trkpt lat="46.940196" lon="11.000027">
        <ele>1991.5391</ele>
      </trkpt>
      <trkpt lat="46.94021" lon="11.000017">
        <ele>1991.38567</ele>
      </trkpt>
      <trkpt lat="46.940226" lon="11.000007">
        <ele>1991.24039</ele>
      </trkpt>
      <trkpt lat="46.940242" lon="10.999999">
        <ele>1991.11668</ele>
      </trkpt>
      <trkpt lat="46.940268" lon="10.999986">
        <ele>1991.08168</ele>
      </trkpt>
      <trkpt lat="46.940308" lon="10.99997">
        <ele>1990.79252</ele>
      </trkpt>
      <trkpt lat="46.940331" lon="10.99996">
        <ele>1990.42272</ele>
      </trkpt>
      <trkpt lat="46.940358" lon="10.999947">
        <ele>1989.83562</ele>
      </trkpt>
      <trkpt lat="46.940384" lon="10.999934">
        <ele>1989.10606</ele>
      </trkpt>
      <trkpt lat="46.940415" lon="10.999915">
        <ele>1988.21016</ele>
      </trkpt>
      <trkpt lat="46.940452" lon="10.999893">
        <ele>1987.03137</ele>
      </trkpt>
      <trkpt lat="46.940468" lon="10.999863">
        <ele>1987.24169</ele>
      </trkpt>
      <trkpt lat="46.940499" lon="10.999804">
        <ele>1987.727</ele>
      </trkpt>
      <trkpt lat="46.94053" lon="10.999793">
        <ele>1986.52135</ele>
      </trkpt>
      <trkpt lat="46.940555" lon="10.999771">
        <ele>1986.00339</ele>
      </trkpt>
      <trkpt lat="46.94059" lon="10.999763">
        <ele>1984.63353</ele>
      </trkpt>
      <trkpt lat="46.940618" lon="10.999742">
        <ele>1984.25775</ele>
      </trkpt>
      <trkpt lat="46.940658" lon="10.99972">
        <ele>1983.34026</ele>
      </trkpt>
      <trkpt lat="46.940687" lon="10.999688">
        <ele>1983.16792</ele>
      </trkpt>
      <trkpt lat="46.94072" lon="10.999659">
        <ele>1982.22409</ele>
      </trkpt>
      <trkpt lat="46.940757" lon="10.999602">
        <ele>1982.09216</ele>
      </trkpt>
      <trkpt lat="46.940792" lon="10.999576">
        <ele>1981.35831</ele>
      </trkpt>
      <trkpt lat="46.940847" lon="10.999578">
        <ele>1978.4934</ele>
      </trkpt>
      <trkpt lat="46.940955" lon="10.999514">
        <ele>1977.15887</ele>
      </trkpt>
      <trkpt lat="46.941037" lon="10.99947">
        <ele>1976.38473</ele>
      </trkpt>
      <trkpt lat="46.941069" lon="10.999445">
        <ele>1976.6517</ele>
      </trkpt>
      <trkpt lat="46.941092" lon="10.999428">
        <ele>1976.74451</ele>
      </trkpt>
      <trkpt lat="46.941118" lon="10.99941">
        <ele>1976.70601</ele>
      </trkpt>
      <trkpt lat="46.941144" lon="10.999394">
        <ele>1976.5924</ele>
      </trkpt>
      <trkpt lat="46.941169" lon="10.999381">
        <ele>1976.47075</ele>
      </trkpt>
      <trkpt lat="46.941206" lon="10.999363">
        <ele>1976.4075</ele>
      </trkpt>
      <trkpt lat="46.941227" lon="10.999352">
        <ele>1976.53588</ele>
      </trkpt>
      <trkpt lat="46.941253" lon="10.999337">
        <ele>1976.80566</ele>
      </trkpt>
      <trkpt lat="46.941278" lon="10.999321">
        <ele>1977.04156</ele>
      </trkpt>
      <trkpt lat="46.941304" lon="10.999303">
        <ele>1977.20306</ele>
      </trkpt>
      <trkpt lat="46.941377" lon="10.99925">
        <ele>1978.08472</ele>
      </trkpt>
      <trkpt lat="46.941449" lon="10.9992">
        <ele>1978.83743</ele>
      </trkpt>
      <trkpt lat="46.941596" lon="10.999106">
        <ele>1978.83331</ele>
      </trkpt>
      <trkpt lat="46.941724" lon="10.999058">
        <ele>1977.34558</ele>
      </trkpt>
      <trkpt lat="46.941804" lon="10.998921">
        <ele>1979.64155</ele>
      </trkpt>
      <trkpt lat="46.941856" lon="10.998838">
        <ele>1980.84973</ele>
      </trkpt>
      <trkpt lat="46.941901" lon="10.998803">
        <ele>1981.00772</ele>
      </trkpt>
      <trkpt lat="46.94198" lon="10.998744">
        <ele>1980.86592</ele>
      </trkpt>
      <trkpt lat="46.942125" lon="10.998515">
        <ele>1985.3</ele>
        <extensions>
          <oa:locType>routingNode</oa:locType>
        </extensions>
      </trkpt>
    </trkseg>
  </trk>
</gpx>