<?xml version="1.0" encoding="UTF-8" standalone="yes"?>
<gpx version="1.1" creator="outdooractive - http://www.outdooractive.com" xmlns="http://www.topografix.com/GPX/1/1" xmlns:oa="http://www.outdooractive.com/GPX/Extensions/1" xmlns:xsi="http://www.w3.org/2001/XMLSchema-instance" xsi:schemaLocation="http://www.topografix.com/GPX/1/1 http://www.topografix.com/GPX/1/1/gpx.xsd http://www.outdooractive.com/GPX/Extensions/1 https://www.outdooractive.com/schema/gpx_extensions.xsd">
  <metadata>
    <name>Leiterberg Trail (672)</name>
    <author>
      <name>Bergbahnen Sölden, Mag. Jakob Falkner - Ötztal</name>
    </author>
    <link href="https://www.outdooractive.com/r/22746226"/>
    <time>2025-10-13T21:11:22.916Z</time>
    <extensions>
      <oa:oaCategory>mountainbiking</oa:oaCategory>
    </extensions>
  </metadata>
  <trk>
    <name>Leiterberg Trail (672)</name>
    <desc>Vom Herzen der BIKE REPUBLIC SÖLDEN führt der rote Leiterberg Trail hinaus in die wilde Seite – und das mal flowig, mal bockig, aber durchgehend superschön.</desc>
    <type>mountainbiking</type>
    <trkseg>
      <trkpt lat="46.977456" lon="10.987444">
        <ele>2014.0732</ele>
        <name>46.977456,10.987444</name>
        <extensions>
          <oa:Extension>
            <oa:mapZoom>16</oa:mapZoom>
          </oa:Extension>
        </extensions>
      </trkpt>
      <trkpt lat="46.977573" lon="10.987347">
        <ele>2016.71939</ele>
      </trkpt>
      <trkpt lat="46.977643" lon="10.987294">
        <ele>2017.39836</ele>
      </trkpt>
      <trkpt lat="46.977831" lon="10.98704">
        <ele>2020.29448</ele>
      </trkpt>
      <trkpt lat="46.977861" lon="10.987003">
        <ele>2019.86481</ele>
      </trkpt>
      <trkpt lat="46.977894" lon="10.986962">
        <ele>2019.50759</ele>
      </trkpt>
      <trkpt lat="46.977947" lon="10.986891">
        <ele>2018.94429</ele>
      </trkpt>
      <trkpt lat="46.978003" lon="10.986822">
        <ele>2017.65667</ele>
      </trkpt>
      <trkpt lat="46.978067" lon="10.98673">
        <ele>2016.33736</ele>
      </trkpt>
      <trkpt lat="46.978109" lon="10.986682">
        <ele>2015.67066</ele>
      </trkpt>
      <trkpt lat="46.978119" lon="10.98665">
        <ele>2015.98417</ele>
      </trkpt>
      <trkpt lat="46.978166" lon="10.986591">
        <ele>2015.02568</ele>
      </trkpt>
      <trkpt lat="46.978178" lon="10.986531">
        <ele>2015.76457</ele>
      </trkpt>
      <trkpt lat="46.978244" lon="10.986476">
        <ele>2014.02151</ele>
      </trkpt>
      <trkpt lat="46.978303" lon="10.986421">
        <ele>2013.32067</ele>
      </trkpt>
      <trkpt lat="46.978358" lon="10.986372">
        <ele>2013.1289</ele>
      </trkpt>
      <trkpt lat="46.978405" lon="10.986337">
        <ele>2012.72423</ele>
      </trkpt>
      <trkpt lat="46.97845" lon="10.986309">
        <ele>2012.15194</ele>
      </trkpt>
      <trkpt lat="46.978482" lon="10.986292">
        <ele>2011.78939</ele>
      </trkpt>
      <trkpt lat="46.97852" lon="10.986275">
        <ele>2011.47394</ele>
      </trkpt>
      <trkpt lat="46.978571" lon="10.986254">
        <ele>2011.13757</ele>
      </trkpt>
      <trkpt lat="46.978611" lon="10.986239">
        <ele>2010.81566</ele>
      </trkpt>
      <trkpt lat="46.978651" lon="10.986226">
        <ele>2010.50053</ele>
      </trkpt>
      <trkpt lat="46.978691" lon="10.986214">
        <ele>2010.30286</ele>
      </trkpt>
      <trkpt lat="46.978735" lon="10.986203">
        <ele>2010.23154</ele>
      </trkpt>
      <trkpt lat="46.978773" lon="10.986196">
        <ele>2010.33779</ele>
      </trkpt>
      <trkpt lat="46.978816" lon="10.986189">
        <ele>2010.66234</ele>
      </trkpt>
      <trkpt lat="46.978858" lon="10.986186">
        <ele>2011.08334</ele>
      </trkpt>
      <trkpt lat="46.978914" lon="10.986185">
        <ele>2011.70577</ele>
      </trkpt>
      <trkpt lat="46.978955" lon="10.986186">
        <ele>2011.86296</ele>
      </trkpt>
      <trkpt lat="46.97898" lon="10.986189">
        <ele>2011.85989</ele>
      </trkpt>
      <trkpt lat="46.979024" lon="10.986197">
        <ele>2011.89478</ele>
      </trkpt>
      <trkpt lat="46.979085" lon="10.986209">
        <ele>2011.99985</ele>
      </trkpt>
      <trkpt lat="46.979153" lon="10.986224">
        <ele>2011.47604</ele>
      </trkpt>
      <trkpt lat="46.979187" lon="10.986233">
        <ele>2011.05196</ele>
      </trkpt>
      <trkpt lat="46.979286" lon="10.986277">
        <ele>2009.05137</ele>
      </trkpt>
      <trkpt lat="46.979333" lon="10.986309">
        <ele>2008.05541</ele>
      </trkpt>
      <trkpt lat="46.979375" lon="10.986344">
        <ele>2006.12835</ele>
      </trkpt>
      <trkpt lat="46.979394" lon="10.986358">
        <ele>2004.67586</ele>
      </trkpt>
      <trkpt lat="46.979421" lon="10.98636">
        <ele>2002.64753</ele>
      </trkpt>
      <trkpt lat="46.979537" lon="10.9862">
        <ele>1998.38711</ele>
      </trkpt>
      <trkpt lat="46.979589" lon="10.986134">
        <ele>1996.92633</ele>
      </trkpt>
      <trkpt lat="46.979628" lon="10.986088">
        <ele>1995.72474</ele>
      </trkpt>
      <trkpt lat="46.97965" lon="10.986056">
        <ele>1994.78449</ele>
      </trkpt>
      <trkpt lat="46.979739" lon="10.985834">
        <ele>1993.078</ele>
      </trkpt>
      <trkpt lat="46.979777" lon="10.98579">
        <ele>1991.93695</ele>
      </trkpt>
      <trkpt lat="46.979808" lon="10.985762">
        <ele>1990.77619</ele>
      </trkpt>
      <trkpt lat="46.97985" lon="10.985725">
        <ele>1989.29378</ele>
      </trkpt>
      <trkpt lat="46.979875" lon="10.985703">
        <ele>1988.71238</ele>
      </trkpt>
      <trkpt lat="46.979889" lon="10.985689">
        <ele>1988.5803</ele>
      </trkpt>
      <trkpt lat="46.979943" lon="10.985632">
        <ele>1987.60786</ele>
      </trkpt>
      <trkpt lat="46.979987" lon="10.985606">
        <ele>1985.9855</ele>
      </trkpt>
      <trkpt lat="46.980029" lon="10.985624">
        <ele>1985.83771</ele>
      </trkpt>
      <trkpt lat="46.980079" lon="10.985785">
        <ele>1985.41727</ele>
      </trkpt>
      <trkpt lat="46.980094" lon="10.985807">
        <ele>1985.42981</ele>
      </trkpt>
      <trkpt lat="46.980319" lon="10.985949">
        <ele>1982.53536</ele>
        <name>46.980319,10.985949</name>
        <extensions>
          <oa:Extension>
            <oa:mapZoom>15</oa:mapZoom>
          </oa:Extension>
        </extensions>
      </trkpt>
      <trkpt lat="46.98037" lon="10.986113">
        <ele>1980.87683</ele>
      </trkpt>
      <trkpt lat="46.980374" lon="10.98625">
        <ele>1977.46394</ele>
      </trkpt>
      <trkpt lat="46.980382" lon="10.986288">
        <ele>1977.05181</ele>
      </trkpt>
      <trkpt lat="46.980413" lon="10.986373">
        <ele>1977.32301</ele>
      </trkpt>
      <trkpt lat="46.980418" lon="10.986397">
        <ele>1977.16391</ele>
      </trkpt>
      <trkpt lat="46.980419" lon="10.986425">
        <ele>1976.59155</ele>
      </trkpt>
      <trkpt lat="46.980416" lon="10.986521">
        <ele>1974.22058</ele>
      </trkpt>
      <trkpt lat="46.980416" lon="10.986562">
        <ele>1973.41031</ele>
      </trkpt>
      <trkpt lat="46.980446" lon="10.986693">
        <ele>1973.90359</ele>
      </trkpt>
      <trkpt lat="46.980449" lon="10.98674">
        <ele>1973.66685</ele>
      </trkpt>
      <trkpt lat="46.980449" lon="10.986828">
        <ele>1973.46039</ele>
      </trkpt>
      <trkpt lat="46.98045" lon="10.986842">
        <ele>1973.4451</ele>
      </trkpt>
      <trkpt lat="46.980509" lon="10.987019">
        <ele>1974.02305</ele>
      </trkpt>
      <trkpt lat="46.980515" lon="10.987104">
        <ele>1973.22944</ele>
      </trkpt>
      <trkpt lat="46.980515" lon="10.98715">
        <ele>1972.73805</ele>
      </trkpt>
      <trkpt lat="46.980514" lon="10.987215">
        <ele>1972.10881</ele>
      </trkpt>
      <trkpt lat="46.980513" lon="10.987253">
        <ele>1971.60647</ele>
      </trkpt>
      <trkpt lat="46.980515" lon="10.987302">
        <ele>1971.0683</ele>
      </trkpt>
      <trkpt lat="46.98052" lon="10.987333">
        <ele>1970.9254</ele>
      </trkpt>
      <trkpt lat="46.980542" lon="10.987405">
        <ele>1971.05359</ele>
      </trkpt>
      <trkpt lat="46.980547" lon="10.987425">
        <ele>1970.95656</ele>
      </trkpt>
      <trkpt lat="46.980559" lon="10.987512">
        <ele>1970.58713</ele>
      </trkpt>
      <trkpt lat="46.98056" lon="10.987564">
        <ele>1970.90065</ele>
      </trkpt>
      <trkpt lat="46.980537" lon="10.987693">
        <ele>1970.59702</ele>
      </trkpt>
      <trkpt lat="46.980526" lon="10.987845">
        <ele>1970.68435</ele>
      </trkpt>
      <trkpt lat="46.980524" lon="10.987917">
        <ele>1970.34809</ele>
      </trkpt>
      <trkpt lat="46.980523" lon="10.98796">
        <ele>1970.10431</ele>
      </trkpt>
      <trkpt lat="46.980524" lon="10.98803">
        <ele>1969.74106</ele>
      </trkpt>
      <trkpt lat="46.980535" lon="10.988152">
        <ele>1969.14487</ele>
      </trkpt>
      <trkpt lat="46.98055" lon="10.988237">
        <ele>1968.93201</ele>
      </trkpt>
      <trkpt lat="46.98056" lon="10.988282">
        <ele>1968.77601</ele>
      </trkpt>
      <trkpt lat="46.980581" lon="10.988352">
        <ele>1968.49251</ele>
      </trkpt>
      <trkpt lat="46.9806" lon="10.98839">
        <ele>1968.63003</ele>
      </trkpt>
      <trkpt lat="46.980635" lon="10.988436">
        <ele>1969.28293</ele>
      </trkpt>
      <trkpt lat="46.980661" lon="10.988472">
        <ele>1969.39972</ele>
      </trkpt>
      <trkpt lat="46.980686" lon="10.988516">
        <ele>1969.16155</ele>
      </trkpt>
      <trkpt lat="46.98071" lon="10.988591">
        <ele>1968.41175</ele>
      </trkpt>
      <trkpt lat="46.980724" lon="10.988706">
        <ele>1965.93585</ele>
      </trkpt>
      <trkpt lat="46.980805" lon="10.988827">
        <ele>1965.44242</ele>
      </trkpt>
      <trkpt lat="46.980827" lon="10.988901">
        <ele>1964.1904</ele>
      </trkpt>
      <trkpt lat="46.980817" lon="10.989021">
        <ele>1963.70102</ele>
      </trkpt>
      <trkpt lat="46.980812" lon="10.98903">
        <ele>1963.5393</ele>
      </trkpt>
      <trkpt lat="46.980806" lon="10.989038">
        <ele>1963.28854</ele>
      </trkpt>
      <trkpt lat="46.980748" lon="10.989122">
        <ele>1961.94486</ele>
      </trkpt>
      <trkpt lat="46.980726" lon="10.989153">
        <ele>1961.79644</ele>
      </trkpt>
      <trkpt lat="46.980669" lon="10.989229">
        <ele>1961.32031</ele>
      </trkpt>
      <trkpt lat="46.980612" lon="10.989301">
        <ele>1960.60564</ele>
      </trkpt>
      <trkpt lat="46.980563" lon="10.989413">
        <ele>1960.03747</ele>
      </trkpt>
      <trkpt lat="46.980552" lon="10.989515">
        <ele>1960.28991</ele>
      </trkpt>
      <trkpt lat="46.980564" lon="10.989803">
        <ele>1959.41575</ele>
      </trkpt>
      <trkpt lat="46.980526" lon="10.990034">
        <ele>1958.54039</ele>
      </trkpt>
      <trkpt lat="46.980536" lon="10.990099">
        <ele>1958.61547</ele>
      </trkpt>
      <trkpt lat="46.980563" lon="10.990149">
        <ele>1958.80305</ele>
      </trkpt>
      <trkpt lat="46.98067" lon="10.990219">
        <ele>1959.94169</ele>
      </trkpt>
      <trkpt lat="46.980704" lon="10.990272">
        <ele>1959.51222</ele>
      </trkpt>
      <trkpt lat="46.980726" lon="10.990339">
        <ele>1958.94062</ele>
      </trkpt>
      <trkpt lat="46.980728" lon="10.990373">
        <ele>1958.37106</ele>
      </trkpt>
      <trkpt lat="46.980732" lon="10.990581">
        <ele>1957.18723</ele>
      </trkpt>
      <trkpt lat="46.980735" lon="10.990694">
        <ele>1957.12878</ele>
      </trkpt>
      <trkpt lat="46.980735" lon="10.990749">
        <ele>1957.0765</ele>
      </trkpt>
      <trkpt lat="46.980736" lon="10.990845">
        <ele>1957.18562</ele>
      </trkpt>
      <trkpt lat="46.980737" lon="10.990897">
        <ele>1957.28569</ele>
      </trkpt>
      <trkpt lat="46.980751" lon="10.991053">
        <ele>1957.54162</ele>
      </trkpt>
      <trkpt lat="46.980745" lon="10.991107">
        <ele>1957.35865</ele>
      </trkpt>
      <trkpt lat="46.980739" lon="10.991132">
        <ele>1957.13676</ele>
      </trkpt>
      <trkpt lat="46.98072" lon="10.991197">
        <ele>1956.39503</ele>
      </trkpt>
      <trkpt lat="46.980713" lon="10.99126">
        <ele>1956.75295</ele>
      </trkpt>
      <trkpt lat="46.980752" lon="10.991492">
        <ele>1956.68305</ele>
      </trkpt>
      <trkpt lat="46.980753" lon="10.991536">
        <ele>1956.33631</ele>
      </trkpt>
      <trkpt lat="46.980754" lon="10.99162">
        <ele>1956.07022</ele>
      </trkpt>
      <trkpt lat="46.980754" lon="10.991634">
        <ele>1956.07853</ele>
      </trkpt>
      <trkpt lat="46.980739" lon="10.991763">
        <ele>1955.27361</ele>
      </trkpt>
      <trkpt lat="46.980762" lon="10.991919">
        <ele>1955.98398</ele>
      </trkpt>
      <trkpt lat="46.980754" lon="10.992054">
        <ele>1954.31233</ele>
      </trkpt>
      <trkpt lat="46.980757" lon="10.992112">
        <ele>1953.82835</ele>
      </trkpt>
      <trkpt lat="46.980778" lon="10.992176">
        <ele>1953.97796</ele>
      </trkpt>
      <trkpt lat="46.980845" lon="10.992332">
        <ele>1954.08893</ele>
      </trkpt>
      <trkpt lat="46.980869" lon="10.992377">
        <ele>1954.03811</ele>
      </trkpt>
      <trkpt lat="46.980908" lon="10.992408">
        <ele>1954.57113</ele>
      </trkpt>
      <trkpt lat="46.981002" lon="10.992433">
        <ele>1956.50674</ele>
      </trkpt>
      <trkpt lat="46.981054" lon="10.992501">
        <ele>1956.9433</ele>
      </trkpt>
      <trkpt lat="46.981068" lon="10.992571">
        <ele>1956.4397</ele>
      </trkpt>
      <trkpt lat="46.98107" lon="10.992611">
        <ele>1955.99222</ele>
      </trkpt>
      <trkpt lat="46.98107" lon="10.992678">
        <ele>1955.70941</ele>
      </trkpt>
      <trkpt lat="46.981071" lon="10.992718">
        <ele>1955.81509</ele>
      </trkpt>
      <trkpt lat="46.981075" lon="10.992778">
        <ele>1955.84568</ele>
      </trkpt>
      <trkpt lat="46.981096" lon="10.992884">
        <ele>1956.17769</ele>
      </trkpt>
      <trkpt lat="46.981262" lon="10.993157">
        <ele>1958.65675</ele>
      </trkpt>
      <trkpt lat="46.981296" lon="10.993323">
        <ele>1956.47729</ele>
      </trkpt>
      <trkpt lat="46.981343" lon="10.993438">
        <ele>1956.96748</ele>
      </trkpt>
      <trkpt lat="46.981359" lon="10.993597">
        <ele>1953.01518</ele>
      </trkpt>
      <trkpt lat="46.981434" lon="10.993815">
        <ele>1950.0636</ele>
      </trkpt>
      <trkpt lat="46.981459" lon="10.993931">
        <ele>1948.57758</ele>
      </trkpt>
      <trkpt lat="46.981472" lon="10.993961">
        <ele>1948.38666</ele>
      </trkpt>
      <trkpt lat="46.981496" lon="10.993997">
        <ele>1948.2968</ele>
      </trkpt>
      <trkpt lat="46.981535" lon="10.99405">
        <ele>1947.85152</ele>
      </trkpt>
      <trkpt lat="46.981552" lon="10.994079">
        <ele>1947.1916</ele>
      </trkpt>
      <trkpt lat="46.981605" lon="10.994208">
        <ele>1945.33193</ele>
      </trkpt>
      <trkpt lat="46.981598" lon="10.994262">
        <ele>1945.12739</ele>
      </trkpt>
      <trkpt lat="46.981536" lon="10.994385">
        <ele>1944.15673</ele>
      </trkpt>
      <trkpt lat="46.981527" lon="10.9944">
        <ele>1943.99084</ele>
      </trkpt>
      <trkpt lat="46.98151" lon="10.994421">
        <ele>1943.39491</ele>
      </trkpt>
      <trkpt lat="46.981476" lon="10.994465">
        <ele>1942.32354</ele>
      </trkpt>
      <trkpt lat="46.981452" lon="10.994493">
        <ele>1941.59505</ele>
      </trkpt>
      <trkpt lat="46.981436" lon="10.994525">
        <ele>1941.46401</ele>
      </trkpt>
      <trkpt lat="46.981425" lon="10.994681">
        <ele>1942.2586</ele>
      </trkpt>
      <trkpt lat="46.98139" lon="10.994815">
        <ele>1940.93466</ele>
      </trkpt>
      <trkpt lat="46.981386" lon="10.994869">
        <ele>1940.89661</ele>
      </trkpt>
      <trkpt lat="46.981381" lon="10.994971">
        <ele>1940.48088</ele>
      </trkpt>
      <trkpt lat="46.981392" lon="10.995112">
        <ele>1940.37558</ele>
      </trkpt>
      <trkpt lat="46.981386" lon="10.99526">
        <ele>1940.26171</ele>
      </trkpt>
      <trkpt lat="46.981366" lon="10.995381">
        <ele>1939.99002</ele>
      </trkpt>
      <trkpt lat="46.981351" lon="10.99545">
        <ele>1939.84954</ele>
      </trkpt>
      <trkpt lat="46.981305" lon="10.995629">
        <ele>1938.75176</ele>
      </trkpt>
      <trkpt lat="46.981298" lon="10.99567">
        <ele>1938.76406</ele>
      </trkpt>
      <trkpt lat="46.981279" lon="10.995791">
        <ele>1938.29142</ele>
      </trkpt>
      <trkpt lat="46.981275" lon="10.995829">
        <ele>1937.85975</ele>
      </trkpt>
      <trkpt lat="46.981306" lon="10.996083">
        <ele>1936.5401</ele>
      </trkpt>
      <trkpt lat="46.98132" lon="10.996424">
        <ele>1931.37005</ele>
      </trkpt>
      <trkpt lat="46.981379" lon="10.996622">
        <ele>1928.01695</ele>
      </trkpt>
      <trkpt lat="46.981395" lon="10.996691">
        <ele>1926.59835</ele>
      </trkpt>
      <trkpt lat="46.981409" lon="10.996762">
        <ele>1925.02562</ele>
      </trkpt>
      <trkpt lat="46.981416" lon="10.996787">
        <ele>1924.48857</ele>
      </trkpt>
      <trkpt lat="46.981485" lon="10.996947">
        <ele>1921.95562</ele>
      </trkpt>
      <trkpt lat="46.981509" lon="10.997174">
        <ele>1918.65169</ele>
      </trkpt>
      <trkpt lat="46.981529" lon="10.997252">
        <ele>1917.5358</ele>
      </trkpt>
      <trkpt lat="46.981564" lon="10.997372">
        <ele>1915.10567</ele>
      </trkpt>
      <trkpt lat="46.981587" lon="10.997479">
        <ele>1912.58399</ele>
      </trkpt>
      <trkpt lat="46.981594" lon="10.997503">
        <ele>1912.11166</ele>
      </trkpt>
      <trkpt lat="46.98162" lon="10.997588">
        <ele>1910.54917</ele>
      </trkpt>
      <trkpt lat="46.981635" lon="10.997643">
        <ele>1909.56898</ele>
      </trkpt>
      <trkpt lat="46.981661" lon="10.997755">
        <ele>1907.47804</ele>
      </trkpt>
      <trkpt lat="46.981692" lon="10.99784">
        <ele>1906.6628</ele>
      </trkpt>
      <trkpt lat="46.981718" lon="10.997963">
        <ele>1904.09753</ele>
      </trkpt>
      <trkpt lat="46.981735" lon="10.99801">
        <ele>1903.33406</ele>
      </trkpt>
      <trkpt lat="46.981752" lon="10.998048">
        <ele>1902.84698</ele>
      </trkpt>
      <trkpt lat="46.981772" lon="10.998093">
        <ele>1902.26732</ele>
      </trkpt>
      <trkpt lat="46.981781" lon="10.998114">
        <ele>1901.96431</ele>
      </trkpt>
      <trkpt lat="46.981798" lon="10.99816">
        <ele>1901.07455</ele>
      </trkpt>
      <trkpt lat="46.981807" lon="10.998193">
        <ele>1900.26467</ele>
      </trkpt>
      <trkpt lat="46.981877" lon="10.998466">
        <ele>1895.66324</ele>
      </trkpt>
      <trkpt lat="46.981883" lon="10.99849">
        <ele>1895.22231</ele>
      </trkpt>
      <trkpt lat="46.9819" lon="10.998542">
        <ele>1894.23531</ele>
      </trkpt>
      <trkpt lat="46.981925" lon="10.998612">
        <ele>1892.81281</ele>
      </trkpt>
      <trkpt lat="46.981938" lon="10.998651">
        <ele>1892.1392</ele>
      </trkpt>
      <trkpt lat="46.98195" lon="10.998691">
        <ele>1891.49334</ele>
      </trkpt>
      <trkpt lat="46.981963" lon="10.998746">
        <ele>1890.43953</ele>
      </trkpt>
      <trkpt lat="46.981974" lon="10.99878">
        <ele>1889.83566</ele>
      </trkpt>
      <trkpt lat="46.982066" lon="10.998954">
        <ele>1886.94704</ele>
      </trkpt>
      <trkpt lat="46.981999" lon="10.998943">
        <ele>1885.25771</ele>
      </trkpt>
      <trkpt lat="46.981947" lon="10.998915">
        <ele>1884.58302</ele>
      </trkpt>
      <trkpt lat="46.981892" lon="10.998885">
        <ele>1883.71892</ele>
      </trkpt>
      <trkpt lat="46.981799" lon="10.998831">
        <ele>1882.14493</ele>
      </trkpt>
      <trkpt lat="46.981746" lon="10.9988">
        <ele>1881.50543</ele>
      </trkpt>
      <trkpt lat="46.981702" lon="10.998771">
        <ele>1881.11882</ele>
      </trkpt>
      <trkpt lat="46.981675" lon="10.998752">
        <ele>1880.79908</ele>
      </trkpt>
      <trkpt lat="46.98165" lon="10.998731">
        <ele>1880.49568</ele>
      </trkpt>
      <trkpt lat="46.98162" lon="10.998701">
        <ele>1880.11706</ele>
      </trkpt>
      <trkpt lat="46.981581" lon="10.998659">
        <ele>1879.66034</ele>
      </trkpt>
      <trkpt lat="46.981544" lon="10.998623">
        <ele>1879.26611</ele>
      </trkpt>
      <trkpt lat="46.981504" lon="10.998592">
        <ele>1878.7373</ele>
      </trkpt>
      <trkpt lat="46.981485" lon="10.998579">
        <ele>1878.47249</ele>
      </trkpt>
      <trkpt lat="46.981317" lon="10.998468">
        <ele>1876.40112</ele>
      </trkpt>
      <trkpt lat="46.98125" lon="10.998423">
        <ele>1875.66864</ele>
      </trkpt>
      <trkpt lat="46.981212" lon="10.998396">
        <ele>1875.27858</ele>
      </trkpt>
      <trkpt lat="46.981124" lon="10.998317">
        <ele>1874.49105</ele>
      </trkpt>
      <trkpt lat="46.98109" lon="10.99832">
        <ele>1873.7798</ele>
      </trkpt>
      <trkpt lat="46.981069" lon="10.99835">
        <ele>1872.97411</ele>
      </trkpt>
      <trkpt lat="46.981072" lon="10.998392">
        <ele>1872.55646</ele>
      </trkpt>
      <trkpt lat="46.9811" lon="10.998452">
        <ele>1872.16698</ele>
      </trkpt>
      <trkpt lat="46.981174" lon="10.998561">
        <ele>1871.13808</ele>
        <name>46.981174,10.998561</name>
        <extensions>
          <oa:Extension>
            <oa:mapZoom>15</oa:mapZoom>
          </oa:Extension>
        </extensions>
      </trkpt>
      <trkpt lat="46.981198" lon="10.998598">
        <ele>1870.69285</ele>
      </trkpt>
      <trkpt lat="46.981218" lon="10.998631">
        <ele>1870.28453</ele>
      </trkpt>
      <trkpt lat="46.981252" lon="10.998689">
        <ele>1869.60451</ele>
      </trkpt>
      <trkpt lat="46.981271" lon="10.99872">
        <ele>1869.25852</ele>
      </trkpt>
      <trkpt lat="46.981333" lon="10.998818">
        <ele>1868.00397</ele>
      </trkpt>
      <trkpt lat="46.981362" lon="10.998869">
        <ele>1867.37955</ele>
      </trkpt>
      <trkpt lat="46.981397" lon="10.998944">
        <ele>1866.47054</ele>
      </trkpt>
      <trkpt lat="46.981425" lon="10.999015">
        <ele>1865.57343</ele>
      </trkpt>
      <trkpt lat="46.981467" lon="10.999124">
        <ele>1864.45678</ele>
      </trkpt>
      <trkpt lat="46.981501" lon="10.999205">
        <ele>1863.60891</ele>
      </trkpt>
      <trkpt lat="46.981524" lon="10.999253">
        <ele>1863.08793</ele>
      </trkpt>
      <trkpt lat="46.981551" lon="10.999305">
        <ele>1862.47331</ele>
      </trkpt>
      <trkpt lat="46.981574" lon="10.999346">
        <ele>1861.90318</ele>
      </trkpt>
      <trkpt lat="46.981595" lon="10.999378">
        <ele>1861.4034</ele>
      </trkpt>
      <trkpt lat="46.981651" lon="10.999439">
        <ele>1860.19634</ele>
      </trkpt>
      <trkpt lat="46.981676" lon="10.999458">
        <ele>1859.71737</ele>
      </trkpt>
      <trkpt lat="46.981724" lon="10.99949">
        <ele>1859.19273</ele>
      </trkpt>
      <trkpt lat="46.98178" lon="10.999528">
        <ele>1858.64753</ele>
      </trkpt>
      <trkpt lat="46.981809" lon="10.999557">
        <ele>1858.52398</ele>
      </trkpt>
      <trkpt lat="46.98185" lon="10.999618">
        <ele>1858.55718</ele>
      </trkpt>
      <trkpt lat="46.981859" lon="10.999635">
        <ele>1858.38729</ele>
      </trkpt>
      <trkpt lat="46.981934" lon="10.999783">
        <ele>1856.39001</ele>
      </trkpt>
      <trkpt lat="46.981944" lon="10.999802">
        <ele>1856.09368</ele>
      </trkpt>
      <trkpt lat="46.981986" lon="10.999864">
        <ele>1855.20167</ele>
      </trkpt>
      <trkpt lat="46.982002" lon="10.999884">
        <ele>1854.84362</ele>
      </trkpt>
      <trkpt lat="46.982019" lon="10.999903">
        <ele>1854.48565</ele>
      </trkpt>
      <trkpt lat="46.98213" lon="11.000027">
        <ele>1852.59143</ele>
      </trkpt>
      <trkpt lat="46.98215" lon="11.000048">
        <ele>1852.27306</ele>
      </trkpt>
      <trkpt lat="46.982272" lon="11.000149">
        <ele>1851.06355</ele>
      </trkpt>
      <trkpt lat="46.982289" lon="11.00017">
        <ele>1850.78978</ele>
      </trkpt>
      <trkpt lat="46.982314" lon="11.000204">
        <ele>1850.33898</ele>
      </trkpt>
      <trkpt lat="46.982377" lon="11.00029">
        <ele>1849.58586</ele>
      </trkpt>
      <trkpt lat="46.982411" lon="11.000335">
        <ele>1848.93601</ele>
      </trkpt>
      <trkpt lat="46.982446" lon="11.000378">
        <ele>1848.4123</ele>
      </trkpt>
      <trkpt lat="46.982494" lon="11.000433">
        <ele>1848.00534</ele>
      </trkpt>
      <trkpt lat="46.982512" lon="11.000454">
        <ele>1847.81559</ele>
      </trkpt>
      <trkpt lat="46.982549" lon="11.0005">
        <ele>1847.41579</ele>
      </trkpt>
      <trkpt lat="46.982567" lon="11.000525">
        <ele>1847.14174</ele>
      </trkpt>
      <trkpt lat="46.98262" lon="11.000598">
        <ele>1846.07712</ele>
      </trkpt>
      <trkpt lat="46.982671" lon="11.000663">
        <ele>1845.18339</ele>
      </trkpt>
      <trkpt lat="46.982704" lon="11.000717">
        <ele>1844.29701</ele>
      </trkpt>
      <trkpt lat="46.982734" lon="11.000787">
        <ele>1844.06945</ele>
      </trkpt>
      <trkpt lat="46.98275" lon="11.000831">
        <ele>1844.00204</ele>
      </trkpt>
      <trkpt lat="46.982771" lon="11.000897">
        <ele>1843.34846</ele>
      </trkpt>
      <trkpt lat="46.982788" lon="11.000952">
        <ele>1842.76727</ele>
      </trkpt>
      <trkpt lat="46.982824" lon="11.001072">
        <ele>1841.86853</ele>
      </trkpt>
      <trkpt lat="46.982849" lon="11.00116">
        <ele>1841.35931</ele>
      </trkpt>
      <trkpt lat="46.98288" lon="11.001274">
        <ele>1840.49314</ele>
      </trkpt>
      <trkpt lat="46.9829" lon="11.00134">
        <ele>1839.94251</ele>
      </trkpt>
      <trkpt lat="46.98292" lon="11.001394">
        <ele>1839.59416</ele>
      </trkpt>
      <trkpt lat="46.982957" lon="11.001486">
        <ele>1839.28785</ele>
      </trkpt>
      <trkpt lat="46.982977" lon="11.001537">
        <ele>1839.00593</ele>
      </trkpt>
      <trkpt lat="46.982995" lon="11.001593">
        <ele>1838.57396</ele>
      </trkpt>
      <trkpt lat="46.983007" lon="11.001654">
        <ele>1837.96484</ele>
      </trkpt>
      <trkpt lat="46.983014" lon="11.001707">
        <ele>1837.41777</ele>
      </trkpt>
      <trkpt lat="46.983027" lon="11.001832">
        <ele>1836.46751</ele>
      </trkpt>
      <trkpt lat="46.983037" lon="11.001918">
        <ele>1836.14922</ele>
      </trkpt>
      <trkpt lat="46.983044" lon="11.001978">
        <ele>1835.94894</ele>
      </trkpt>
      <trkpt lat="46.98306" lon="11.002091">
        <ele>1835.06303</ele>
      </trkpt>
      <trkpt lat="46.983069" lon="11.002157">
        <ele>1834.38711</ele>
      </trkpt>
      <trkpt lat="46.983079" lon="11.002215">
        <ele>1833.89669</ele>
      </trkpt>
      <trkpt lat="46.983112" lon="11.002371">
        <ele>1832.69862</ele>
      </trkpt>
      <trkpt lat="46.983143" lon="11.002444">
        <ele>1832.26871</ele>
      </trkpt>
      <trkpt lat="46.983177" lon="11.002477">
        <ele>1831.8648</ele>
      </trkpt>
      <trkpt lat="46.983198" lon="11.002493">
        <ele>1831.49132</ele>
      </trkpt>
      <trkpt lat="46.983252" lon="11.002531">
        <ele>1830.7162</ele>
      </trkpt>
      <trkpt lat="46.983299" lon="11.002569">
        <ele>1830.19155</ele>
      </trkpt>
      <trkpt lat="46.983341" lon="11.002608">
        <ele>1829.70519</ele>
      </trkpt>
      <trkpt lat="46.983421" lon="11.002686">
        <ele>1828.24512</ele>
      </trkpt>
      <trkpt lat="46.983469" lon="11.002729">
        <ele>1827.29595</ele>
      </trkpt>
      <trkpt lat="46.983548" lon="11.002764">
        <ele>1825.88254</ele>
      </trkpt>
      <trkpt lat="46.98364" lon="11.002751">
        <ele>1824.29692</ele>
      </trkpt>
      <trkpt lat="46.983679" lon="11.002733">
        <ele>1823.8085</ele>
      </trkpt>
      <trkpt lat="46.98371" lon="11.002716">
        <ele>1823.39505</ele>
      </trkpt>
      <trkpt lat="46.983753" lon="11.002691">
        <ele>1822.89081</ele>
      </trkpt>
      <trkpt lat="46.983782" lon="11.002681">
        <ele>1822.52104</ele>
      </trkpt>
      <trkpt lat="46.983803" lon="11.002678">
        <ele>1822.16063</ele>
      </trkpt>
      <trkpt lat="46.98392" lon="11.002676">
        <ele>1819.70608</ele>
      </trkpt>
      <trkpt lat="46.983969" lon="11.00267">
        <ele>1818.09751</ele>
      </trkpt>
      <trkpt lat="46.984018" lon="11.002659">
        <ele>1816.09203</ele>
      </trkpt>
      <trkpt lat="46.984096" lon="11.002636">
        <ele>1813.53411</ele>
      </trkpt>
      <trkpt lat="46.984138" lon="11.002625">
        <ele>1812.62053</ele>
      </trkpt>
      <trkpt lat="46.984175" lon="11.002619">
        <ele>1811.88766</ele>
      </trkpt>
      <trkpt lat="46.98423" lon="11.002613">
        <ele>1810.57026</ele>
      </trkpt>
      <trkpt lat="46.98426" lon="11.002607">
        <ele>1809.95383</ele>
      </trkpt>
      <trkpt lat="46.984279" lon="11.0026">
        <ele>1809.6917</ele>
      </trkpt>
      <trkpt lat="46.984364" lon="11.002569">
        <ele>1807.68117</ele>
      </trkpt>
      <trkpt lat="46.984391" lon="11.002561">
        <ele>1806.92332</ele>
      </trkpt>
      <trkpt lat="46.984421" lon="11.002566">
        <ele>1805.52254</ele>
      </trkpt>
      <trkpt lat="46.984428" lon="11.002603">
        <ele>1803.58936</ele>
      </trkpt>
      <trkpt lat="46.984408" lon="11.002661">
        <ele>1801.67099</ele>
      </trkpt>
      <trkpt lat="46.98436" lon="11.002731">
        <ele>1800.64439</ele>
      </trkpt>
      <trkpt lat="46.984274" lon="11.002814">
        <ele>1801.23562</ele>
      </trkpt>
      <trkpt lat="46.984227" lon="11.002918">
        <ele>1799.86114</ele>
      </trkpt>
      <trkpt lat="46.98421" lon="11.002965">
        <ele>1799.08506</ele>
      </trkpt>
      <trkpt lat="46.984159" lon="11.003112">
        <ele>1795.9198</ele>
      </trkpt>
      <trkpt lat="46.984146" lon="11.003153">
        <ele>1794.82558</ele>
      </trkpt>
      <trkpt lat="46.984128" lon="11.0033">
        <ele>1791.01937</ele>
      </trkpt>
      <trkpt lat="46.98408" lon="11.003391">
        <ele>1789.63607</ele>
      </trkpt>
      <trkpt lat="46.984071" lon="11.003565">
        <ele>1787.92116</ele>
      </trkpt>
      <trkpt lat="46.984116" lon="11.00364">
        <ele>1785.64834</ele>
      </trkpt>
      <trkpt lat="46.984123" lon="11.003693">
        <ele>1784.13768</ele>
      </trkpt>
      <trkpt lat="46.984349" lon="11.003762">
        <ele>1775.06273</ele>
      </trkpt>
      <trkpt lat="46.984443" lon="11.003721">
        <ele>1773.19024</ele>
      </trkpt>
      <trkpt lat="46.984542" lon="11.003646">
        <ele>1771.509</ele>
      </trkpt>
      <trkpt lat="46.984616" lon="11.003567">
        <ele>1770.24913</ele>
      </trkpt>
      <trkpt lat="46.984657" lon="11.003555">
        <ele>1769.44068</ele>
      </trkpt>
      <trkpt lat="46.984668" lon="11.003584">
        <ele>1768.63035</ele>
      </trkpt>
      <trkpt lat="46.984655" lon="11.00362">
        <ele>1768.37087</ele>
      </trkpt>
      <trkpt lat="46.98463" lon="11.003658">
        <ele>1768.06987</ele>
      </trkpt>
      <trkpt lat="46.984578" lon="11.003723">
        <ele>1768.04635</ele>
      </trkpt>
      <trkpt lat="46.98455" lon="11.003754">
        <ele>1768.19068</ele>
      </trkpt>
      <trkpt lat="46.984543" lon="11.003769">
        <ele>1768.01161</ele>
      </trkpt>
      <trkpt lat="46.984547" lon="11.003823">
        <ele>1766.41758</ele>
      </trkpt>
      <trkpt lat="46.984602" lon="11.003828">
        <ele>1764.65933</ele>
      </trkpt>
      <trkpt lat="46.984646" lon="11.003797">
        <ele>1763.57043</ele>
      </trkpt>
      <trkpt lat="46.9847" lon="11.003726">
        <ele>1763.27719</ele>
      </trkpt>
      <trkpt lat="46.984707" lon="11.003719">
        <ele>1763.23529</ele>
      </trkpt>
      <trkpt lat="46.984721" lon="11.003707">
        <ele>1763.03691</ele>
      </trkpt>
      <trkpt lat="46.984735" lon="11.003694">
        <ele>1762.76589</ele>
      </trkpt>
      <trkpt lat="46.984793" lon="11.00364">
        <ele>1760.9128</ele>
      </trkpt>
      <trkpt lat="46.984803" lon="11.003627">
        <ele>1760.5198</ele>
      </trkpt>
      <trkpt lat="46.984845" lon="11.003448">
        <ele>1760.80383</ele>
      </trkpt>
      <trkpt lat="46.984903" lon="11.003354">
        <ele>1758.18314</ele>
      </trkpt>
      <trkpt lat="46.984937" lon="11.00335">
        <ele>1755.37693</ele>
      </trkpt>
      <trkpt lat="46.984991" lon="11.003412">
        <ele>1752.08933</ele>
      </trkpt>
      <trkpt lat="46.985044" lon="11.003422">
        <ele>1750.16813</ele>
      </trkpt>
      <trkpt lat="46.985067" lon="11.003409">
        <ele>1749.26936</ele>
      </trkpt>
      <trkpt lat="46.985126" lon="11.003313">
        <ele>1747.12974</ele>
      </trkpt>
      <trkpt lat="46.985166" lon="11.00328">
        <ele>1745.37089</ele>
      </trkpt>
      <trkpt lat="46.985297" lon="11.003255">
        <ele>1738.87568</ele>
      </trkpt>
      <trkpt lat="46.98536" lon="11.003258">
        <ele>1736.71433</ele>
      </trkpt>
      <trkpt lat="46.985382" lon="11.003261">
        <ele>1736.01387</ele>
      </trkpt>
      <trkpt lat="46.985464" lon="11.003275">
        <ele>1733.66696</ele>
      </trkpt>
      <trkpt lat="46.985496" lon="11.00327">
        <ele>1732.70513</ele>
      </trkpt>
      <trkpt lat="46.98555" lon="11.003238">
        <ele>1731.01578</ele>
      </trkpt>
      <trkpt lat="46.985595" lon="11.003185">
        <ele>1730.41553</ele>
      </trkpt>
      <trkpt lat="46.985636" lon="11.00314">
        <ele>1730.08568</ele>
      </trkpt>
      <trkpt lat="46.98567" lon="11.00311">
        <ele>1730.55017</ele>
      </trkpt>
      <trkpt lat="46.985742" lon="11.003092">
        <ele>1730.86146</ele>
      </trkpt>
      <trkpt lat="46.985839" lon="11.003174">
        <ele>1726.26212</ele>
      </trkpt>
      <trkpt lat="46.985862" lon="11.003228">
        <ele>1724.03993</ele>
      </trkpt>
      <trkpt lat="46.985874" lon="11.003344">
        <ele>1719.93327</ele>
      </trkpt>
      <trkpt lat="46.985832" lon="11.003516">
        <ele>1713.90919</ele>
      </trkpt>
      <trkpt lat="46.985842" lon="11.003715">
        <ele>1709.4595</ele>
      </trkpt>
      <trkpt lat="46.985877" lon="11.003805">
        <ele>1707.55793</ele>
      </trkpt>
      <trkpt lat="46.985941" lon="11.003895">
        <ele>1705.86463</ele>
      </trkpt>
      <trkpt lat="46.985987" lon="11.003988">
        <ele>1704.39173</ele>
      </trkpt>
      <trkpt lat="46.986061" lon="11.004033">
        <ele>1702.85954</ele>
      </trkpt>
      <trkpt lat="46.986143" lon="11.004019">
        <ele>1700.7375</ele>
      </trkpt>
      <trkpt lat="46.986222" lon="11.004172">
        <ele>1697.86638</ele>
      </trkpt>
      <trkpt lat="46.986291" lon="11.004213">
        <ele>1695.35799</ele>
      </trkpt>
      <trkpt lat="46.986319" lon="11.004166">
        <ele>1693.89985</ele>
      </trkpt>
      <trkpt lat="46.986319" lon="11.004107">
        <ele>1693.16786</ele>
      </trkpt>
      <trkpt lat="46.986316" lon="11.00406">
        <ele>1692.74326</ele>
      </trkpt>
      <trkpt lat="46.986312" lon="11.004">
        <ele>1692.07196</ele>
      </trkpt>
      <trkpt lat="46.986311" lon="11.003974">
        <ele>1691.79393</ele>
      </trkpt>
      <trkpt lat="46.986318" lon="11.003907">
        <ele>1690.81253</ele>
      </trkpt>
      <trkpt lat="46.986352" lon="11.003824">
        <ele>1688.62912</ele>
      </trkpt>
      <trkpt lat="46.986403" lon="11.003752">
        <ele>1686.04445</ele>
      </trkpt>
      <trkpt lat="46.986439" lon="11.003744">
        <ele>1683.92042</ele>
      </trkpt>
      <trkpt lat="46.986518" lon="11.003806">
        <ele>1678.31063</ele>
      </trkpt>
      <trkpt lat="46.986531" lon="11.00386">
        <ele>1676.74925</ele>
      </trkpt>
      <trkpt lat="46.986534" lon="11.003995">
        <ele>1674.66865</ele>
      </trkpt>
      <trkpt lat="46.986558" lon="11.004039">
        <ele>1672.22201</ele>
      </trkpt>
      <trkpt lat="46.986584" lon="11.003999">
        <ele>1671.04207</ele>
      </trkpt>
      <trkpt lat="46.98662" lon="11.003869">
        <ele>1671.18273</ele>
      </trkpt>
      <trkpt lat="46.986639" lon="11.00387">
        <ele>1670.07405</ele>
      </trkpt>
      <trkpt lat="46.986681" lon="11.003989">
        <ele>1665.56006</ele>
      </trkpt>
      <trkpt lat="46.986709" lon="11.003988">
        <ele>1664.01451</ele>
      </trkpt>
      <trkpt lat="46.986791" lon="11.003891">
        <ele>1660.78805</ele>
      </trkpt>
      <trkpt lat="46.986842" lon="11.003712">
        <ele>1658.36154</ele>
      </trkpt>
      <trkpt lat="46.986893" lon="11.0037">
        <ele>1656.4578</ele>
      </trkpt>
      <trkpt lat="46.986966" lon="11.003757">
        <ele>1652.51232</ele>
      </trkpt>
      <trkpt lat="46.986974" lon="11.003829">
        <ele>1649.84551</ele>
      </trkpt>
      <trkpt lat="46.986961" lon="11.003903">
        <ele>1648.56002</ele>
      </trkpt>
      <trkpt lat="46.986956" lon="11.003918">
        <ele>1648.56185</ele>
      </trkpt>
      <trkpt lat="46.986868" lon="11.004183">
        <ele>1648.84783</ele>
      </trkpt>
      <trkpt lat="46.986862" lon="11.004202">
        <ele>1648.68887</ele>
      </trkpt>
      <trkpt lat="46.98685" lon="11.004259">
        <ele>1648.01067</ele>
      </trkpt>
      <trkpt lat="46.986845" lon="11.004331">
        <ele>1646.75375</ele>
      </trkpt>
      <trkpt lat="46.986846" lon="11.004376">
        <ele>1645.83536</ele>
      </trkpt>
      <trkpt lat="46.98685" lon="11.004469">
        <ele>1643.88397</ele>
      </trkpt>
      <trkpt lat="46.986851" lon="11.004528">
        <ele>1642.70121</ele>
      </trkpt>
      <trkpt lat="46.986846" lon="11.004681">
        <ele>1638.36235</ele>
      </trkpt>
      <trkpt lat="46.98687" lon="11.004705">
        <ele>1636.11177</ele>
      </trkpt>
      <trkpt lat="46.986904" lon="11.004687">
        <ele>1634.75521</ele>
      </trkpt>
      <trkpt lat="46.986944" lon="11.004634">
        <ele>1633.83848</ele>
      </trkpt>
      <trkpt lat="46.987001" lon="11.004531">
        <ele>1633.11322</ele>
      </trkpt>
      <trkpt lat="46.987056" lon="11.004476">
        <ele>1631.02704</ele>
      </trkpt>
      <trkpt lat="46.987076" lon="11.004499">
        <ele>1629.32657</ele>
      </trkpt>
      <trkpt lat="46.987083" lon="11.004596">
        <ele>1626.56502</ele>
      </trkpt>
      <trkpt lat="46.987104" lon="11.004637">
        <ele>1624.29112</ele>
      </trkpt>
      <trkpt lat="46.987148" lon="11.004635">
        <ele>1622.15337</ele>
      </trkpt>
      <trkpt lat="46.987232" lon="11.004571">
        <ele>1619.67276</ele>
      </trkpt>
      <trkpt lat="46.987264" lon="11.004594">
        <ele>1618.17873</ele>
        <name>46.987264,11.004594</name>
        <extensions>
          <oa:Extension>
            <oa:mapZoom>17</oa:mapZoom>
          </oa:Extension>
        </extensions>
      </trkpt>
      <trkpt lat="46.987267" lon="11.004641">
        <ele>1617.17334</ele>
      </trkpt>
      <trkpt lat="46.987233" lon="11.004719">
        <ele>1617.15352</ele>
      </trkpt>
      <trkpt lat="46.987211" lon="11.004842">
        <ele>1614.87065</ele>
      </trkpt>
      <trkpt lat="46.987194" lon="11.004875">
        <ele>1613.88761</ele>
      </trkpt>
      <trkpt lat="46.987144" lon="11.00491">
        <ele>1613.27552</ele>
      </trkpt>
      <trkpt lat="46.987113" lon="11.004938">
        <ele>1613.01159</ele>
      </trkpt>
      <trkpt lat="46.987095" lon="11.004959">
        <ele>1612.83945</ele>
      </trkpt>
      <trkpt lat="46.987055" lon="11.00501">
        <ele>1612.56758</ele>
      </trkpt>
      <trkpt lat="46.987034" lon="11.005044">
        <ele>1612.20167</ele>
      </trkpt>
      <trkpt lat="46.986973" lon="11.005203">
        <ele>1609.50903</ele>
      </trkpt>
      <trkpt lat="46.986955" lon="11.005381">
        <ele>1604.98608</ele>
      </trkpt>
      <trkpt lat="46.986941" lon="11.00543">
        <ele>1603.8825</ele>
      </trkpt>
      <trkpt lat="46.986921" lon="11.005481">
        <ele>1602.78626</ele>
      </trkpt>
      <trkpt lat="46.9869" lon="11.005538">
        <ele>1601.39434</ele>
      </trkpt>
      <trkpt lat="46.986859" lon="11.005621">
        <ele>1599.38803</ele>
      </trkpt>
      <trkpt lat="46.986712" lon="11.005836">
        <ele>1597.49483</ele>
      </trkpt>
      <trkpt lat="46.986704" lon="11.005893">
        <ele>1596.61492</ele>
      </trkpt>
      <trkpt lat="46.986765" lon="11.005916">
        <ele>1595.13035</ele>
      </trkpt>
      <trkpt lat="46.986762" lon="11.005987">
        <ele>1593.77621</ele>
      </trkpt>
      <trkpt lat="46.986708" lon="11.006056">
        <ele>1591.91519</ele>
      </trkpt>
      <trkpt lat="46.986697" lon="11.006064">
        <ele>1591.64905</ele>
      </trkpt>
      <trkpt lat="46.986683" lon="11.00607">
        <ele>1591.43088</ele>
      </trkpt>
      <trkpt lat="46.986627" lon="11.006097">
        <ele>1590.49777</ele>
      </trkpt>
      <trkpt lat="46.986616" lon="11.006104">
        <ele>1590.29024</ele>
      </trkpt>
      <trkpt lat="46.986582" lon="11.00615">
        <ele>1589.05698</ele>
      </trkpt>
      <trkpt lat="46.986576" lon="11.006189">
        <ele>1587.9923</ele>
      </trkpt>
      <trkpt lat="46.986603" lon="11.006306">
        <ele>1584.97567</ele>
      </trkpt>
      <trkpt lat="46.986601" lon="11.006367">
        <ele>1582.70007</ele>
      </trkpt>
      <trkpt lat="46.986546" lon="11.006379">
        <ele>1581.39106</ele>
      </trkpt>
      <trkpt lat="46.986456" lon="11.006337">
        <ele>1581.82979</ele>
      </trkpt>
      <trkpt lat="46.986413" lon="11.006328">
        <ele>1581.06125</ele>
      </trkpt>
      <trkpt lat="46.98637" lon="11.006351">
        <ele>1578.89312</ele>
      </trkpt>
      <trkpt lat="46.986369" lon="11.006457">
        <ele>1575.47365</ele>
      </trkpt>
      <trkpt lat="46.986437" lon="11.006634">
        <ele>1571.36981</ele>
      </trkpt>
      <trkpt lat="46.986436" lon="11.006672">
        <ele>1570.37958</ele>
      </trkpt>
      <trkpt lat="46.986422" lon="11.006769">
        <ele>1567.39826</ele>
      </trkpt>
      <trkpt lat="46.986404" lon="11.006824">
        <ele>1565.36893</ele>
      </trkpt>
      <trkpt lat="46.986343" lon="11.006878">
        <ele>1562.26661</ele>
      </trkpt>
      <trkpt lat="46.986271" lon="11.006892">
        <ele>1559.86343</ele>
      </trkpt>
      <trkpt lat="46.986226" lon="11.00688">
        <ele>1559.6514</ele>
      </trkpt>
      <trkpt lat="46.986193" lon="11.006903">
        <ele>1558.27202</ele>
      </trkpt>
      <trkpt lat="46.986183" lon="11.006966">
        <ele>1555.77387</ele>
      </trkpt>
      <trkpt lat="46.986236" lon="11.007052">
        <ele>1554.16013</ele>
      </trkpt>
      <trkpt lat="46.986216" lon="11.007089">
        <ele>1552.36883</ele>
      </trkpt>
      <trkpt lat="46.986159" lon="11.007088">
        <ele>1550.52934</ele>
      </trkpt>
      <trkpt lat="46.986057" lon="11.007023">
        <ele>1549.08689</ele>
      </trkpt>
      <trkpt lat="46.986025" lon="11.007028">
        <ele>1547.89475</ele>
      </trkpt>
      <trkpt lat="46.986057" lon="11.007111">
        <ele>1546.51692</ele>
      </trkpt>
      <trkpt lat="46.986097" lon="11.00717">
        <ele>1546.09724</ele>
      </trkpt>
      <trkpt lat="46.986221" lon="11.007344">
        <ele>1543.92759</ele>
      </trkpt>
      <trkpt lat="46.986254" lon="11.00739">
        <ele>1543.03039</ele>
      </trkpt>
      <trkpt lat="46.986287" lon="11.007442">
        <ele>1542.0809</ele>
      </trkpt>
      <trkpt lat="46.986318" lon="11.0075">
        <ele>1541.07546</ele>
      </trkpt>
      <trkpt lat="46.986362" lon="11.00759">
        <ele>1539.48168</ele>
      </trkpt>
      <trkpt lat="46.986399" lon="11.007663">
        <ele>1538.90093</ele>
      </trkpt>
      <trkpt lat="46.986429" lon="11.007715">
        <ele>1538.21674</ele>
      </trkpt>
      <trkpt lat="46.986461" lon="11.007761">
        <ele>1537.04848</ele>
      </trkpt>
      <trkpt lat="46.986484" lon="11.007789">
        <ele>1536.52307</ele>
      </trkpt>
      <trkpt lat="46.986514" lon="11.007824">
        <ele>1536.13151</ele>
      </trkpt>
      <trkpt lat="46.986545" lon="11.007859">
        <ele>1535.74069</ele>
      </trkpt>
      <trkpt lat="46.986631" lon="11.007946">
        <ele>1535.06846</ele>
      </trkpt>
      <trkpt lat="46.986639" lon="11.007996">
        <ele>1533.58072</ele>
      </trkpt>
      <trkpt lat="46.98658" lon="11.007987">
        <ele>1532.13736</ele>
      </trkpt>
      <trkpt lat="46.986547" lon="11.007972">
        <ele>1531.83008</ele>
      </trkpt>
      <trkpt lat="46.986514" lon="11.007956">
        <ele>1531.70126</ele>
      </trkpt>
      <trkpt lat="46.986464" lon="11.007925">
        <ele>1531.56498</ele>
      </trkpt>
      <trkpt lat="46.986415" lon="11.007881">
        <ele>1531.81845</ele>
      </trkpt>
      <trkpt lat="46.986372" lon="11.007837">
        <ele>1532.38115</ele>
      </trkpt>
      <trkpt lat="46.986343" lon="11.007805">
        <ele>1532.44116</ele>
      </trkpt>
      <trkpt lat="46.986222" lon="11.007647">
        <ele>1531.54662</ele>
      </trkpt>
      <trkpt lat="46.986081" lon="11.007577">
        <ele>1529.75776</ele>
      </trkpt>
      <trkpt lat="46.986014" lon="11.007512">
        <ele>1529.98388</ele>
      </trkpt>
      <trkpt lat="46.985915" lon="11.007491">
        <ele>1527.58966</ele>
      </trkpt>
      <trkpt lat="46.985827" lon="11.007393">
        <ele>1527.18824</ele>
      </trkpt>
      <trkpt lat="46.985796" lon="11.007388">
        <ele>1527.10319</ele>
      </trkpt>
      <trkpt lat="46.985705" lon="11.007432">
        <ele>1525.51265</ele>
      </trkpt>
      <trkpt lat="46.98563" lon="11.007437">
        <ele>1525.76497</ele>
      </trkpt>
      <trkpt lat="46.985507" lon="11.007489">
        <ele>1525.44586</ele>
      </trkpt>
      <trkpt lat="46.985491" lon="11.007492">
        <ele>1525.71196</ele>
      </trkpt>
      <trkpt lat="46.985441" lon="11.007497">
        <ele>1526.15554</ele>
      </trkpt>
      <trkpt lat="46.985377" lon="11.007506">
        <ele>1525.81169</ele>
      </trkpt>
      <trkpt lat="46.985347" lon="11.007508">
        <ele>1525.49242</ele>
      </trkpt>
      <trkpt lat="46.98532" lon="11.007508">
        <ele>1525.19914</ele>
      </trkpt>
      <trkpt lat="46.985278" lon="11.007503">
        <ele>1524.94927</ele>
      </trkpt>
      <trkpt lat="46.985182" lon="11.007484">
        <ele>1523.75015</ele>
      </trkpt>
      <trkpt lat="46.985103" lon="11.007428">
        <ele>1522.95652</ele>
      </trkpt>
      <trkpt lat="46.985071" lon="11.007427">
        <ele>1522.58089</ele>
      </trkpt>
      <trkpt lat="46.984886" lon="11.007517">
        <ele>1522.28018</ele>
      </trkpt>
      <trkpt lat="46.984819" lon="11.007599">
        <ele>1520.39711</ele>
      </trkpt>
      <trkpt lat="46.984711" lon="11.007684">
        <ele>1523.88153</ele>
      </trkpt>
      <trkpt lat="46.98466" lon="11.007745">
        <ele>1524.80072</ele>
      </trkpt>
      <trkpt lat="46.984593" lon="11.007827">
        <ele>1525.50359</ele>
      </trkpt>
      <trkpt lat="46.984575" lon="11.007855">
        <ele>1525.51374</ele>
      </trkpt>
      <trkpt lat="46.984534" lon="11.007965">
        <ele>1523.43689</ele>
      </trkpt>
      <trkpt lat="46.984473" lon="11.008068">
        <ele>1524.32228</ele>
      </trkpt>
      <trkpt lat="46.984471" lon="11.008107">
        <ele>1524.33028</ele>
      </trkpt>
      <trkpt lat="46.984504" lon="11.008169">
        <ele>1524.60755</ele>
      </trkpt>
      <trkpt lat="46.984526" lon="11.008187">
        <ele>1524.77314</ele>
      </trkpt>
      <trkpt lat="46.98457" lon="11.008214">
        <ele>1525.0163</ele>
      </trkpt>
      <trkpt lat="46.984595" lon="11.008231">
        <ele>1524.95869</ele>
      </trkpt>
      <trkpt lat="46.984654" lon="11.00828">
        <ele>1523.07558</ele>
      </trkpt>
      <trkpt lat="46.984671" lon="11.008327">
        <ele>1521.66606</ele>
      </trkpt>
      <trkpt lat="46.984671" lon="11.00838">
        <ele>1520.83797</ele>
      </trkpt>
      <trkpt lat="46.984614" lon="11.008463">
        <ele>1522.42415</ele>
      </trkpt>
      <trkpt lat="46.984566" lon="11.008506">
        <ele>1522.62741</ele>
      </trkpt>
      <trkpt lat="46.984513" lon="11.008543">
        <ele>1521.96347</ele>
      </trkpt>
      <trkpt lat="46.984476" lon="11.008572">
        <ele>1520.87828</ele>
      </trkpt>
      <trkpt lat="46.984441" lon="11.008608">
        <ele>1519.41897</ele>
      </trkpt>
      <trkpt lat="46.984362" lon="11.008758">
        <ele>1515.7566</ele>
      </trkpt>
      <trkpt lat="46.984309" lon="11.008797">
        <ele>1514.99415</ele>
      </trkpt>
      <trkpt lat="46.984203" lon="11.00878">
        <ele>1515.75947</ele>
      </trkpt>
      <trkpt lat="46.984182" lon="11.008782">
        <ele>1515.44816</ele>
      </trkpt>
      <trkpt lat="46.984123" lon="11.008781">
        <ele>1514.92479</ele>
      </trkpt>
      <trkpt lat="46.984098" lon="11.008782">
        <ele>1514.68163</ele>
      </trkpt>
      <trkpt lat="46.983946" lon="11.008825">
        <ele>1510.57911</ele>
      </trkpt>
      <trkpt lat="46.983917" lon="11.008828">
        <ele>1510.04067</ele>
      </trkpt>
      <trkpt lat="46.983872" lon="11.008828">
        <ele>1509.5962</ele>
      </trkpt>
      <trkpt lat="46.983847" lon="11.008829">
        <ele>1509.35322</ele>
      </trkpt>
      <trkpt lat="46.983764" lon="11.008836">
        <ele>1509.18208</ele>
      </trkpt>
      <trkpt lat="46.983746" lon="11.008838">
        <ele>1509.33036</ele>
      </trkpt>
      <trkpt lat="46.983661" lon="11.008866">
        <ele>1508.53279</ele>
      </trkpt>
      <trkpt lat="46.983524" lon="11.008934">
        <ele>1505.90319</ele>
      </trkpt>
      <trkpt lat="46.983485" lon="11.008955">
        <ele>1506.07353</ele>
      </trkpt>
      <trkpt lat="46.983469" lon="11.008962">
        <ele>1506.29439</ele>
      </trkpt>
      <trkpt lat="46.983411" lon="11.008969">
        <ele>1506.82406</ele>
      </trkpt>
      <trkpt lat="46.983378" lon="11.00896">
        <ele>1506.96896</ele>
      </trkpt>
      <trkpt lat="46.983306" lon="11.008885">
        <ele>1507.8266</ele>
      </trkpt>
      <trkpt lat="46.983209" lon="11.008841">
        <ele>1508.48256</ele>
      </trkpt>
      <trkpt lat="46.983141" lon="11.008838">
        <ele>1508.64749</ele>
      </trkpt>
      <trkpt lat="46.983113" lon="11.008847">
        <ele>1508.24794</ele>
      </trkpt>
      <trkpt lat="46.983051" lon="11.008878">
        <ele>1506.03596</ele>
      </trkpt>
      <trkpt lat="46.983022" lon="11.008878">
        <ele>1505.51534</ele>
      </trkpt>
      <trkpt lat="46.982944" lon="11.008814">
        <ele>1507.45396</ele>
      </trkpt>
      <trkpt lat="46.982852" lon="11.008799">
        <ele>1506.31419</ele>
      </trkpt>
      <trkpt lat="46.982788" lon="11.008754">
        <ele>1507.39667</ele>
      </trkpt>
      <trkpt lat="46.9827" lon="11.008728">
        <ele>1506.05461</ele>
      </trkpt>
      <trkpt lat="46.982653" lon="11.008698">
        <ele>1505.44331</ele>
      </trkpt>
      <trkpt lat="46.98261" lon="11.008674">
        <ele>1504.67935</ele>
      </trkpt>
      <trkpt lat="46.982592" lon="11.008661">
        <ele>1504.55442</ele>
      </trkpt>
      <trkpt lat="46.982467" lon="11.008538">
        <ele>1505.62753</ele>
      </trkpt>
      <trkpt lat="46.982426" lon="11.008435">
        <ele>1506.81489</ele>
      </trkpt>
      <trkpt lat="46.982418" lon="11.008422">
        <ele>1506.83226</ele>
      </trkpt>
      <trkpt lat="46.982371" lon="11.008354">
        <ele>1506.87029</ele>
      </trkpt>
      <trkpt lat="46.98235" lon="11.008325">
        <ele>1507.07613</ele>
      </trkpt>
      <trkpt lat="46.982109" lon="11.008087">
        <ele>1508.93292</ele>
      </trkpt>
      <trkpt lat="46.982057" lon="11.007984">
        <ele>1510.76452</ele>
      </trkpt>
      <trkpt lat="46.982004" lon="11.007908">
        <ele>1510.76296</ele>
      </trkpt>
      <trkpt lat="46.981958" lon="11.007838">
        <ele>1511.25033</ele>
      </trkpt>
      <trkpt lat="46.981907" lon="11.007768">
        <ele>1511.35178</ele>
      </trkpt>
      <trkpt lat="46.98185" lon="11.007575">
        <ele>1513.05028</ele>
      </trkpt>
      <trkpt lat="46.981831" lon="11.007567">
        <ele>1512.12646</ele>
      </trkpt>
      <trkpt lat="46.981818" lon="11.007613">
        <ele>1510.13879</ele>
      </trkpt>
      <trkpt lat="46.981714" lon="11.007543">
        <ele>1507.97608</ele>
      </trkpt>
      <trkpt lat="46.981638" lon="11.007461">
        <ele>1506.73185</ele>
      </trkpt>
      <trkpt lat="46.981586" lon="11.00738">
        <ele>1505.64712</ele>
      </trkpt>
      <trkpt lat="46.981545" lon="11.007264">
        <ele>1505.2096</ele>
      </trkpt>
      <trkpt lat="46.981507" lon="11.007219">
        <ele>1504.16879</ele>
      </trkpt>
      <trkpt lat="46.981467" lon="11.007169">
        <ele>1503.66121</ele>
      </trkpt>
      <trkpt lat="46.981451" lon="11.007149">
        <ele>1503.35592</ele>
      </trkpt>
      <trkpt lat="46.981432" lon="11.007124">
        <ele>1502.84568</ele>
      </trkpt>
      <trkpt lat="46.981377" lon="11.007037">
        <ele>1501.54665</ele>
      </trkpt>
      <trkpt lat="46.981358" lon="11.007008">
        <ele>1501.26996</ele>
      </trkpt>
      <trkpt lat="46.981303" lon="11.006924">
        <ele>1501.16373</ele>
      </trkpt>
      <trkpt lat="46.981283" lon="11.006898">
        <ele>1501.1915</ele>
      </trkpt>
      <trkpt lat="46.981234" lon="11.006858">
        <ele>1500.31641</ele>
      </trkpt>
      <trkpt lat="46.98119" lon="11.006794">
        <ele>1500.62703</ele>
      </trkpt>
      <trkpt lat="46.981183" lon="11.006788">
        <ele>1500.46943</ele>
      </trkpt>
      <trkpt lat="46.981113" lon="11.006734">
        <ele>1498.60622</ele>
      </trkpt>
      <trkpt lat="46.981102" lon="11.006723">
        <ele>1498.41707</ele>
      </trkpt>
      <trkpt lat="46.98103" lon="11.006578">
        <ele>1499.62318</ele>
      </trkpt>
      <trkpt lat="46.980952" lon="11.006499">
        <ele>1498.17287</ele>
      </trkpt>
      <trkpt lat="46.980943" lon="11.006487">
        <ele>1498.19315</ele>
      </trkpt>
      <trkpt lat="46.980893" lon="11.006411">
        <ele>1498.90415</ele>
      </trkpt>
      <trkpt lat="46.980875" lon="11.006383">
        <ele>1499.28834</ele>
      </trkpt>
      <trkpt lat="46.98087" lon="11.006376">
        <ele>1499.37537</ele>
      </trkpt>
      <trkpt lat="46.980857" lon="11.006366">
        <ele>1499.29061</ele>
      </trkpt>
      <trkpt lat="46.980833" lon="11.006356">
        <ele>1498.85423</ele>
      </trkpt>
      <trkpt lat="46.980807" lon="11.006341">
        <ele>1498.62977</ele>
      </trkpt>
      <trkpt lat="46.980769" lon="11.006318">
        <ele>1498.43759</ele>
      </trkpt>
      <trkpt lat="46.98073" lon="11.006295">
        <ele>1498.32543</ele>
      </trkpt>
      <trkpt lat="46.980701" lon="11.006281">
        <ele>1498.08911</ele>
      </trkpt>
      <trkpt lat="46.980655" lon="11.006262">
        <ele>1497.31733</ele>
      </trkpt>
      <trkpt lat="46.980625" lon="11.006245">
        <ele>1496.81539</ele>
      </trkpt>
      <trkpt lat="46.980577" lon="11.006208">
        <ele>1496.13589</ele>
      </trkpt>
      <trkpt lat="46.98056" lon="11.006191">
        <ele>1496.00894</ele>
      </trkpt>
      <trkpt lat="46.980515" lon="11.006142">
        <ele>1496.00798</ele>
      </trkpt>
      <trkpt lat="46.980494" lon="11.006121">
        <ele>1496.04742</ele>
      </trkpt>
      <trkpt lat="46.980358" lon="11.006042">
        <ele>1494.16125</ele>
      </trkpt>
      <trkpt lat="46.980345" lon="11.006025">
        <ele>1494.34226</ele>
      </trkpt>
      <trkpt lat="46.980325" lon="11.005989">
        <ele>1494.93271</ele>
      </trkpt>
      <trkpt lat="46.980301" lon="11.005948">
        <ele>1495.44327</ele>
      </trkpt>
      <trkpt lat="46.980283" lon="11.005915">
        <ele>1495.93532</ele>
      </trkpt>
      <trkpt lat="46.980248" lon="11.005846">
        <ele>1496.95719</ele>
      </trkpt>
      <trkpt lat="46.98019" lon="11.005787">
        <ele>1495.53667</ele>
      </trkpt>
      <trkpt lat="46.980178" lon="11.005761">
        <ele>1495.6109</ele>
      </trkpt>
      <trkpt lat="46.98015" lon="11.005682">
        <ele>1496.23692</ele>
      </trkpt>
      <trkpt lat="46.980125" lon="11.00561">
        <ele>1497.34172</ele>
      </trkpt>
      <trkpt lat="46.980113" lon="11.005566">
        <ele>1498.74632</ele>
      </trkpt>
      <trkpt lat="46.980105" lon="11.005555">
        <ele>1499.15726</ele>
      </trkpt>
      <trkpt lat="46.979982" lon="11.005594">
        <ele>1495.97299</ele>
      </trkpt>
      <trkpt lat="46.979882" lon="11.005497">
        <ele>1496.12029</ele>
      </trkpt>
      <trkpt lat="46.97985" lon="11.005484">
        <ele>1495.69989</ele>
      </trkpt>
      <trkpt lat="46.979822" lon="11.005479">
        <ele>1495.55494</ele>
      </trkpt>
      <trkpt lat="46.97978" lon="11.005475">
        <ele>1495.37173</ele>
      </trkpt>
      <trkpt lat="46.979757" lon="11.005468">
        <ele>1495.31604</ele>
      </trkpt>
      <trkpt lat="46.979632" lon="11.005407">
        <ele>1495.17861</ele>
      </trkpt>
      <trkpt lat="46.979613" lon="11.005395">
        <ele>1495.21535</ele>
      </trkpt>
      <trkpt lat="46.97955" lon="11.005338">
        <ele>1495.90556</ele>
      </trkpt>
      <trkpt lat="46.979501" lon="11.005302">
        <ele>1495.41975</ele>
      </trkpt>
      <trkpt lat="46.979469" lon="11.005246">
        <ele>1495.03789</ele>
      </trkpt>
      <trkpt lat="46.97944" lon="11.005162">
        <ele>1495.32881</ele>
      </trkpt>
      <trkpt lat="46.979414" lon="11.005089">
        <ele>1495.3535</ele>
      </trkpt>
      <trkpt lat="46.97938" lon="11.005018">
        <ele>1495.32088</ele>
      </trkpt>
      <trkpt lat="46.979356" lon="11.004941">
        <ele>1497.00622</ele>
      </trkpt>
      <trkpt lat="46.979283" lon="11.004825">
        <ele>1497.53409</ele>
      </trkpt>
      <trkpt lat="46.979245" lon="11.004772">
        <ele>1498.75722</ele>
      </trkpt>
      <trkpt lat="46.9792" lon="11.004723">
        <ele>1499.57471</ele>
      </trkpt>
      <trkpt lat="46.979171" lon="11.004696">
        <ele>1499.49727</ele>
      </trkpt>
      <trkpt lat="46.979141" lon="11.004669">
        <ele>1499.07144</ele>
      </trkpt>
      <trkpt lat="46.97913" lon="11.004658">
        <ele>1498.91578</ele>
      </trkpt>
      <trkpt lat="46.979095" lon="11.004615">
        <ele>1498.61417</ele>
      </trkpt>
      <trkpt lat="46.979068" lon="11.00457">
        <ele>1498.68987</ele>
      </trkpt>
      <trkpt lat="46.979027" lon="11.00449">
        <ele>1499.14861</ele>
      </trkpt>
      <trkpt lat="46.978992" lon="11.004425">
        <ele>1499.49259</ele>
      </trkpt>
      <trkpt lat="46.978966" lon="11.004382">
        <ele>1499.84846</ele>
      </trkpt>
      <trkpt lat="46.978894" lon="11.004294">
        <ele>1500.70873</ele>
      </trkpt>
      <trkpt lat="46.978869" lon="11.004256">
        <ele>1501.70999</ele>
      </trkpt>
      <trkpt lat="46.978847" lon="11.004242">
        <ele>1501.71412</ele>
      </trkpt>
      <trkpt lat="46.978805" lon="11.004283">
        <ele>1498.49192</ele>
      </trkpt>
      <trkpt lat="46.978796" lon="11.004376">
        <ele>1494.49523</ele>
      </trkpt>
      <trkpt lat="46.97877" lon="11.004405">
        <ele>1492.82574</ele>
      </trkpt>
      <trkpt lat="46.978759" lon="11.004449">
        <ele>1490.91976</ele>
      </trkpt>
      <trkpt lat="46.978776" lon="11.004486">
        <ele>1489.83954</ele>
      </trkpt>
      <trkpt lat="46.978821" lon="11.004539">
        <ele>1488.96192</ele>
      </trkpt>
      <trkpt lat="46.978839" lon="11.00458">
        <ele>1488.0389</ele>
      </trkpt>
      <trkpt lat="46.978929" lon="11.004664">
        <ele>1489.02577</ele>
      </trkpt>
      <trkpt lat="46.97898" lon="11.004733">
        <ele>1489.10597</ele>
      </trkpt>
      <trkpt lat="46.979124" lon="11.00489">
        <ele>1488.78713</ele>
      </trkpt>
      <trkpt lat="46.979214" lon="11.005032">
        <ele>1484.85123</ele>
      </trkpt>
      <trkpt lat="46.979277" lon="11.00543">
        <ele>1468.6368</ele>
      </trkpt>
      <trkpt lat="46.97924" lon="11.005443">
        <ele>1467.8146</ele>
      </trkpt>
      <trkpt lat="46.979134" lon="11.005456">
        <ele>1464.8908</ele>
      </trkpt>
      <trkpt lat="46.979119" lon="11.005539">
        <ele>1460.77913</ele>
      </trkpt>
      <trkpt lat="46.979154" lon="11.005563">
        <ele>1460.65245</ele>
      </trkpt>
      <trkpt lat="46.979183" lon="11.005619">
        <ele>1459.03503</ele>
      </trkpt>
      <trkpt lat="46.979236" lon="11.005653">
        <ele>1458.79907</ele>
      </trkpt>
      <trkpt lat="46.979251" lon="11.005672">
        <ele>1458.24692</ele>
      </trkpt>
      <trkpt lat="46.979301" lon="11.005785">
        <ele>1453.97112</ele>
      </trkpt>
      <trkpt lat="46.979382" lon="11.005915">
        <ele>1448.63249</ele>
      </trkpt>
      <trkpt lat="46.979462" lon="11.006094">
        <ele>1443.56567</ele>
      </trkpt>
      <trkpt lat="46.979412" lon="11.006131">
        <ele>1440.52546</ele>
      </trkpt>
      <trkpt lat="46.979376" lon="11.006171">
        <ele>1438.13426</ele>
      </trkpt>
      <trkpt lat="46.979293" lon="11.006209">
        <ele>1436.36395</ele>
      </trkpt>
      <trkpt lat="46.979203" lon="11.006265">
        <ele>1435.1</ele>
        <name>46.979202,11.006241</name>
      </trkpt>
    </trkseg>
  </trk>
</gpx>