<?xml version="1.0" encoding="UTF-8" standalone="yes"?>
<gpx version="1.1" creator="outdooractive - http://www.outdooractive.com" xmlns="http://www.topografix.com/GPX/1/1" xmlns:oa="http://www.outdooractive.com/GPX/Extensions/1" xmlns:xsi="http://www.w3.org/2001/XMLSchema-instance" xsi:schemaLocation="http://www.topografix.com/GPX/1/1 http://www.topografix.com/GPX/1/1/gpx.xsd http://www.outdooractive.com/GPX/Extensions/1 https://www.outdooractive.com/schema/gpx_extensions.xsd">
  <metadata>
    <name>Fernar Trail (6041)</name>
    <author>
      <name>Jakob Falkner - Ötztal</name>
    </author>
    <link href="https://www.outdooractive.com/r/43652817"/>
    <time>2025-12-02T11:32:02.717Z</time>
    <extensions>
      <oa:oaCategory>mountainbiking</oa:oaCategory>
    </extensions>
  </metadata>
  <trk>
    <name>Fernar Trail (6041)</name>
    <desc>Das hochalpine Naturtrail-Highlight der BIKE REPUBLIC SÖLDEN startet am Tiefenbachgletscher. Es ist ein tiefschwarzes Spektakel in anspruchsvollem, exponiertem Gelände.</desc>
    <type>mountainbiking</type>
    <trkseg>
      <trkpt lat="46.921182" lon="10.94823">
        <ele>2782.73265</ele>
        <name>46.921182,10.948230</name>
      </trkpt>
      <trkpt lat="46.921188" lon="10.948313">
        <ele>2782.74278</ele>
      </trkpt>
      <trkpt lat="46.921248" lon="10.948304">
        <ele>2782.68185</ele>
      </trkpt>
      <trkpt lat="46.921391" lon="10.948308">
        <ele>2782.42192</ele>
      </trkpt>
      <trkpt lat="46.921487" lon="10.948316">
        <ele>2782.05184</ele>
      </trkpt>
      <trkpt lat="46.92162" lon="10.948341">
        <ele>2781.47446</ele>
      </trkpt>
      <trkpt lat="46.921762" lon="10.94831">
        <ele>2781.45585</ele>
      </trkpt>
      <trkpt lat="46.922103" lon="10.948249">
        <ele>2782.89865</ele>
      </trkpt>
      <trkpt lat="46.92211" lon="10.9483">
        <ele>2782.93308</ele>
      </trkpt>
      <trkpt lat="46.9221" lon="10.94843">
        <ele>2783.06306</ele>
      </trkpt>
      <trkpt lat="46.92213" lon="10.94879">
        <ele>2784.85179</ele>
      </trkpt>
      <trkpt lat="46.922181" lon="10.948917">
        <ele>2786.15313</ele>
      </trkpt>
      <trkpt lat="46.922275" lon="10.948978">
        <ele>2786.8654</ele>
      </trkpt>
      <trkpt lat="46.922286" lon="10.949134">
        <ele>2786.66267</ele>
      </trkpt>
      <trkpt lat="46.922302" lon="10.949356">
        <ele>2783.90928</ele>
      </trkpt>
      <trkpt lat="46.922322" lon="10.949594">
        <ele>2781.163</ele>
      </trkpt>
      <trkpt lat="46.922327" lon="10.94972">
        <ele>2779.68111</ele>
      </trkpt>
      <trkpt lat="46.922295" lon="10.950106">
        <ele>2778.53358</ele>
      </trkpt>
      <trkpt lat="46.92226" lon="10.950456">
        <ele>2774.83425</ele>
      </trkpt>
      <trkpt lat="46.922249" lon="10.950653">
        <ele>2770.48669</ele>
      </trkpt>
      <trkpt lat="46.922246" lon="10.950893">
        <ele>2764.97186</ele>
      </trkpt>
      <trkpt lat="46.92228" lon="10.950964">
        <ele>2764.62536</ele>
        <name>46.922278,10.950966</name>
      </trkpt>
      <trkpt lat="46.922298" lon="10.951001">
        <ele>2764.44446</ele>
      </trkpt>
      <trkpt lat="46.922344" lon="10.951122">
        <ele>2764.38819</ele>
      </trkpt>
      <trkpt lat="46.922364" lon="10.951191">
        <ele>2764.47667</ele>
      </trkpt>
      <trkpt lat="46.922384" lon="10.951271">
        <ele>2764.79636</ele>
      </trkpt>
      <trkpt lat="46.922378" lon="10.951369">
        <ele>2762.71537</ele>
      </trkpt>
      <trkpt lat="46.922377" lon="10.951448">
        <ele>2760.95507</ele>
      </trkpt>
      <trkpt lat="46.922394" lon="10.951588">
        <ele>2758.06778</ele>
      </trkpt>
      <trkpt lat="46.922397" lon="10.951681">
        <ele>2755.5755</ele>
      </trkpt>
      <trkpt lat="46.922395" lon="10.95176">
        <ele>2753.96212</ele>
      </trkpt>
      <trkpt lat="46.922424" lon="10.951808">
        <ele>2754.84706</ele>
      </trkpt>
      <trkpt lat="46.922425" lon="10.951877">
        <ele>2753.8418</ele>
      </trkpt>
      <trkpt lat="46.922352" lon="10.951922">
        <ele>2751.37161</ele>
      </trkpt>
      <trkpt lat="46.922343" lon="10.951944">
        <ele>2751.2904</ele>
      </trkpt>
      <trkpt lat="46.922349" lon="10.952003">
        <ele>2750.67531</ele>
      </trkpt>
      <trkpt lat="46.922356" lon="10.952044">
        <ele>2749.90971</ele>
      </trkpt>
      <trkpt lat="46.922347" lon="10.95212">
        <ele>2748.32246</ele>
      </trkpt>
      <trkpt lat="46.922366" lon="10.952132">
        <ele>2747.79933</ele>
      </trkpt>
      <trkpt lat="46.922354" lon="10.952197">
        <ele>2745.93522</ele>
      </trkpt>
      <trkpt lat="46.922359" lon="10.952253">
        <ele>2744.18464</ele>
      </trkpt>
      <trkpt lat="46.922403" lon="10.952233">
        <ele>2744.80009</ele>
      </trkpt>
      <trkpt lat="46.922433" lon="10.952292">
        <ele>2743.22326</ele>
      </trkpt>
      <trkpt lat="46.922448" lon="10.952325">
        <ele>2742.42362</ele>
      </trkpt>
      <trkpt lat="46.922458" lon="10.952379">
        <ele>2741.3416</ele>
      </trkpt>
      <trkpt lat="46.922477" lon="10.952491">
        <ele>2739.8469</ele>
      </trkpt>
      <trkpt lat="46.92249" lon="10.952566">
        <ele>2738.47142</ele>
      </trkpt>
      <trkpt lat="46.922486" lon="10.952631">
        <ele>2736.92708</ele>
      </trkpt>
      <trkpt lat="46.922494" lon="10.952685">
        <ele>2736.06052</ele>
      </trkpt>
      <trkpt lat="46.922482" lon="10.952728">
        <ele>2734.98162</ele>
      </trkpt>
      <trkpt lat="46.922492" lon="10.952767">
        <ele>2734.50647</ele>
      </trkpt>
      <trkpt lat="46.92249" lon="10.952826">
        <ele>2733.43421</ele>
      </trkpt>
      <trkpt lat="46.922477" lon="10.952842">
        <ele>2732.80688</ele>
      </trkpt>
      <trkpt lat="46.922486" lon="10.952891">
        <ele>2732.094</ele>
      </trkpt>
      <trkpt lat="46.922489" lon="10.952942">
        <ele>2731.05501</ele>
      </trkpt>
      <trkpt lat="46.922509" lon="10.952978">
        <ele>2730.60097</ele>
      </trkpt>
      <trkpt lat="46.922591" lon="10.95304">
        <ele>2730.06377</ele>
      </trkpt>
      <trkpt lat="46.922616" lon="10.953065">
        <ele>2729.35093</ele>
      </trkpt>
      <trkpt lat="46.922616" lon="10.953096">
        <ele>2728.67859</ele>
      </trkpt>
      <trkpt lat="46.922607" lon="10.953136">
        <ele>2727.86096</ele>
      </trkpt>
      <trkpt lat="46.92256" lon="10.953163">
        <ele>2726.73046</ele>
      </trkpt>
      <trkpt lat="46.922454" lon="10.953156">
        <ele>2723.89977</ele>
      </trkpt>
      <trkpt lat="46.922335" lon="10.953186">
        <ele>2720.80451</ele>
      </trkpt>
      <trkpt lat="46.922313" lon="10.953205">
        <ele>2719.82665</ele>
      </trkpt>
      <trkpt lat="46.922377" lon="10.953366">
        <ele>2716.21156</ele>
        <name>46.922424,10.953326</name>
      </trkpt>
      <trkpt lat="46.922434" lon="10.953513">
        <ele>2712.9425</ele>
      </trkpt>
      <trkpt lat="46.922481" lon="10.95361">
        <ele>2711.18148</ele>
      </trkpt>
      <trkpt lat="46.922491" lon="10.9537">
        <ele>2708.12598</ele>
      </trkpt>
      <trkpt lat="46.922459" lon="10.953714">
        <ele>2707.30711</ele>
      </trkpt>
      <trkpt lat="46.922409" lon="10.953669">
        <ele>2708.13991</ele>
      </trkpt>
      <trkpt lat="46.922389" lon="10.953682">
        <ele>2707.4269</ele>
      </trkpt>
      <trkpt lat="46.922362" lon="10.953681">
        <ele>2706.84239</ele>
      </trkpt>
      <trkpt lat="46.922336" lon="10.953743">
        <ele>2705.02361</ele>
      </trkpt>
      <trkpt lat="46.922329" lon="10.953828">
        <ele>2703.14325</ele>
      </trkpt>
      <trkpt lat="46.922278" lon="10.95377">
        <ele>2702.66379</ele>
      </trkpt>
      <trkpt lat="46.922262" lon="10.95381">
        <ele>2701.39556</ele>
      </trkpt>
      <trkpt lat="46.922269" lon="10.953901">
        <ele>2699.45977</ele>
      </trkpt>
      <trkpt lat="46.922247" lon="10.953928">
        <ele>2698.04779</ele>
      </trkpt>
      <trkpt lat="46.922216" lon="10.953912">
        <ele>2697.3026</ele>
      </trkpt>
      <trkpt lat="46.922202" lon="10.953933">
        <ele>2696.38823</ele>
      </trkpt>
      <trkpt lat="46.922186" lon="10.954015">
        <ele>2693.83667</ele>
      </trkpt>
      <trkpt lat="46.922106" lon="10.954104">
        <ele>2688.99611</ele>
      </trkpt>
      <trkpt lat="46.922054" lon="10.954173">
        <ele>2685.19914</ele>
      </trkpt>
      <trkpt lat="46.922136" lon="10.954165">
        <ele>2687.13437</ele>
      </trkpt>
      <trkpt lat="46.922062" lon="10.954247">
        <ele>2683.17138</ele>
      </trkpt>
      <trkpt lat="46.921994" lon="10.954159">
        <ele>2682.01843</ele>
      </trkpt>
      <trkpt lat="46.922007" lon="10.954066">
        <ele>2683.57128</ele>
      </trkpt>
      <trkpt lat="46.921991" lon="10.95402">
        <ele>2680.95155</ele>
      </trkpt>
      <trkpt lat="46.922015" lon="10.953888">
        <ele>2681.91125</ele>
      </trkpt>
      <trkpt lat="46.921981" lon="10.953838">
        <ele>2679.14808</ele>
      </trkpt>
      <trkpt lat="46.92194" lon="10.953743">
        <ele>2677.83243</ele>
      </trkpt>
      <trkpt lat="46.921879" lon="10.953692">
        <ele>2676.14935</ele>
      </trkpt>
      <trkpt lat="46.921791" lon="10.9538">
        <ele>2670.19088</ele>
      </trkpt>
      <trkpt lat="46.921735" lon="10.953798">
        <ele>2669.29612</ele>
      </trkpt>
      <trkpt lat="46.92164" lon="10.953909">
        <ele>2662.34504</ele>
      </trkpt>
      <trkpt lat="46.921559" lon="10.95404">
        <ele>2658.87374</ele>
      </trkpt>
      <trkpt lat="46.921468" lon="10.954243">
        <ele>2654.39885</ele>
      </trkpt>
      <trkpt lat="46.92141" lon="10.954416">
        <ele>2651.85753</ele>
      </trkpt>
      <trkpt lat="46.921392" lon="10.954572">
        <ele>2648.52965</ele>
      </trkpt>
      <trkpt lat="46.921367" lon="10.95465">
        <ele>2647.38846</ele>
      </trkpt>
      <trkpt lat="46.921351" lon="10.954744">
        <ele>2645.92701</ele>
      </trkpt>
      <trkpt lat="46.92127" lon="10.954985">
        <ele>2646.80586</ele>
      </trkpt>
      <trkpt lat="46.921121" lon="10.955327">
        <ele>2649.59041</ele>
      </trkpt>
      <trkpt lat="46.921099" lon="10.955499">
        <ele>2647.62574</ele>
      </trkpt>
      <trkpt lat="46.921101" lon="10.955549">
        <ele>2646.37074</ele>
        <name>46.920988,10.955558</name>
      </trkpt>
      <trkpt lat="46.921106" lon="10.955681">
        <ele>2643.10408</ele>
      </trkpt>
      <trkpt lat="46.921092" lon="10.955906">
        <ele>2643.00132</ele>
      </trkpt>
      <trkpt lat="46.921171" lon="10.956338">
        <ele>2642.77197</ele>
      </trkpt>
      <trkpt lat="46.921212" lon="10.956567">
        <ele>2643.91031</ele>
      </trkpt>
      <trkpt lat="46.921319" lon="10.956869">
        <ele>2640.37997</ele>
      </trkpt>
      <trkpt lat="46.921398" lon="10.957127">
        <ele>2634.52925</ele>
      </trkpt>
      <trkpt lat="46.92148" lon="10.957206">
        <ele>2631.41259</ele>
      </trkpt>
      <trkpt lat="46.921516" lon="10.957484">
        <ele>2624.84412</ele>
      </trkpt>
      <trkpt lat="46.921493" lon="10.957629">
        <ele>2621.36993</ele>
        <name>46.921428,10.957661</name>
      </trkpt>
      <trkpt lat="46.921511" lon="10.957685">
        <ele>2619.42487</ele>
      </trkpt>
      <trkpt lat="46.921557" lon="10.957611">
        <ele>2617.43379</ele>
      </trkpt>
      <trkpt lat="46.921582" lon="10.957617">
        <ele>2615.4462</ele>
      </trkpt>
      <trkpt lat="46.921618" lon="10.957673">
        <ele>2612.63444</ele>
      </trkpt>
      <trkpt lat="46.921746" lon="10.957542">
        <ele>2610.72609</ele>
      </trkpt>
      <trkpt lat="46.921869" lon="10.957347">
        <ele>2611.20698</ele>
      </trkpt>
      <trkpt lat="46.921978" lon="10.957235">
        <ele>2611.29369</ele>
      </trkpt>
      <trkpt lat="46.922073" lon="10.957268">
        <ele>2611.44503</ele>
      </trkpt>
      <trkpt lat="46.922086" lon="10.957396">
        <ele>2611.45037</ele>
      </trkpt>
      <trkpt lat="46.922139" lon="10.957591">
        <ele>2611.56507</ele>
      </trkpt>
      <trkpt lat="46.92217" lon="10.957687">
        <ele>2612.52148</ele>
      </trkpt>
      <trkpt lat="46.922155" lon="10.957758">
        <ele>2612.12776</ele>
      </trkpt>
      <trkpt lat="46.922156" lon="10.957815">
        <ele>2612.30415</ele>
      </trkpt>
      <trkpt lat="46.922184" lon="10.957845">
        <ele>2613.25757</ele>
      </trkpt>
      <trkpt lat="46.922436" lon="10.957805">
        <ele>2616.83113</ele>
      </trkpt>
      <trkpt lat="46.922541" lon="10.957943">
        <ele>2616.53874</ele>
      </trkpt>
      <trkpt lat="46.922621" lon="10.958142">
        <ele>2616.20766</ele>
      </trkpt>
      <trkpt lat="46.922667" lon="10.958209">
        <ele>2616.38098</ele>
      </trkpt>
      <trkpt lat="46.922689" lon="10.958235">
        <ele>2616.58814</ele>
      </trkpt>
      <trkpt lat="46.922693" lon="10.958256">
        <ele>2616.87028</ele>
      </trkpt>
      <trkpt lat="46.922751" lon="10.958327">
        <ele>2617.95114</ele>
      </trkpt>
      <trkpt lat="46.922808" lon="10.958692">
        <ele>2623.20458</ele>
      </trkpt>
      <trkpt lat="46.922829" lon="10.958831">
        <ele>2624.50449</ele>
      </trkpt>
      <trkpt lat="46.922814" lon="10.959197">
        <ele>2624.49689</ele>
      </trkpt>
      <trkpt lat="46.922809" lon="10.959287">
        <ele>2624.52777</ele>
      </trkpt>
      <trkpt lat="46.922956" lon="10.959612">
        <ele>2623.57923</ele>
      </trkpt>
      <trkpt lat="46.922907" lon="10.960224">
        <ele>2622.35037</ele>
      </trkpt>
      <trkpt lat="46.92288" lon="10.960678">
        <ele>2614.55715</ele>
      </trkpt>
      <trkpt lat="46.922843" lon="10.961161">
        <ele>2603.26781</ele>
      </trkpt>
      <trkpt lat="46.922811" lon="10.961573">
        <ele>2591.45473</ele>
      </trkpt>
      <trkpt lat="46.922772" lon="10.961794">
        <ele>2583.5286</ele>
      </trkpt>
      <trkpt lat="46.922546" lon="10.961915">
        <ele>2583.91908</ele>
      </trkpt>
      <trkpt lat="46.922499" lon="10.962022">
        <ele>2581.60669</ele>
      </trkpt>
      <trkpt lat="46.92244" lon="10.962253">
        <ele>2578.01092</ele>
      </trkpt>
      <trkpt lat="46.922448" lon="10.96234">
        <ele>2576.15227</ele>
        <name>46.922454,10.962338</name>
      </trkpt>
      <trkpt lat="46.922481" lon="10.96269">
        <ele>2568.65196</ele>
      </trkpt>
      <trkpt lat="46.922485" lon="10.962806">
        <ele>2566.83483</ele>
      </trkpt>
      <trkpt lat="46.92249" lon="10.962895">
        <ele>2565.67604</ele>
      </trkpt>
      <trkpt lat="46.922421" lon="10.962997">
        <ele>2562.57124</ele>
      </trkpt>
      <trkpt lat="46.922443" lon="10.963267">
        <ele>2557.69269</ele>
      </trkpt>
      <trkpt lat="46.922397" lon="10.963517">
        <ele>2551.72676</ele>
      </trkpt>
      <trkpt lat="46.92249" lon="10.963699">
        <ele>2545.92295</ele>
      </trkpt>
      <trkpt lat="46.922422" lon="10.964069">
        <ele>2540.53136</ele>
      </trkpt>
      <trkpt lat="46.922433" lon="10.964127">
        <ele>2539.17398</ele>
      </trkpt>
      <trkpt lat="46.922414" lon="10.964159">
        <ele>2537.45815</ele>
      </trkpt>
      <trkpt lat="46.922432" lon="10.964208">
        <ele>2536.32653</ele>
      </trkpt>
      <trkpt lat="46.922434" lon="10.964237">
        <ele>2535.19749</ele>
      </trkpt>
      <trkpt lat="46.922524" lon="10.964546">
        <ele>2527.7193</ele>
      </trkpt>
      <trkpt lat="46.922614" lon="10.964854">
        <ele>2521.27918</ele>
      </trkpt>
      <trkpt lat="46.922611" lon="10.964933">
        <ele>2520.6008</ele>
      </trkpt>
      <trkpt lat="46.922589" lon="10.96497">
        <ele>2519.37555</ele>
      </trkpt>
      <trkpt lat="46.922593" lon="10.965039">
        <ele>2519.94415</ele>
      </trkpt>
      <trkpt lat="46.922558" lon="10.965146">
        <ele>2518.61575</ele>
      </trkpt>
      <trkpt lat="46.922549" lon="10.965221">
        <ele>2518.18115</ele>
      </trkpt>
      <trkpt lat="46.922531" lon="10.965343">
        <ele>2515.78862</ele>
      </trkpt>
      <trkpt lat="46.922533" lon="10.965451">
        <ele>2513.91681</ele>
      </trkpt>
      <trkpt lat="46.92259" lon="10.965595">
        <ele>2513.24471</ele>
      </trkpt>
      <trkpt lat="46.922563" lon="10.965704">
        <ele>2510.67929</ele>
      </trkpt>
      <trkpt lat="46.92253" lon="10.966012">
        <ele>2504.34129</ele>
      </trkpt>
      <trkpt lat="46.922465" lon="10.966205">
        <ele>2501.77035</ele>
      </trkpt>
      <trkpt lat="46.922514" lon="10.966338">
        <ele>2499.36155</ele>
      </trkpt>
      <trkpt lat="46.922405" lon="10.966492">
        <ele>2495.00555</ele>
      </trkpt>
      <trkpt lat="46.922384" lon="10.966538">
        <ele>2494.22825</ele>
      </trkpt>
      <trkpt lat="46.922344" lon="10.966528">
        <ele>2493.00868</ele>
      </trkpt>
      <trkpt lat="46.922327" lon="10.966543">
        <ele>2492.24786</ele>
      </trkpt>
      <trkpt lat="46.922293" lon="10.966551">
        <ele>2490.75307</ele>
      </trkpt>
      <trkpt lat="46.922273" lon="10.966556">
        <ele>2489.79918</ele>
      </trkpt>
      <trkpt lat="46.922262" lon="10.966586">
        <ele>2488.89757</ele>
      </trkpt>
      <trkpt lat="46.922196" lon="10.966546">
        <ele>2486.02021</ele>
      </trkpt>
      <trkpt lat="46.922168" lon="10.966597">
        <ele>2483.98838</ele>
      </trkpt>
      <trkpt lat="46.922134" lon="10.966678">
        <ele>2480.74176</ele>
      </trkpt>
      <trkpt lat="46.92213" lon="10.966783">
        <ele>2477.50987</ele>
      </trkpt>
      <trkpt lat="46.922115" lon="10.966774">
        <ele>2477.08783</ele>
      </trkpt>
      <trkpt lat="46.922097" lon="10.966837">
        <ele>2474.18657</ele>
      </trkpt>
      <trkpt lat="46.922077" lon="10.966807">
        <ele>2474.33154</ele>
      </trkpt>
      <trkpt lat="46.922047" lon="10.96683">
        <ele>2472.47463</ele>
      </trkpt>
      <trkpt lat="46.922057" lon="10.966927">
        <ele>2469.40782</ele>
      </trkpt>
      <trkpt lat="46.922036" lon="10.966901">
        <ele>2469.93045</ele>
      </trkpt>
      <trkpt lat="46.921996" lon="10.966948">
        <ele>2467.61671</ele>
      </trkpt>
      <trkpt lat="46.921944" lon="10.966935">
        <ele>2466.07588</ele>
      </trkpt>
      <trkpt lat="46.921929" lon="10.96697">
        <ele>2464.42494</ele>
      </trkpt>
      <trkpt lat="46.921827" lon="10.966901">
        <ele>2460.39082</ele>
      </trkpt>
      <trkpt lat="46.921778" lon="10.966751">
        <ele>2457.02544</ele>
      </trkpt>
      <trkpt lat="46.921752" lon="10.966647">
        <ele>2454.51609</ele>
      </trkpt>
      <trkpt lat="46.921741" lon="10.966596">
        <ele>2453.37442</ele>
      </trkpt>
      <trkpt lat="46.921731" lon="10.966603">
        <ele>2452.57348</ele>
      </trkpt>
      <trkpt lat="46.9217" lon="10.966948">
        <ele>2448.80436</ele>
      </trkpt>
      <trkpt lat="46.9216" lon="10.966748">
        <ele>2441.95889</ele>
      </trkpt>
      <trkpt lat="46.921578" lon="10.967199">
        <ele>2432.40075</ele>
      </trkpt>
      <trkpt lat="46.921566" lon="10.967548">
        <ele>2415.62362</ele>
      </trkpt>
      <trkpt lat="46.921513" lon="10.96759">
        <ele>2411.56245</ele>
      </trkpt>
      <trkpt lat="46.921493" lon="10.967628">
        <ele>2409.24343</ele>
      </trkpt>
      <trkpt lat="46.921524" lon="10.967695">
        <ele>2406.87885</ele>
      </trkpt>
      <trkpt lat="46.921506" lon="10.967721">
        <ele>2405.28851</ele>
      </trkpt>
      <trkpt lat="46.921466" lon="10.967736">
        <ele>2403.54914</ele>
      </trkpt>
      <trkpt lat="46.921415" lon="10.967714">
        <ele>2402.41367</ele>
      </trkpt>
      <trkpt lat="46.921389" lon="10.967766">
        <ele>2399.08131</ele>
      </trkpt>
      <trkpt lat="46.92136" lon="10.967771">
        <ele>2397.66035</ele>
      </trkpt>
      <trkpt lat="46.921307" lon="10.967789">
        <ele>2394.90778</ele>
      </trkpt>
      <trkpt lat="46.921268" lon="10.967752">
        <ele>2393.75349</ele>
      </trkpt>
      <trkpt lat="46.921249" lon="10.967734">
        <ele>2392.80156</ele>
      </trkpt>
      <trkpt lat="46.921234" lon="10.967814">
        <ele>2390.90466</ele>
      </trkpt>
      <trkpt lat="46.921224" lon="10.967819">
        <ele>2390.31778</ele>
      </trkpt>
      <trkpt lat="46.921217" lon="10.967863">
        <ele>2389.42027</ele>
      </trkpt>
      <trkpt lat="46.921193" lon="10.967886">
        <ele>2388.11399</ele>
      </trkpt>
      <trkpt lat="46.921184" lon="10.967978">
        <ele>2386.03769</ele>
      </trkpt>
      <trkpt lat="46.921156" lon="10.967968">
        <ele>2384.97517</ele>
      </trkpt>
      <trkpt lat="46.92115" lon="10.968007">
        <ele>2383.9807</ele>
      </trkpt>
      <trkpt lat="46.921151" lon="10.968058">
        <ele>2382.94599</ele>
      </trkpt>
      <trkpt lat="46.921111" lon="10.968092">
        <ele>2380.75566</ele>
      </trkpt>
      <trkpt lat="46.921106" lon="10.968155">
        <ele>2379.55492</ele>
      </trkpt>
      <trkpt lat="46.921092" lon="10.968222">
        <ele>2377.62735</ele>
      </trkpt>
      <trkpt lat="46.921054" lon="10.96845">
        <ele>2370.13902</ele>
      </trkpt>
      <trkpt lat="46.921015" lon="10.968505">
        <ele>2367.5587</ele>
      </trkpt>
      <trkpt lat="46.920985" lon="10.968551">
        <ele>2364.96008</ele>
      </trkpt>
      <trkpt lat="46.920993" lon="10.968592">
        <ele>2364.27625</ele>
      </trkpt>
      <trkpt lat="46.920977" lon="10.968631">
        <ele>2362.72337</ele>
      </trkpt>
      <trkpt lat="46.92096" lon="10.968632">
        <ele>2361.93902</ele>
      </trkpt>
      <trkpt lat="46.920968" lon="10.968672">
        <ele>2361.58891</ele>
      </trkpt>
      <trkpt lat="46.92096" lon="10.968712">
        <ele>2360.58941</ele>
      </trkpt>
      <trkpt lat="46.920931" lon="10.968764">
        <ele>2358.55199</ele>
      </trkpt>
      <trkpt lat="46.920935" lon="10.968808">
        <ele>2357.8168</ele>
      </trkpt>
      <trkpt lat="46.920902" lon="10.968843">
        <ele>2355.7414</ele>
      </trkpt>
      <trkpt lat="46.920912" lon="10.968904">
        <ele>2355.30468</ele>
      </trkpt>
      <trkpt lat="46.920903" lon="10.968964">
        <ele>2354.15303</ele>
      </trkpt>
      <trkpt lat="46.920873" lon="10.968957">
        <ele>2353.21373</ele>
      </trkpt>
      <trkpt lat="46.920862" lon="10.969001">
        <ele>2352.24838</ele>
      </trkpt>
      <trkpt lat="46.920882" lon="10.969094">
        <ele>2351.02121</ele>
      </trkpt>
      <trkpt lat="46.920895" lon="10.969139">
        <ele>2349.85963</ele>
      </trkpt>
      <trkpt lat="46.920944" lon="10.969157">
        <ele>2348.0035</ele>
        <name>46.920959,10.969076</name>
      </trkpt>
      <trkpt lat="46.921052" lon="10.969198">
        <ele>2343.95083</ele>
      </trkpt>
      <trkpt lat="46.92107" lon="10.96925">
        <ele>2342.14152</ele>
      </trkpt>
      <trkpt lat="46.921098" lon="10.969303">
        <ele>2340.798</ele>
      </trkpt>
      <trkpt lat="46.921096" lon="10.969374">
        <ele>2339.07289</ele>
      </trkpt>
      <trkpt lat="46.921251" lon="10.969518">
        <ele>2336.78597</ele>
      </trkpt>
      <trkpt lat="46.921393" lon="10.969728">
        <ele>2333.23599</ele>
      </trkpt>
      <trkpt lat="46.921424" lon="10.96978">
        <ele>2332.5045</ele>
      </trkpt>
      <trkpt lat="46.921478" lon="10.969859">
        <ele>2331.61102</ele>
      </trkpt>
      <trkpt lat="46.921507" lon="10.96992">
        <ele>2331.3014</ele>
      </trkpt>
      <trkpt lat="46.921592" lon="10.970064">
        <ele>2330.79689</ele>
      </trkpt>
      <trkpt lat="46.921649" lon="10.970118">
        <ele>2329.45743</ele>
      </trkpt>
      <trkpt lat="46.92173" lon="10.970184">
        <ele>2327.453</ele>
      </trkpt>
      <trkpt lat="46.921808" lon="10.970247">
        <ele>2326.3531</ele>
      </trkpt>
      <trkpt lat="46.921827" lon="10.970315">
        <ele>2324.65491</ele>
      </trkpt>
      <trkpt lat="46.92186" lon="10.970342">
        <ele>2324.612</ele>
      </trkpt>
      <trkpt lat="46.921907" lon="10.970378">
        <ele>2324.30848</ele>
      </trkpt>
      <trkpt lat="46.921923" lon="10.970418">
        <ele>2323.02889</ele>
      </trkpt>
      <trkpt lat="46.921951" lon="10.970423">
        <ele>2323.29757</ele>
      </trkpt>
      <trkpt lat="46.921968" lon="10.97049">
        <ele>2320.7831</ele>
      </trkpt>
      <trkpt lat="46.922088" lon="10.970638">
        <ele>2318.89277</ele>
      </trkpt>
      <trkpt lat="46.922079" lon="10.970674">
        <ele>2317.2961</ele>
      </trkpt>
      <trkpt lat="46.922096" lon="10.970727">
        <ele>2316.50127</ele>
      </trkpt>
      <trkpt lat="46.922088" lon="10.970752">
        <ele>2315.31983</ele>
      </trkpt>
      <trkpt lat="46.922115" lon="10.970827">
        <ele>2314.45573</ele>
      </trkpt>
      <trkpt lat="46.922118" lon="10.970876">
        <ele>2313.12715</ele>
      </trkpt>
      <trkpt lat="46.922182" lon="10.970975">
        <ele>2312.48913</ele>
      </trkpt>
      <trkpt lat="46.922202" lon="10.971034">
        <ele>2311.01884</ele>
      </trkpt>
      <trkpt lat="46.922202" lon="10.971093">
        <ele>2308.78827</ele>
      </trkpt>
      <trkpt lat="46.922184" lon="10.971124">
        <ele>2306.958</ele>
      </trkpt>
      <trkpt lat="46.92221" lon="10.971226">
        <ele>2304.94041</ele>
      </trkpt>
      <trkpt lat="46.922192" lon="10.971255">
        <ele>2303.50272</ele>
      </trkpt>
      <trkpt lat="46.922171" lon="10.971243">
        <ele>2303.04036</ele>
      </trkpt>
      <trkpt lat="46.922118" lon="10.971287">
        <ele>2300.68895</ele>
      </trkpt>
      <trkpt lat="46.922089" lon="10.971323">
        <ele>2299.7008</ele>
      </trkpt>
      <trkpt lat="46.922101" lon="10.971426">
        <ele>2298.91822</ele>
      </trkpt>
      <trkpt lat="46.922098" lon="10.971468">
        <ele>2298.36419</ele>
      </trkpt>
      <trkpt lat="46.922128" lon="10.971494">
        <ele>2298.15135</ele>
      </trkpt>
      <trkpt lat="46.92213" lon="10.971522">
        <ele>2297.71454</ele>
      </trkpt>
      <trkpt lat="46.922148" lon="10.971582">
        <ele>2296.76849</ele>
      </trkpt>
      <trkpt lat="46.922188" lon="10.971638">
        <ele>2296.59764</ele>
      </trkpt>
      <trkpt lat="46.922206" lon="10.971722">
        <ele>2295.42049</ele>
      </trkpt>
      <trkpt lat="46.922199" lon="10.971758">
        <ele>2294.58869</ele>
      </trkpt>
      <trkpt lat="46.922218" lon="10.971792">
        <ele>2294.27265</ele>
      </trkpt>
      <trkpt lat="46.922253" lon="10.971866">
        <ele>2293.48973</ele>
      </trkpt>
      <trkpt lat="46.92232" lon="10.971932">
        <ele>2292.6179</ele>
      </trkpt>
      <trkpt lat="46.922342" lon="10.971989">
        <ele>2291.21689</ele>
      </trkpt>
      <trkpt lat="46.922376" lon="10.972054">
        <ele>2289.52122</ele>
      </trkpt>
      <trkpt lat="46.92238" lon="10.972061">
        <ele>2289.30368</ele>
      </trkpt>
      <trkpt lat="46.922371" lon="10.972128">
        <ele>2286.98416</ele>
      </trkpt>
      <trkpt lat="46.922372" lon="10.972168">
        <ele>2285.45633</ele>
      </trkpt>
      <trkpt lat="46.922363" lon="10.972199">
        <ele>2284.28959</ele>
      </trkpt>
      <trkpt lat="46.922416" lon="10.972372">
        <ele>2279.38175</ele>
      </trkpt>
      <trkpt lat="46.92246" lon="10.972419">
        <ele>2278.38126</ele>
      </trkpt>
      <trkpt lat="46.922547" lon="10.972553">
        <ele>2275.19649</ele>
      </trkpt>
      <trkpt lat="46.922652" lon="10.972686">
        <ele>2273.25081</ele>
      </trkpt>
      <trkpt lat="46.922966" lon="10.973116">
        <ele>2270.13283</ele>
      </trkpt>
      <trkpt lat="46.923008" lon="10.973181">
        <ele>2269.73444</ele>
      </trkpt>
      <trkpt lat="46.923161" lon="10.973391">
        <ele>2267.02989</ele>
      </trkpt>
      <trkpt lat="46.923353" lon="10.973607">
        <ele>2263.15188</ele>
      </trkpt>
      <trkpt lat="46.92341" lon="10.973658">
        <ele>2262.39972</ele>
      </trkpt>
      <trkpt lat="46.923466" lon="10.973758">
        <ele>2260.90278</ele>
      </trkpt>
      <trkpt lat="46.92352" lon="10.973789">
        <ele>2260.668</ele>
      </trkpt>
      <trkpt lat="46.923568" lon="10.973869">
        <ele>2259.29079</ele>
      </trkpt>
      <trkpt lat="46.923699" lon="10.973947">
        <ele>2256.74032</ele>
      </trkpt>
      <trkpt lat="46.923772" lon="10.974033">
        <ele>2254.37027</ele>
      </trkpt>
      <trkpt lat="46.923811" lon="10.974096">
        <ele>2253.18895</ele>
      </trkpt>
      <trkpt lat="46.923835" lon="10.974181">
        <ele>2251.55985</ele>
      </trkpt>
      <trkpt lat="46.923838" lon="10.974259">
        <ele>2249.68895</ele>
      </trkpt>
      <trkpt lat="46.923833" lon="10.974308">
        <ele>2248.05138</ele>
      </trkpt>
      <trkpt lat="46.923881" lon="10.974394">
        <ele>2245.52482</ele>
      </trkpt>
      <trkpt lat="46.923924" lon="10.974512">
        <ele>2242.116</ele>
      </trkpt>
      <trkpt lat="46.923978" lon="10.974602">
        <ele>2240.2036</ele>
      </trkpt>
      <trkpt lat="46.923982" lon="10.974655">
        <ele>2238.52057</ele>
      </trkpt>
      <trkpt lat="46.924031" lon="10.974699">
        <ele>2237.81452</ele>
      </trkpt>
      <trkpt lat="46.924054" lon="10.974776">
        <ele>2235.49703</ele>
      </trkpt>
      <trkpt lat="46.924086" lon="10.974805">
        <ele>2235.14945</ele>
      </trkpt>
      <trkpt lat="46.924102" lon="10.974841">
        <ele>2234.12771</ele>
      </trkpt>
      <trkpt lat="46.924166" lon="10.974875">
        <ele>2234.04248</ele>
      </trkpt>
      <trkpt lat="46.924213" lon="10.97494">
        <ele>2232.31434</ele>
      </trkpt>
      <trkpt lat="46.924258" lon="10.974975">
        <ele>2231.39003</ele>
      </trkpt>
      <trkpt lat="46.924287" lon="10.97502">
        <ele>2229.93087</ele>
      </trkpt>
      <trkpt lat="46.924398" lon="10.975061">
        <ele>2229.33125</ele>
      </trkpt>
      <trkpt lat="46.924415" lon="10.975086">
        <ele>2228.55064</ele>
      </trkpt>
      <trkpt lat="46.924447" lon="10.975086">
        <ele>2228.8081</ele>
      </trkpt>
      <trkpt lat="46.924475" lon="10.97514">
        <ele>2227.34413</ele>
      </trkpt>
      <trkpt lat="46.924478" lon="10.975173">
        <ele>2226.43907</ele>
      </trkpt>
      <trkpt lat="46.924547" lon="10.975312">
        <ele>2223.39776</ele>
      </trkpt>
      <trkpt lat="46.924597" lon="10.975358">
        <ele>2222.56836</ele>
      </trkpt>
      <trkpt lat="46.924613" lon="10.975399">
        <ele>2221.52749</ele>
      </trkpt>
      <trkpt lat="46.924649" lon="10.975487">
        <ele>2219.18862</ele>
      </trkpt>
      <trkpt lat="46.9247" lon="10.975536">
        <ele>2218.43293</ele>
      </trkpt>
      <trkpt lat="46.924731" lon="10.975589">
        <ele>2217.18096</ele>
      </trkpt>
      <trkpt lat="46.924759" lon="10.975614">
        <ele>2216.67194</ele>
      </trkpt>
      <trkpt lat="46.924775" lon="10.975666">
        <ele>2215.09643</ele>
      </trkpt>
      <trkpt lat="46.924795" lon="10.975739">
        <ele>2212.84637</ele>
      </trkpt>
      <trkpt lat="46.924833" lon="10.975826">
        <ele>2210.03878</ele>
      </trkpt>
      <trkpt lat="46.924896" lon="10.975857">
        <ele>2208.70014</ele>
      </trkpt>
      <trkpt lat="46.924927" lon="10.975842">
        <ele>2208.90515</ele>
      </trkpt>
      <trkpt lat="46.924977" lon="10.975854">
        <ele>2208.0387</ele>
      </trkpt>
      <trkpt lat="46.924996" lon="10.97589">
        <ele>2206.3749</ele>
      </trkpt>
      <trkpt lat="46.925021" lon="10.975909">
        <ele>2205.70685</ele>
      </trkpt>
      <trkpt lat="46.92505" lon="10.975892">
        <ele>2206.81784</ele>
      </trkpt>
      <trkpt lat="46.925124" lon="10.975943">
        <ele>2205.9199</ele>
      </trkpt>
      <trkpt lat="46.925258" lon="10.975942">
        <ele>2203.92792</ele>
      </trkpt>
      <trkpt lat="46.925305" lon="10.975926">
        <ele>2203.71676</ele>
      </trkpt>
      <trkpt lat="46.925378" lon="10.975937">
        <ele>2202.18035</ele>
      </trkpt>
      <trkpt lat="46.925424" lon="10.975933">
        <ele>2201.91569</ele>
      </trkpt>
      <trkpt lat="46.925457" lon="10.975911">
        <ele>2202.62044</ele>
      </trkpt>
      <trkpt lat="46.925514" lon="10.97594">
        <ele>2200.5302</ele>
      </trkpt>
      <trkpt lat="46.925548" lon="10.975926">
        <ele>2201.15753</ele>
      </trkpt>
      <trkpt lat="46.925616" lon="10.975937">
        <ele>2200.42757</ele>
      </trkpt>
      <trkpt lat="46.925642" lon="10.975948">
        <ele>2199.86976</ele>
      </trkpt>
      <trkpt lat="46.925685" lon="10.975992">
        <ele>2197.57455</ele>
      </trkpt>
      <trkpt lat="46.925717" lon="10.976009">
        <ele>2196.43072</ele>
      </trkpt>
      <trkpt lat="46.925754" lon="10.976023">
        <ele>2195.22451</ele>
      </trkpt>
      <trkpt lat="46.925803" lon="10.976004">
        <ele>2195.57569</ele>
      </trkpt>
      <trkpt lat="46.925878" lon="10.976003">
        <ele>2195.86884</ele>
      </trkpt>
      <trkpt lat="46.925905" lon="10.976038">
        <ele>2195.91928</ele>
      </trkpt>
      <trkpt lat="46.925966" lon="10.976157">
        <ele>2194.38858</ele>
      </trkpt>
      <trkpt lat="46.925979" lon="10.976175">
        <ele>2193.90294</ele>
      </trkpt>
      <trkpt lat="46.926021" lon="10.976194">
        <ele>2193.02717</ele>
      </trkpt>
      <trkpt lat="46.926064" lon="10.976206">
        <ele>2192.48899</ele>
      </trkpt>
      <trkpt lat="46.926093" lon="10.97622">
        <ele>2192.23263</ele>
      </trkpt>
      <trkpt lat="46.92612" lon="10.976252">
        <ele>2191.6829</ele>
      </trkpt>
      <trkpt lat="46.926126" lon="10.976293">
        <ele>2190.73899</ele>
      </trkpt>
      <trkpt lat="46.926138" lon="10.976325">
        <ele>2190.31303</ele>
      </trkpt>
      <trkpt lat="46.926198" lon="10.976397">
        <ele>2189.8144</ele>
      </trkpt>
      <trkpt lat="46.926234" lon="10.97639">
        <ele>2190.88385</ele>
      </trkpt>
      <trkpt lat="46.926266" lon="10.976438">
        <ele>2190.10453</ele>
      </trkpt>
      <trkpt lat="46.926272" lon="10.976455">
        <ele>2189.65046</ele>
      </trkpt>
      <trkpt lat="46.926294" lon="10.976517">
        <ele>2187.86895</ele>
      </trkpt>
      <trkpt lat="46.926336" lon="10.976529">
        <ele>2187.99917</ele>
      </trkpt>
      <trkpt lat="46.926385" lon="10.976574">
        <ele>2185.9573</ele>
      </trkpt>
      <trkpt lat="46.926433" lon="10.97661">
        <ele>2185.41237</ele>
      </trkpt>
      <trkpt lat="46.926512" lon="10.976674">
        <ele>2187.2489</ele>
      </trkpt>
      <trkpt lat="46.926576" lon="10.976702">
        <ele>2188.71085</ele>
      </trkpt>
      <trkpt lat="46.926708" lon="10.976811">
        <ele>2188.97451</ele>
      </trkpt>
      <trkpt lat="46.926741" lon="10.976858">
        <ele>2188.80075</ele>
      </trkpt>
      <trkpt lat="46.926818" lon="10.976899">
        <ele>2190.39457</ele>
      </trkpt>
      <trkpt lat="46.926908" lon="10.976998">
        <ele>2189.84938</ele>
      </trkpt>
      <trkpt lat="46.926926" lon="10.977078">
        <ele>2187.89264</ele>
      </trkpt>
      <trkpt lat="46.926939" lon="10.977098">
        <ele>2187.88219</ele>
        <name>46.926967,10.977058</name>
      </trkpt>
      <trkpt lat="46.926951" lon="10.977116">
        <ele>2187.87315</ele>
      </trkpt>
      <trkpt lat="46.926985" lon="10.977178">
        <ele>2187.19026</ele>
      </trkpt>
      <trkpt lat="46.92707" lon="10.977216">
        <ele>2187.5732</ele>
      </trkpt>
      <trkpt lat="46.927139" lon="10.97725">
        <ele>2185.87609</ele>
      </trkpt>
      <trkpt lat="46.927213" lon="10.977266">
        <ele>2183.18973</ele>
      </trkpt>
      <trkpt lat="46.927262" lon="10.977262">
        <ele>2181.65294</ele>
      </trkpt>
      <trkpt lat="46.927287" lon="10.977234">
        <ele>2181.85023</ele>
      </trkpt>
      <trkpt lat="46.927334" lon="10.97722">
        <ele>2181.30422</ele>
      </trkpt>
      <trkpt lat="46.927373" lon="10.9772">
        <ele>2182.46909</ele>
      </trkpt>
      <trkpt lat="46.927388" lon="10.977194">
        <ele>2183.04886</ele>
      </trkpt>
      <trkpt lat="46.927409" lon="10.977228">
        <ele>2182.8763</ele>
      </trkpt>
      <trkpt lat="46.92744" lon="10.977341">
        <ele>2181.75553</ele>
      </trkpt>
      <trkpt lat="46.927446" lon="10.977427">
        <ele>2181.40357</ele>
      </trkpt>
      <trkpt lat="46.927442" lon="10.977501">
        <ele>2181.02763</ele>
      </trkpt>
      <trkpt lat="46.927458" lon="10.977631">
        <ele>2180.87997</ele>
      </trkpt>
      <trkpt lat="46.927487" lon="10.977751">
        <ele>2181.09859</ele>
      </trkpt>
      <trkpt lat="46.927505" lon="10.977844">
        <ele>2180.36838</ele>
      </trkpt>
      <trkpt lat="46.927566" lon="10.978044">
        <ele>2177.74258</ele>
      </trkpt>
      <trkpt lat="46.927686" lon="10.978294">
        <ele>2177.55171</ele>
      </trkpt>
      <trkpt lat="46.927744" lon="10.978381">
        <ele>2177.71595</ele>
      </trkpt>
      <trkpt lat="46.927775" lon="10.978435">
        <ele>2177.46282</ele>
      </trkpt>
      <trkpt lat="46.927815" lon="10.978511">
        <ele>2176.7529</ele>
      </trkpt>
      <trkpt lat="46.927878" lon="10.978587">
        <ele>2176.39305</ele>
      </trkpt>
      <trkpt lat="46.927987" lon="10.978684">
        <ele>2177.82493</ele>
      </trkpt>
      <trkpt lat="46.928057" lon="10.978734">
        <ele>2179.18598</ele>
      </trkpt>
      <trkpt lat="46.928123" lon="10.978778">
        <ele>2180.13997</ele>
      </trkpt>
      <trkpt lat="46.928233" lon="10.978834">
        <ele>2181.23707</ele>
      </trkpt>
      <trkpt lat="46.928358" lon="10.978883">
        <ele>2181.19133</ele>
      </trkpt>
      <trkpt lat="46.928438" lon="10.978882">
        <ele>2182.76701</ele>
      </trkpt>
      <trkpt lat="46.92849" lon="10.978966">
        <ele>2182.13655</ele>
      </trkpt>
      <trkpt lat="46.928695" lon="10.979115">
        <ele>2183.9143</ele>
      </trkpt>
      <trkpt lat="46.9289" lon="10.979265">
        <ele>2184.18745</ele>
      </trkpt>
      <trkpt lat="46.92897" lon="10.979317">
        <ele>2184.05005</ele>
      </trkpt>
      <trkpt lat="46.929075" lon="10.979408">
        <ele>2184.07817</ele>
      </trkpt>
      <trkpt lat="46.929186" lon="10.979432">
        <ele>2184.12317</ele>
      </trkpt>
      <trkpt lat="46.929245" lon="10.979461">
        <ele>2183.03516</ele>
      </trkpt>
      <trkpt lat="46.929428" lon="10.979516">
        <ele>2180.71658</ele>
      </trkpt>
      <trkpt lat="46.929467" lon="10.979527">
        <ele>2181.36083</ele>
      </trkpt>
      <trkpt lat="46.929509" lon="10.979587">
        <ele>2180.79768</ele>
      </trkpt>
      <trkpt lat="46.929551" lon="10.979628">
        <ele>2180.53591</ele>
      </trkpt>
      <trkpt lat="46.929621" lon="10.979664">
        <ele>2179.348</ele>
      </trkpt>
      <trkpt lat="46.929657" lon="10.979675">
        <ele>2179.46784</ele>
      </trkpt>
      <trkpt lat="46.929722" lon="10.979711">
        <ele>2179.46217</ele>
      </trkpt>
      <trkpt lat="46.929944" lon="10.979901">
        <ele>2178.57909</ele>
      </trkpt>
      <trkpt lat="46.930167" lon="10.98009">
        <ele>2175.52174</ele>
      </trkpt>
      <trkpt lat="46.930212" lon="10.9801">
        <ele>2175.09552</ele>
      </trkpt>
      <trkpt lat="46.930385" lon="10.980048">
        <ele>2172.73124</ele>
      </trkpt>
      <trkpt lat="46.93046" lon="10.980092">
        <ele>2170.6973</ele>
      </trkpt>
      <trkpt lat="46.930539" lon="10.980116">
        <ele>2170.23939</ele>
      </trkpt>
      <trkpt lat="46.930618" lon="10.980195">
        <ele>2169.36232</ele>
      </trkpt>
      <trkpt lat="46.9307" lon="10.980306">
        <ele>2169.66063</ele>
      </trkpt>
      <trkpt lat="46.930755" lon="10.980403">
        <ele>2168.8488</ele>
      </trkpt>
      <trkpt lat="46.930794" lon="10.980504">
        <ele>2167.93743</ele>
      </trkpt>
      <trkpt lat="46.930903" lon="10.980977">
        <ele>2164.9092</ele>
      </trkpt>
      <trkpt lat="46.930949" lon="10.98108">
        <ele>2163.86619</ele>
      </trkpt>
      <trkpt lat="46.930968" lon="10.981125">
        <ele>2162.88736</ele>
      </trkpt>
      <trkpt lat="46.930992" lon="10.981172">
        <ele>2162.06018</ele>
      </trkpt>
      <trkpt lat="46.931104" lon="10.981318">
        <ele>2160.87308</ele>
      </trkpt>
      <trkpt lat="46.931172" lon="10.981426">
        <ele>2159.30271</ele>
      </trkpt>
      <trkpt lat="46.931189" lon="10.981477">
        <ele>2158.01762</ele>
      </trkpt>
      <trkpt lat="46.931341" lon="10.981597">
        <ele>2154.88803</ele>
      </trkpt>
      <trkpt lat="46.931388" lon="10.98165">
        <ele>2154.17352</ele>
      </trkpt>
      <trkpt lat="46.931575" lon="10.981912">
        <ele>2151.31928</ele>
      </trkpt>
      <trkpt lat="46.93164" lon="10.981977">
        <ele>2150.45485</ele>
      </trkpt>
      <trkpt lat="46.93171" lon="10.982028">
        <ele>2149.35021</ele>
      </trkpt>
      <trkpt lat="46.931862" lon="10.982071">
        <ele>2147.25167</ele>
      </trkpt>
      <trkpt lat="46.93203" lon="10.982137">
        <ele>2144.92575</ele>
      </trkpt>
      <trkpt lat="46.932134" lon="10.982254">
        <ele>2144.02506</ele>
      </trkpt>
      <trkpt lat="46.932191" lon="10.982367">
        <ele>2142.40106</ele>
      </trkpt>
      <trkpt lat="46.932245" lon="10.982427">
        <ele>2141.59874</ele>
      </trkpt>
      <trkpt lat="46.932411" lon="10.982719">
        <ele>2137.10647</ele>
      </trkpt>
      <trkpt lat="46.932576" lon="10.98301">
        <ele>2132.60707</ele>
      </trkpt>
      <trkpt lat="46.93269" lon="10.983239">
        <ele>2129.79513</ele>
      </trkpt>
      <trkpt lat="46.932718" lon="10.983352">
        <ele>2128.61749</ele>
      </trkpt>
      <trkpt lat="46.932739" lon="10.983453">
        <ele>2127.0134</ele>
      </trkpt>
      <trkpt lat="46.932767" lon="10.983483">
        <ele>2126.77032</ele>
      </trkpt>
      <trkpt lat="46.932805" lon="10.983519">
        <ele>2126.01299</ele>
      </trkpt>
      <trkpt lat="46.932866" lon="10.98359">
        <ele>2124.14083</ele>
      </trkpt>
      <trkpt lat="46.933002" lon="10.983903">
        <ele>2118.48027</ele>
      </trkpt>
      <trkpt lat="46.933204" lon="10.984268">
        <ele>2112.34386</ele>
      </trkpt>
      <trkpt lat="46.93331" lon="10.98446">
        <ele>2108.86623</ele>
        <name>46.933327,10.984440</name>
      </trkpt>
      <trkpt lat="46.933406" lon="10.984633">
        <ele>2105.73475</ele>
      </trkpt>
      <trkpt lat="46.933476" lon="10.984848">
        <ele>2102.58931</ele>
      </trkpt>
      <trkpt lat="46.933546" lon="10.985161">
        <ele>2098.76963</ele>
      </trkpt>
      <trkpt lat="46.933649" lon="10.98561">
        <ele>2092.8279</ele>
      </trkpt>
      <trkpt lat="46.933699" lon="10.985782">
        <ele>2090.46942</ele>
      </trkpt>
      <trkpt lat="46.933786" lon="10.986014">
        <ele>2087.89665</ele>
      </trkpt>
      <trkpt lat="46.933837" lon="10.986234">
        <ele>2085.24544</ele>
      </trkpt>
      <trkpt lat="46.933914" lon="10.986674">
        <ele>2081.47292</ele>
      </trkpt>
      <trkpt lat="46.933972" lon="10.987189">
        <ele>2076.91609</ele>
      </trkpt>
      <trkpt lat="46.934006" lon="10.987385">
        <ele>2073.4331</ele>
      </trkpt>
      <trkpt lat="46.934052" lon="10.987525">
        <ele>2071.6372</ele>
      </trkpt>
      <trkpt lat="46.934155" lon="10.987815">
        <ele>2066.66937</ele>
      </trkpt>
      <trkpt lat="46.934244" lon="10.988074">
        <ele>2062.72093</ele>
      </trkpt>
      <trkpt lat="46.934295" lon="10.988298">
        <ele>2059.63592</ele>
      </trkpt>
      <trkpt lat="46.934334" lon="10.988425">
        <ele>2058.1819</ele>
      </trkpt>
      <trkpt lat="46.934357" lon="10.988493">
        <ele>2057.37727</ele>
      </trkpt>
      <trkpt lat="46.934368" lon="10.988521">
        <ele>2057.08683</ele>
      </trkpt>
      <trkpt lat="46.934373" lon="10.98856">
        <ele>2056.2811</ele>
      </trkpt>
      <trkpt lat="46.934374" lon="10.988594">
        <ele>2055.47685</ele>
      </trkpt>
      <trkpt lat="46.934382" lon="10.988633">
        <ele>2054.86023</ele>
      </trkpt>
      <trkpt lat="46.934397" lon="10.988668">
        <ele>2054.65355</ele>
      </trkpt>
      <trkpt lat="46.934434" lon="10.988762">
        <ele>2054.26549</ele>
      </trkpt>
      <trkpt lat="46.934478" lon="10.988886">
        <ele>2052.91738</ele>
      </trkpt>
      <trkpt lat="46.934531" lon="10.989034">
        <ele>2051.2172</ele>
      </trkpt>
      <trkpt lat="46.934581" lon="10.989214">
        <ele>2050.43549</ele>
      </trkpt>
      <trkpt lat="46.934582" lon="10.989218">
        <ele>2050.44095</ele>
        <name>46.934528,10.989246</name>
      </trkpt>
      <trkpt lat="46.934589" lon="10.989247">
        <ele>2050.48</ele>
      </trkpt>
      <trkpt lat="46.93459" lon="10.989269">
        <ele>2050.30672</ele>
      </trkpt>
      <trkpt lat="46.934589" lon="10.989277">
        <ele>2050.18645</ele>
      </trkpt>
      <trkpt lat="46.934585" lon="10.989297">
        <ele>2049.782</ele>
      </trkpt>
      <trkpt lat="46.934584" lon="10.989333">
        <ele>2049.30993</ele>
      </trkpt>
      <trkpt lat="46.934589" lon="10.989371">
        <ele>2049.09992</ele>
      </trkpt>
      <trkpt lat="46.934603" lon="10.989414">
        <ele>2049.37119</ele>
      </trkpt>
      <trkpt lat="46.934609" lon="10.989441">
        <ele>2049.55652</ele>
      </trkpt>
      <trkpt lat="46.934606" lon="10.989503">
        <ele>2049.30366</ele>
      </trkpt>
      <trkpt lat="46.934604" lon="10.989513">
        <ele>2049.19889</ele>
      </trkpt>
      <trkpt lat="46.934602" lon="10.989531">
        <ele>2049.0415</ele>
      </trkpt>
      <trkpt lat="46.934587" lon="10.989755">
        <ele>2047.39103</ele>
      </trkpt>
      <trkpt lat="46.934596" lon="10.989893">
        <ele>2046.18658</ele>
      </trkpt>
      <trkpt lat="46.934632" lon="10.99005">
        <ele>2045.22847</ele>
      </trkpt>
      <trkpt lat="46.934645" lon="10.990107">
        <ele>2044.72932</ele>
      </trkpt>
      <trkpt lat="46.934667" lon="10.990214">
        <ele>2043.74753</ele>
      </trkpt>
      <trkpt lat="46.934708" lon="10.990483">
        <ele>2042.94194</ele>
      </trkpt>
      <trkpt lat="46.934759" lon="10.990742">
        <ele>2042.59945</ele>
      </trkpt>
      <trkpt lat="46.934783" lon="10.991068">
        <ele>2039.4516</ele>
      </trkpt>
      <trkpt lat="46.934771" lon="10.991297">
        <ele>2036.57246</ele>
      </trkpt>
      <trkpt lat="46.934737" lon="10.991442">
        <ele>2033.77785</ele>
      </trkpt>
      <trkpt lat="46.934713" lon="10.991617">
        <ele>2032.17625</ele>
      </trkpt>
      <trkpt lat="46.934692" lon="10.991735">
        <ele>2031.4097</ele>
      </trkpt>
      <trkpt lat="46.934695" lon="10.991751">
        <ele>2031.51736</ele>
        <name>46.934682,10.991757</name>
      </trkpt>
      <trkpt lat="46.934692" lon="10.991735">
        <ele>2031.4097</ele>
      </trkpt>
      <trkpt lat="46.934653" lon="10.99189">
        <ele>2029.44537</ele>
      </trkpt>
      <trkpt lat="46.934647" lon="10.992011">
        <ele>2028.49172</ele>
      </trkpt>
      <trkpt lat="46.93461" lon="10.99223">
        <ele>2026.80948</ele>
      </trkpt>
      <trkpt lat="46.934544" lon="10.992462">
        <ele>2025.1441</ele>
      </trkpt>
      <trkpt lat="46.934529" lon="10.992743">
        <ele>2023.29244</ele>
      </trkpt>
      <trkpt lat="46.934489" lon="10.992948">
        <ele>2018.62864</ele>
      </trkpt>
      <trkpt lat="46.934479" lon="10.993075">
        <ele>2016.78232</ele>
      </trkpt>
      <trkpt lat="46.934387" lon="10.993418">
        <ele>2009.67302</ele>
      </trkpt>
      <trkpt lat="46.934295" lon="10.993761">
        <ele>2004.77995</ele>
      </trkpt>
      <trkpt lat="46.934236" lon="10.994021">
        <ele>2001.88732</ele>
        <name>46.934213,10.994010</name>
      </trkpt>
      <trkpt lat="46.934223" lon="10.99408">
        <ele>2001.23324</ele>
      </trkpt>
      <trkpt lat="46.9342" lon="10.994251">
        <ele>1999.73949</ele>
      </trkpt>
      <trkpt lat="46.934198" lon="10.994443">
        <ele>2000.10872</ele>
      </trkpt>
      <trkpt lat="46.934188" lon="10.994527">
        <ele>1999.56613</ele>
      </trkpt>
      <trkpt lat="46.934188" lon="10.994737">
        <ele>1998.74917</ele>
      </trkpt>
      <trkpt lat="46.9342" lon="10.994849">
        <ele>1998.35878</ele>
      </trkpt>
      <trkpt lat="46.934196" lon="10.995045">
        <ele>1997.01829</ele>
      </trkpt>
      <trkpt lat="46.934219" lon="10.99534">
        <ele>1994.8043</ele>
      </trkpt>
      <trkpt lat="46.934223" lon="10.995542">
        <ele>1991.83423</ele>
      </trkpt>
      <trkpt lat="46.934201" lon="10.995995">
        <ele>1986.42323</ele>
      </trkpt>
      <trkpt lat="46.93418" lon="10.996246">
        <ele>1982.30754</ele>
      </trkpt>
      <trkpt lat="46.934171" lon="10.996346">
        <ele>1981.07813</ele>
      </trkpt>
      <trkpt lat="46.934171" lon="10.996531">
        <ele>1979.93351</ele>
      </trkpt>
      <trkpt lat="46.934171" lon="10.996523">
        <ele>1980.0</ele>
        <name>46.934147,10.996531</name>
        <extensions>
          <oa:locType>routingNode</oa:locType>
          <oa:Extension>
            <oa:mapZoom>19</oa:mapZoom>
          </oa:Extension>
        </extensions>
      </trkpt>
      <trkpt lat="46.934172" lon="10.996747">
        <ele>1978.6</ele>
      </trkpt>
      <trkpt lat="46.934175" lon="10.996902">
        <ele>1977.8</ele>
      </trkpt>
      <trkpt lat="46.934203" lon="10.997053">
        <ele>1977.8</ele>
      </trkpt>
      <trkpt lat="46.934273" lon="10.997286">
        <ele>1977.0</ele>
      </trkpt>
      <trkpt lat="46.934313" lon="10.997426">
        <ele>1976.7</ele>
      </trkpt>
      <trkpt lat="46.934368" lon="10.997849">
        <ele>1973.8</ele>
      </trkpt>
      <trkpt lat="46.934416" lon="10.997972">
        <ele>1974.1</ele>
      </trkpt>
      <trkpt lat="46.9344" lon="10.99809">
        <ele>1972.9</ele>
      </trkpt>
      <trkpt lat="46.934404" lon="10.998111">
        <ele>1973.1</ele>
        <name>46.934404,10.998111</name>
        <extensions>
          <oa:locType>routingNode</oa:locType>
          <oa:Extension>
            <oa:mapZoom>19</oa:mapZoom>
          </oa:Extension>
        </extensions>
      </trkpt>
      <trkpt lat="46.93443" lon="10.99825">
        <ele>1973.9</ele>
      </trkpt>
      <trkpt lat="46.9345" lon="10.99847">
        <ele>1977.2</ele>
      </trkpt>
      <trkpt lat="46.934498" lon="10.998515">
        <ele>1976.8</ele>
        <name>46.934506,10.998516</name>
        <extensions>
          <oa:locType>routingNode</oa:locType>
          <oa:Extension>
            <oa:mapZoom>19</oa:mapZoom>
          </oa:Extension>
        </extensions>
      </trkpt>
      <trkpt lat="46.934475" lon="10.998919">
        <ele>1973.1</ele>
      </trkpt>
      <trkpt lat="46.934515" lon="10.999175">
        <ele>1972.7</ele>
      </trkpt>
      <trkpt lat="46.934574" lon="10.999468">
        <ele>1971.2</ele>
      </trkpt>
      <trkpt lat="46.934652" lon="10.999722">
        <ele>1972.2</ele>
      </trkpt>
      <trkpt lat="46.9347" lon="10.999812">
        <ele>1972.3</ele>
        <name>46.934700,10.999812</name>
        <extensions>
          <oa:locType>routingNode</oa:locType>
          <oa:Extension>
            <oa:mapZoom>19</oa:mapZoom>
          </oa:Extension>
        </extensions>
      </trkpt>
      <trkpt lat="46.934768" lon="10.999941">
        <ele>1972.3</ele>
      </trkpt>
      <trkpt lat="46.934881" lon="11.000225">
        <ele>1971.9</ele>
      </trkpt>
      <trkpt lat="46.934991" lon="11.000496">
        <ele>1971.9</ele>
      </trkpt>
      <trkpt lat="46.93505" lon="11.000675">
        <ele>1969.8</ele>
      </trkpt>
      <trkpt lat="46.935107" lon="11.000745">
        <ele>1968.5</ele>
      </trkpt>
      <trkpt lat="46.93518" lon="11.000818">
        <ele>1966.4</ele>
      </trkpt>
      <trkpt lat="46.935288" lon="11.000904">
        <ele>1965.2</ele>
      </trkpt>
      <trkpt lat="46.93537" lon="11.000983">
        <ele>1963.8</ele>
      </trkpt>
      <trkpt lat="46.93537" lon="11.000982">
        <ele>1963.9</ele>
        <name>46.935370,11.000983</name>
        <extensions>
          <oa:locType>routingNode</oa:locType>
          <oa:Extension>
            <oa:mapZoom>19</oa:mapZoom>
          </oa:Extension>
        </extensions>
      </trkpt>
      <trkpt lat="46.935374" lon="11.000987">
        <ele>1963.8</ele>
      </trkpt>
      <trkpt lat="46.935455" lon="11.001012">
        <ele>1964.0</ele>
      </trkpt>
      <trkpt lat="46.935688" lon="11.001114">
        <ele>1963.7</ele>
      </trkpt>
      <trkpt lat="46.93577" lon="11.001218">
        <ele>1964.2</ele>
      </trkpt>
      <trkpt lat="46.935887" lon="11.001318">
        <ele>1966.2</ele>
      </trkpt>
      <trkpt lat="46.936214" lon="11.001595">
        <ele>1968.9</ele>
        <name>46.936214,11.001595</name>
        <extensions>
          <oa:locType>routingNode</oa:locType>
          <oa:Extension>
            <oa:mapZoom>19</oa:mapZoom>
          </oa:Extension>
        </extensions>
      </trkpt>
      <trkpt lat="46.936218" lon="11.001599">
        <ele>1968.9</ele>
      </trkpt>
      <trkpt lat="46.936419" lon="11.001857">
        <ele>1968.6</ele>
      </trkpt>
      <trkpt lat="46.936458" lon="11.001893">
        <ele>1968.6</ele>
      </trkpt>
      <trkpt lat="46.936773" lon="11.002151">
        <ele>1968.5</ele>
      </trkpt>
      <trkpt lat="46.936897" lon="11.002225">
        <ele>1969.4</ele>
        <name>46.936897,11.002225</name>
        <extensions>
          <oa:locType>routingNode</oa:locType>
          <oa:Extension>
            <oa:mapZoom>19</oa:mapZoom>
          </oa:Extension>
        </extensions>
      </trkpt>
      <trkpt lat="46.937094" lon="11.002342">
        <ele>1970.8</ele>
      </trkpt>
      <trkpt lat="46.937276" lon="11.002433">
        <ele>1973.1</ele>
      </trkpt>
      <trkpt lat="46.937384" lon="11.002502">
        <ele>1974.3</ele>
      </trkpt>
      <trkpt lat="46.937553" lon="11.002639">
        <ele>1976.2</ele>
      </trkpt>
      <trkpt lat="46.937656" lon="11.002706">
        <ele>1977.1</ele>
        <name>46.937656,11.002706</name>
        <extensions>
          <oa:locType>routingNode</oa:locType>
          <oa:Extension>
            <oa:mapZoom>19</oa:mapZoom>
          </oa:Extension>
        </extensions>
      </trkpt>
    </trkseg>
  </trk>
</gpx>