<?xml version="1.0" encoding="UTF-8" standalone="yes"?>
<gpx version="1.1" creator="outdooractive - http://www.outdooractive.com" xmlns="http://www.topografix.com/GPX/1/1" xmlns:oa="http://www.outdooractive.com/GPX/Extensions/1" xmlns:xsi="http://www.w3.org/2001/XMLSchema-instance" xsi:schemaLocation="http://www.topografix.com/GPX/1/1 http://www.topografix.com/GPX/1/1/gpx.xsd http://www.outdooractive.com/GPX/Extensions/1 https://www.outdooractive.com/schema/gpx_extensions.xsd">
  <metadata>
    <name>Traien Trail (677)</name>
    <author>
      <name>Jakob Falkner - Ötztal</name>
    </author>
    <link href="https://www.outdooractive.com/r/809944257"/>
    <time>2026-06-10T18:59:55.162Z</time>
    <extensions>
      <oa:oaCategory>mountainbiking</oa:oaCategory>
    </extensions>
  </metadata>
  <trk>
    <name>Traien Trail (677)</name>
    <desc>Naturbelassener Single Trail direkt am Giggijoch Berg </desc>
    <type>mountainbiking</type>
    <trkseg>
      <trkpt lat="46.974639" lon="10.987781">
        <ele>1992.75389</ele>
        <name>Sölden, Imst</name>
        <extensions>
          <oa:Extension>
            <oa:mapZoom>10</oa:mapZoom>
          </oa:Extension>
        </extensions>
      </trkpt>
      <trkpt lat="46.974628" lon="10.98779">
        <ele>1992.32438</ele>
      </trkpt>
      <trkpt lat="46.974613" lon="10.987786">
        <ele>1992.01987</ele>
      </trkpt>
      <trkpt lat="46.97454" lon="10.987736">
        <ele>1990.37335</ele>
      </trkpt>
      <trkpt lat="46.974419" lon="10.987677">
        <ele>1986.25166</ele>
      </trkpt>
      <trkpt lat="46.974349" lon="10.987633">
        <ele>1983.91372</ele>
      </trkpt>
      <trkpt lat="46.97431" lon="10.987624">
        <ele>1982.31479</ele>
      </trkpt>
      <trkpt lat="46.974265" lon="10.987635">
        <ele>1980.17284</ele>
      </trkpt>
      <trkpt lat="46.974251" lon="10.98763">
        <ele>1979.37916</ele>
      </trkpt>
      <trkpt lat="46.974236" lon="10.987603">
        <ele>1978.27434</ele>
      </trkpt>
      <trkpt lat="46.974223" lon="10.987514">
        <ele>1976.71472</ele>
      </trkpt>
      <trkpt lat="46.974213" lon="10.987465">
        <ele>1976.09507</ele>
      </trkpt>
      <trkpt lat="46.974201" lon="10.987451">
        <ele>1975.52107</ele>
      </trkpt>
      <trkpt lat="46.974183" lon="10.987483">
        <ele>1974.48191</ele>
      </trkpt>
      <trkpt lat="46.974166" lon="10.987571">
        <ele>1973.66962</ele>
      </trkpt>
      <trkpt lat="46.97415" lon="10.987604">
        <ele>1972.96659</ele>
      </trkpt>
      <trkpt lat="46.974126" lon="10.987669">
        <ele>1971.82514</ele>
      </trkpt>
      <trkpt lat="46.974111" lon="10.987702">
        <ele>1971.10923</ele>
      </trkpt>
      <trkpt lat="46.974078" lon="10.987758">
        <ele>1969.5257</ele>
      </trkpt>
      <trkpt lat="46.974049" lon="10.987799">
        <ele>1968.08381</ele>
      </trkpt>
      <trkpt lat="46.973998" lon="10.987848">
        <ele>1965.66914</ele>
      </trkpt>
      <trkpt lat="46.973952" lon="10.987917">
        <ele>1964.20724</ele>
      </trkpt>
      <trkpt lat="46.973931" lon="10.98799">
        <ele>1963.53102</ele>
      </trkpt>
      <trkpt lat="46.973918" lon="10.98808">
        <ele>1962.96599</ele>
      </trkpt>
      <trkpt lat="46.973912" lon="10.988087">
        <ele>1962.60309</ele>
      </trkpt>
      <trkpt lat="46.973906" lon="10.988082">
        <ele>1962.20167</ele>
      </trkpt>
      <trkpt lat="46.973882" lon="10.988016">
        <ele>1960.45262</ele>
      </trkpt>
      <trkpt lat="46.973862" lon="10.987953">
        <ele>1958.93597</ele>
      </trkpt>
      <trkpt lat="46.973845" lon="10.987876">
        <ele>1957.07184</ele>
      </trkpt>
      <trkpt lat="46.97384" lon="10.987826">
        <ele>1956.08413</ele>
      </trkpt>
      <trkpt lat="46.97384" lon="10.987768">
        <ele>1955.49608</ele>
      </trkpt>
      <trkpt lat="46.973837" lon="10.987643">
        <ele>1954.91173</ele>
      </trkpt>
      <trkpt lat="46.973832" lon="10.987608">
        <ele>1954.96637</ele>
      </trkpt>
      <trkpt lat="46.973783" lon="10.987508">
        <ele>1953.34703</ele>
      </trkpt>
      <trkpt lat="46.973772" lon="10.987462">
        <ele>1952.84451</ele>
      </trkpt>
      <trkpt lat="46.97376" lon="10.987385">
        <ele>1952.22941</ele>
      </trkpt>
      <trkpt lat="46.973747" lon="10.987333">
        <ele>1951.60166</ele>
      </trkpt>
      <trkpt lat="46.973728" lon="10.987269">
        <ele>1950.72641</ele>
      </trkpt>
      <trkpt lat="46.973696" lon="10.987183">
        <ele>1949.29708</ele>
      </trkpt>
      <trkpt lat="46.973689" lon="10.987153">
        <ele>1949.00736</ele>
      </trkpt>
      <trkpt lat="46.973688" lon="10.987062">
        <ele>1948.76296</ele>
      </trkpt>
      <trkpt lat="46.973675" lon="10.98696">
        <ele>1947.1708</ele>
      </trkpt>
      <trkpt lat="46.973673" lon="10.986916">
        <ele>1946.47987</ele>
      </trkpt>
      <trkpt lat="46.973679" lon="10.986811">
        <ele>1945.31513</ele>
      </trkpt>
      <trkpt lat="46.973685" lon="10.986585">
        <ele>1941.98462</ele>
      </trkpt>
      <trkpt lat="46.973688" lon="10.986531">
        <ele>1940.60404</ele>
      </trkpt>
      <trkpt lat="46.973699" lon="10.986413">
        <ele>1938.15015</ele>
      </trkpt>
      <trkpt lat="46.973702" lon="10.986326">
        <ele>1936.52468</ele>
      </trkpt>
      <trkpt lat="46.973696" lon="10.986127">
        <ele>1933.02903</ele>
      </trkpt>
      <trkpt lat="46.973681" lon="10.986061">
        <ele>1931.10472</ele>
      </trkpt>
      <trkpt lat="46.973684" lon="10.985997">
        <ele>1930.66483</ele>
      </trkpt>
      <trkpt lat="46.973681" lon="10.985988">
        <ele>1930.41243</ele>
      </trkpt>
      <trkpt lat="46.973671" lon="10.985987">
        <ele>1929.76779</ele>
      </trkpt>
      <trkpt lat="46.973632" lon="10.986096">
        <ele>1927.9383</ele>
      </trkpt>
      <trkpt lat="46.973602" lon="10.986167">
        <ele>1926.58267</ele>
      </trkpt>
      <trkpt lat="46.973591" lon="10.986187">
        <ele>1926.11722</ele>
      </trkpt>
      <trkpt lat="46.973565" lon="10.986221">
        <ele>1924.97791</ele>
      </trkpt>
      <trkpt lat="46.973537" lon="10.986265">
        <ele>1923.90893</ele>
      </trkpt>
      <trkpt lat="46.973497" lon="10.986347">
        <ele>1922.7273</ele>
      </trkpt>
      <trkpt lat="46.973474" lon="10.986378">
        <ele>1921.9075</ele>
      </trkpt>
      <trkpt lat="46.973432" lon="10.986412">
        <ele>1920.08159</ele>
      </trkpt>
      <trkpt lat="46.973396" lon="10.986457">
        <ele>1919.07969</ele>
      </trkpt>
      <trkpt lat="46.97336" lon="10.986486">
        <ele>1917.60477</ele>
      </trkpt>
      <trkpt lat="46.973325" lon="10.986538">
        <ele>1916.18364</ele>
      </trkpt>
      <trkpt lat="46.973317" lon="10.986538">
        <ele>1915.61561</ele>
      </trkpt>
      <trkpt lat="46.973313" lon="10.986523">
        <ele>1915.1341</ele>
      </trkpt>
      <trkpt lat="46.973329" lon="10.986422">
        <ele>1913.94149</ele>
      </trkpt>
      <trkpt lat="46.973338" lon="10.986335">
        <ele>1912.95986</ele>
      </trkpt>
      <trkpt lat="46.973333" lon="10.986298">
        <ele>1912.36873</ele>
      </trkpt>
      <trkpt lat="46.973316" lon="10.986305">
        <ele>1911.62197</ele>
      </trkpt>
      <trkpt lat="46.973249" lon="10.986399">
        <ele>1908.72975</ele>
      </trkpt>
      <trkpt lat="46.973203" lon="10.986427">
        <ele>1906.61567</ele>
      </trkpt>
      <trkpt lat="46.973188" lon="10.986444">
        <ele>1905.87581</ele>
      </trkpt>
      <trkpt lat="46.973175" lon="10.986472">
        <ele>1905.15565</ele>
      </trkpt>
      <trkpt lat="46.973167" lon="10.986509">
        <ele>1904.61203</ele>
      </trkpt>
      <trkpt lat="46.973103" lon="10.986613">
        <ele>1901.23597</ele>
      </trkpt>
      <trkpt lat="46.973083" lon="10.98673">
        <ele>1899.72512</ele>
      </trkpt>
      <trkpt lat="46.973072" lon="10.986762">
        <ele>1899.14003</ele>
      </trkpt>
      <trkpt lat="46.973057" lon="10.986781">
        <ele>1898.47052</ele>
      </trkpt>
      <trkpt lat="46.972997" lon="10.986839">
        <ele>1896.05578</ele>
      </trkpt>
      <trkpt lat="46.972961" lon="10.986878">
        <ele>1894.51135</ele>
      </trkpt>
      <trkpt lat="46.972924" lon="10.986924">
        <ele>1892.9717</ele>
      </trkpt>
      <trkpt lat="46.972915" lon="10.986951">
        <ele>1892.70254</ele>
      </trkpt>
      <trkpt lat="46.972884" lon="10.986973">
        <ele>1891.50893</ele>
      </trkpt>
      <trkpt lat="46.972842" lon="10.987024">
        <ele>1889.92897</ele>
      </trkpt>
      <trkpt lat="46.97282" lon="10.987056">
        <ele>1888.96533</ele>
      </trkpt>
      <trkpt lat="46.972806" lon="10.987172">
        <ele>1888.16283</ele>
      </trkpt>
      <trkpt lat="46.972771" lon="10.987291">
        <ele>1886.88503</ele>
      </trkpt>
      <trkpt lat="46.97273" lon="10.987386">
        <ele>1885.75074</ele>
      </trkpt>
      <trkpt lat="46.972685" lon="10.98748">
        <ele>1884.29531</ele>
      </trkpt>
      <trkpt lat="46.972666" lon="10.987541">
        <ele>1883.73639</ele>
      </trkpt>
      <trkpt lat="46.972648" lon="10.987574">
        <ele>1883.11558</ele>
      </trkpt>
      <trkpt lat="46.972605" lon="10.987626">
        <ele>1881.66576</ele>
      </trkpt>
      <trkpt lat="46.972577" lon="10.987666">
        <ele>1880.93857</ele>
      </trkpt>
      <trkpt lat="46.972555" lon="10.987716">
        <ele>1880.5966</ele>
      </trkpt>
      <trkpt lat="46.972522" lon="10.987767">
        <ele>1879.48422</ele>
      </trkpt>
      <trkpt lat="46.972502" lon="10.987775">
        <ele>1878.46222</ele>
      </trkpt>
      <trkpt lat="46.9725" lon="10.987765">
        <ele>1878.17263</ele>
      </trkpt>
      <trkpt lat="46.972528" lon="10.987671">
        <ele>1878.25553</ele>
      </trkpt>
      <trkpt lat="46.972538" lon="10.987628">
        <ele>1878.12277</ele>
      </trkpt>
      <trkpt lat="46.972545" lon="10.987578">
        <ele>1877.89746</ele>
      </trkpt>
      <trkpt lat="46.972547" lon="10.987531">
        <ele>1877.61112</ele>
      </trkpt>
      <trkpt lat="46.972524" lon="10.987423">
        <ele>1876.58263</ele>
      </trkpt>
      <trkpt lat="46.972507" lon="10.987399">
        <ele>1876.27449</ele>
      </trkpt>
      <trkpt lat="46.972476" lon="10.987376">
        <ele>1876.0588</ele>
      </trkpt>
      <trkpt lat="46.972436" lon="10.987362">
        <ele>1876.34872</ele>
      </trkpt>
      <trkpt lat="46.972414" lon="10.987368">
        <ele>1876.36839</ele>
      </trkpt>
      <trkpt lat="46.972379" lon="10.987386">
        <ele>1876.18377</ele>
      </trkpt>
      <trkpt lat="46.972292" lon="10.987437">
        <ele>1875.14945</ele>
      </trkpt>
      <trkpt lat="46.97224" lon="10.987471">
        <ele>1874.30285</ele>
      </trkpt>
      <trkpt lat="46.972178" lon="10.987513">
        <ele>1873.42282</ele>
      </trkpt>
      <trkpt lat="46.972145" lon="10.98753">
        <ele>1873.07504</ele>
      </trkpt>
      <trkpt lat="46.97212" lon="10.987533">
        <ele>1873.16013</ele>
      </trkpt>
      <trkpt lat="46.972055" lon="10.98752">
        <ele>1873.72314</ele>
      </trkpt>
      <trkpt lat="46.972034" lon="10.987534">
        <ele>1873.5726</ele>
      </trkpt>
      <trkpt lat="46.972034" lon="10.987574">
        <ele>1872.98468</ele>
      </trkpt>
      <trkpt lat="46.972052" lon="10.987603">
        <ele>1872.26144</ele>
      </trkpt>
      <trkpt lat="46.972072" lon="10.98761">
        <ele>1871.80921</ele>
      </trkpt>
      <trkpt lat="46.972138" lon="10.987618">
        <ele>1870.6007</ele>
      </trkpt>
      <trkpt lat="46.972174" lon="10.987626">
        <ele>1869.89072</ele>
      </trkpt>
      <trkpt lat="46.972206" lon="10.987642">
        <ele>1869.21539</ele>
      </trkpt>
      <trkpt lat="46.972232" lon="10.987662">
        <ele>1868.7181</ele>
      </trkpt>
      <trkpt lat="46.972277" lon="10.987727">
        <ele>1867.98444</ele>
      </trkpt>
      <trkpt lat="46.972297" lon="10.987782">
        <ele>1867.59655</ele>
      </trkpt>
      <trkpt lat="46.972294" lon="10.987811">
        <ele>1867.11577</ele>
      </trkpt>
      <trkpt lat="46.972259" lon="10.987888">
        <ele>1864.6648</ele>
      </trkpt>
      <trkpt lat="46.972243" lon="10.98794">
        <ele>1863.45688</ele>
      </trkpt>
      <trkpt lat="46.97224" lon="10.987979">
        <ele>1862.99678</ele>
      </trkpt>
      <trkpt lat="46.972243" lon="10.988087">
        <ele>1861.99296</ele>
      </trkpt>
      <trkpt lat="46.972241" lon="10.988153">
        <ele>1861.47317</ele>
      </trkpt>
      <trkpt lat="46.972234" lon="10.9882">
        <ele>1861.11961</ele>
      </trkpt>
      <trkpt lat="46.97222" lon="10.988254">
        <ele>1860.47715</ele>
      </trkpt>
      <trkpt lat="46.972188" lon="10.988325">
        <ele>1858.49942</ele>
      </trkpt>
      <trkpt lat="46.972198" lon="10.988406">
        <ele>1859.5969</ele>
      </trkpt>
      <trkpt lat="46.97219" lon="10.988417">
        <ele>1859.16751</ele>
      </trkpt>
      <trkpt lat="46.972179" lon="10.988417">
        <ele>1858.67966</ele>
      </trkpt>
      <trkpt lat="46.972161" lon="10.988383">
        <ele>1857.641</ele>
      </trkpt>
      <trkpt lat="46.972147" lon="10.988373">
        <ele>1856.80169</ele>
      </trkpt>
      <trkpt lat="46.972136" lon="10.988376">
        <ele>1856.42652</ele>
      </trkpt>
      <trkpt lat="46.97213" lon="10.988389">
        <ele>1856.53316</ele>
      </trkpt>
      <trkpt lat="46.972134" lon="10.988417">
        <ele>1857.08844</ele>
      </trkpt>
      <trkpt lat="46.972191" lon="10.988519">
        <ele>1858.38941</ele>
      </trkpt>
      <trkpt lat="46.972194" lon="10.988534">
        <ele>1858.40025</ele>
      </trkpt>
      <trkpt lat="46.972188" lon="10.988565">
        <ele>1858.18089</ele>
      </trkpt>
      <trkpt lat="46.972161" lon="10.988583">
        <ele>1857.79749</ele>
      </trkpt>
      <trkpt lat="46.972125" lon="10.988576">
        <ele>1857.07246</ele>
      </trkpt>
      <trkpt lat="46.972055" lon="10.988494">
        <ele>1855.37671</ele>
      </trkpt>
      <trkpt lat="46.972015" lon="10.98847">
        <ele>1854.87752</ele>
      </trkpt>
      <trkpt lat="46.971979" lon="10.988464">
        <ele>1854.29963</ele>
      </trkpt>
      <trkpt lat="46.971948" lon="10.988462">
        <ele>1853.94932</ele>
      </trkpt>
      <trkpt lat="46.971919" lon="10.988471">
        <ele>1853.5605</ele>
      </trkpt>
      <trkpt lat="46.97189" lon="10.988487">
        <ele>1853.2766</ele>
      </trkpt>
      <trkpt lat="46.971868" lon="10.988513">
        <ele>1852.97197</ele>
      </trkpt>
      <trkpt lat="46.971843" lon="10.988556">
        <ele>1852.22245</ele>
      </trkpt>
      <trkpt lat="46.971823" lon="10.988598">
        <ele>1851.26332</ele>
      </trkpt>
      <trkpt lat="46.971771" lon="10.988722">
        <ele>1849.44966</ele>
      </trkpt>
      <trkpt lat="46.971738" lon="10.988789">
        <ele>1848.57688</ele>
      </trkpt>
      <trkpt lat="46.971703" lon="10.988842">
        <ele>1848.16357</ele>
      </trkpt>
      <trkpt lat="46.971652" lon="10.988905">
        <ele>1847.35421</ele>
      </trkpt>
      <trkpt lat="46.971606" lon="10.988953">
        <ele>1847.26622</ele>
      </trkpt>
      <trkpt lat="46.97155" lon="10.989003">
        <ele>1846.63618</ele>
      </trkpt>
      <trkpt lat="46.971471" lon="10.989066">
        <ele>1845.91975</ele>
      </trkpt>
      <trkpt lat="46.971332" lon="10.989169">
        <ele>1844.43047</ele>
      </trkpt>
      <trkpt lat="46.971251" lon="10.989238">
        <ele>1843.69267</ele>
      </trkpt>
      <trkpt lat="46.971206" lon="10.98928">
        <ele>1842.82636</ele>
      </trkpt>
      <trkpt lat="46.97116" lon="10.989326">
        <ele>1842.15349</ele>
      </trkpt>
      <trkpt lat="46.971109" lon="10.989382">
        <ele>1841.5362</ele>
      </trkpt>
      <trkpt lat="46.97106" lon="10.989439">
        <ele>1840.42298</ele>
      </trkpt>
      <trkpt lat="46.970982" lon="10.989537">
        <ele>1839.71118</ele>
      </trkpt>
      <trkpt lat="46.970891" lon="10.989657">
        <ele>1838.96198</ele>
      </trkpt>
      <trkpt lat="46.970657" lon="10.989992">
        <ele>1835.93284</ele>
      </trkpt>
      <trkpt lat="46.970613" lon="10.990045">
        <ele>1835.7952</ele>
      </trkpt>
      <trkpt lat="46.970557" lon="10.990105">
        <ele>1834.70065</ele>
      </trkpt>
      <trkpt lat="46.97054" lon="10.990127">
        <ele>1834.40269</ele>
      </trkpt>
      <trkpt lat="46.970535" lon="10.990145">
        <ele>1833.99011</ele>
      </trkpt>
      <trkpt lat="46.970544" lon="10.990153">
        <ele>1833.51412</ele>
      </trkpt>
      <trkpt lat="46.970603" lon="10.990136">
        <ele>1832.37062</ele>
      </trkpt>
      <trkpt lat="46.970646" lon="10.990116">
        <ele>1831.8462</ele>
      </trkpt>
      <trkpt lat="46.970691" lon="10.990091">
        <ele>1831.09993</ele>
      </trkpt>
      <trkpt lat="46.970732" lon="10.990064">
        <ele>1829.99662</ele>
      </trkpt>
      <trkpt lat="46.970785" lon="10.990025">
        <ele>1828.22415</ele>
      </trkpt>
      <trkpt lat="46.970796" lon="10.990032">
        <ele>1827.16285</ele>
      </trkpt>
      <trkpt lat="46.970792" lon="10.990056">
        <ele>1826.36702</ele>
      </trkpt>
      <trkpt lat="46.970752" lon="10.990111">
        <ele>1826.83068</ele>
      </trkpt>
      <trkpt lat="46.970719" lon="10.990161">
        <ele>1826.68234</ele>
      </trkpt>
      <trkpt lat="46.970689" lon="10.990197">
        <ele>1826.27886</ele>
      </trkpt>
      <trkpt lat="46.970643" lon="10.990241">
        <ele>1825.59039</ele>
      </trkpt>
      <trkpt lat="46.970547" lon="10.990319">
        <ele>1824.88391</ele>
      </trkpt>
      <trkpt lat="46.970493" lon="10.990373">
        <ele>1824.04092</ele>
      </trkpt>
      <trkpt lat="46.970438" lon="10.990445">
        <ele>1822.76077</ele>
      </trkpt>
      <trkpt lat="46.970363" lon="10.990556">
        <ele>1821.95529</ele>
      </trkpt>
      <trkpt lat="46.970342" lon="10.990589">
        <ele>1821.59565</ele>
      </trkpt>
      <trkpt lat="46.970241" lon="10.990759">
        <ele>1819.56588</ele>
      </trkpt>
      <trkpt lat="46.970187" lon="10.990858">
        <ele>1818.34412</ele>
      </trkpt>
      <trkpt lat="46.970156" lon="10.990922">
        <ele>1817.53189</ele>
      </trkpt>
      <trkpt lat="46.970132" lon="10.990979">
        <ele>1816.67475</ele>
      </trkpt>
      <trkpt lat="46.970112" lon="10.991031">
        <ele>1816.20621</ele>
      </trkpt>
      <trkpt lat="46.970087" lon="10.991105">
        <ele>1815.87681</ele>
      </trkpt>
      <trkpt lat="46.970071" lon="10.991147">
        <ele>1815.58968</ele>
      </trkpt>
      <trkpt lat="46.970045" lon="10.991198">
        <ele>1815.27432</ele>
      </trkpt>
      <trkpt lat="46.970016" lon="10.991244">
        <ele>1814.74757</ele>
      </trkpt>
      <trkpt lat="46.969978" lon="10.991291">
        <ele>1813.80821</ele>
      </trkpt>
      <trkpt lat="46.969909" lon="10.991357">
        <ele>1812.55476</ele>
      </trkpt>
      <trkpt lat="46.969867" lon="10.991406">
        <ele>1811.55996</ele>
      </trkpt>
      <trkpt lat="46.969825" lon="10.991468">
        <ele>1810.81685</ele>
      </trkpt>
      <trkpt lat="46.96978" lon="10.991553">
        <ele>1809.1267</ele>
      </trkpt>
      <trkpt lat="46.969745" lon="10.991592">
        <ele>1808.63361</ele>
      </trkpt>
      <trkpt lat="46.969713" lon="10.991613">
        <ele>1808.28975</ele>
      </trkpt>
      <trkpt lat="46.969675" lon="10.991626">
        <ele>1807.86538</ele>
      </trkpt>
      <trkpt lat="46.969632" lon="10.991633">
        <ele>1807.20981</ele>
      </trkpt>
      <trkpt lat="46.96954" lon="10.991637">
        <ele>1806.26381</ele>
      </trkpt>
      <trkpt lat="46.969506" lon="10.991652">
        <ele>1805.83204</ele>
      </trkpt>
      <trkpt lat="46.969516" lon="10.991681">
        <ele>1804.95448</ele>
      </trkpt>
      <trkpt lat="46.969572" lon="10.991725">
        <ele>1804.14543</ele>
      </trkpt>
      <trkpt lat="46.969602" lon="10.991743">
        <ele>1803.94</ele>
      </trkpt>
      <trkpt lat="46.96963" lon="10.991756">
        <ele>1803.71505</ele>
      </trkpt>
      <trkpt lat="46.969689" lon="10.991773">
        <ele>1802.80446</ele>
      </trkpt>
      <trkpt lat="46.969739" lon="10.991771">
        <ele>1801.9816</ele>
      </trkpt>
      <trkpt lat="46.969792" lon="10.991755">
        <ele>1800.98427</ele>
      </trkpt>
      <trkpt lat="46.969849" lon="10.991727">
        <ele>1799.5276</ele>
      </trkpt>
      <trkpt lat="46.969937" lon="10.991672">
        <ele>1798.39855</ele>
      </trkpt>
      <trkpt lat="46.969958" lon="10.991676">
        <ele>1797.66259</ele>
      </trkpt>
      <trkpt lat="46.969961" lon="10.991694">
        <ele>1796.95172</ele>
      </trkpt>
      <trkpt lat="46.969949" lon="10.991718">
        <ele>1796.50231</ele>
      </trkpt>
      <trkpt lat="46.969911" lon="10.991768">
        <ele>1796.07587</ele>
      </trkpt>
      <trkpt lat="46.969905" lon="10.99179">
        <ele>1795.49639</ele>
      </trkpt>
      <trkpt lat="46.970008" lon="10.991727">
        <ele>1794.43061</ele>
      </trkpt>
      <trkpt lat="46.970031" lon="10.991723">
        <ele>1793.95788</ele>
      </trkpt>
      <trkpt lat="46.970033" lon="10.991733">
        <ele>1793.50017</ele>
      </trkpt>
      <trkpt lat="46.969982" lon="10.991782">
        <ele>1793.16884</ele>
      </trkpt>
      <trkpt lat="46.969881" lon="10.991899">
        <ele>1792.03735</ele>
      </trkpt>
      <trkpt lat="46.969848" lon="10.991955">
        <ele>1791.2001</ele>
      </trkpt>
      <trkpt lat="46.969841" lon="10.991983">
        <ele>1790.40595</ele>
      </trkpt>
      <trkpt lat="46.969866" lon="10.991967">
        <ele>1789.93216</ele>
      </trkpt>
      <trkpt lat="46.96994" lon="10.991904">
        <ele>1789.61143</ele>
      </trkpt>
      <trkpt lat="46.970003" lon="10.991853">
        <ele>1789.47594</ele>
      </trkpt>
      <trkpt lat="46.970099" lon="10.991813">
        <ele>1788.29397</ele>
      </trkpt>
      <trkpt lat="46.970163" lon="10.991779">
        <ele>1788.92708</ele>
      </trkpt>
      <trkpt lat="46.970207" lon="10.99178">
        <ele>1788.49478</ele>
      </trkpt>
      <trkpt lat="46.970215" lon="10.99179">
        <ele>1787.92617</ele>
      </trkpt>
      <trkpt lat="46.970212" lon="10.991806">
        <ele>1787.22491</ele>
      </trkpt>
      <trkpt lat="46.97014" lon="10.991903">
        <ele>1783.13186</ele>
      </trkpt>
      <trkpt lat="46.970113" lon="10.991955">
        <ele>1781.47247</ele>
      </trkpt>
      <trkpt lat="46.970078" lon="10.992032">
        <ele>1779.52189</ele>
      </trkpt>
      <trkpt lat="46.970094" lon="10.992037">
        <ele>1778.77402</ele>
      </trkpt>
      <trkpt lat="46.970147" lon="10.992035">
        <ele>1777.51651</ele>
      </trkpt>
      <trkpt lat="46.970179" lon="10.992037">
        <ele>1777.03772</ele>
      </trkpt>
      <trkpt lat="46.970209" lon="10.992042">
        <ele>1776.56841</ele>
      </trkpt>
      <trkpt lat="46.970239" lon="10.992051">
        <ele>1775.96309</ele>
      </trkpt>
      <trkpt lat="46.970267" lon="10.992064">
        <ele>1775.30843</ele>
      </trkpt>
      <trkpt lat="46.970299" lon="10.992084">
        <ele>1774.37679</ele>
      </trkpt>
      <trkpt lat="46.970335" lon="10.992111">
        <ele>1773.16225</ele>
      </trkpt>
      <trkpt lat="46.970393" lon="10.992166">
        <ele>1770.92407</ele>
      </trkpt>
      <trkpt lat="46.970401" lon="10.992195">
        <ele>1769.96482</ele>
      </trkpt>
      <trkpt lat="46.970284" lon="10.992277">
        <ele>1766.89229</ele>
      </trkpt>
      <trkpt lat="46.970277" lon="10.992298">
        <ele>1765.96507</ele>
      </trkpt>
      <trkpt lat="46.970297" lon="10.992314">
        <ele>1765.30987</ele>
      </trkpt>
      <trkpt lat="46.970345" lon="10.992329">
        <ele>1764.94142</ele>
      </trkpt>
      <trkpt lat="46.970384" lon="10.992338">
        <ele>1765.01827</ele>
      </trkpt>
      <trkpt lat="46.970446" lon="10.992345">
        <ele>1765.63488</ele>
      </trkpt>
      <trkpt lat="46.970493" lon="10.992322">
        <ele>1766.43312</ele>
      </trkpt>
      <trkpt lat="46.970538" lon="10.992277">
        <ele>1765.42938</ele>
      </trkpt>
      <trkpt lat="46.97057" lon="10.992256">
        <ele>1763.24876</ele>
      </trkpt>
      <trkpt lat="46.970588" lon="10.992228">
        <ele>1761.64205</ele>
      </trkpt>
      <trkpt lat="46.970606" lon="10.992135">
        <ele>1759.65078</ele>
      </trkpt>
      <trkpt lat="46.97062" lon="10.99204">
        <ele>1758.77157</ele>
      </trkpt>
      <trkpt lat="46.970657" lon="10.991758">
        <ele>1760.11162</ele>
      </trkpt>
      <trkpt lat="46.970667" lon="10.991701">
        <ele>1760.53873</ele>
      </trkpt>
      <trkpt lat="46.970683" lon="10.991633">
        <ele>1760.99529</ele>
      </trkpt>
      <trkpt lat="46.970709" lon="10.99157">
        <ele>1761.30667</ele>
      </trkpt>
      <trkpt lat="46.970748" lon="10.991514">
        <ele>1761.06057</ele>
      </trkpt>
      <trkpt lat="46.970799" lon="10.991475">
        <ele>1760.57231</ele>
      </trkpt>
      <trkpt lat="46.970827" lon="10.991483">
        <ele>1759.70359</ele>
      </trkpt>
      <trkpt lat="46.970866" lon="10.99154">
        <ele>1758.65789</ele>
      </trkpt>
      <trkpt lat="46.970871" lon="10.991891">
        <ele>1750.99633</ele>
      </trkpt>
      <trkpt lat="46.970878" lon="10.991921">
        <ele>1750.38107</ele>
      </trkpt>
      <trkpt lat="46.970912" lon="10.991976">
        <ele>1749.83976</ele>
      </trkpt>
      <trkpt lat="46.970918" lon="10.992042">
        <ele>1748.17134</ele>
      </trkpt>
      <trkpt lat="46.970919" lon="10.992114">
        <ele>1746.38947</ele>
      </trkpt>
      <trkpt lat="46.970912" lon="10.992299">
        <ele>1742.27452</ele>
      </trkpt>
      <trkpt lat="46.970918" lon="10.992409">
        <ele>1740.02746</ele>
      </trkpt>
      <trkpt lat="46.970924" lon="10.992683">
        <ele>1735.76958</ele>
      </trkpt>
      <trkpt lat="46.970916" lon="10.992814">
        <ele>1733.54104</ele>
      </trkpt>
      <trkpt lat="46.970898" lon="10.992883">
        <ele>1732.50773</ele>
      </trkpt>
      <trkpt lat="46.970881" lon="10.992915">
        <ele>1731.84087</ele>
      </trkpt>
      <trkpt lat="46.970819" lon="10.992992">
        <ele>1729.67705</ele>
      </trkpt>
      <trkpt lat="46.970749" lon="10.993087">
        <ele>1727.40466</ele>
      </trkpt>
      <trkpt lat="46.970678" lon="10.993199">
        <ele>1725.13</ele>
      </trkpt>
      <trkpt lat="46.970668" lon="10.993255">
        <ele>1724.26936</ele>
      </trkpt>
      <trkpt lat="46.970643" lon="10.993464">
        <ele>1721.88047</ele>
      </trkpt>
      <trkpt lat="46.970629" lon="10.993559">
        <ele>1721.31876</ele>
      </trkpt>
      <trkpt lat="46.970621" lon="10.993602">
        <ele>1720.9768</ele>
      </trkpt>
      <trkpt lat="46.970612" lon="10.993644">
        <ele>1720.59269</ele>
      </trkpt>
      <trkpt lat="46.970594" lon="10.993703">
        <ele>1719.66913</ele>
      </trkpt>
      <trkpt lat="46.970587" lon="10.993712">
        <ele>1719.22347</ele>
      </trkpt>
      <trkpt lat="46.970584" lon="10.993702">
        <ele>1719.04107</ele>
      </trkpt>
      <trkpt lat="46.970584" lon="10.993567">
        <ele>1718.72667</ele>
      </trkpt>
      <trkpt lat="46.970579" lon="10.993548">
        <ele>1718.36751</ele>
      </trkpt>
      <trkpt lat="46.970571" lon="10.993561">
        <ele>1717.96801</ele>
      </trkpt>
      <trkpt lat="46.970553" lon="10.993611">
        <ele>1717.04044</ele>
      </trkpt>
      <trkpt lat="46.970534" lon="10.993658">
        <ele>1715.94781</ele>
      </trkpt>
      <trkpt lat="46.970484" lon="10.99376">
        <ele>1713.20882</ele>
      </trkpt>
      <trkpt lat="46.970473" lon="10.993761">
        <ele>1712.75732</ele>
      </trkpt>
      <trkpt lat="46.970454" lon="10.993805">
        <ele>1711.82814</ele>
      </trkpt>
      <trkpt lat="46.970413" lon="10.99392">
        <ele>1709.7122</ele>
      </trkpt>
      <trkpt lat="46.97034" lon="10.994139">
        <ele>1706.33154</ele>
      </trkpt>
      <trkpt lat="46.970294" lon="10.994287">
        <ele>1703.79006</ele>
      </trkpt>
      <trkpt lat="46.970275" lon="10.99434">
        <ele>1702.8294</ele>
      </trkpt>
      <trkpt lat="46.970257" lon="10.994378">
        <ele>1701.96817</ele>
      </trkpt>
      <trkpt lat="46.970236" lon="10.994411">
        <ele>1701.01732</ele>
      </trkpt>
      <trkpt lat="46.970166" lon="10.994488">
        <ele>1698.20523</ele>
      </trkpt>
      <trkpt lat="46.970141" lon="10.994553">
        <ele>1696.92362</ele>
      </trkpt>
      <trkpt lat="46.970129" lon="10.99461">
        <ele>1696.27098</ele>
      </trkpt>
      <trkpt lat="46.970122" lon="10.994657">
        <ele>1695.86405</ele>
      </trkpt>
      <trkpt lat="46.970117" lon="10.99479">
        <ele>1694.51878</ele>
      </trkpt>
      <trkpt lat="46.970112" lon="10.994876">
        <ele>1693.58123</ele>
      </trkpt>
      <trkpt lat="46.970106" lon="10.994948">
        <ele>1692.77734</ele>
      </trkpt>
      <trkpt lat="46.970097" lon="10.99502">
        <ele>1691.82476</ele>
      </trkpt>
      <trkpt lat="46.970081" lon="10.995116">
        <ele>1690.26279</ele>
      </trkpt>
      <trkpt lat="46.970059" lon="10.995222">
        <ele>1688.38288</ele>
      </trkpt>
      <trkpt lat="46.970033" lon="10.995332">
        <ele>1686.7398</ele>
      </trkpt>
      <trkpt lat="46.970008" lon="10.995422">
        <ele>1685.09906</ele>
      </trkpt>
      <trkpt lat="46.97" lon="10.995461">
        <ele>1684.47427</ele>
      </trkpt>
      <trkpt lat="46.969983" lon="10.99559">
        <ele>1682.46531</ele>
      </trkpt>
      <trkpt lat="46.969961" lon="10.995696">
        <ele>1680.97424</ele>
      </trkpt>
      <trkpt lat="46.96995" lon="10.995765">
        <ele>1680.11258</ele>
      </trkpt>
      <trkpt lat="46.969936" lon="10.995884">
        <ele>1678.49123</ele>
      </trkpt>
      <trkpt lat="46.969926" lon="10.995993">
        <ele>1677.24209</ele>
      </trkpt>
      <trkpt lat="46.969925" lon="10.996043">
        <ele>1676.57467</ele>
      </trkpt>
      <trkpt lat="46.969928" lon="10.996083">
        <ele>1676.20158</ele>
      </trkpt>
      <trkpt lat="46.969935" lon="10.996127">
        <ele>1675.98857</ele>
      </trkpt>
      <trkpt lat="46.969954" lon="10.996217">
        <ele>1675.55871</ele>
      </trkpt>
      <trkpt lat="46.969959" lon="10.996261">
        <ele>1675.18464</ele>
      </trkpt>
      <trkpt lat="46.969962" lon="10.996407">
        <ele>1673.97637</ele>
      </trkpt>
      <trkpt lat="46.969971" lon="10.996565">
        <ele>1672.37565</ele>
      </trkpt>
      <trkpt lat="46.969975" lon="10.996679">
        <ele>1671.04341</ele>
      </trkpt>
      <trkpt lat="46.969981" lon="10.996746">
        <ele>1670.3493</ele>
      </trkpt>
      <trkpt lat="46.96999" lon="10.996809">
        <ele>1669.38079</ele>
      </trkpt>
      <trkpt lat="46.97" lon="10.996846">
        <ele>1668.73485</ele>
      </trkpt>
      <trkpt lat="46.970031" lon="10.996897">
        <ele>1667.7021</ele>
      </trkpt>
      <trkpt lat="46.970067" lon="10.996929">
        <ele>1666.70073</ele>
      </trkpt>
      <trkpt lat="46.970109" lon="10.996956">
        <ele>1665.30096</ele>
      </trkpt>
      <trkpt lat="46.970194" lon="10.996985">
        <ele>1663.39161</ele>
      </trkpt>
      <trkpt lat="46.970226" lon="10.997006">
        <ele>1662.39912</ele>
      </trkpt>
      <trkpt lat="46.970298" lon="10.997086">
        <ele>1659.6018</ele>
      </trkpt>
      <trkpt lat="46.970364" lon="10.997197">
        <ele>1656.6873</ele>
      </trkpt>
      <trkpt lat="46.970385" lon="10.997252">
        <ele>1655.61893</ele>
      </trkpt>
      <trkpt lat="46.970401" lon="10.997333">
        <ele>1654.27987</ele>
      </trkpt>
      <trkpt lat="46.970404" lon="10.997382">
        <ele>1653.49777</ele>
      </trkpt>
      <trkpt lat="46.970401" lon="10.997457">
        <ele>1652.33076</ele>
      </trkpt>
      <trkpt lat="46.970402" lon="10.997512">
        <ele>1651.43926</ele>
      </trkpt>
      <trkpt lat="46.970407" lon="10.997574">
        <ele>1650.21961</ele>
      </trkpt>
      <trkpt lat="46.970415" lon="10.997612">
        <ele>1649.42785</ele>
      </trkpt>
      <trkpt lat="46.970429" lon="10.997653">
        <ele>1648.64067</ele>
      </trkpt>
      <trkpt lat="46.970446" lon="10.997692">
        <ele>1647.90217</ele>
      </trkpt>
      <trkpt lat="46.970532" lon="10.997857">
        <ele>1643.56888</ele>
      </trkpt>
      <trkpt lat="46.970582" lon="10.997958">
        <ele>1640.48272</ele>
      </trkpt>
      <trkpt lat="46.970607" lon="10.997989">
        <ele>1639.49652</ele>
      </trkpt>
      <trkpt lat="46.970636" lon="10.998014">
        <ele>1638.47969</ele>
      </trkpt>
      <trkpt lat="46.970664" lon="10.998034">
        <ele>1637.38518</ele>
      </trkpt>
      <trkpt lat="46.970737" lon="10.998075">
        <ele>1635.10222</ele>
      </trkpt>
      <trkpt lat="46.970776" lon="10.998107">
        <ele>1633.64613</ele>
      </trkpt>
      <trkpt lat="46.970865" lon="10.998206">
        <ele>1629.51847</ele>
      </trkpt>
      <trkpt lat="46.970956" lon="10.998293">
        <ele>1626.29384</ele>
      </trkpt>
      <trkpt lat="46.971024" lon="10.998402">
        <ele>1623.0941</ele>
      </trkpt>
      <trkpt lat="46.971055" lon="10.99847">
        <ele>1621.3901</ele>
      </trkpt>
      <trkpt lat="46.971069" lon="10.998513">
        <ele>1620.31927</ele>
      </trkpt>
      <trkpt lat="46.971082" lon="10.998559">
        <ele>1619.18447</ele>
      </trkpt>
      <trkpt lat="46.971096" lon="10.998632">
        <ele>1617.48708</ele>
      </trkpt>
      <trkpt lat="46.971108" lon="10.998728">
        <ele>1615.43698</ele>
      </trkpt>
      <trkpt lat="46.971116" lon="10.998821">
        <ele>1613.49383</ele>
      </trkpt>
      <trkpt lat="46.971124" lon="10.998873">
        <ele>1612.52969</ele>
      </trkpt>
      <trkpt lat="46.971138" lon="10.998924">
        <ele>1611.72426</ele>
      </trkpt>
      <trkpt lat="46.971164" lon="10.998995">
        <ele>1610.35723</ele>
      </trkpt>
      <trkpt lat="46.971227" lon="10.999111">
        <ele>1607.12297</ele>
      </trkpt>
      <trkpt lat="46.971292" lon="10.999278">
        <ele>1602.6567</ele>
      </trkpt>
      <trkpt lat="46.971308" lon="10.999315">
        <ele>1601.74166</ele>
      </trkpt>
      <trkpt lat="46.971332" lon="10.999363">
        <ele>1600.55332</ele>
      </trkpt>
      <trkpt lat="46.971359" lon="10.999408">
        <ele>1599.34967</ele>
      </trkpt>
      <trkpt lat="46.971401" lon="10.999471">
        <ele>1597.65972</ele>
      </trkpt>
      <trkpt lat="46.971476" lon="10.999578">
        <ele>1595.19032</ele>
      </trkpt>
      <trkpt lat="46.971518" lon="10.999642">
        <ele>1593.73376</ele>
      </trkpt>
      <trkpt lat="46.971576" lon="10.999734">
        <ele>1591.22283</ele>
      </trkpt>
      <trkpt lat="46.971627" lon="10.999827">
        <ele>1588.82814</ele>
      </trkpt>
      <trkpt lat="46.971715" lon="10.999962">
        <ele>1586.66844</ele>
        <name>Sölden, Imst</name>
        <extensions>
          <oa:Extension>
            <oa:mapZoom>10</oa:mapZoom>
          </oa:Extension>
        </extensions>
      </trkpt>
    </trkseg>
  </trk>
</gpx>