<?xml version="1.0" encoding="UTF-8" standalone="yes"?>
<gpx version="1.1" creator="outdooractive - http://www.outdooractive.com" xmlns="http://www.topografix.com/GPX/1/1" xmlns:oa="http://www.outdooractive.com/GPX/Extensions/1" xmlns:xsi="http://www.w3.org/2001/XMLSchema-instance" xsi:schemaLocation="http://www.topografix.com/GPX/1/1 http://www.topografix.com/GPX/1/1/gpx.xsd http://www.outdooractive.com/GPX/Extensions/1 https://www.outdooractive.com/schema/gpx_extensions.xsd">
  <metadata>
    <name>Crap Tgietschen Trail</name>
    <author>
      <name>Johannes Schilder - Flims Laax</name>
    </author>
    <link href="https://www.outdooractive.com/r/64990004"/>
    <time>2026-05-14T04:19:49.182Z</time>
    <extensions>
      <oa:oaCategory>mountainbiking</oa:oaCategory>
    </extensions>
  </metadata>
  <trk>
    <name>Crap Tgietschen Trail</name>
    <desc>Die Trailalternative zum Vorab Trail in hochalpinem Gelände. Singletrail von der karstigen Gletscherlandschaft über Gröllhalden zu den alpinen Kuhweiden.</desc>
    <type>mountainbiking</type>
    <trkseg>
      <trkpt lat="46.866893" lon="9.176067">
        <ele>2489.23616</ele>
        <name>ODA Vorab Crap Tgietschen</name>
        <extensions>
          <oa:Extension>
            <oa:mapZoom>15</oa:mapZoom>
          </oa:Extension>
        </extensions>
      </trkpt>
      <trkpt lat="46.866892" lon="9.17606">
        <ele>2489.22581</ele>
      </trkpt>
      <trkpt lat="46.866872" lon="9.17607">
        <ele>2489.02672</ele>
      </trkpt>
      <trkpt lat="46.86654" lon="9.175961">
        <ele>2488.01856</ele>
      </trkpt>
      <trkpt lat="46.86649" lon="9.17584">
        <ele>2487.44492</ele>
      </trkpt>
      <trkpt lat="46.866422" lon="9.175721">
        <ele>2486.37728</ele>
      </trkpt>
      <trkpt lat="46.86633" lon="9.17563">
        <ele>2486.18139</ele>
      </trkpt>
      <trkpt lat="46.86628" lon="9.17556">
        <ele>2486.41631</ele>
      </trkpt>
      <trkpt lat="46.86624" lon="9.175521">
        <ele>2486.20932</ele>
      </trkpt>
      <trkpt lat="46.86622" lon="9.175422">
        <ele>2484.5653</ele>
      </trkpt>
      <trkpt lat="46.866152" lon="9.175252">
        <ele>2481.86045</ele>
      </trkpt>
      <trkpt lat="46.86606" lon="9.17511">
        <ele>2478.63733</ele>
      </trkpt>
      <trkpt lat="46.86605" lon="9.17501">
        <ele>2477.92636</ele>
      </trkpt>
      <trkpt lat="46.866032" lon="9.174932">
        <ele>2478.36731</ele>
      </trkpt>
      <trkpt lat="46.86601" lon="9.174901">
        <ele>2478.70559</ele>
      </trkpt>
      <trkpt lat="46.865962" lon="9.17486">
        <ele>2479.44279</ele>
      </trkpt>
      <trkpt lat="46.86588" lon="9.17483">
        <ele>2480.04526</ele>
      </trkpt>
      <trkpt lat="46.86585" lon="9.174711">
        <ele>2479.06085</ele>
      </trkpt>
      <trkpt lat="46.865871" lon="9.17463">
        <ele>2479.29062</ele>
      </trkpt>
      <trkpt lat="46.86586" lon="9.174542">
        <ele>2478.83373</ele>
      </trkpt>
      <trkpt lat="46.86583" lon="9.174491">
        <ele>2478.8363</ele>
      </trkpt>
      <trkpt lat="46.865802" lon="9.174481">
        <ele>2478.66495</ele>
      </trkpt>
      <trkpt lat="46.86575" lon="9.174482">
        <ele>2478.09674</ele>
      </trkpt>
      <trkpt lat="46.865721" lon="9.17444">
        <ele>2478.71572</ele>
      </trkpt>
      <trkpt lat="46.86569" lon="9.174421">
        <ele>2478.78054</ele>
      </trkpt>
      <trkpt lat="46.86564" lon="9.174401">
        <ele>2478.60233</ele>
      </trkpt>
      <trkpt lat="46.86557" lon="9.174391">
        <ele>2478.50811</ele>
      </trkpt>
      <trkpt lat="46.86552" lon="9.17435">
        <ele>2478.25006</ele>
      </trkpt>
      <trkpt lat="46.865471" lon="9.17425">
        <ele>2476.38665</ele>
      </trkpt>
      <trkpt lat="46.86539" lon="9.1742">
        <ele>2474.04178</ele>
      </trkpt>
      <trkpt lat="46.8653" lon="9.17416">
        <ele>2472.59584</ele>
      </trkpt>
      <trkpt lat="46.865252" lon="9.174151">
        <ele>2472.10835</ele>
      </trkpt>
      <trkpt lat="46.865212" lon="9.174172">
        <ele>2471.75666</ele>
        <name>46.865212,9.174172</name>
        <extensions>
          <oa:Extension>
            <oa:mapZoom>15</oa:mapZoom>
          </oa:Extension>
        </extensions>
      </trkpt>
      <trkpt lat="46.86519" lon="9.17417">
        <ele>2471.78879</ele>
      </trkpt>
      <trkpt lat="46.865152" lon="9.17415">
        <ele>2472.02122</ele>
      </trkpt>
      <trkpt lat="46.86512" lon="9.17416">
        <ele>2471.70988</ele>
      </trkpt>
      <trkpt lat="46.86505" lon="9.17432">
        <ele>2468.22941</ele>
      </trkpt>
      <trkpt lat="46.865071" lon="9.174401">
        <ele>2467.65419</ele>
      </trkpt>
      <trkpt lat="46.86506" lon="9.17444">
        <ele>2466.66135</ele>
      </trkpt>
      <trkpt lat="46.86502" lon="9.1745">
        <ele>2464.93967</ele>
      </trkpt>
      <trkpt lat="46.86498" lon="9.174541">
        <ele>2463.78591</ele>
      </trkpt>
      <trkpt lat="46.864932" lon="9.17453">
        <ele>2462.187</ele>
      </trkpt>
      <trkpt lat="46.864912" lon="9.174611">
        <ele>2460.28479</ele>
      </trkpt>
      <trkpt lat="46.864932" lon="9.174651">
        <ele>2460.70192</ele>
      </trkpt>
      <trkpt lat="46.86493" lon="9.174701">
        <ele>2459.56076</ele>
      </trkpt>
      <trkpt lat="46.864912" lon="9.174741">
        <ele>2458.45789</ele>
      </trkpt>
      <trkpt lat="46.864882" lon="9.174761">
        <ele>2457.64375</ele>
      </trkpt>
      <trkpt lat="46.86478" lon="9.174742">
        <ele>2456.09247</ele>
      </trkpt>
      <trkpt lat="46.86456" lon="9.17477">
        <ele>2453.29686</ele>
      </trkpt>
      <trkpt lat="46.864522" lon="9.174752">
        <ele>2452.51984</ele>
      </trkpt>
      <trkpt lat="46.86442" lon="9.174792">
        <ele>2449.96181</ele>
      </trkpt>
      <trkpt lat="46.86439" lon="9.17483">
        <ele>2449.08156</ele>
      </trkpt>
      <trkpt lat="46.864398" lon="9.174832">
        <ele>2449.2853</ele>
      </trkpt>
      <trkpt lat="46.86439" lon="9.17483">
        <ele>2449.08156</ele>
      </trkpt>
      <trkpt lat="46.864371" lon="9.17486">
        <ele>2448.45818</ele>
        <name>46.864371,9.174860</name>
        <extensions>
          <oa:Extension>
            <oa:mapZoom>15</oa:mapZoom>
          </oa:Extension>
        </extensions>
      </trkpt>
      <trkpt lat="46.864281" lon="9.17487">
        <ele>2446.68781</ele>
      </trkpt>
      <trkpt lat="46.864231" lon="9.17491">
        <ele>2444.96959</ele>
      </trkpt>
      <trkpt lat="46.86411" lon="9.17496">
        <ele>2443.10268</ele>
      </trkpt>
      <trkpt lat="46.86406" lon="9.175001">
        <ele>2442.22904</ele>
      </trkpt>
      <trkpt lat="46.864" lon="9.17498">
        <ele>2442.57576</ele>
      </trkpt>
      <trkpt lat="46.86394" lon="9.17501">
        <ele>2441.70454</ele>
      </trkpt>
      <trkpt lat="46.86384" lon="9.17497">
        <ele>2439.32791</ele>
      </trkpt>
      <trkpt lat="46.86377" lon="9.174931">
        <ele>2438.48135</ele>
      </trkpt>
      <trkpt lat="46.863721" lon="9.174881">
        <ele>2438.94489</ele>
      </trkpt>
      <trkpt lat="46.86369" lon="9.174871">
        <ele>2438.78401</ele>
      </trkpt>
      <trkpt lat="46.86362" lon="9.17482">
        <ele>2437.86395</ele>
      </trkpt>
      <trkpt lat="46.863571" lon="9.174821">
        <ele>2437.66811</ele>
      </trkpt>
      <trkpt lat="46.863551" lon="9.1749">
        <ele>2437.35324</ele>
      </trkpt>
      <trkpt lat="46.863531" lon="9.174951">
        <ele>2436.80019</ele>
      </trkpt>
      <trkpt lat="46.863471" lon="9.17495">
        <ele>2436.18392</ele>
      </trkpt>
      <trkpt lat="46.863381" lon="9.17493">
        <ele>2435.13112</ele>
      </trkpt>
      <trkpt lat="46.86334" lon="9.174891">
        <ele>2435.03529</ele>
      </trkpt>
      <trkpt lat="46.863281" lon="9.17489">
        <ele>2434.59858</ele>
      </trkpt>
      <trkpt lat="46.863181" lon="9.174831">
        <ele>2433.87689</ele>
      </trkpt>
      <trkpt lat="46.863111" lon="9.17484">
        <ele>2433.10933</ele>
      </trkpt>
      <trkpt lat="46.862971" lon="9.174811">
        <ele>2432.85932</ele>
      </trkpt>
      <trkpt lat="46.862901" lon="9.17474">
        <ele>2432.15755</ele>
      </trkpt>
      <trkpt lat="46.86287" lon="9.17473">
        <ele>2431.2663</ele>
      </trkpt>
      <trkpt lat="46.862831" lon="9.17473">
        <ele>2429.8846</ele>
      </trkpt>
      <trkpt lat="46.86275" lon="9.174691">
        <ele>2427.52273</ele>
      </trkpt>
      <trkpt lat="46.86267" lon="9.174691">
        <ele>2425.22883</ele>
      </trkpt>
      <trkpt lat="46.862621" lon="9.174701">
        <ele>2423.79124</ele>
      </trkpt>
      <trkpt lat="46.8626" lon="9.17472">
        <ele>2423.36254</ele>
      </trkpt>
      <trkpt lat="46.86251" lon="9.17473">
        <ele>2422.82198</ele>
      </trkpt>
      <trkpt lat="46.862471" lon="9.17472">
        <ele>2422.47142</ele>
      </trkpt>
      <trkpt lat="46.86243" lon="9.17472">
        <ele>2422.22356</ele>
      </trkpt>
      <trkpt lat="46.86231" lon="9.17475">
        <ele>2421.37068</ele>
      </trkpt>
      <trkpt lat="46.8621" lon="9.174821">
        <ele>2419.21282</ele>
      </trkpt>
      <trkpt lat="46.862011" lon="9.174751">
        <ele>2418.22304</ele>
      </trkpt>
      <trkpt lat="46.86194" lon="9.17465">
        <ele>2417.08963</ele>
      </trkpt>
      <trkpt lat="46.86185" lon="9.174461">
        <ele>2415.59963</ele>
      </trkpt>
      <trkpt lat="46.861791" lon="9.174361">
        <ele>2415.11886</ele>
      </trkpt>
      <trkpt lat="46.86171" lon="9.174251">
        <ele>2413.93572</ele>
      </trkpt>
      <trkpt lat="46.861661" lon="9.174151">
        <ele>2413.18698</ele>
      </trkpt>
      <trkpt lat="46.861631" lon="9.17411">
        <ele>2413.36453</ele>
      </trkpt>
      <trkpt lat="46.86139" lon="9.173831">
        <ele>2413.81368</ele>
      </trkpt>
      <trkpt lat="46.861211" lon="9.17369">
        <ele>2414.51169</ele>
      </trkpt>
      <trkpt lat="46.86111" lon="9.17365">
        <ele>2414.30761</ele>
      </trkpt>
      <trkpt lat="46.86088" lon="9.173651">
        <ele>2412.34106</ele>
      </trkpt>
      <trkpt lat="46.860601" lon="9.17361">
        <ele>2409.29939</ele>
      </trkpt>
      <trkpt lat="46.860381" lon="9.17359">
        <ele>2406.02637</ele>
      </trkpt>
      <trkpt lat="46.86026" lon="9.17359">
        <ele>2404.3897</ele>
      </trkpt>
      <trkpt lat="46.8602" lon="9.173571">
        <ele>2403.65236</ele>
      </trkpt>
      <trkpt lat="46.86015" lon="9.17353">
        <ele>2403.18011</ele>
      </trkpt>
      <trkpt lat="46.860091" lon="9.173561">
        <ele>2402.37686</ele>
      </trkpt>
      <trkpt lat="46.859961" lon="9.17358">
        <ele>2399.44866</ele>
      </trkpt>
      <trkpt lat="46.859871" lon="9.17358">
        <ele>2397.85164</ele>
      </trkpt>
      <trkpt lat="46.8597" lon="9.173601">
        <ele>2395.34366</ele>
      </trkpt>
      <trkpt lat="46.859641" lon="9.17357">
        <ele>2395.52442</ele>
      </trkpt>
      <trkpt lat="46.859571" lon="9.17349">
        <ele>2396.75039</ele>
      </trkpt>
      <trkpt lat="46.859481" lon="9.17344">
        <ele>2399.47143</ele>
      </trkpt>
      <trkpt lat="46.859271" lon="9.173351">
        <ele>2407.05385</ele>
      </trkpt>
      <trkpt lat="46.859191" lon="9.17333">
        <ele>2409.93581</ele>
      </trkpt>
      <trkpt lat="46.859151" lon="9.173351">
        <ele>2411.23782</ele>
      </trkpt>
      <trkpt lat="46.859101" lon="9.17339">
        <ele>2412.88283</ele>
      </trkpt>
      <trkpt lat="46.859061" lon="9.173431">
        <ele>2414.02139</ele>
      </trkpt>
      <trkpt lat="46.859011" lon="9.1735">
        <ele>2415.35517</ele>
      </trkpt>
      <trkpt lat="46.858971" lon="9.173541">
        <ele>2416.06416</ele>
      </trkpt>
      <trkpt lat="46.858931" lon="9.17356">
        <ele>2416.52248</ele>
        <name>46.858931,9.173560</name>
        <extensions>
          <oa:Extension>
            <oa:mapZoom>15</oa:mapZoom>
          </oa:Extension>
        </extensions>
      </trkpt>
      <trkpt lat="46.85888" lon="9.17356">
        <ele>2416.48089</ele>
      </trkpt>
      <trkpt lat="46.858841" lon="9.173521">
        <ele>2416.63951</ele>
      </trkpt>
      <trkpt lat="46.8588" lon="9.17346">
        <ele>2417.01774</ele>
      </trkpt>
      <trkpt lat="46.85872" lon="9.17332">
        <ele>2417.86553</ele>
      </trkpt>
      <trkpt lat="46.85871" lon="9.173271">
        <ele>2418.55853</ele>
      </trkpt>
      <trkpt lat="46.85869" lon="9.173221">
        <ele>2419.37205</ele>
      </trkpt>
      <trkpt lat="46.85867" lon="9.17312">
        <ele>2420.20128</ele>
      </trkpt>
      <trkpt lat="46.85861" lon="9.172991">
        <ele>2420.59949</ele>
      </trkpt>
      <trkpt lat="46.85861" lon="9.172911">
        <ele>2420.84033</ele>
      </trkpt>
      <trkpt lat="46.85859" lon="9.172811">
        <ele>2420.85021</ele>
      </trkpt>
      <trkpt lat="46.858591" lon="9.172781">
        <ele>2421.00004</ele>
      </trkpt>
      <trkpt lat="46.858581" lon="9.17273">
        <ele>2421.10353</ele>
      </trkpt>
      <trkpt lat="46.85856" lon="9.17271">
        <ele>2420.92389</ele>
      </trkpt>
      <trkpt lat="46.858521" lon="9.17271">
        <ele>2420.52352</ele>
      </trkpt>
      <trkpt lat="46.858511" lon="9.17272">
        <ele>2420.59187</ele>
      </trkpt>
      <trkpt lat="46.85849" lon="9.172721">
        <ele>2420.69971</ele>
      </trkpt>
      <trkpt lat="46.858471" lon="9.172751">
        <ele>2420.50949</ele>
      </trkpt>
      <trkpt lat="46.85845" lon="9.17275">
        <ele>2420.57476</ele>
      </trkpt>
      <trkpt lat="46.858411" lon="9.17273">
        <ele>2421.18543</ele>
      </trkpt>
      <trkpt lat="46.85825" lon="9.172691">
        <ele>2422.74964</ele>
      </trkpt>
      <trkpt lat="46.858191" lon="9.172651">
        <ele>2422.61629</ele>
      </trkpt>
      <trkpt lat="46.858161" lon="9.17262">
        <ele>2423.13631</ele>
      </trkpt>
      <trkpt lat="46.85811" lon="9.172541">
        <ele>2423.45305</ele>
      </trkpt>
      <trkpt lat="46.85808" lon="9.17252">
        <ele>2423.46657</ele>
      </trkpt>
      <trkpt lat="46.858" lon="9.172501">
        <ele>2423.49561</ele>
      </trkpt>
      <trkpt lat="46.857921" lon="9.17241">
        <ele>2423.61676</ele>
      </trkpt>
      <trkpt lat="46.85781" lon="9.17222">
        <ele>2422.51168</ele>
      </trkpt>
      <trkpt lat="46.85776" lon="9.172131">
        <ele>2420.96881</ele>
      </trkpt>
      <trkpt lat="46.85772" lon="9.17204">
        <ele>2419.7931</ele>
      </trkpt>
      <trkpt lat="46.857701" lon="9.171981">
        <ele>2418.94637</ele>
      </trkpt>
      <trkpt lat="46.857641" lon="9.171941">
        <ele>2417.69083</ele>
      </trkpt>
      <trkpt lat="46.857631" lon="9.171901">
        <ele>2417.70965</ele>
      </trkpt>
      <trkpt lat="46.85759" lon="9.17188">
        <ele>2418.02553</ele>
      </trkpt>
      <trkpt lat="46.857501" lon="9.17181">
        <ele>2419.65354</ele>
      </trkpt>
      <trkpt lat="46.857451" lon="9.17179">
        <ele>2418.42969</ele>
      </trkpt>
      <trkpt lat="46.85742" lon="9.171721">
        <ele>2418.65108</ele>
      </trkpt>
      <trkpt lat="46.85737" lon="9.1717">
        <ele>2418.4859</ele>
      </trkpt>
      <trkpt lat="46.857261" lon="9.171681">
        <ele>2419.83911</ele>
      </trkpt>
      <trkpt lat="46.8572" lon="9.17169">
        <ele>2418.78964</ele>
      </trkpt>
      <trkpt lat="46.85716" lon="9.171651">
        <ele>2419.09846</ele>
      </trkpt>
      <trkpt lat="46.85714" lon="9.17162">
        <ele>2419.71272</ele>
      </trkpt>
      <trkpt lat="46.857081" lon="9.17161">
        <ele>2419.43844</ele>
      </trkpt>
      <trkpt lat="46.85702" lon="9.171631">
        <ele>2419.28887</ele>
      </trkpt>
      <trkpt lat="46.8569" lon="9.171581">
        <ele>2419.2509</ele>
      </trkpt>
      <trkpt lat="46.85685" lon="9.171551">
        <ele>2418.82832</ele>
      </trkpt>
      <trkpt lat="46.85679" lon="9.17144">
        <ele>2419.93304</ele>
      </trkpt>
      <trkpt lat="46.85671" lon="9.171351">
        <ele>2418.55129</ele>
      </trkpt>
      <trkpt lat="46.856661" lon="9.17124">
        <ele>2416.90248</ele>
      </trkpt>
      <trkpt lat="46.85663" lon="9.17113">
        <ele>2415.92535</ele>
      </trkpt>
      <trkpt lat="46.8566" lon="9.17107">
        <ele>2415.35108</ele>
      </trkpt>
      <trkpt lat="46.85657" lon="9.171041">
        <ele>2414.66954</ele>
      </trkpt>
      <trkpt lat="46.856551" lon="9.170981">
        <ele>2414.63908</ele>
      </trkpt>
      <trkpt lat="46.85654" lon="9.17087">
        <ele>2414.72575</ele>
      </trkpt>
      <trkpt lat="46.85651" lon="9.17078">
        <ele>2414.17922</ele>
      </trkpt>
      <trkpt lat="46.856511" lon="9.1707">
        <ele>2414.0724</ele>
      </trkpt>
      <trkpt lat="46.85649" lon="9.17068">
        <ele>2414.26817</ele>
      </trkpt>
      <trkpt lat="46.85645" lon="9.17066">
        <ele>2414.54117</ele>
      </trkpt>
      <trkpt lat="46.856431" lon="9.17064">
        <ele>2414.56021</ele>
      </trkpt>
      <trkpt lat="46.856431" lon="9.170581">
        <ele>2414.8612</ele>
      </trkpt>
      <trkpt lat="46.856421" lon="9.17046">
        <ele>2414.71775</ele>
      </trkpt>
      <trkpt lat="46.856381" lon="9.17025">
        <ele>2414.38536</ele>
      </trkpt>
      <trkpt lat="46.856311" lon="9.170051">
        <ele>2415.57711</ele>
      </trkpt>
      <trkpt lat="46.856271" lon="9.169971">
        <ele>2415.85055</ele>
      </trkpt>
      <trkpt lat="46.856241" lon="9.169931">
        <ele>2415.55169</ele>
      </trkpt>
      <trkpt lat="46.85619" lon="9.16992">
        <ele>2414.37346</ele>
      </trkpt>
      <trkpt lat="46.85617" lon="9.16989">
        <ele>2414.29845</ele>
      </trkpt>
      <trkpt lat="46.85609" lon="9.16983">
        <ele>2414.15693</ele>
      </trkpt>
      <trkpt lat="46.856081" lon="9.169801">
        <ele>2414.72901</ele>
      </trkpt>
      <trkpt lat="46.856051" lon="9.169761">
        <ele>2415.08654</ele>
      </trkpt>
      <trkpt lat="46.85602" lon="9.16969">
        <ele>2415.02895</ele>
      </trkpt>
      <trkpt lat="46.856031" lon="9.169591">
        <ele>2416.00265</ele>
      </trkpt>
      <trkpt lat="46.856011" lon="9.16948">
        <ele>2416.29622</ele>
      </trkpt>
      <trkpt lat="46.85596" lon="9.16944">
        <ele>2417.64731</ele>
        <name>46.855960,9.169440</name>
        <extensions>
          <oa:Extension>
            <oa:mapZoom>15</oa:mapZoom>
          </oa:Extension>
        </extensions>
      </trkpt>
      <trkpt lat="46.85588" lon="9.169501">
        <ele>2416.80552</ele>
      </trkpt>
      <trkpt lat="46.85578" lon="9.1695">
        <ele>2416.26359</ele>
      </trkpt>
      <trkpt lat="46.85574" lon="9.169481">
        <ele>2416.4747</ele>
      </trkpt>
      <trkpt lat="46.85571" lon="9.169501">
        <ele>2415.40105</ele>
      </trkpt>
      <trkpt lat="46.855591" lon="9.169421">
        <ele>2413.60581</ele>
      </trkpt>
      <trkpt lat="46.855521" lon="9.16935">
        <ele>2411.83902</ele>
      </trkpt>
      <trkpt lat="46.85539" lon="9.169241">
        <ele>2408.07511</ele>
      </trkpt>
      <trkpt lat="46.85538" lon="9.16918">
        <ele>2408.16264</ele>
      </trkpt>
      <trkpt lat="46.85533" lon="9.16916">
        <ele>2406.18419</ele>
      </trkpt>
      <trkpt lat="46.85531" lon="9.169101">
        <ele>2405.8606</ele>
      </trkpt>
      <trkpt lat="46.855221" lon="9.16896">
        <ele>2403.72179</ele>
      </trkpt>
      <trkpt lat="46.85513" lon="9.168931">
        <ele>2401.01203</ele>
      </trkpt>
      <trkpt lat="46.855071" lon="9.168891">
        <ele>2398.84635</ele>
      </trkpt>
      <trkpt lat="46.85505" lon="9.16886">
        <ele>2397.69408</ele>
      </trkpt>
      <trkpt lat="46.85498" lon="9.1688">
        <ele>2393.89745</ele>
      </trkpt>
      <trkpt lat="46.8549" lon="9.16879">
        <ele>2389.51017</ele>
      </trkpt>
      <trkpt lat="46.854881" lon="9.168771">
        <ele>2387.84983</ele>
      </trkpt>
      <trkpt lat="46.854871" lon="9.16873">
        <ele>2386.47605</ele>
      </trkpt>
      <trkpt lat="46.85483" lon="9.168721">
        <ele>2384.68031</ele>
      </trkpt>
      <trkpt lat="46.8548" lon="9.16873">
        <ele>2383.55562</ele>
      </trkpt>
      <trkpt lat="46.85478" lon="9.16874">
        <ele>2382.65339</ele>
      </trkpt>
      <trkpt lat="46.85476" lon="9.168771">
        <ele>2381.28422</ele>
      </trkpt>
      <trkpt lat="46.854761" lon="9.1688">
        <ele>2380.95068</ele>
      </trkpt>
      <trkpt lat="46.854741" lon="9.16882">
        <ele>2380.09823</ele>
      </trkpt>
      <trkpt lat="46.8547" lon="9.1688">
        <ele>2379.60011</ele>
      </trkpt>
      <trkpt lat="46.854707" lon="9.16881">
        <ele>2379.49026</ele>
        <name>46.854707,9.168810</name>
        <extensions>
          <oa:Extension>
            <oa:mapZoom>15</oa:mapZoom>
          </oa:Extension>
        </extensions>
      </trkpt>
    </trkseg>
  </trk>
</gpx>