<?xml version="1.0" encoding="UTF-8" standalone="yes"?>
<gpx version="1.1" creator="outdooractive - http://www.outdooractive.com" xmlns="http://www.topografix.com/GPX/1/1" xmlns:oa="http://www.outdooractive.com/GPX/Extensions/1" xmlns:xsi="http://www.w3.org/2001/XMLSchema-instance" xsi:schemaLocation="http://www.topografix.com/GPX/1/1 http://www.topografix.com/GPX/1/1/gpx.xsd http://www.outdooractive.com/GPX/Extensions/1 https://www.outdooractive.com/schema/gpx_extensions.xsd">
  <metadata>
    <name>Nagens Trail</name>
    <link href="https://www.outdooractive.com/r/64989761"/>
    <time>2026-05-15T07:24:47.316Z</time>
    <extensions>
      <oa:oaCategory>mountainbiking</oa:oaCategory>
    </extensions>
  </metadata>
  <trk>
    <name>Nagens Trail</name>
    <desc>The Nagens Trail in Flims Laax offers everything that makes the enduro heart beat faster:</desc>
    <type>mountainbiking</type>
    <trkseg>
      <trkpt lat="46.865135" lon="9.235109">
        <ele>2182.14007</ele>
        <name>46.865135,9.235109</name>
        <extensions>
          <oa:Extension>
            <oa:mapZoom>18</oa:mapZoom>
          </oa:Extension>
        </extensions>
      </trkpt>
      <trkpt lat="46.865087" lon="9.235062">
        <ele>2181.70485</ele>
      </trkpt>
      <trkpt lat="46.864811" lon="9.234995">
        <ele>2181.66882</ele>
      </trkpt>
      <trkpt lat="46.864685" lon="9.234905">
        <ele>2177.52954</ele>
      </trkpt>
      <trkpt lat="46.86452" lon="9.234702">
        <ele>2173.03785</ele>
      </trkpt>
      <trkpt lat="46.864343" lon="9.234572">
        <ele>2170.91589</ele>
      </trkpt>
      <trkpt lat="46.864244" lon="9.234151">
        <ele>2170.5274</ele>
      </trkpt>
      <trkpt lat="46.86367" lon="9.233474">
        <ele>2166.40299</ele>
      </trkpt>
      <trkpt lat="46.863556" lon="9.233389">
        <ele>2164.75347</ele>
      </trkpt>
      <trkpt lat="46.863077" lon="9.232854">
        <ele>2154.66515</ele>
      </trkpt>
      <trkpt lat="46.862819" lon="9.232653">
        <ele>2150.37527</ele>
      </trkpt>
      <trkpt lat="46.862566" lon="9.232332">
        <ele>2145.89266</ele>
      </trkpt>
      <trkpt lat="46.862356" lon="9.23218">
        <ele>2144.41217</ele>
      </trkpt>
      <trkpt lat="46.862269" lon="9.231737">
        <ele>2145.1953</ele>
      </trkpt>
      <trkpt lat="46.862124" lon="9.231177">
        <ele>2144.91182</ele>
      </trkpt>
      <trkpt lat="46.861947" lon="9.230492">
        <ele>2139.21024</ele>
      </trkpt>
      <trkpt lat="46.861935" lon="9.230039">
        <ele>2138.12543</ele>
      </trkpt>
      <trkpt lat="46.861903" lon="9.229914">
        <ele>2137.74414</ele>
      </trkpt>
      <trkpt lat="46.861681" lon="9.229681">
        <ele>2135.18724</ele>
      </trkpt>
      <trkpt lat="46.861565" lon="9.229325">
        <ele>2135.45033</ele>
      </trkpt>
      <trkpt lat="46.861578" lon="9.229017">
        <ele>2136.58557</ele>
      </trkpt>
      <trkpt lat="46.861552" lon="9.228873">
        <ele>2136.34509</ele>
      </trkpt>
      <trkpt lat="46.861476" lon="9.228688">
        <ele>2134.1458</ele>
      </trkpt>
      <trkpt lat="46.861374" lon="9.228319">
        <ele>2130.41926</ele>
      </trkpt>
      <trkpt lat="46.861324" lon="9.228246">
        <ele>2129.68119</ele>
      </trkpt>
      <trkpt lat="46.86127" lon="9.228314">
        <ele>2128.95325</ele>
      </trkpt>
      <trkpt lat="46.861238" lon="9.228501">
        <ele>2128.0541</ele>
      </trkpt>
      <trkpt lat="46.861146" lon="9.22867">
        <ele>2127.14408</ele>
      </trkpt>
      <trkpt lat="46.861093" lon="9.228836">
        <ele>2127.28828</ele>
      </trkpt>
      <trkpt lat="46.86099" lon="9.228866">
        <ele>2125.83878</ele>
      </trkpt>
      <trkpt lat="46.860878" lon="9.228677">
        <ele>2119.36125</ele>
      </trkpt>
      <trkpt lat="46.860816" lon="9.228312">
        <ele>2120.28073</ele>
      </trkpt>
      <trkpt lat="46.860749" lon="9.228305">
        <ele>2118.55904</ele>
      </trkpt>
      <trkpt lat="46.860689" lon="9.228564">
        <ele>2113.89958</ele>
      </trkpt>
      <trkpt lat="46.860639" lon="9.228601">
        <ele>2112.96332</ele>
      </trkpt>
      <trkpt lat="46.860586" lon="9.228561">
        <ele>2111.31203</ele>
      </trkpt>
      <trkpt lat="46.860566" lon="9.228452">
        <ele>2111.55703</ele>
      </trkpt>
      <trkpt lat="46.860512" lon="9.228436">
        <ele>2110.36032</ele>
      </trkpt>
      <trkpt lat="46.860338" lon="9.22877">
        <ele>2104.80522</ele>
      </trkpt>
      <trkpt lat="46.860322" lon="9.228867">
        <ele>2106.33614</ele>
      </trkpt>
      <trkpt lat="46.860222" lon="9.22895">
        <ele>2103.54442</ele>
      </trkpt>
      <trkpt lat="46.860173" lon="9.228915">
        <ele>2101.07357</ele>
      </trkpt>
      <trkpt lat="46.860148" lon="9.228852">
        <ele>2099.51588</ele>
      </trkpt>
      <trkpt lat="46.860104" lon="9.228637">
        <ele>2097.32457</ele>
      </trkpt>
      <trkpt lat="46.859844" lon="9.228447">
        <ele>2095.05259</ele>
      </trkpt>
      <trkpt lat="46.859723" lon="9.228301">
        <ele>2094.72529</ele>
      </trkpt>
      <trkpt lat="46.859543" lon="9.227848">
        <ele>2091.88005</ele>
      </trkpt>
      <trkpt lat="46.859518" lon="9.227564">
        <ele>2089.56419</ele>
      </trkpt>
      <trkpt lat="46.859366" lon="9.22693">
        <ele>2084.81846</ele>
      </trkpt>
      <trkpt lat="46.859347" lon="9.226655">
        <ele>2083.45911</ele>
      </trkpt>
      <trkpt lat="46.85921" lon="9.226116">
        <ele>2079.01319</ele>
      </trkpt>
      <trkpt lat="46.859131" lon="9.225858">
        <ele>2078.19735</ele>
      </trkpt>
      <trkpt lat="46.859041" lon="9.225772">
        <ele>2076.13092</ele>
      </trkpt>
      <trkpt lat="46.858978" lon="9.225818">
        <ele>2075.02353</ele>
      </trkpt>
      <trkpt lat="46.858916" lon="9.225996">
        <ele>2072.63866</ele>
      </trkpt>
      <trkpt lat="46.858931" lon="9.22642">
        <ele>2069.08005</ele>
      </trkpt>
      <trkpt lat="46.858912" lon="9.226615">
        <ele>2068.33342</ele>
      </trkpt>
      <trkpt lat="46.858884" lon="9.226672">
        <ele>2066.96333</ele>
      </trkpt>
      <trkpt lat="46.858841" lon="9.226684">
        <ele>2065.74171</ele>
      </trkpt>
      <trkpt lat="46.85877" lon="9.226615">
        <ele>2063.21478</ele>
      </trkpt>
      <trkpt lat="46.858719" lon="9.226483">
        <ele>2061.87579</ele>
      </trkpt>
      <trkpt lat="46.858661" lon="9.226403">
        <ele>2059.95929</ele>
      </trkpt>
      <trkpt lat="46.858441" lon="9.226254">
        <ele>2059.33283</ele>
      </trkpt>
      <trkpt lat="46.858418" lon="9.226305">
        <ele>2057.93934</ele>
      </trkpt>
      <trkpt lat="46.858414" lon="9.226426">
        <ele>2057.42117</ele>
      </trkpt>
      <trkpt lat="46.858461" lon="9.226724">
        <ele>2055.11762</ele>
      </trkpt>
      <trkpt lat="46.858304" lon="9.227051">
        <ele>2052.01452</ele>
      </trkpt>
      <trkpt lat="46.858225" lon="9.227056">
        <ele>2051.0821</ele>
      </trkpt>
      <trkpt lat="46.85817" lon="9.226981">
        <ele>2049.65996</ele>
      </trkpt>
      <trkpt lat="46.858084" lon="9.226678">
        <ele>2047.19792</ele>
      </trkpt>
      <trkpt lat="46.858006" lon="9.226598">
        <ele>2047.073</ele>
      </trkpt>
      <trkpt lat="46.857959" lon="9.226586">
        <ele>2046.40179</ele>
      </trkpt>
      <trkpt lat="46.8579" lon="9.226627">
        <ele>2045.54088</ele>
      </trkpt>
      <trkpt lat="46.85782" lon="9.226856">
        <ele>2042.89443</ele>
      </trkpt>
      <trkpt lat="46.857774" lon="9.226988">
        <ele>2042.34268</ele>
      </trkpt>
      <trkpt lat="46.857598" lon="9.22724">
        <ele>2038.8955</ele>
      </trkpt>
      <trkpt lat="46.857488" lon="9.227211">
        <ele>2035.6964</ele>
      </trkpt>
      <trkpt lat="46.857359" lon="9.226942">
        <ele>2030.43776</ele>
      </trkpt>
      <trkpt lat="46.857249" lon="9.226827">
        <ele>2029.49414</ele>
      </trkpt>
      <trkpt lat="46.857108" lon="9.226839">
        <ele>2028.48453</ele>
      </trkpt>
      <trkpt lat="46.857045" lon="9.226885">
        <ele>2027.34286</ele>
      </trkpt>
      <trkpt lat="46.856916" lon="9.22736">
        <ele>2019.94644</ele>
      </trkpt>
      <trkpt lat="46.856837" lon="9.227435">
        <ele>2017.85708</ele>
      </trkpt>
      <trkpt lat="46.856728" lon="9.227733">
        <ele>2015.72402</ele>
      </trkpt>
      <trkpt lat="46.856606" lon="9.22779">
        <ele>2013.68778</ele>
      </trkpt>
      <trkpt lat="46.856355" lon="9.227716">
        <ele>2013.08819</ele>
      </trkpt>
      <trkpt lat="46.856206" lon="9.227464">
        <ele>2011.0906</ele>
      </trkpt>
      <trkpt lat="46.856112" lon="9.227481">
        <ele>2009.80021</ele>
      </trkpt>
      <trkpt lat="46.855892" lon="9.227664">
        <ele>2006.88296</ele>
      </trkpt>
      <trkpt lat="46.855845" lon="9.227739">
        <ele>2006.45034</ele>
      </trkpt>
      <trkpt lat="46.855727" lon="9.228118">
        <ele>2002.19067</ele>
      </trkpt>
      <trkpt lat="46.855749" lon="9.228328">
        <ele>2001.69672</ele>
      </trkpt>
      <trkpt lat="46.855704" lon="9.228452">
        <ele>2000.19444</ele>
      </trkpt>
      <trkpt lat="46.855609" lon="9.228456">
        <ele>1997.91358</ele>
      </trkpt>
      <trkpt lat="46.855575" lon="9.228323">
        <ele>1996.50834</ele>
      </trkpt>
      <trkpt lat="46.855572" lon="9.228195">
        <ele>1997.04477</ele>
      </trkpt>
      <trkpt lat="46.855529" lon="9.228147">
        <ele>1995.57061</ele>
      </trkpt>
      <trkpt lat="46.855394" lon="9.228216">
        <ele>1991.55307</ele>
      </trkpt>
      <trkpt lat="46.855318" lon="9.228141">
        <ele>1990.18447</ele>
      </trkpt>
      <trkpt lat="46.855264" lon="9.228128">
        <ele>1988.74186</ele>
      </trkpt>
      <trkpt lat="46.855197" lon="9.228245">
        <ele>1986.80313</ele>
      </trkpt>
      <trkpt lat="46.855166" lon="9.228504">
        <ele>1985.19063</ele>
      </trkpt>
      <trkpt lat="46.855233" lon="9.228782">
        <ele>1983.72097</ele>
      </trkpt>
      <trkpt lat="46.855211" lon="9.228843">
        <ele>1982.72817</ele>
      </trkpt>
      <trkpt lat="46.855184" lon="9.228831">
        <ele>1982.26011</ele>
      </trkpt>
      <trkpt lat="46.855135" lon="9.228701">
        <ele>1981.08976</ele>
      </trkpt>
      <trkpt lat="46.854954" lon="9.228582">
        <ele>1978.28042</ele>
      </trkpt>
      <trkpt lat="46.854925" lon="9.228474">
        <ele>1978.58701</ele>
      </trkpt>
      <trkpt lat="46.854861" lon="9.228459">
        <ele>1977.97612</ele>
      </trkpt>
      <trkpt lat="46.854802" lon="9.228392">
        <ele>1976.98022</ele>
      </trkpt>
      <trkpt lat="46.854732" lon="9.228245">
        <ele>1975.71442</ele>
      </trkpt>
      <trkpt lat="46.854678" lon="9.228194">
        <ele>1974.65222</ele>
      </trkpt>
      <trkpt lat="46.854616" lon="9.228249">
        <ele>1973.20555</ele>
      </trkpt>
      <trkpt lat="46.854561" lon="9.22854">
        <ele>1971.69732</ele>
      </trkpt>
      <trkpt lat="46.854541" lon="9.228552">
        <ele>1971.16899</ele>
      </trkpt>
      <trkpt lat="46.854411" lon="9.228544">
        <ele>1968.3603</ele>
      </trkpt>
      <trkpt lat="46.854332" lon="9.228629">
        <ele>1966.05532</ele>
      </trkpt>
      <trkpt lat="46.854243" lon="9.228546">
        <ele>1964.42604</ele>
      </trkpt>
      <trkpt lat="46.854177" lon="9.228438">
        <ele>1962.88691</ele>
      </trkpt>
      <trkpt lat="46.854132" lon="9.228461">
        <ele>1961.15122</ele>
      </trkpt>
      <trkpt lat="46.854104" lon="9.228513">
        <ele>1959.86749</ele>
      </trkpt>
      <trkpt lat="46.854071" lon="9.228697">
        <ele>1958.93097</ele>
      </trkpt>
      <trkpt lat="46.854086" lon="9.228796">
        <ele>1958.90569</ele>
      </trkpt>
      <trkpt lat="46.854065" lon="9.228897">
        <ele>1957.73414</ele>
      </trkpt>
      <trkpt lat="46.854113" lon="9.22906">
        <ele>1957.3008</ele>
      </trkpt>
      <trkpt lat="46.854077" lon="9.229109">
        <ele>1956.14278</ele>
      </trkpt>
      <trkpt lat="46.854017" lon="9.229081">
        <ele>1954.73164</ele>
      </trkpt>
      <trkpt lat="46.853951" lon="9.229092">
        <ele>1952.88592</ele>
      </trkpt>
      <trkpt lat="46.853895" lon="9.228993">
        <ele>1951.33492</ele>
      </trkpt>
      <trkpt lat="46.853822" lon="9.228949">
        <ele>1949.01643</ele>
      </trkpt>
      <trkpt lat="46.85379" lon="9.228836">
        <ele>1948.26689</ele>
      </trkpt>
      <trkpt lat="46.853729" lon="9.228806">
        <ele>1945.88088</ele>
      </trkpt>
      <trkpt lat="46.853675" lon="9.228731">
        <ele>1944.09103</ele>
      </trkpt>
      <trkpt lat="46.85366" lon="9.228591">
        <ele>1944.91937</ele>
      </trkpt>
      <trkpt lat="46.853623" lon="9.228574">
        <ele>1943.00464</ele>
      </trkpt>
      <trkpt lat="46.853596" lon="9.228604">
        <ele>1941.60712</ele>
      </trkpt>
      <trkpt lat="46.853584" lon="9.22878">
        <ele>1940.10485</ele>
      </trkpt>
      <trkpt lat="46.853562" lon="9.228824">
        <ele>1938.99646</ele>
      </trkpt>
      <trkpt lat="46.853533" lon="9.228813">
        <ele>1937.63193</ele>
      </trkpt>
      <trkpt lat="46.853408" lon="9.228634">
        <ele>1935.97906</ele>
      </trkpt>
      <trkpt lat="46.853306" lon="9.228993">
        <ele>1929.56494</ele>
      </trkpt>
      <trkpt lat="46.853276" lon="9.22917">
        <ele>1926.71354</ele>
      </trkpt>
      <trkpt lat="46.85335" lon="9.22931">
        <ele>1925.97108</ele>
      </trkpt>
      <trkpt lat="46.853313" lon="9.229546">
        <ele>1921.88069</ele>
      </trkpt>
      <trkpt lat="46.853361" lon="9.230098">
        <ele>1916.18789</ele>
      </trkpt>
      <trkpt lat="46.853199" lon="9.230447">
        <ele>1915.07846</ele>
      </trkpt>
      <trkpt lat="46.853067" lon="9.230511">
        <ele>1913.5355</ele>
      </trkpt>
      <trkpt lat="46.852961" lon="9.23042">
        <ele>1911.88098</ele>
      </trkpt>
      <trkpt lat="46.852821" lon="9.230527">
        <ele>1907.88217</ele>
      </trkpt>
      <trkpt lat="46.852733" lon="9.230871">
        <ele>1902.53744</ele>
      </trkpt>
      <trkpt lat="46.852444" lon="9.231297">
        <ele>1896.6</ele>
        <name>Scansinas (Mutta Rodunda), Laax</name>
        <extensions>
          <oa:locType>routingNode</oa:locType>
          <oa:Extension>
            <oa:mapZoom>19</oa:mapZoom>
          </oa:Extension>
        </extensions>
      </trkpt>
      <trkpt lat="46.852438" lon="9.231279">
        <ele>1896.6</ele>
      </trkpt>
      <trkpt lat="46.852404" lon="9.23122">
        <ele>1896.4</ele>
      </trkpt>
      <trkpt lat="46.852338" lon="9.231165">
        <ele>1895.9</ele>
      </trkpt>
      <trkpt lat="46.852244" lon="9.231095">
        <ele>1896.1</ele>
      </trkpt>
      <trkpt lat="46.852307" lon="9.231238">
        <ele>1896.0</ele>
      </trkpt>
      <trkpt lat="46.852319" lon="9.231318">
        <ele>1895.8</ele>
      </trkpt>
      <trkpt lat="46.852313" lon="9.23144">
        <ele>1895.4</ele>
      </trkpt>
      <trkpt lat="46.852298" lon="9.231574">
        <ele>1895.0</ele>
      </trkpt>
      <trkpt lat="46.852265" lon="9.231867">
        <ele>1894.5</ele>
      </trkpt>
      <trkpt lat="46.852261" lon="9.231973">
        <ele>1894.8</ele>
      </trkpt>
      <trkpt lat="46.852266" lon="9.232035">
        <ele>1894.9</ele>
        <name>Scansinas, Laax</name>
        <extensions>
          <oa:locType>routingNode</oa:locType>
          <oa:Extension>
            <oa:mapZoom>19</oa:mapZoom>
          </oa:Extension>
        </extensions>
      </trkpt>
      <trkpt lat="46.852291" lon="9.232377">
        <ele>1895.7</ele>
      </trkpt>
      <trkpt lat="46.852299" lon="9.232419">
        <ele>1895.8</ele>
      </trkpt>
      <trkpt lat="46.852308" lon="9.232455">
        <ele>1896.3</ele>
      </trkpt>
      <trkpt lat="46.852326" lon="9.232492">
        <ele>1896.8</ele>
      </trkpt>
      <trkpt lat="46.852347" lon="9.23252">
        <ele>1897.2</ele>
      </trkpt>
      <trkpt lat="46.852376" lon="9.232545">
        <ele>1897.6</ele>
      </trkpt>
      <trkpt lat="46.852485" lon="9.232606">
        <ele>1898.5</ele>
      </trkpt>
      <trkpt lat="46.852553" lon="9.23266">
        <ele>1899.1</ele>
      </trkpt>
      <trkpt lat="46.85259" lon="9.232715">
        <ele>1899.3</ele>
      </trkpt>
      <trkpt lat="46.852644" lon="9.232804">
        <ele>1899.6</ele>
      </trkpt>
      <trkpt lat="46.852662" lon="9.232851">
        <ele>1899.7</ele>
      </trkpt>
      <trkpt lat="46.852673" lon="9.232894">
        <ele>1899.9</ele>
      </trkpt>
      <trkpt lat="46.852688" lon="9.23296">
        <ele>1900.1</ele>
      </trkpt>
      <trkpt lat="46.852693" lon="9.233023">
        <ele>1900.6</ele>
      </trkpt>
      <trkpt lat="46.852692" lon="9.233101">
        <ele>1901.0</ele>
      </trkpt>
      <trkpt lat="46.852685" lon="9.233159">
        <ele>1901.4</ele>
      </trkpt>
      <trkpt lat="46.852669" lon="9.233231">
        <ele>1901.6</ele>
      </trkpt>
      <trkpt lat="46.852568" lon="9.233573">
        <ele>1903.0</ele>
      </trkpt>
      <trkpt lat="46.852456" lon="9.23389">
        <ele>1902.1</ele>
      </trkpt>
      <trkpt lat="46.852394" lon="9.234065">
        <ele>1901.9</ele>
      </trkpt>
      <trkpt lat="46.852358" lon="9.234175">
        <ele>1901.8</ele>
      </trkpt>
      <trkpt lat="46.852323" lon="9.234301">
        <ele>1901.6</ele>
      </trkpt>
      <trkpt lat="46.852295" lon="9.234435">
        <ele>1901.4</ele>
      </trkpt>
      <trkpt lat="46.852276" lon="9.234602">
        <ele>1900.7</ele>
      </trkpt>
      <trkpt lat="46.852262" lon="9.234741">
        <ele>1899.0</ele>
      </trkpt>
      <trkpt lat="46.852255" lon="9.234982">
        <ele>1896.9</ele>
      </trkpt>
      <trkpt lat="46.852259" lon="9.235196">
        <ele>1896.3</ele>
      </trkpt>
      <trkpt lat="46.852273" lon="9.235333">
        <ele>1896.1</ele>
      </trkpt>
      <trkpt lat="46.852284" lon="9.235409">
        <ele>1896.2</ele>
      </trkpt>
      <trkpt lat="46.852304" lon="9.235485">
        <ele>1896.3</ele>
      </trkpt>
      <trkpt lat="46.852332" lon="9.235544">
        <ele>1896.3</ele>
      </trkpt>
      <trkpt lat="46.85239" lon="9.235661">
        <ele>1896.3</ele>
      </trkpt>
      <trkpt lat="46.852404" lon="9.235696">
        <ele>1896.3</ele>
      </trkpt>
      <trkpt lat="46.852412" lon="9.23573">
        <ele>1896.4</ele>
      </trkpt>
      <trkpt lat="46.852415" lon="9.235774">
        <ele>1896.3</ele>
      </trkpt>
      <trkpt lat="46.852413" lon="9.235812">
        <ele>1896.2</ele>
      </trkpt>
      <trkpt lat="46.852406" lon="9.235852">
        <ele>1896.4</ele>
      </trkpt>
      <trkpt lat="46.852393" lon="9.235895">
        <ele>1896.6</ele>
      </trkpt>
      <trkpt lat="46.852315" lon="9.236103">
        <ele>1898.0</ele>
      </trkpt>
      <trkpt lat="46.852305" lon="9.236142">
        <ele>1898.0</ele>
      </trkpt>
      <trkpt lat="46.852297" lon="9.236197">
        <ele>1898.0</ele>
      </trkpt>
      <trkpt lat="46.852293" lon="9.236268">
        <ele>1897.9</ele>
      </trkpt>
      <trkpt lat="46.852298" lon="9.236267">
        <ele>1897.9</ele>
        <name>46.852298,9.236267</name>
        <extensions>
          <oa:Extension>
            <oa:mapZoom>17</oa:mapZoom>
          </oa:Extension>
        </extensions>
      </trkpt>
      <trkpt lat="46.852231" lon="9.236458">
        <ele>1896.99095</ele>
      </trkpt>
      <trkpt lat="46.852199" lon="9.236621">
        <ele>1897.46471</ele>
      </trkpt>
      <trkpt lat="46.852051" lon="9.236742">
        <ele>1893.98577</ele>
      </trkpt>
      <trkpt lat="46.85188" lon="9.237021">
        <ele>1889.13324</ele>
      </trkpt>
      <trkpt lat="46.851798" lon="9.237286">
        <ele>1887.68428</ele>
      </trkpt>
      <trkpt lat="46.851655" lon="9.237442">
        <ele>1883.28715</ele>
      </trkpt>
      <trkpt lat="46.851627" lon="9.2376">
        <ele>1881.36779</ele>
      </trkpt>
      <trkpt lat="46.851671" lon="9.237836">
        <ele>1881.3781</ele>
      </trkpt>
      <trkpt lat="46.851657" lon="9.238174">
        <ele>1883.23752</ele>
      </trkpt>
      <trkpt lat="46.851607" lon="9.238319">
        <ele>1883.49684</ele>
      </trkpt>
      <trkpt lat="46.851541" lon="9.238434">
        <ele>1882.61977</ele>
      </trkpt>
      <trkpt lat="46.851389" lon="9.238756">
        <ele>1876.2058</ele>
      </trkpt>
      <trkpt lat="46.851347" lon="9.238711">
        <ele>1873.77387</ele>
      </trkpt>
      <trkpt lat="46.85137" lon="9.238628">
        <ele>1873.87035</ele>
      </trkpt>
      <trkpt lat="46.851348" lon="9.238585">
        <ele>1872.1214</ele>
      </trkpt>
      <trkpt lat="46.851187" lon="9.238775">
        <ele>1866.57285</ele>
      </trkpt>
      <trkpt lat="46.851044" lon="9.239403">
        <ele>1860.36879</ele>
      </trkpt>
      <trkpt lat="46.851037" lon="9.239743">
        <ele>1860.91181</ele>
      </trkpt>
      <trkpt lat="46.850987" lon="9.240054">
        <ele>1858.46975</ele>
      </trkpt>
      <trkpt lat="46.850947" lon="9.240046">
        <ele>1856.02815</ele>
      </trkpt>
      <trkpt lat="46.850895" lon="9.239923">
        <ele>1853.8333</ele>
      </trkpt>
      <trkpt lat="46.850846" lon="9.239907">
        <ele>1851.87246</ele>
      </trkpt>
      <trkpt lat="46.850833" lon="9.240073">
        <ele>1850.66483</ele>
      </trkpt>
      <trkpt lat="46.850881" lon="9.240274">
        <ele>1850.39715</ele>
      </trkpt>
      <trkpt lat="46.850895" lon="9.2405">
        <ele>1846.25296</ele>
      </trkpt>
      <trkpt lat="46.851092" lon="9.241009">
        <ele>1842.61654</ele>
      </trkpt>
      <trkpt lat="46.851154" lon="9.24128">
        <ele>1839.38974</ele>
      </trkpt>
      <trkpt lat="46.851163" lon="9.241406">
        <ele>1837.19909</ele>
      </trkpt>
      <trkpt lat="46.851224" lon="9.241616">
        <ele>1838.30251</ele>
      </trkpt>
      <trkpt lat="46.851189" lon="9.241672">
        <ele>1835.81742</ele>
      </trkpt>
      <trkpt lat="46.851161" lon="9.241637">
        <ele>1834.09619</ele>
      </trkpt>
      <trkpt lat="46.851123" lon="9.241605">
        <ele>1832.38553</ele>
      </trkpt>
      <trkpt lat="46.85104" lon="9.24194">
        <ele>1828.00899</ele>
      </trkpt>
      <trkpt lat="46.850939" lon="9.241988">
        <ele>1827.43252</ele>
      </trkpt>
      <trkpt lat="46.850793" lon="9.24197">
        <ele>1824.1861</ele>
      </trkpt>
      <trkpt lat="46.850745" lon="9.242029">
        <ele>1823.04949</ele>
      </trkpt>
      <trkpt lat="46.850741" lon="9.242219">
        <ele>1820.53558</ele>
      </trkpt>
      <trkpt lat="46.850778" lon="9.242407">
        <ele>1816.93722</ele>
      </trkpt>
      <trkpt lat="46.850739" lon="9.242541">
        <ele>1815.27519</ele>
      </trkpt>
      <trkpt lat="46.850692" lon="9.242611">
        <ele>1814.18565</ele>
      </trkpt>
      <trkpt lat="46.850499" lon="9.242584">
        <ele>1811.42862</ele>
      </trkpt>
      <trkpt lat="46.85062" lon="9.242656">
        <ele>1813.03118</ele>
      </trkpt>
      <trkpt lat="46.850389" lon="9.242401">
        <ele>1811.27004</ele>
      </trkpt>
      <trkpt lat="46.850279" lon="9.242404">
        <ele>1808.56816</ele>
      </trkpt>
      <trkpt lat="46.850204" lon="9.242503">
        <ele>1806.43224</ele>
      </trkpt>
      <trkpt lat="46.850182" lon="9.242654">
        <ele>1804.58351</ele>
      </trkpt>
      <trkpt lat="46.850114" lon="9.242777">
        <ele>1802.40235</ele>
      </trkpt>
      <trkpt lat="46.849885" lon="9.242868">
        <ele>1798.74436</ele>
      </trkpt>
      <trkpt lat="46.849644" lon="9.242399">
        <ele>1796.07225</ele>
      </trkpt>
      <trkpt lat="46.849527" lon="9.242359">
        <ele>1793.66484</ele>
      </trkpt>
      <trkpt lat="46.849494" lon="9.242318">
        <ele>1792.02749</ele>
      </trkpt>
      <trkpt lat="46.849459" lon="9.242302">
        <ele>1791.45786</ele>
      </trkpt>
      <trkpt lat="46.849428" lon="9.242329">
        <ele>1790.45254</ele>
      </trkpt>
      <trkpt lat="46.849393" lon="9.242283">
        <ele>1789.90545</ele>
      </trkpt>
      <trkpt lat="46.849362" lon="9.242356">
        <ele>1788.10716</ele>
      </trkpt>
      <trkpt lat="46.849365" lon="9.242442">
        <ele>1788.23385</ele>
      </trkpt>
      <trkpt lat="46.849248" lon="9.242619">
        <ele>1784.90517</ele>
      </trkpt>
      <trkpt lat="46.849189" lon="9.242659">
        <ele>1783.86057</ele>
      </trkpt>
      <trkpt lat="46.849096" lon="9.242662">
        <ele>1781.83351</ele>
      </trkpt>
      <trkpt lat="46.849033" lon="9.242635">
        <ele>1780.46276</ele>
      </trkpt>
      <trkpt lat="46.848993" lon="9.242694">
        <ele>1779.20215</ele>
      </trkpt>
      <trkpt lat="46.848868" lon="9.242761">
        <ele>1776.24733</ele>
      </trkpt>
      <trkpt lat="46.848753" lon="9.242766">
        <ele>1773.80403</ele>
      </trkpt>
      <trkpt lat="46.848578" lon="9.242688">
        <ele>1772.5241</ele>
      </trkpt>
      <trkpt lat="46.848498" lon="9.242745">
        <ele>1771.62505</ele>
      </trkpt>
      <trkpt lat="46.848454" lon="9.242831">
        <ele>1771.35277</ele>
      </trkpt>
      <trkpt lat="46.848356" lon="9.242868">
        <ele>1769.11282</ele>
      </trkpt>
      <trkpt lat="46.848158" lon="9.243059">
        <ele>1767.09051</ele>
      </trkpt>
      <trkpt lat="46.848074" lon="9.243193">
        <ele>1765.38569</ele>
      </trkpt>
      <trkpt lat="46.848002" lon="9.243249">
        <ele>1764.42001</ele>
      </trkpt>
      <trkpt lat="46.847935" lon="9.24326">
        <ele>1763.07213</ele>
      </trkpt>
      <trkpt lat="46.847891" lon="9.243211">
        <ele>1762.13208</ele>
      </trkpt>
      <trkpt lat="46.847837" lon="9.243211">
        <ele>1761.57697</ele>
      </trkpt>
      <trkpt lat="46.847804" lon="9.243324">
        <ele>1761.05778</ele>
      </trkpt>
      <trkpt lat="46.847766" lon="9.24337">
        <ele>1760.01586</ele>
      </trkpt>
      <trkpt lat="46.847724" lon="9.243351">
        <ele>1757.6604</ele>
      </trkpt>
      <trkpt lat="46.847663" lon="9.243244">
        <ele>1755.39005</ele>
      </trkpt>
      <trkpt lat="46.847588" lon="9.243241">
        <ele>1753.18174</ele>
      </trkpt>
      <trkpt lat="46.847542" lon="9.243375">
        <ele>1752.14542</ele>
      </trkpt>
      <trkpt lat="46.84741" lon="9.243426">
        <ele>1748.90688</ele>
      </trkpt>
      <trkpt lat="46.84739" lon="9.243509">
        <ele>1748.03064</ele>
      </trkpt>
      <trkpt lat="46.847401" lon="9.243619">
        <ele>1748.42714</ele>
      </trkpt>
      <trkpt lat="46.847357" lon="9.243713">
        <ele>1746.32554</ele>
      </trkpt>
      <trkpt lat="46.84705" lon="9.243477">
        <ele>1737.69315</ele>
      </trkpt>
      <trkpt lat="46.847006" lon="9.243579">
        <ele>1736.11033</ele>
      </trkpt>
      <trkpt lat="46.846926" lon="9.243498">
        <ele>1732.94624</ele>
      </trkpt>
      <trkpt lat="46.846775" lon="9.243509">
        <ele>1727.01684</ele>
      </trkpt>
      <trkpt lat="46.846489" lon="9.244089">
        <ele>1715.84304</ele>
      </trkpt>
      <trkpt lat="46.846309" lon="9.244292">
        <ele>1710.1093</ele>
      </trkpt>
      <trkpt lat="46.846239" lon="9.244325">
        <ele>1707.56133</ele>
      </trkpt>
      <trkpt lat="46.846162" lon="9.244319">
        <ele>1704.91903</ele>
      </trkpt>
      <trkpt lat="46.846148" lon="9.244577">
        <ele>1703.21243</ele>
      </trkpt>
      <trkpt lat="46.845979" lon="9.244598">
        <ele>1698.13095</ele>
      </trkpt>
      <trkpt lat="46.845843" lon="9.244582">
        <ele>1694.43024</ele>
      </trkpt>
      <trkpt lat="46.845762" lon="9.244786">
        <ele>1694.75823</ele>
      </trkpt>
      <trkpt lat="46.845858" lon="9.244995">
        <ele>1694.56592</ele>
      </trkpt>
      <trkpt lat="46.84588" lon="9.245188">
        <ele>1692.72121</ele>
      </trkpt>
      <trkpt lat="46.845799" lon="9.245349">
        <ele>1689.65825</ele>
      </trkpt>
      <trkpt lat="46.845693" lon="9.245333">
        <ele>1687.78137</ele>
      </trkpt>
      <trkpt lat="46.845601" lon="9.245231">
        <ele>1687.27469</ele>
      </trkpt>
      <trkpt lat="46.845443" lon="9.245215">
        <ele>1684.12349</ele>
      </trkpt>
      <trkpt lat="46.845436" lon="9.245435">
        <ele>1682.97724</ele>
      </trkpt>
      <trkpt lat="46.845392" lon="9.245601">
        <ele>1680.18991</ele>
      </trkpt>
      <trkpt lat="46.845337" lon="9.245778">
        <ele>1680.95948</ele>
      </trkpt>
      <trkpt lat="46.845146" lon="9.2458">
        <ele>1677.88817</ele>
      </trkpt>
      <trkpt lat="46.845076" lon="9.245821">
        <ele>1676.98306</ele>
      </trkpt>
      <trkpt lat="46.845062" lon="9.245955">
        <ele>1676.46317</ele>
      </trkpt>
      <trkpt lat="46.844986" lon="9.245966">
        <ele>1674.74617</ele>
      </trkpt>
      <trkpt lat="46.84495" lon="9.246041">
        <ele>1674.43857</ele>
      </trkpt>
      <trkpt lat="46.844836" lon="9.246036">
        <ele>1672.09488</ele>
      </trkpt>
      <trkpt lat="46.844776" lon="9.245955">
        <ele>1670.57193</ele>
      </trkpt>
      <trkpt lat="46.844693" lon="9.246081">
        <ele>1669.04164</ele>
      </trkpt>
      <trkpt lat="46.844667" lon="9.246234">
        <ele>1667.36333</ele>
      </trkpt>
      <trkpt lat="46.844583" lon="9.246304">
        <ele>1666.02554</ele>
      </trkpt>
      <trkpt lat="46.844498" lon="9.246237">
        <ele>1663.71535</ele>
      </trkpt>
      <trkpt lat="46.84444" lon="9.246057">
        <ele>1662.52245</ele>
      </trkpt>
      <trkpt lat="46.844366" lon="9.246114">
        <ele>1660.46124</ele>
      </trkpt>
      <trkpt lat="46.844275" lon="9.246119">
        <ele>1657.77518</ele>
      </trkpt>
      <trkpt lat="46.844181" lon="9.246342">
        <ele>1655.8231</ele>
      </trkpt>
      <trkpt lat="46.844023" lon="9.246374">
        <ele>1652.53679</ele>
      </trkpt>
      <trkpt lat="46.843891" lon="9.246465">
        <ele>1651.18081</ele>
      </trkpt>
      <trkpt lat="46.843805" lon="9.246562">
        <ele>1649.93851</ele>
      </trkpt>
      <trkpt lat="46.843754" lon="9.246535">
        <ele>1648.51805</ele>
      </trkpt>
      <trkpt lat="46.843765" lon="9.246454">
        <ele>1648.01111</ele>
      </trkpt>
      <trkpt lat="46.843829" lon="9.246063">
        <ele>1645.84511</ele>
      </trkpt>
      <trkpt lat="46.843693" lon="9.245515">
        <ele>1638.36475</ele>
      </trkpt>
      <trkpt lat="46.843777" lon="9.245237">
        <ele>1636.57644</ele>
      </trkpt>
      <trkpt lat="46.843781" lon="9.245">
        <ele>1633.19601</ele>
      </trkpt>
      <trkpt lat="46.84388" lon="9.244663">
        <ele>1630.70089</ele>
      </trkpt>
      <trkpt lat="46.843704" lon="9.244738">
        <ele>1626.55732</ele>
      </trkpt>
      <trkpt lat="46.843649" lon="9.244566">
        <ele>1622.11124</ele>
      </trkpt>
      <trkpt lat="46.843671" lon="9.244351">
        <ele>1618.86412</ele>
      </trkpt>
      <trkpt lat="46.84375" lon="9.244123">
        <ele>1617.9178</ele>
      </trkpt>
      <trkpt lat="46.843737" lon="9.244024">
        <ele>1616.79884</ele>
      </trkpt>
      <trkpt lat="46.843671" lon="9.24396">
        <ele>1614.8544</ele>
      </trkpt>
      <trkpt lat="46.843574" lon="9.244019">
        <ele>1611.57696</ele>
      </trkpt>
      <trkpt lat="46.843521" lon="9.244003">
        <ele>1611.18077</ele>
      </trkpt>
      <trkpt lat="46.843451" lon="9.243917">
        <ele>1612.32244</ele>
      </trkpt>
      <trkpt lat="46.843389" lon="9.243804">
        <ele>1613.90183</ele>
      </trkpt>
      <trkpt lat="46.843297" lon="9.243726">
        <ele>1612.1859</ele>
      </trkpt>
      <trkpt lat="46.843209" lon="9.243595">
        <ele>1611.56015</ele>
      </trkpt>
      <trkpt lat="46.84317" lon="9.243627">
        <ele>1609.99371</ele>
      </trkpt>
      <trkpt lat="46.843135" lon="9.243692">
        <ele>1607.88148</ele>
      </trkpt>
      <trkpt lat="46.843044" lon="9.243579">
        <ele>1605.2703</ele>
      </trkpt>
      <trkpt lat="46.842994" lon="9.243541">
        <ele>1604.64333</ele>
      </trkpt>
      <trkpt lat="46.842963" lon="9.24359">
        <ele>1602.82364</ele>
      </trkpt>
      <trkpt lat="46.842987" lon="9.24382">
        <ele>1599.43464</ele>
        <name>Nagens Trail, Laax</name>
        <extensions>
          <oa:Extension>
            <oa:mapZoom>17</oa:mapZoom>
          </oa:Extension>
        </extensions>
      </trkpt>
    </trkseg>
  </trk>
</gpx>