<?xml version="1.0" encoding="UTF-8" standalone="yes"?>
<gpx version="1.1" creator="outdooractive - http://www.outdooractive.com" xmlns="http://www.topografix.com/GPX/1/1" xmlns:oa="http://www.outdooractive.com/GPX/Extensions/1" xmlns:xsi="http://www.w3.org/2001/XMLSchema-instance" xsi:schemaLocation="http://www.topografix.com/GPX/1/1 http://www.topografix.com/GPX/1/1/gpx.xsd http://www.outdooractive.com/GPX/Extensions/1 https://www.outdooractive.com/schema/gpx_extensions.xsd">
  <metadata>
    <name>SH 36 Asitz-Trail am Schönleiten in Saalbach Hinterglemm</name>
    <author>
      <name>Tourismusverband Saalbach Hinterglemm - Saalbach Hinterglemm</name>
    </author>
    <link href="https://www.outdooractive.com/r/13900648"/>
    <time>2026-06-30T08:10:28.343Z</time>
    <extensions>
      <oa:oaCategory>mountainbiking</oa:oaCategory>
    </extensions>
  </metadata>
  <trk>
    <name>SH 36 Asitz-Trail am Schönleiten in Saalbach Hinterglemm</name>
    <desc><![CDATA[Naturbelassener und sehr angenehmer Singletrail der Saalbach Hinterglemm mit Leogang verbindet und in beide Richtungen befahren werden kann. / Dieser Trail ist unbeaufsichtigt und wird nicht permanent gewartet. Die Befahrung erfolgt auf eigene Gefahr. Entlang der Strecke gibt es keine besondere Gefahrensicherung. Aus diesem Grund erfolgt keine offizielle Angabe, ob der Trail geöffnet oder geschlossen ist. Auf sämtlichen durch den Tourismusverband und die Bergbahnen ausgewiesenen Mountainbike-Strecken gilt die Straßenverkehrsordnung (StVO)!]]></desc>
    <type>mountainbiking</type>
    <trkseg>
      <trkpt lat="47.403134" lon="12.696951">
        <ele>1795.82548</ele>
      </trkpt>
      <trkpt lat="47.403414" lon="12.697359">
        <ele>1789.80434</ele>
      </trkpt>
      <trkpt lat="47.40349" lon="12.697549">
        <ele>1787.52262</ele>
      </trkpt>
      <trkpt lat="47.403558" lon="12.697781">
        <ele>1784.84424</ele>
      </trkpt>
      <trkpt lat="47.403576" lon="12.697866">
        <ele>1784.02996</ele>
      </trkpt>
      <trkpt lat="47.403583" lon="12.698066">
        <ele>1782.31182</ele>
      </trkpt>
      <trkpt lat="47.403572" lon="12.698362">
        <ele>1779.78434</ele>
      </trkpt>
      <trkpt lat="47.403548" lon="12.698567">
        <ele>1777.6588</ele>
      </trkpt>
      <trkpt lat="47.403539" lon="12.698748">
        <ele>1775.99569</ele>
      </trkpt>
      <trkpt lat="47.40354" lon="12.699011">
        <ele>1776.59652</ele>
      </trkpt>
      <trkpt lat="47.403553" lon="12.699052">
        <ele>1775.95578</ele>
      </trkpt>
      <trkpt lat="47.403575" lon="12.699015">
        <ele>1773.9978</ele>
      </trkpt>
      <trkpt lat="47.403593" lon="12.698843">
        <ele>1771.56182</ele>
      </trkpt>
      <trkpt lat="47.403611" lon="12.698758">
        <ele>1770.36771</ele>
      </trkpt>
      <trkpt lat="47.403735" lon="12.698447">
        <ele>1763.01552</ele>
      </trkpt>
      <trkpt lat="47.403757" lon="12.698264">
        <ele>1760.65996</ele>
      </trkpt>
      <trkpt lat="47.403802" lon="12.698123">
        <ele>1758.13607</ele>
      </trkpt>
      <trkpt lat="47.403845" lon="12.697926">
        <ele>1756.16644</ele>
      </trkpt>
      <trkpt lat="47.40388" lon="12.697922">
        <ele>1753.67957</ele>
      </trkpt>
      <trkpt lat="47.403956" lon="12.698386">
        <ele>1747.19833</ele>
      </trkpt>
      <trkpt lat="47.404001" lon="12.698564">
        <ele>1745.5224</ele>
      </trkpt>
      <trkpt lat="47.404092" lon="12.698815">
        <ele>1739.97353</ele>
      </trkpt>
      <trkpt lat="47.404207" lon="12.699073">
        <ele>1736.99322</ele>
      </trkpt>
      <trkpt lat="47.404268" lon="12.699331">
        <ele>1735.33784</ele>
      </trkpt>
      <trkpt lat="47.404312" lon="12.699677">
        <ele>1734.0819</ele>
      </trkpt>
      <trkpt lat="47.404338" lon="12.699817">
        <ele>1733.33597</ele>
      </trkpt>
      <trkpt lat="47.404402" lon="12.699999">
        <ele>1732.29038</ele>
      </trkpt>
      <trkpt lat="47.40445" lon="12.700096">
        <ele>1731.91221</ele>
      </trkpt>
      <trkpt lat="47.404543" lon="12.700238">
        <ele>1729.96055</ele>
      </trkpt>
      <trkpt lat="47.404705" lon="12.700517">
        <ele>1727.36216</ele>
      </trkpt>
      <trkpt lat="47.404741" lon="12.700564">
        <ele>1726.46425</ele>
      </trkpt>
      <trkpt lat="47.40488" lon="12.700685">
        <ele>1721.60516</ele>
      </trkpt>
      <trkpt lat="47.40494" lon="12.700759">
        <ele>1719.31188</ele>
      </trkpt>
      <trkpt lat="47.404983" lon="12.700837">
        <ele>1718.39011</ele>
      </trkpt>
      <trkpt lat="47.405097" lon="12.70117">
        <ele>1717.06385</ele>
      </trkpt>
      <trkpt lat="47.405406" lon="12.701801">
        <ele>1718.01463</ele>
      </trkpt>
      <trkpt lat="47.40581" lon="12.702439">
        <ele>1717.69529</ele>
      </trkpt>
      <trkpt lat="47.405865" lon="12.702488">
        <ele>1717.47285</ele>
      </trkpt>
      <trkpt lat="47.405979" lon="12.702544">
        <ele>1717.53742</ele>
      </trkpt>
      <trkpt lat="47.406114" lon="12.70256">
        <ele>1716.77576</ele>
      </trkpt>
      <trkpt lat="47.406344" lon="12.702663">
        <ele>1717.50999</ele>
      </trkpt>
      <trkpt lat="47.406501" lon="12.70279">
        <ele>1717.77806</ele>
      </trkpt>
      <trkpt lat="47.40688" lon="12.703057">
        <ele>1718.30216</ele>
      </trkpt>
      <trkpt lat="47.406963" lon="12.703156">
        <ele>1718.1895</ele>
      </trkpt>
      <trkpt lat="47.407031" lon="12.703301">
        <ele>1719.74294</ele>
      </trkpt>
      <trkpt lat="47.407214" lon="12.703759">
        <ele>1730.28203</ele>
      </trkpt>
      <trkpt lat="47.407532" lon="12.704599">
        <ele>1735.12865</ele>
      </trkpt>
      <trkpt lat="47.407554" lon="12.704729">
        <ele>1735.9052</ele>
      </trkpt>
      <trkpt lat="47.407554" lon="12.70541">
        <ele>1739.70728</ele>
      </trkpt>
      <trkpt lat="47.407576" lon="12.70561">
        <ele>1739.36494</ele>
      </trkpt>
      <trkpt lat="47.407589" lon="12.705909">
        <ele>1740.03228</ele>
      </trkpt>
      <trkpt lat="47.407618" lon="12.706108">
        <ele>1740.84341</ele>
      </trkpt>
      <trkpt lat="47.407679" lon="12.70642">
        <ele>1743.20369</ele>
      </trkpt>
      <trkpt lat="47.407807" lon="12.706864">
        <ele>1746.14941</ele>
      </trkpt>
      <trkpt lat="47.407839" lon="12.707005">
        <ele>1746.69732</ele>
      </trkpt>
      <trkpt lat="47.407853" lon="12.707169">
        <ele>1747.82945</ele>
      </trkpt>
      <trkpt lat="47.407848" lon="12.707304">
        <ele>1748.69055</ele>
      </trkpt>
      <trkpt lat="47.40786" lon="12.707395">
        <ele>1748.58543</ele>
      </trkpt>
      <trkpt lat="47.407941" lon="12.707679">
        <ele>1749.35188</ele>
      </trkpt>
      <trkpt lat="47.407975" lon="12.707933">
        <ele>1752.00576</ele>
      </trkpt>
      <trkpt lat="47.408125" lon="12.708275">
        <ele>1752.36214</ele>
      </trkpt>
      <trkpt lat="47.408197" lon="12.708392">
        <ele>1753.12851</ele>
      </trkpt>
      <trkpt lat="47.408445" lon="12.708729">
        <ele>1754.4018</ele>
      </trkpt>
      <trkpt lat="47.408597" lon="12.708957">
        <ele>1756.47325</ele>
      </trkpt>
      <trkpt lat="47.408692" lon="12.709251">
        <ele>1759.45199</ele>
      </trkpt>
      <trkpt lat="47.408769" lon="12.709372">
        <ele>1760.73218</ele>
      </trkpt>
      <trkpt lat="47.408849" lon="12.709459">
        <ele>1761.98677</ele>
      </trkpt>
      <trkpt lat="47.408994" lon="12.709714">
        <ele>1765.5408</ele>
      </trkpt>
      <trkpt lat="47.4092" lon="12.710492">
        <ele>1771.01169</ele>
      </trkpt>
      <trkpt lat="47.409238" lon="12.71066">
        <ele>1772.58189</ele>
      </trkpt>
      <trkpt lat="47.409312" lon="12.711152">
        <ele>1771.12166</ele>
      </trkpt>
      <trkpt lat="47.409367" lon="12.711604">
        <ele>1772.92554</ele>
      </trkpt>
    </trkseg>
  </trk>
</gpx>