<?xml version="1.0" encoding="UTF-8" standalone="no"?>
<gpx version="1.1" creator="Trailforks.com" xmlns="http://www.topografix.com/GPX/1/1" xmlns:xsi="http://www.w3.org/2001/XMLSchema-instance" xsi:schemaLocation="http://www.topografix.com/GPX/1/1 http://www.topografix.com/GPX/1/1/gpx.xsd">
<metadata>
<name>von%20May%2030%2C%202025 Trailforks ridelog</name>
<link href="https://www.trailforks.com/ridelog/view/92179183/">
<text>Trailforks</text>
</link>
</metadata>
<trk><name>
von%20May%2030%2C%202025
</name><trkseg><trkpt lat="49.55949" lon="7.90893">
<ele>0</ele>
<time>2025-12-18T09:30:19.266Z</time>
</trkpt>
<trkpt lat="49.5596" lon="7.90875">
<ele>0</ele>
<time>2025-12-18T09:30:20.266Z</time>
</trkpt>
<trkpt lat="49.55968" lon="7.90872">
<ele>0</ele>
<time>2025-12-18T09:30:21.266Z</time>
</trkpt>
<trkpt lat="49.55972" lon="7.90861">
<ele>0</ele>
<time>2025-12-18T09:30:22.266Z</time>
</trkpt>
<trkpt lat="49.5597" lon="7.90856">
<ele>0</ele>
<time>2025-12-18T09:30:23.266Z</time>
</trkpt>
<trkpt lat="49.55962" lon="7.9085">
<ele>0</ele>
<time>2025-12-18T09:30:24.266Z</time>
</trkpt>
<trkpt lat="49.55963" lon="7.90843">
<ele>0</ele>
<time>2025-12-18T09:30:25.266Z</time>
</trkpt>
<trkpt lat="49.55965" lon="7.90843">
<ele>0</ele>
<time>2025-12-18T09:30:26.266Z</time>
</trkpt>
<trkpt lat="49.5596" lon="7.90831">
<ele>0</ele>
<time>2025-12-18T09:30:27.266Z</time>
</trkpt>
<trkpt lat="49.5597" lon="7.90822">
<ele>0</ele>
<time>2025-12-18T09:30:28.266Z</time>
</trkpt>
<trkpt lat="49.55973" lon="7.90818">
<ele>0</ele>
<time>2025-12-18T09:30:29.266Z</time>
</trkpt>
<trkpt lat="49.55974" lon="7.90811">
<ele>0</ele>
<time>2025-12-18T09:30:30.266Z</time>
</trkpt>
<trkpt lat="49.55972" lon="7.90802">
<ele>0</ele>
<time>2025-12-18T09:30:31.266Z</time>
</trkpt>
<trkpt lat="49.55972" lon="7.90793">
<ele>0</ele>
<time>2025-12-18T09:30:32.266Z</time>
</trkpt>
<trkpt lat="49.55976" lon="7.90782">
<ele>0</ele>
<time>2025-12-18T09:30:33.266Z</time>
</trkpt>
<trkpt lat="49.55966" lon="7.90775">
<ele>0</ele>
<time>2025-12-18T09:30:34.266Z</time>
</trkpt>
<trkpt lat="49.55964" lon="7.90769">
<ele>0</ele>
<time>2025-12-18T09:30:35.266Z</time>
</trkpt>
<trkpt lat="49.55966" lon="7.90757">
<ele>0</ele>
<time>2025-12-18T09:30:36.266Z</time>
</trkpt>
<trkpt lat="49.5597" lon="7.90754">
<ele>0</ele>
<time>2025-12-18T09:30:37.266Z</time>
</trkpt>
<trkpt lat="49.55974" lon="7.90746">
<ele>0</ele>
<time>2025-12-18T09:30:38.266Z</time>
</trkpt>
<trkpt lat="49.55975" lon="7.9074">
<ele>0</ele>
<time>2025-12-18T09:30:39.266Z</time>
</trkpt>
<trkpt lat="49.5597" lon="7.90731">
<ele>0</ele>
<time>2025-12-18T09:30:40.266Z</time>
</trkpt>
<trkpt lat="49.55969" lon="7.90725">
<ele>0</ele>
<time>2025-12-18T09:30:41.266Z</time>
</trkpt>
<trkpt lat="49.55965" lon="7.90718">
<ele>0</ele>
<time>2025-12-18T09:30:42.266Z</time>
</trkpt>
<trkpt lat="49.55969" lon="7.907">
<ele>0</ele>
<time>2025-12-18T09:30:43.266Z</time>
</trkpt>
<trkpt lat="49.55967" lon="7.90684">
<ele>0</ele>
<time>2025-12-18T09:30:44.266Z</time>
</trkpt>
<trkpt lat="49.55962" lon="7.90678">
<ele>0</ele>
<time>2025-12-18T09:30:45.266Z</time>
</trkpt>
<trkpt lat="49.55963" lon="7.90672">
<ele>0</ele>
<time>2025-12-18T09:30:46.266Z</time>
</trkpt>
<trkpt lat="49.55961" lon="7.90656">
<ele>0</ele>
<time>2025-12-18T09:30:47.266Z</time>
</trkpt>
<trkpt lat="49.55958" lon="7.90641">
<ele>0</ele>
<time>2025-12-18T09:30:48.266Z</time>
</trkpt>
<trkpt lat="49.55959" lon="7.90635">
<ele>0</ele>
<time>2025-12-18T09:30:49.266Z</time>
</trkpt>
<trkpt lat="49.55967" lon="7.90611">
<ele>0</ele>
<time>2025-12-18T09:30:50.266Z</time>
</trkpt>
<trkpt lat="49.55966" lon="7.90605">
<ele>0</ele>
<time>2025-12-18T09:30:51.266Z</time>
</trkpt>
<trkpt lat="49.55961" lon="7.90594">
<ele>0</ele>
<time>2025-12-18T09:30:52.266Z</time>
</trkpt>
<trkpt lat="49.55962" lon="7.90592">
<ele>0</ele>
<time>2025-12-18T09:30:53.266Z</time>
</trkpt>
<trkpt lat="49.55962" lon="7.90571">
<ele>0</ele>
<time>2025-12-18T09:30:54.266Z</time>
</trkpt>
<trkpt lat="49.55959" lon="7.90555">
<ele>0</ele>
<time>2025-12-18T09:30:55.266Z</time>
</trkpt>
<trkpt lat="49.55959" lon="7.90532">
<ele>0</ele>
<time>2025-12-18T09:30:56.266Z</time>
</trkpt>
<trkpt lat="49.55957" lon="7.90531">
<ele>0</ele>
<time>2025-12-18T09:30:57.266Z</time>
</trkpt>
<trkpt lat="49.55954" lon="7.90515">
<ele>0</ele>
<time>2025-12-18T09:30:58.266Z</time>
</trkpt>
<trkpt lat="49.55954" lon="7.90487">
<ele>0</ele>
<time>2025-12-18T09:30:59.266Z</time>
</trkpt>
<trkpt lat="49.55951" lon="7.9048">
<ele>0</ele>
<time>2025-12-18T09:31:00.266Z</time>
</trkpt>
<trkpt lat="49.55949" lon="7.90485">
<ele>0</ele>
<time>2025-12-18T09:31:01.266Z</time>
</trkpt>
<trkpt lat="49.5595" lon="7.90501">
<ele>0</ele>
<time>2025-12-18T09:31:02.266Z</time>
</trkpt>
<trkpt lat="49.55946" lon="7.90522">
<ele>0</ele>
<time>2025-12-18T09:31:03.266Z</time>
</trkpt>
</trkseg>
</trk>
</gpx>