<?xml version="1.0" encoding="UTF-8" standalone="no"?>
<gpx version="1.1" creator="Trailforks.com" xmlns="http://www.topografix.com/GPX/1/1" xmlns:xsi="http://www.w3.org/2001/XMLSchema-instance" xsi:schemaLocation="http://www.topografix.com/GPX/1/1 http://www.topografix.com/GPX/1/1/gpx.xsd">
<metadata>
<name>Schlossberg%20Trail%20(MTB%20Donnersberger%20Land) Trailforks trail</name>
<link href="https://www.trailforks.com/trails/schlossberg-trail-mtb-donnersberger-land/">
<text>Trailforks</text>
</link>
</metadata>
<trk><name>
Schlossberg%20Trail%20(MTB%20Donnersberger%20Land)
</name><trkseg><trkpt lat="49.54973" lon="7.9161">
<ele>0</ele>
<time>2025-12-18T09:30:49.528Z</time>
</trkpt>
<trkpt lat="49.54971" lon="7.91605">
<ele>0</ele>
<time>2025-12-18T09:30:50.528Z</time>
</trkpt>
<trkpt lat="49.5497" lon="7.91602">
<ele>0</ele>
<time>2025-12-18T09:30:51.528Z</time>
</trkpt>
<trkpt lat="49.54969" lon="7.91597">
<ele>0</ele>
<time>2025-12-18T09:30:52.528Z</time>
</trkpt>
<trkpt lat="49.54969" lon="7.91592">
<ele>0</ele>
<time>2025-12-18T09:30:53.528Z</time>
</trkpt>
<trkpt lat="49.5497" lon="7.91587">
<ele>0</ele>
<time>2025-12-18T09:30:54.528Z</time>
</trkpt>
<trkpt lat="49.5497" lon="7.91582">
<ele>0</ele>
<time>2025-12-18T09:30:55.528Z</time>
</trkpt>
<trkpt lat="49.5497" lon="7.91577">
<ele>0</ele>
<time>2025-12-18T09:30:56.528Z</time>
</trkpt>
<trkpt lat="49.5497" lon="7.91573">
<ele>0</ele>
<time>2025-12-18T09:30:57.528Z</time>
</trkpt>
<trkpt lat="49.54971" lon="7.91568">
<ele>0</ele>
<time>2025-12-18T09:30:58.528Z</time>
</trkpt>
<trkpt lat="49.54971" lon="7.91564">
<ele>0</ele>
<time>2025-12-18T09:30:59.528Z</time>
</trkpt>
<trkpt lat="49.54968" lon="7.9156">
<ele>0</ele>
<time>2025-12-18T09:31:00.528Z</time>
</trkpt>
<trkpt lat="49.54965" lon="7.91558">
<ele>0</ele>
<time>2025-12-18T09:31:01.528Z</time>
</trkpt>
<trkpt lat="49.54962" lon="7.91555">
<ele>0</ele>
<time>2025-12-18T09:31:02.528Z</time>
</trkpt>
<trkpt lat="49.54959" lon="7.91552">
<ele>0</ele>
<time>2025-12-18T09:31:03.528Z</time>
</trkpt>
<trkpt lat="49.54956" lon="7.9155">
<ele>0</ele>
<time>2025-12-18T09:31:04.528Z</time>
</trkpt>
<trkpt lat="49.54952" lon="7.91546">
<ele>0</ele>
<time>2025-12-18T09:31:05.528Z</time>
</trkpt>
<trkpt lat="49.54949" lon="7.91544">
<ele>0</ele>
<time>2025-12-18T09:31:06.528Z</time>
</trkpt>
<trkpt lat="49.54946" lon="7.9154">
<ele>0</ele>
<time>2025-12-18T09:31:07.528Z</time>
</trkpt>
<trkpt lat="49.54944" lon="7.91536">
<ele>0</ele>
<time>2025-12-18T09:31:08.528Z</time>
</trkpt>
<trkpt lat="49.54943" lon="7.91531">
<ele>0</ele>
<time>2025-12-18T09:31:09.528Z</time>
</trkpt>
<trkpt lat="49.54943" lon="7.91527">
<ele>0</ele>
<time>2025-12-18T09:31:10.528Z</time>
</trkpt>
<trkpt lat="49.54942" lon="7.91523">
<ele>0</ele>
<time>2025-12-18T09:31:11.528Z</time>
</trkpt>
<trkpt lat="49.54943" lon="7.91518">
<ele>0</ele>
<time>2025-12-18T09:31:12.528Z</time>
</trkpt>
<trkpt lat="49.54943" lon="7.91513">
<ele>0</ele>
<time>2025-12-18T09:31:13.528Z</time>
</trkpt>
<trkpt lat="49.54944" lon="7.91508">
<ele>0</ele>
<time>2025-12-18T09:31:14.528Z</time>
</trkpt>
<trkpt lat="49.54944" lon="7.91504">
<ele>0</ele>
<time>2025-12-18T09:31:15.528Z</time>
</trkpt>
<trkpt lat="49.54945" lon="7.91499">
<ele>0</ele>
<time>2025-12-18T09:31:16.528Z</time>
</trkpt>
<trkpt lat="49.54945" lon="7.91494">
<ele>0</ele>
<time>2025-12-18T09:31:17.528Z</time>
</trkpt>
<trkpt lat="49.54946" lon="7.91489">
<ele>0</ele>
<time>2025-12-18T09:31:18.528Z</time>
</trkpt>
<trkpt lat="49.54946" lon="7.91484">
<ele>0</ele>
<time>2025-12-18T09:31:19.528Z</time>
</trkpt>
<trkpt lat="49.54946" lon="7.9148">
<ele>0</ele>
<time>2025-12-18T09:31:20.528Z</time>
</trkpt>
<trkpt lat="49.54947" lon="7.91476">
<ele>0</ele>
<time>2025-12-18T09:31:21.528Z</time>
</trkpt>
<trkpt lat="49.54947" lon="7.91472">
<ele>0</ele>
<time>2025-12-18T09:31:22.528Z</time>
</trkpt>
<trkpt lat="49.54948" lon="7.91467">
<ele>0</ele>
<time>2025-12-18T09:31:23.528Z</time>
</trkpt>
<trkpt lat="49.54947" lon="7.91463">
<ele>0</ele>
<time>2025-12-18T09:31:24.528Z</time>
</trkpt>
<trkpt lat="49.54946" lon="7.91459">
<ele>0</ele>
<time>2025-12-18T09:31:25.528Z</time>
</trkpt>
<trkpt lat="49.54945" lon="7.91455">
<ele>0</ele>
<time>2025-12-18T09:31:26.528Z</time>
</trkpt>
<trkpt lat="49.54944" lon="7.91452">
<ele>0</ele>
<time>2025-12-18T09:31:27.528Z</time>
</trkpt>
<trkpt lat="49.54943" lon="7.91448">
<ele>0</ele>
<time>2025-12-18T09:31:28.528Z</time>
</trkpt>
<trkpt lat="49.54942" lon="7.91444">
<ele>0</ele>
<time>2025-12-18T09:31:29.528Z</time>
</trkpt>
<trkpt lat="49.54941" lon="7.9144">
<ele>0</ele>
<time>2025-12-18T09:31:30.528Z</time>
</trkpt>
<trkpt lat="49.54939" lon="7.91436">
<ele>0</ele>
<time>2025-12-18T09:31:31.528Z</time>
</trkpt>
<trkpt lat="49.5494" lon="7.91432">
<ele>0</ele>
<time>2025-12-18T09:31:32.528Z</time>
</trkpt>
<trkpt lat="49.5494" lon="7.91427">
<ele>0</ele>
<time>2025-12-18T09:31:33.528Z</time>
</trkpt>
<trkpt lat="49.54941" lon="7.91423">
<ele>0</ele>
<time>2025-12-18T09:31:34.528Z</time>
</trkpt>
<trkpt lat="49.54942" lon="7.91418">
<ele>0</ele>
<time>2025-12-18T09:31:35.528Z</time>
</trkpt>
<trkpt lat="49.54943" lon="7.91414">
<ele>0</ele>
<time>2025-12-18T09:31:36.528Z</time>
</trkpt>
<trkpt lat="49.54943" lon="7.91409">
<ele>0</ele>
<time>2025-12-18T09:31:37.528Z</time>
</trkpt>
<trkpt lat="49.54944" lon="7.91404">
<ele>0</ele>
<time>2025-12-18T09:31:38.528Z</time>
</trkpt>
<trkpt lat="49.54945" lon="7.914">
<ele>0</ele>
<time>2025-12-18T09:31:39.528Z</time>
</trkpt>
<trkpt lat="49.54941" lon="7.91402">
<ele>0</ele>
<time>2025-12-18T09:31:40.528Z</time>
</trkpt>
<trkpt lat="49.54936" lon="7.91404">
<ele>0</ele>
<time>2025-12-18T09:31:41.528Z</time>
</trkpt>
<trkpt lat="49.54934" lon="7.91401">
<ele>0</ele>
<time>2025-12-18T09:31:42.528Z</time>
</trkpt>
<trkpt lat="49.54933" lon="7.91397">
<ele>0</ele>
<time>2025-12-18T09:31:43.528Z</time>
</trkpt>
<trkpt lat="49.54934" lon="7.91393">
<ele>0</ele>
<time>2025-12-18T09:31:44.528Z</time>
</trkpt>
<trkpt lat="49.54934" lon="7.91388">
<ele>0</ele>
<time>2025-12-18T09:31:45.528Z</time>
</trkpt>
<trkpt lat="49.54935" lon="7.91384">
<ele>0</ele>
<time>2025-12-18T09:31:46.528Z</time>
</trkpt>
<trkpt lat="49.54934" lon="7.9138">
<ele>0</ele>
<time>2025-12-18T09:31:47.528Z</time>
</trkpt>
<trkpt lat="49.54933" lon="7.91375">
<ele>0</ele>
<time>2025-12-18T09:31:48.528Z</time>
</trkpt>
<trkpt lat="49.54932" lon="7.9137">
<ele>0</ele>
<time>2025-12-18T09:31:49.528Z</time>
</trkpt>
<trkpt lat="49.54931" lon="7.91366">
<ele>0</ele>
<time>2025-12-18T09:31:50.528Z</time>
</trkpt>
<trkpt lat="49.54932" lon="7.91362">
<ele>0</ele>
<time>2025-12-18T09:31:51.528Z</time>
</trkpt>
<trkpt lat="49.54933" lon="7.91358">
<ele>0</ele>
<time>2025-12-18T09:31:52.528Z</time>
</trkpt>
<trkpt lat="49.54934" lon="7.91354">
<ele>0</ele>
<time>2025-12-18T09:31:53.528Z</time>
</trkpt>
<trkpt lat="49.54935" lon="7.91351">
<ele>0</ele>
<time>2025-12-18T09:31:54.528Z</time>
</trkpt>
<trkpt lat="49.54935" lon="7.91346">
<ele>0</ele>
<time>2025-12-18T09:31:55.528Z</time>
</trkpt>
<trkpt lat="49.54933" lon="7.91342">
<ele>0</ele>
<time>2025-12-18T09:31:56.528Z</time>
</trkpt>
<trkpt lat="49.5493" lon="7.91338">
<ele>0</ele>
<time>2025-12-18T09:31:57.528Z</time>
</trkpt>
<trkpt lat="49.54928" lon="7.91334">
<ele>0</ele>
<time>2025-12-18T09:31:58.528Z</time>
</trkpt>
<trkpt lat="49.54926" lon="7.9133">
<ele>0</ele>
<time>2025-12-18T09:31:59.528Z</time>
</trkpt>
<trkpt lat="49.54923" lon="7.91326">
<ele>0</ele>
<time>2025-12-18T09:32:00.528Z</time>
</trkpt>
<trkpt lat="49.54922" lon="7.91321">
<ele>0</ele>
<time>2025-12-18T09:32:01.528Z</time>
</trkpt>
<trkpt lat="49.54922" lon="7.91317">
<ele>0</ele>
<time>2025-12-18T09:32:02.528Z</time>
</trkpt>
<trkpt lat="49.54922" lon="7.91313">
<ele>0</ele>
<time>2025-12-18T09:32:03.528Z</time>
</trkpt>
<trkpt lat="49.54922" lon="7.91309">
<ele>0</ele>
<time>2025-12-18T09:32:04.528Z</time>
</trkpt>
<trkpt lat="49.54922" lon="7.91305">
<ele>0</ele>
<time>2025-12-18T09:32:05.528Z</time>
</trkpt>
<trkpt lat="49.54922" lon="7.91301">
<ele>0</ele>
<time>2025-12-18T09:32:06.528Z</time>
</trkpt>
<trkpt lat="49.54922" lon="7.91297">
<ele>0</ele>
<time>2025-12-18T09:32:07.528Z</time>
</trkpt>
<trkpt lat="49.54922" lon="7.91293">
<ele>0</ele>
<time>2025-12-18T09:32:08.528Z</time>
</trkpt>
<trkpt lat="49.54922" lon="7.91289">
<ele>0</ele>
<time>2025-12-18T09:32:09.528Z</time>
</trkpt>
<trkpt lat="49.54922" lon="7.91285">
<ele>0</ele>
<time>2025-12-18T09:32:10.528Z</time>
</trkpt>
<trkpt lat="49.54922" lon="7.91281">
<ele>0</ele>
<time>2025-12-18T09:32:11.528Z</time>
</trkpt>
<trkpt lat="49.54921" lon="7.91276">
<ele>0</ele>
<time>2025-12-18T09:32:12.528Z</time>
</trkpt>
<trkpt lat="49.5492" lon="7.91271">
<ele>0</ele>
<time>2025-12-18T09:32:13.528Z</time>
</trkpt>
<trkpt lat="49.54919" lon="7.91267">
<ele>0</ele>
<time>2025-12-18T09:32:14.528Z</time>
</trkpt>
<trkpt lat="49.54917" lon="7.91263">
<ele>0</ele>
<time>2025-12-18T09:32:15.528Z</time>
</trkpt>
<trkpt lat="49.54916" lon="7.91259">
<ele>0</ele>
<time>2025-12-18T09:32:16.528Z</time>
</trkpt>
<trkpt lat="49.54915" lon="7.91255">
<ele>0</ele>
<time>2025-12-18T09:32:17.528Z</time>
</trkpt>
<trkpt lat="49.54914" lon="7.91251">
<ele>0</ele>
<time>2025-12-18T09:32:18.528Z</time>
</trkpt>
<trkpt lat="49.54913" lon="7.91247">
<ele>0</ele>
<time>2025-12-18T09:32:19.528Z</time>
</trkpt>
<trkpt lat="49.54912" lon="7.91243">
<ele>0</ele>
<time>2025-12-18T09:32:20.528Z</time>
</trkpt>
<trkpt lat="49.54911" lon="7.9124">
<ele>0</ele>
<time>2025-12-18T09:32:21.528Z</time>
</trkpt>
<trkpt lat="49.5491" lon="7.91236">
<ele>0</ele>
<time>2025-12-18T09:32:22.528Z</time>
</trkpt>
<trkpt lat="49.54909" lon="7.91232">
<ele>0</ele>
<time>2025-12-18T09:32:23.528Z</time>
</trkpt>
<trkpt lat="49.54908" lon="7.91228">
<ele>0</ele>
<time>2025-12-18T09:32:24.528Z</time>
</trkpt>
<trkpt lat="49.54906" lon="7.91223">
<ele>0</ele>
<time>2025-12-18T09:32:25.528Z</time>
</trkpt>
<trkpt lat="49.54905" lon="7.91219">
<ele>0</ele>
<time>2025-12-18T09:32:26.528Z</time>
</trkpt>
<trkpt lat="49.54904" lon="7.91214">
<ele>0</ele>
<time>2025-12-18T09:32:27.528Z</time>
</trkpt>
<trkpt lat="49.54903" lon="7.9121">
<ele>0</ele>
<time>2025-12-18T09:32:28.528Z</time>
</trkpt>
<trkpt lat="49.54902" lon="7.91205">
<ele>0</ele>
<time>2025-12-18T09:32:29.528Z</time>
</trkpt>
<trkpt lat="49.54901" lon="7.91201">
<ele>0</ele>
<time>2025-12-18T09:32:30.528Z</time>
</trkpt>
<trkpt lat="49.54901" lon="7.91196">
<ele>0</ele>
<time>2025-12-18T09:32:31.528Z</time>
</trkpt>
<trkpt lat="49.549" lon="7.91192">
<ele>0</ele>
<time>2025-12-18T09:32:32.528Z</time>
</trkpt>
<trkpt lat="49.54899" lon="7.91187">
<ele>0</ele>
<time>2025-12-18T09:32:33.528Z</time>
</trkpt>
<trkpt lat="49.549" lon="7.91183">
<ele>0</ele>
<time>2025-12-18T09:32:34.528Z</time>
</trkpt>
<trkpt lat="49.54901" lon="7.91178">
<ele>0</ele>
<time>2025-12-18T09:32:35.528Z</time>
</trkpt>
<trkpt lat="49.54902" lon="7.91173">
<ele>0</ele>
<time>2025-12-18T09:32:36.528Z</time>
</trkpt>
<trkpt lat="49.54903" lon="7.91168">
<ele>0</ele>
<time>2025-12-18T09:32:37.528Z</time>
</trkpt>
<trkpt lat="49.54904" lon="7.91164">
<ele>0</ele>
<time>2025-12-18T09:32:38.528Z</time>
</trkpt>
<trkpt lat="49.54904" lon="7.9116">
<ele>0</ele>
<time>2025-12-18T09:32:39.528Z</time>
</trkpt>
<trkpt lat="49.549" lon="7.91156">
<ele>0</ele>
<time>2025-12-18T09:32:40.528Z</time>
</trkpt>
<trkpt lat="49.54897" lon="7.91153">
<ele>0</ele>
<time>2025-12-18T09:32:41.528Z</time>
</trkpt>
<trkpt lat="49.54895" lon="7.91148">
<ele>0</ele>
<time>2025-12-18T09:32:42.528Z</time>
</trkpt>
<trkpt lat="49.54896" lon="7.91144">
<ele>0</ele>
<time>2025-12-18T09:32:43.528Z</time>
</trkpt>
<trkpt lat="49.54896" lon="7.9114">
<ele>0</ele>
<time>2025-12-18T09:32:44.528Z</time>
</trkpt>
<trkpt lat="49.54897" lon="7.91136">
<ele>0</ele>
<time>2025-12-18T09:32:45.528Z</time>
</trkpt>
<trkpt lat="49.54893" lon="7.91133">
<ele>0</ele>
<time>2025-12-18T09:32:46.528Z</time>
</trkpt>
<trkpt lat="49.5489" lon="7.91129">
<ele>0</ele>
<time>2025-12-18T09:32:47.528Z</time>
</trkpt>
<trkpt lat="49.54887" lon="7.91125">
<ele>0</ele>
<time>2025-12-18T09:32:48.528Z</time>
</trkpt>
<trkpt lat="49.54886" lon="7.9112">
<ele>0</ele>
<time>2025-12-18T09:32:49.528Z</time>
</trkpt>
<trkpt lat="49.54885" lon="7.91116">
<ele>0</ele>
<time>2025-12-18T09:32:50.528Z</time>
</trkpt>
<trkpt lat="49.54884" lon="7.91113">
<ele>0</ele>
<time>2025-12-18T09:32:51.528Z</time>
</trkpt>
<trkpt lat="49.5488" lon="7.91109">
<ele>0</ele>
<time>2025-12-18T09:32:52.528Z</time>
</trkpt>
<trkpt lat="49.54877" lon="7.91106">
<ele>0</ele>
<time>2025-12-18T09:32:53.528Z</time>
</trkpt>
<trkpt lat="49.54874" lon="7.91103">
<ele>0</ele>
<time>2025-12-18T09:32:54.528Z</time>
</trkpt>
<trkpt lat="49.54871" lon="7.91099">
<ele>0</ele>
<time>2025-12-18T09:32:55.528Z</time>
</trkpt>
<trkpt lat="49.5487" lon="7.91095">
<ele>0</ele>
<time>2025-12-18T09:32:56.528Z</time>
</trkpt>
<trkpt lat="49.54869" lon="7.91092">
<ele>0</ele>
<time>2025-12-18T09:32:57.528Z</time>
</trkpt>
<trkpt lat="49.54867" lon="7.91088">
<ele>0</ele>
<time>2025-12-18T09:32:58.528Z</time>
</trkpt>
<trkpt lat="49.54866" lon="7.91084">
<ele>0</ele>
<time>2025-12-18T09:32:59.528Z</time>
</trkpt>
<trkpt lat="49.54865" lon="7.9108">
<ele>0</ele>
<time>2025-12-18T09:33:00.528Z</time>
</trkpt>
<trkpt lat="49.54863" lon="7.91076">
<ele>0</ele>
<time>2025-12-18T09:33:01.528Z</time>
</trkpt>
<trkpt lat="49.54862" lon="7.91073">
<ele>0</ele>
<time>2025-12-18T09:33:02.528Z</time>
</trkpt>
<trkpt lat="49.54861" lon="7.91069">
<ele>0</ele>
<time>2025-12-18T09:33:03.528Z</time>
</trkpt>
<trkpt lat="49.54859" lon="7.91064">
<ele>0</ele>
<time>2025-12-18T09:33:04.528Z</time>
</trkpt>
<trkpt lat="49.54858" lon="7.9106">
<ele>0</ele>
<time>2025-12-18T09:33:05.528Z</time>
</trkpt>
<trkpt lat="49.54856" lon="7.91056">
<ele>0</ele>
<time>2025-12-18T09:33:06.528Z</time>
</trkpt>
<trkpt lat="49.54855" lon="7.91052">
<ele>0</ele>
<time>2025-12-18T09:33:07.528Z</time>
</trkpt>
<trkpt lat="49.54852" lon="7.91048">
<ele>0</ele>
<time>2025-12-18T09:33:08.528Z</time>
</trkpt>
<trkpt lat="49.54848" lon="7.91045">
<ele>0</ele>
<time>2025-12-18T09:33:09.528Z</time>
</trkpt>
<trkpt lat="49.54844" lon="7.91041">
<ele>0</ele>
<time>2025-12-18T09:33:10.528Z</time>
</trkpt>
<trkpt lat="49.54841" lon="7.91039">
<ele>0</ele>
<time>2025-12-18T09:33:11.528Z</time>
</trkpt>
<trkpt lat="49.54838" lon="7.91035">
<ele>0</ele>
<time>2025-12-18T09:33:12.528Z</time>
</trkpt>
<trkpt lat="49.54833" lon="7.91033">
<ele>0</ele>
<time>2025-12-18T09:33:13.528Z</time>
</trkpt>
<trkpt lat="49.54829" lon="7.91035">
<ele>0</ele>
<time>2025-12-18T09:33:14.528Z</time>
</trkpt>
<trkpt lat="49.54826" lon="7.91038">
<ele>0</ele>
<time>2025-12-18T09:33:15.528Z</time>
</trkpt>
<trkpt lat="49.54821" lon="7.9104">
<ele>0</ele>
<time>2025-12-18T09:33:16.528Z</time>
</trkpt>
<trkpt lat="49.54813" lon="7.91043">
<ele>0</ele>
<time>2025-12-18T09:33:17.528Z</time>
</trkpt>
</trkseg>
</trk>
</gpx>