<?xml version="1.0" encoding="utf-8"?>
		<gpx xmlns="http://www.topografix.com/GPX/1/1" xmlns:xsd="http://www.w3.org/2001/XMLSchema" xmlns:xsi="http://www.w3.org/2001/XMLSchema-instance" version="1.1" creator="Fugawi 4,5,14,1696 http://www.fugawi.com/" xsi:schemaLocation="http://www.topografix.com/GPX/1/1 http://www.topografix.com/GPX/1/1/gpx.xsd">
			<trk>
				<name>3-Länder Trail</name>
				<desc></desc>
				<trkseg>
					<trkpt lat="46.85234" lon="10.48461"><ele>2014</ele></trkpt>
<trkpt lat="46.85262" lon="10.48477"><ele>2009</ele></trkpt>
<trkpt lat="46.85272" lon="10.48481"><ele>2007</ele></trkpt>
<trkpt lat="46.85286" lon="10.48471"><ele>2009</ele></trkpt>
<trkpt lat="46.85299" lon="10.48473"><ele>2009</ele></trkpt>
<trkpt lat="46.8532" lon="10.48486"><ele>2008</ele></trkpt>
<trkpt lat="46.85342" lon="10.48513"><ele>2006</ele></trkpt>
<trkpt lat="46.8536" lon="10.48522"><ele>2006</ele></trkpt>
<trkpt lat="46.85383" lon="10.48535"><ele>2004</ele></trkpt>
<trkpt lat="46.85401" lon="10.48546"><ele>2004</ele></trkpt>
<trkpt lat="46.85412" lon="10.48557"><ele>2004</ele></trkpt>
<trkpt lat="46.8542" lon="10.48559"><ele>2004</ele></trkpt>
<trkpt lat="46.85444" lon="10.48553"><ele>2003</ele></trkpt>
<trkpt lat="46.85455" lon="10.48556"><ele>2002</ele></trkpt>
<trkpt lat="46.85474" lon="10.4857"><ele>2001</ele></trkpt>
<trkpt lat="46.85486" lon="10.48579"><ele>2000</ele></trkpt>
<trkpt lat="46.85507" lon="10.48576"><ele>1997</ele></trkpt>
<trkpt lat="46.85533" lon="10.48574"><ele>1995</ele></trkpt>
<trkpt lat="46.85544" lon="10.48576"><ele>1993</ele></trkpt>
<trkpt lat="46.85555" lon="10.48585"><ele>1992</ele></trkpt>
<trkpt lat="46.85568" lon="10.4861"><ele>1989</ele></trkpt>
<trkpt lat="46.85577" lon="10.48624"><ele>1986</ele></trkpt>
<trkpt lat="46.85595" lon="10.48633"><ele>1983</ele></trkpt>
<trkpt lat="46.85612" lon="10.48625"><ele>1981</ele></trkpt>
<trkpt lat="46.85623" lon="10.48627"><ele>1979</ele></trkpt>
<trkpt lat="46.85636" lon="10.48643"><ele>1974</ele></trkpt>
<trkpt lat="46.8565" lon="10.48654"><ele>1971</ele></trkpt>
<trkpt lat="46.85658" lon="10.4865"><ele>1970</ele></trkpt>
<trkpt lat="46.85675" lon="10.48624"><ele>1968</ele></trkpt>
<trkpt lat="46.85726" lon="10.48566"><ele>1957</ele></trkpt>
<trkpt lat="46.85754" lon="10.48537"><ele>1954</ele></trkpt>
<trkpt lat="46.85778" lon="10.48506"><ele>1950</ele></trkpt>
<trkpt lat="46.8579" lon="10.48479"><ele>1949</ele></trkpt>
<trkpt lat="46.85843" lon="10.48438"><ele>1938</ele></trkpt>
<trkpt lat="46.85876" lon="10.48434"><ele>1928</ele></trkpt>
<trkpt lat="46.85912" lon="10.48399"><ele>1919</ele></trkpt>
<trkpt lat="46.8596" lon="10.4837"><ele>1913</ele></trkpt>
<trkpt lat="46.85996" lon="10.48354"><ele>1911</ele></trkpt>
<trkpt lat="46.8603" lon="10.48353"><ele>1908</ele></trkpt>
<trkpt lat="46.86041" lon="10.48362"><ele>1906</ele></trkpt>
<trkpt lat="46.86077" lon="10.4837"><ele>1907</ele></trkpt>
<trkpt lat="46.86118" lon="10.48384"><ele>1905</ele></trkpt>
<trkpt lat="46.86155" lon="10.4838"><ele>1897</ele></trkpt>
<trkpt lat="46.86184" lon="10.48373"><ele>1893</ele></trkpt>
<trkpt lat="46.86225" lon="10.48375"><ele>1891</ele></trkpt>
<trkpt lat="46.86238" lon="10.48346"><ele>1887</ele></trkpt>
<trkpt lat="46.86238" lon="10.48323"><ele>1887</ele></trkpt>
<trkpt lat="46.86243" lon="10.48291"><ele>1885</ele></trkpt>
<trkpt lat="46.86253" lon="10.48258"><ele>1876</ele></trkpt>
<trkpt lat="46.8626" lon="10.48251"><ele>1872</ele></trkpt>
<trkpt lat="46.86262" lon="10.48219"><ele>1849</ele></trkpt>
<trkpt lat="46.86274" lon="10.48139"><ele>1842</ele></trkpt>
<trkpt lat="46.86254" lon="10.48092"><ele>1844</ele></trkpt>
<trkpt lat="46.86254" lon="10.48056"><ele>1844</ele></trkpt>
<trkpt lat="46.86282" lon="10.48032"><ele>1837</ele></trkpt>
<trkpt lat="46.86299" lon="10.47963"><ele>1840</ele></trkpt>
<trkpt lat="46.8634" lon="10.4787"><ele>1835</ele></trkpt>
<trkpt lat="46.86377" lon="10.47821"><ele>1841</ele></trkpt>
<trkpt lat="46.86424" lon="10.47774"><ele>1836</ele></trkpt>
<trkpt lat="46.86454" lon="10.47779"><ele>1827</ele></trkpt>
<trkpt lat="46.86478" lon="10.47767"><ele>1825</ele></trkpt>
<trkpt lat="46.86509" lon="10.47769"><ele>1823</ele></trkpt>
<trkpt lat="46.86496" lon="10.47726"><ele>1832</ele></trkpt>
<trkpt lat="46.86491" lon="10.47692"><ele>1840</ele></trkpt>
<trkpt lat="46.86479" lon="10.47643"><ele>1844</ele></trkpt>
<trkpt lat="46.86464" lon="10.4755"><ele>1842</ele></trkpt>
<trkpt lat="46.86469" lon="10.47495"><ele>1844</ele></trkpt>
<trkpt lat="46.86473" lon="10.47453"><ele>1853</ele></trkpt>
<trkpt lat="46.86468" lon="10.47402"><ele>1856</ele></trkpt>
<trkpt lat="46.86458" lon="10.47321"><ele>1848</ele></trkpt>
<trkpt lat="46.86456" lon="10.47291"><ele>1841</ele></trkpt>
<trkpt lat="46.8646" lon="10.47234"><ele>1834</ele></trkpt>
<trkpt lat="46.86538" lon="10.47171"><ele>1803</ele></trkpt>
<trkpt lat="46.86555" lon="10.47142"><ele>1804</ele></trkpt>
<trkpt lat="46.86578" lon="10.47115"><ele>1805</ele></trkpt>
<trkpt lat="46.8659" lon="10.47113"><ele>1805</ele></trkpt>
<trkpt lat="46.86622" lon="10.47137"><ele>1802</ele></trkpt>
<trkpt lat="46.86644" lon="10.47139"><ele>1798</ele></trkpt>
<trkpt lat="46.86676" lon="10.47151"><ele>1790</ele></trkpt>
<trkpt lat="46.86708" lon="10.47212"><ele>1782</ele></trkpt>
<trkpt lat="46.86732" lon="10.47242"><ele>1776</ele></trkpt>
<trkpt lat="46.86749" lon="10.47242"><ele>1767</ele></trkpt>
<trkpt lat="46.86761" lon="10.47262"><ele>1767</ele></trkpt>
<trkpt lat="46.86775" lon="10.47265"><ele>1762</ele></trkpt>
<trkpt lat="46.86804" lon="10.47265"><ele>1753</ele></trkpt>
<trkpt lat="46.86826" lon="10.47287"><ele>1749</ele></trkpt>
<trkpt lat="46.86848" lon="10.47289"><ele>1746</ele></trkpt>
<trkpt lat="46.86885" lon="10.47324"><ele>1740</ele></trkpt>
<trkpt lat="46.8691" lon="10.47351"><ele>1740</ele></trkpt>
<trkpt lat="46.86957" lon="10.4744"><ele>1732</ele></trkpt>
<trkpt lat="46.86992" lon="10.47456"><ele>1724</ele></trkpt>
<trkpt lat="46.87012" lon="10.47453"><ele>1723</ele></trkpt>
<trkpt lat="46.87046" lon="10.47423"><ele>1725</ele></trkpt>
<trkpt lat="46.87083" lon="10.47392"><ele>1710</ele></trkpt>
<trkpt lat="46.87107" lon="10.47338"><ele>1709</ele></trkpt>
<trkpt lat="46.87121" lon="10.47308"><ele>1715</ele></trkpt>
<trkpt lat="46.8714" lon="10.47241"><ele>1712</ele></trkpt>
<trkpt lat="46.87169" lon="10.47196"><ele>1703</ele></trkpt>
<trkpt lat="46.87172" lon="10.47186"><ele>1701</ele></trkpt>
<trkpt lat="46.87168" lon="10.47174"><ele>1700</ele></trkpt>
<trkpt lat="46.8714" lon="10.47163"><ele>1698</ele></trkpt>

				</trkseg>
		  </trk>
		</gpx>
		