<?xml version="1.0" encoding="utf-8"?>
		<gpx xmlns="http://www.topografix.com/GPX/1/1" xmlns:xsd="http://www.w3.org/2001/XMLSchema" xmlns:xsi="http://www.w3.org/2001/XMLSchema-instance" version="1.1" creator="Fugawi 4,5,14,1696 http://www.fugawi.com/" xsi:schemaLocation="http://www.topografix.com/GPX/1/1 http://www.topografix.com/GPX/1/1/gpx.xsd">
			<trk>
				<name>Almtrail</name>
				<desc></desc>
				<trkseg>
					<trkpt lat="46.86212" lon="10.54068"><ele>2172</ele></trkpt>
<trkpt lat="46.86177" lon="10.54027"><ele>2172</ele></trkpt>
<trkpt lat="46.86155" lon="10.53986"><ele>2172</ele></trkpt>
<trkpt lat="46.86131" lon="10.53947"><ele>2172</ele></trkpt>
<trkpt lat="46.86109" lon="10.53915"><ele>2151</ele></trkpt>
<trkpt lat="46.86099" lon="10.53903"><ele>2151</ele></trkpt>
<trkpt lat="46.86085" lon="10.53886"><ele>2151</ele></trkpt>
<trkpt lat="46.86063" lon="10.53858"><ele>2151</ele></trkpt>
<trkpt lat="46.86041" lon="10.53824"><ele>2148</ele></trkpt>
<trkpt lat="46.86019" lon="10.53784"><ele>2148</ele></trkpt>
<trkpt lat="46.85997" lon="10.53723"><ele>2148</ele></trkpt>
<trkpt lat="46.85981" lon="10.53685"><ele>2148</ele></trkpt>
<trkpt lat="46.85951" lon="10.5363"><ele>2127</ele></trkpt>
<trkpt lat="46.85933" lon="10.53577"><ele>2127</ele></trkpt>
<trkpt lat="46.85913" lon="10.53535"><ele>2127</ele></trkpt>
<trkpt lat="46.85887" lon="10.53497"><ele>2127</ele></trkpt>
<trkpt lat="46.85841" lon="10.53447"><ele>2101</ele></trkpt>
<trkpt lat="46.85811" lon="10.53425"><ele>2101</ele></trkpt>
<trkpt lat="46.85785" lon="10.53418"><ele>2101</ele></trkpt>
<trkpt lat="46.85762" lon="10.53415"><ele>2101</ele></trkpt>
<trkpt lat="46.85741" lon="10.53411"><ele>2095</ele></trkpt>
<trkpt lat="46.85725" lon="10.53411"><ele>2095</ele></trkpt>
<trkpt lat="46.85708" lon="10.53411"><ele>2095</ele></trkpt>
<trkpt lat="46.85689" lon="10.53409"><ele>2095</ele></trkpt>
<trkpt lat="46.85674" lon="10.53413"><ele>2094</ele></trkpt>
<trkpt lat="46.85663" lon="10.53416"><ele>2094</ele></trkpt>
<trkpt lat="46.85655" lon="10.53405"><ele>2094</ele></trkpt>
<trkpt lat="46.85652" lon="10.53388"><ele>2094</ele></trkpt>
<trkpt lat="46.85655" lon="10.53365"><ele>2091</ele></trkpt>
<trkpt lat="46.85659" lon="10.5335"><ele>2091</ele></trkpt>
<trkpt lat="46.85656" lon="10.5334"><ele>2091</ele></trkpt>
<trkpt lat="46.85654" lon="10.53332"><ele>2091</ele></trkpt>
<trkpt lat="46.8566" lon="10.53321"><ele>2082</ele></trkpt>
<trkpt lat="46.85659" lon="10.5331"><ele>2082</ele></trkpt>
<trkpt lat="46.85654" lon="10.53295"><ele>2082</ele></trkpt>
<trkpt lat="46.85652" lon="10.53289"><ele>2082</ele></trkpt>
<trkpt lat="46.85648" lon="10.5328"><ele>2076</ele></trkpt>
<trkpt lat="46.85645" lon="10.53274"><ele>2076</ele></trkpt>
<trkpt lat="46.85642" lon="10.53269"><ele>2076</ele></trkpt>
<trkpt lat="46.85637" lon="10.53263"><ele>2076</ele></trkpt>
<trkpt lat="46.85643" lon="10.53248"><ele>2063</ele></trkpt>
<trkpt lat="46.85649" lon="10.53244"><ele>2063</ele></trkpt>

				</trkseg>
		  </trk>
		</gpx>
		