<?xml version="1.0" encoding="utf-8"?>
		<gpx xmlns="http://www.topografix.com/GPX/1/1" xmlns:xsd="http://www.w3.org/2001/XMLSchema" xmlns:xsi="http://www.w3.org/2001/XMLSchema-instance" version="1.1" creator="Fugawi 4,5,14,1696 http://www.fugawi.com/" xsi:schemaLocation="http://www.topografix.com/GPX/1/1 http://www.topografix.com/GPX/1/1/gpx.xsd">
			<trk>
				<name>Etsch Trail</name>
				<desc></desc>
				<trkseg>
					<trkpt lat="46.83382" lon="10.52462"><ele>1743</ele></trkpt>
<trkpt lat="46.83374" lon="10.52461"><ele>1743</ele></trkpt>
<trkpt lat="46.83367" lon="10.5246"><ele>1743</ele></trkpt>
<trkpt lat="46.83358" lon="10.52457"><ele>1742</ele></trkpt>
<trkpt lat="46.83352" lon="10.52454"><ele>1741</ele></trkpt>
<trkpt lat="46.83346" lon="10.52452"><ele>1740</ele></trkpt>
<trkpt lat="46.83337" lon="10.52451"><ele>1739</ele></trkpt>
<trkpt lat="46.83334" lon="10.52453"><ele>1739</ele></trkpt>
<trkpt lat="46.8333" lon="10.52453"><ele>1740</ele></trkpt>
<trkpt lat="46.83328" lon="10.52451"><ele>1739</ele></trkpt>
<trkpt lat="46.83323" lon="10.5245"><ele>1739</ele></trkpt>
<trkpt lat="46.83312" lon="10.52452"><ele>1737</ele></trkpt>
<trkpt lat="46.83306" lon="10.52452"><ele>1737</ele></trkpt>
<trkpt lat="46.83302" lon="10.52453"><ele>1737</ele></trkpt>
<trkpt lat="46.83298" lon="10.52453"><ele>1736</ele></trkpt>
<trkpt lat="46.83294" lon="10.52453"><ele>1734</ele></trkpt>
<trkpt lat="46.83286" lon="10.52454"><ele>1732</ele></trkpt>
<trkpt lat="46.8328" lon="10.52451"><ele>1730</ele></trkpt>
<trkpt lat="46.83273" lon="10.52443"><ele>1728</ele></trkpt>
<trkpt lat="46.83267" lon="10.52443"><ele>1727</ele></trkpt>
<trkpt lat="46.8326" lon="10.5244"><ele>1724</ele></trkpt>
<trkpt lat="46.83252" lon="10.52434"><ele>1721</ele></trkpt>
<trkpt lat="46.83248" lon="10.52432"><ele>1720</ele></trkpt>
<trkpt lat="46.83243" lon="10.52435"><ele>1720</ele></trkpt>
<trkpt lat="46.83243" lon="10.52435"><ele>1720</ele></trkpt>
<trkpt lat="46.83239" lon="10.52439"><ele>1721</ele></trkpt>
<trkpt lat="46.83233" lon="10.52442"><ele>1719</ele></trkpt>
<trkpt lat="46.83229" lon="10.52443"><ele>1720</ele></trkpt>
<trkpt lat="46.83224" lon="10.5244"><ele>1720</ele></trkpt>
<trkpt lat="46.83218" lon="10.52429"><ele>1718</ele></trkpt>
<trkpt lat="46.83211" lon="10.52418"><ele>1714</ele></trkpt>
<trkpt lat="46.83206" lon="10.52413"><ele>1711</ele></trkpt>
<trkpt lat="46.83202" lon="10.52412"><ele>1710</ele></trkpt>
<trkpt lat="46.83195" lon="10.52413"><ele>1710</ele></trkpt>
<trkpt lat="46.8319" lon="10.52418"><ele>1710</ele></trkpt>
<trkpt lat="46.83185" lon="10.52424"><ele>1709</ele></trkpt>
<trkpt lat="46.83182" lon="10.52427"><ele>1709</ele></trkpt>
<trkpt lat="46.83175" lon="10.52428"><ele>1705</ele></trkpt>
<trkpt lat="46.83168" lon="10.5243"><ele>1703</ele></trkpt>
<trkpt lat="46.83164" lon="10.52433"><ele>1702</ele></trkpt>
<trkpt lat="46.83161" lon="10.52439"><ele>1702</ele></trkpt>
<trkpt lat="46.83159" lon="10.52443"><ele>1701</ele></trkpt>
<trkpt lat="46.83157" lon="10.52444"><ele>1701</ele></trkpt>
<trkpt lat="46.83155" lon="10.52442"><ele>1700</ele></trkpt>
<trkpt lat="46.83153" lon="10.52441"><ele>1699</ele></trkpt>
<trkpt lat="46.83151" lon="10.52442"><ele>1698</ele></trkpt>
<trkpt lat="46.83146" lon="10.52451"><ele>1697</ele></trkpt>
<trkpt lat="46.83138" lon="10.52462"><ele>1697</ele></trkpt>
<trkpt lat="46.83133" lon="10.52467"><ele>1695</ele></trkpt>
<trkpt lat="46.83127" lon="10.52468"><ele>1694</ele></trkpt>
<trkpt lat="46.83121" lon="10.52468"><ele>1692</ele></trkpt>
<trkpt lat="46.83113" lon="10.52473"><ele>1691</ele></trkpt>
<trkpt lat="46.83104" lon="10.5248"><ele>1689</ele></trkpt>
<trkpt lat="46.83097" lon="10.52486"><ele>1688</ele></trkpt>
<trkpt lat="46.83093" lon="10.52492"><ele>1689</ele></trkpt>
<trkpt lat="46.83089" lon="10.52501"><ele>1689</ele></trkpt>
<trkpt lat="46.83078" lon="10.52516"><ele>1688</ele></trkpt>
<trkpt lat="46.83073" lon="10.52525"><ele>1687</ele></trkpt>
<trkpt lat="46.83067" lon="10.52537"><ele>1688</ele></trkpt>
<trkpt lat="46.83064" lon="10.52546"><ele>1688</ele></trkpt>
<trkpt lat="46.83062" lon="10.52554"><ele>1688</ele></trkpt>
<trkpt lat="46.83059" lon="10.52558"><ele>1687</ele></trkpt>
<trkpt lat="46.83054" lon="10.52562"><ele>1686</ele></trkpt>
<trkpt lat="46.83047" lon="10.52564"><ele>1683</ele></trkpt>
<trkpt lat="46.83041" lon="10.52566"><ele>1682</ele></trkpt>
<trkpt lat="46.83036" lon="10.52567"><ele>1681</ele></trkpt>
<trkpt lat="46.83028" lon="10.52567"><ele>1678</ele></trkpt>
<trkpt lat="46.83019" lon="10.52566"><ele>1675</ele></trkpt>
<trkpt lat="46.83009" lon="10.52568"><ele>1674</ele></trkpt>
<trkpt lat="46.82997" lon="10.52571"><ele>1674</ele></trkpt>
<trkpt lat="46.82989" lon="10.52575"><ele>1674</ele></trkpt>
<trkpt lat="46.82982" lon="10.52581"><ele>1672</ele></trkpt>
<trkpt lat="46.82978" lon="10.52582"><ele>1671</ele></trkpt>
<trkpt lat="46.82975" lon="10.52583"><ele>1670</ele></trkpt>
<trkpt lat="46.82972" lon="10.5258"><ele>1669</ele></trkpt>
<trkpt lat="46.82969" lon="10.52577"><ele>1668</ele></trkpt>
<trkpt lat="46.82966" lon="10.52577"><ele>1668</ele></trkpt>
<trkpt lat="46.82961" lon="10.52579"><ele>1666</ele></trkpt>
<trkpt lat="46.82948" lon="10.52588"><ele>1664</ele></trkpt>
<trkpt lat="46.82936" lon="10.52597"><ele>1661</ele></trkpt>
<trkpt lat="46.82929" lon="10.52602"><ele>1659</ele></trkpt>
<trkpt lat="46.82924" lon="10.52603"><ele>1658</ele></trkpt>
<trkpt lat="46.82917" lon="10.52603"><ele>1657</ele></trkpt>
<trkpt lat="46.82915" lon="10.52605"><ele>1656</ele></trkpt>
<trkpt lat="46.82912" lon="10.52608"><ele>1656</ele></trkpt>
<trkpt lat="46.8291" lon="10.5261"><ele>1656</ele></trkpt>
<trkpt lat="46.82906" lon="10.52607"><ele>1655</ele></trkpt>
<trkpt lat="46.82904" lon="10.52607"><ele>1655</ele></trkpt>
<trkpt lat="46.82898" lon="10.52607"><ele>1654</ele></trkpt>
<trkpt lat="46.82889" lon="10.52609"><ele>1653</ele></trkpt>
<trkpt lat="46.8288" lon="10.52608"><ele>1650</ele></trkpt>
<trkpt lat="46.82877" lon="10.52608"><ele>1649</ele></trkpt>
<trkpt lat="46.82873" lon="10.52608"><ele>1648</ele></trkpt>
<trkpt lat="46.82869" lon="10.5261"><ele>1647</ele></trkpt>
<trkpt lat="46.82864" lon="10.52613"><ele>1646</ele></trkpt>
<trkpt lat="46.82859" lon="10.52618"><ele>1646</ele></trkpt>
<trkpt lat="46.82856" lon="10.52626"><ele>1647</ele></trkpt>
<trkpt lat="46.82852" lon="10.52639"><ele>1647</ele></trkpt>
<trkpt lat="46.82848" lon="10.52651"><ele>1645</ele></trkpt>
<trkpt lat="46.82845" lon="10.52661"><ele>1645</ele></trkpt>
<trkpt lat="46.82843" lon="10.52664"><ele>1644</ele></trkpt>
<trkpt lat="46.82836" lon="10.52669"><ele>1644</ele></trkpt>
<trkpt lat="46.8283" lon="10.52674"><ele>1644</ele></trkpt>
<trkpt lat="46.82824" lon="10.52677"><ele>1642</ele></trkpt>
<trkpt lat="46.82819" lon="10.52683"><ele>1641</ele></trkpt>
<trkpt lat="46.82813" lon="10.52689"><ele>1641</ele></trkpt>
<trkpt lat="46.82807" lon="10.52692"><ele>1641</ele></trkpt>
<trkpt lat="46.82798" lon="10.52693"><ele>1639</ele></trkpt>
<trkpt lat="46.82791" lon="10.52693"><ele>1638</ele></trkpt>
<trkpt lat="46.82786" lon="10.52694"><ele>1636</ele></trkpt>
<trkpt lat="46.82783" lon="10.52697"><ele>1637</ele></trkpt>
<trkpt lat="46.82773" lon="10.52703"><ele>1636</ele></trkpt>
<trkpt lat="46.82767" lon="10.52709"><ele>1635</ele></trkpt>
<trkpt lat="46.8276" lon="10.52717"><ele>1634</ele></trkpt>
<trkpt lat="46.82754" lon="10.52723"><ele>1633</ele></trkpt>
<trkpt lat="46.82747" lon="10.52733"><ele>1634</ele></trkpt>
<trkpt lat="46.82742" lon="10.52742"><ele>1634</ele></trkpt>
<trkpt lat="46.82737" lon="10.5275"><ele>1633</ele></trkpt>
<trkpt lat="46.82733" lon="10.52754"><ele>1631</ele></trkpt>
<trkpt lat="46.82729" lon="10.52755"><ele>1629</ele></trkpt>
<trkpt lat="46.82727" lon="10.52755"><ele>1628</ele></trkpt>
<trkpt lat="46.82726" lon="10.52752"><ele>1626</ele></trkpt>
<trkpt lat="46.82726" lon="10.52746"><ele>1625</ele></trkpt>
<trkpt lat="46.82727" lon="10.52735"><ele>1624</ele></trkpt>
<trkpt lat="46.82732" lon="10.52721"><ele>1623</ele></trkpt>
<trkpt lat="46.82738" lon="10.52709"><ele>1622</ele></trkpt>
<trkpt lat="46.8274" lon="10.52703"><ele>1622</ele></trkpt>
<trkpt lat="46.82745" lon="10.52689"><ele>1620</ele></trkpt>
<trkpt lat="46.82747" lon="10.52681"><ele>1619</ele></trkpt>
<trkpt lat="46.82747" lon="10.52674"><ele>1618</ele></trkpt>
<trkpt lat="46.82748" lon="10.52666"><ele>1618</ele></trkpt>
<trkpt lat="46.8275" lon="10.52655"><ele>1614</ele></trkpt>
<trkpt lat="46.82752" lon="10.52643"><ele>1608</ele></trkpt>
<trkpt lat="46.82753" lon="10.52638"><ele>1607</ele></trkpt>
<trkpt lat="46.82753" lon="10.52628"><ele>1605</ele></trkpt>
<trkpt lat="46.82753" lon="10.52621"><ele>1603</ele></trkpt>
<trkpt lat="46.82757" lon="10.52616"><ele>1603</ele></trkpt>
<trkpt lat="46.82758" lon="10.52613"><ele>1603</ele></trkpt>
<trkpt lat="46.82758" lon="10.52609"><ele>1601</ele></trkpt>
<trkpt lat="46.82756" lon="10.52606"><ele>1600</ele></trkpt>
<trkpt lat="46.82754" lon="10.52606"><ele>1599</ele></trkpt>
<trkpt lat="46.82748" lon="10.52609"><ele>1596</ele></trkpt>
<trkpt lat="46.82739" lon="10.52614"><ele>1594</ele></trkpt>
<trkpt lat="46.82731" lon="10.52617"><ele>1593</ele></trkpt>
<trkpt lat="46.82723" lon="10.52619"><ele>1591</ele></trkpt>
<trkpt lat="46.82718" lon="10.52619"><ele>1590</ele></trkpt>
<trkpt lat="46.82714" lon="10.5262"><ele>1591</ele></trkpt>
<trkpt lat="46.82709" lon="10.52625"><ele>1591</ele></trkpt>
<trkpt lat="46.82706" lon="10.5263"><ele>1591</ele></trkpt>
<trkpt lat="46.82703" lon="10.52633"><ele>1590</ele></trkpt>
<trkpt lat="46.82702" lon="10.52633"><ele>1590</ele></trkpt>
<trkpt lat="46.827" lon="10.52631"><ele>1589</ele></trkpt>
<trkpt lat="46.827" lon="10.52628"><ele>1589</ele></trkpt>
<trkpt lat="46.82702" lon="10.52619"><ele>1587</ele></trkpt>
<trkpt lat="46.82705" lon="10.52609"><ele>1582</ele></trkpt>
<trkpt lat="46.82706" lon="10.52604"><ele>1580</ele></trkpt>
<trkpt lat="46.82706" lon="10.52601"><ele>1578</ele></trkpt>
<trkpt lat="46.82705" lon="10.52599"><ele>1577</ele></trkpt>
<trkpt lat="46.82702" lon="10.52599"><ele>1576</ele></trkpt>
<trkpt lat="46.82697" lon="10.52597"><ele>1575</ele></trkpt>
<trkpt lat="46.82692" lon="10.52594"><ele>1573</ele></trkpt>
<trkpt lat="46.8269" lon="10.52591"><ele>1573</ele></trkpt>
<trkpt lat="46.8269" lon="10.52587"><ele>1572</ele></trkpt>
<trkpt lat="46.82692" lon="10.52578"><ele>1571</ele></trkpt>
<trkpt lat="46.82694" lon="10.52571"><ele>1569</ele></trkpt>
<trkpt lat="46.82696" lon="10.52567"><ele>1568</ele></trkpt>
<trkpt lat="46.82697" lon="10.52564"><ele>1567</ele></trkpt>
<trkpt lat="46.82697" lon="10.52559"><ele>1566</ele></trkpt>
<trkpt lat="46.82697" lon="10.52555"><ele>1566</ele></trkpt>
<trkpt lat="46.82699" lon="10.52548"><ele>1565</ele></trkpt>
<trkpt lat="46.82703" lon="10.52537"><ele>1565</ele></trkpt>
<trkpt lat="46.82709" lon="10.52527"><ele>1564</ele></trkpt>
<trkpt lat="46.82716" lon="10.52511"><ele>1562</ele></trkpt>
<trkpt lat="46.82719" lon="10.525"><ele>1559</ele></trkpt>
<trkpt lat="46.82722" lon="10.52493"><ele>1558</ele></trkpt>
<trkpt lat="46.82724" lon="10.52489"><ele>1557</ele></trkpt>
<trkpt lat="46.82726" lon="10.52479"><ele>1554</ele></trkpt>
<trkpt lat="46.8273" lon="10.52474"><ele>1553</ele></trkpt>
<trkpt lat="46.82735" lon="10.52469"><ele>1552</ele></trkpt>
<trkpt lat="46.82737" lon="10.52467"><ele>1551</ele></trkpt>
<trkpt lat="46.82737" lon="10.52463"><ele>1549</ele></trkpt>
<trkpt lat="46.82735" lon="10.5246"><ele>1548</ele></trkpt>
<trkpt lat="46.82732" lon="10.52458"><ele>1548</ele></trkpt>
<trkpt lat="46.82731" lon="10.52456"><ele>1547</ele></trkpt>
<trkpt lat="46.82732" lon="10.52448"><ele>1545</ele></trkpt>
<trkpt lat="46.82734" lon="10.52432"><ele>1542</ele></trkpt>
<trkpt lat="46.82736" lon="10.5242"><ele>1541</ele></trkpt>
<trkpt lat="46.82737" lon="10.52408"><ele>1539</ele></trkpt>
<trkpt lat="46.82736" lon="10.52401"><ele>1538</ele></trkpt>
<trkpt lat="46.82732" lon="10.52389"><ele>1537</ele></trkpt>
<trkpt lat="46.82726" lon="10.52373"><ele>1536</ele></trkpt>
<trkpt lat="46.82722" lon="10.52366"><ele>1535</ele></trkpt>
<trkpt lat="46.82717" lon="10.52359"><ele>1534</ele></trkpt>
<trkpt lat="46.82716" lon="10.52353"><ele>1534</ele></trkpt>
<trkpt lat="46.82715" lon="10.52343"><ele>1532</ele></trkpt>
<trkpt lat="46.82715" lon="10.52343"><ele>1532</ele></trkpt>
<trkpt lat="46.82718" lon="10.52336"><ele>1531</ele></trkpt>
<trkpt lat="46.82721" lon="10.52328"><ele>1530</ele></trkpt>
<trkpt lat="46.82724" lon="10.52305"><ele>1528</ele></trkpt>
<trkpt lat="46.82724" lon="10.52301"><ele>1527</ele></trkpt>
<trkpt lat="46.82723" lon="10.52297"><ele>1527</ele></trkpt>
<trkpt lat="46.82722" lon="10.5229"><ele>1526</ele></trkpt>
<trkpt lat="46.82722" lon="10.52283"><ele>1526</ele></trkpt>
<trkpt lat="46.82722" lon="10.52275"><ele>1525</ele></trkpt>
<trkpt lat="46.82722" lon="10.52268"><ele>1524</ele></trkpt>
<trkpt lat="46.82722" lon="10.52247"><ele>1522</ele></trkpt>
<trkpt lat="46.82722" lon="10.52247"><ele>1522</ele></trkpt>
<trkpt lat="46.82734" lon="10.52193"><ele>1516</ele></trkpt>
<trkpt lat="46.82734" lon="10.52193"><ele>1516</ele></trkpt>
<trkpt lat="46.82745" lon="10.52168"><ele>1515</ele></trkpt>
<trkpt lat="46.8275" lon="10.52151"><ele>1514</ele></trkpt>
<trkpt lat="46.8275" lon="10.52151"><ele>1514</ele></trkpt>
<trkpt lat="46.82743" lon="10.52147"><ele>1513</ele></trkpt>
<trkpt lat="46.82738" lon="10.52139"><ele>1512</ele></trkpt>
<trkpt lat="46.82736" lon="10.5212"><ele>1513</ele></trkpt>
<trkpt lat="46.82736" lon="10.5212"><ele>1513</ele></trkpt>
<trkpt lat="46.82729" lon="10.52091"><ele>1508</ele></trkpt>
<trkpt lat="46.82723" lon="10.52072"><ele>1506</ele></trkpt>
<trkpt lat="46.82715" lon="10.5205"><ele>1504</ele></trkpt>
<trkpt lat="46.82711" lon="10.52038"><ele>1503</ele></trkpt>
<trkpt lat="46.82708" lon="10.52027"><ele>1502</ele></trkpt>
<trkpt lat="46.82705" lon="10.52011"><ele>1501</ele></trkpt>
<trkpt lat="46.82704" lon="10.52003"><ele>1501</ele></trkpt>
<trkpt lat="46.82702" lon="10.51992"><ele>1500</ele></trkpt>
<trkpt lat="46.82702" lon="10.51992"><ele>1500</ele></trkpt>
<trkpt lat="46.82703" lon="10.51981"><ele>1500</ele></trkpt>
<trkpt lat="46.82703" lon="10.51971"><ele>1499</ele></trkpt>

				</trkseg>
		  </trk>
		</gpx>
		