<?xml version="1.0" encoding="utf-8"?>
		<gpx xmlns="http://www.topografix.com/GPX/1/1" xmlns:xsd="http://www.w3.org/2001/XMLSchema" xmlns:xsi="http://www.w3.org/2001/XMLSchema-instance" version="1.1" creator="Fugawi 4,5,14,1696 http://www.fugawi.com/" xsi:schemaLocation="http://www.topografix.com/GPX/1/1 http://www.topografix.com/GPX/1/1/gpx.xsd">
			<trk>
				<name>Family Trail</name>
				<desc></desc>
				<trkseg>
					<trkpt lat="46.87975" lon="10.50088"><ele>1529</ele></trkpt>
<trkpt lat="46.87962" lon="10.50085"><ele>1529</ele></trkpt>
<trkpt lat="46.8795" lon="10.50086"><ele>1524</ele></trkpt>
<trkpt lat="46.8794" lon="10.50088"><ele>1521</ele></trkpt>
<trkpt lat="46.87932" lon="10.50087"><ele>1519</ele></trkpt>
<trkpt lat="46.87923" lon="10.50091"><ele>1520</ele></trkpt>
<trkpt lat="46.87913" lon="10.50094"><ele>1522</ele></trkpt>
<trkpt lat="46.87906" lon="10.50104"><ele>1523</ele></trkpt>
<trkpt lat="46.87898" lon="10.50112"><ele>1523</ele></trkpt>
<trkpt lat="46.87891" lon="10.50121"><ele>1521</ele></trkpt>
<trkpt lat="46.87886" lon="10.50133"><ele>1518</ele></trkpt>
<trkpt lat="46.87879" lon="10.50142"><ele>1515</ele></trkpt>
<trkpt lat="46.87873" lon="10.50152"><ele>1513</ele></trkpt>
<trkpt lat="46.87872" lon="10.50167"><ele>1511</ele></trkpt>
<trkpt lat="46.87867" lon="10.50181"><ele>1508</ele></trkpt>
<trkpt lat="46.87869" lon="10.50194"><ele>1504</ele></trkpt>
<trkpt lat="46.87871" lon="10.50208"><ele>1500</ele></trkpt>
<trkpt lat="46.8787" lon="10.50223"><ele>1498</ele></trkpt>
<trkpt lat="46.87871" lon="10.50236"><ele>1496</ele></trkpt>
<trkpt lat="46.87871" lon="10.5025"><ele>1494</ele></trkpt>
<trkpt lat="46.8787" lon="10.50264"><ele>1492</ele></trkpt>
<trkpt lat="46.8787" lon="10.50277"><ele>1490</ele></trkpt>
<trkpt lat="46.87865" lon="10.50291"><ele>1488</ele></trkpt>
<trkpt lat="46.87857" lon="10.50299"><ele>1487</ele></trkpt>
<trkpt lat="46.87847" lon="10.50301"><ele>1485</ele></trkpt>
<trkpt lat="46.87841" lon="10.50311"><ele>1481</ele></trkpt>
<trkpt lat="46.87832" lon="10.50315"><ele>1478</ele></trkpt>
<trkpt lat="46.87823" lon="10.50318"><ele>1475</ele></trkpt>
<trkpt lat="46.87814" lon="10.50321"><ele>1472</ele></trkpt>
<trkpt lat="46.87807" lon="10.50313"><ele>1471</ele></trkpt>
<trkpt lat="46.87798" lon="10.50312"><ele>1470</ele></trkpt>
<trkpt lat="46.87788" lon="10.5031"><ele>1468</ele></trkpt>
<trkpt lat="46.87779" lon="10.50313"><ele>1461</ele></trkpt>
<trkpt lat="46.87772" lon="10.50322"><ele>1461</ele></trkpt>
<trkpt lat="46.87772" lon="10.50335"><ele>1458</ele></trkpt>
<trkpt lat="46.87772" lon="10.50349"><ele>1455</ele></trkpt>
<trkpt lat="46.8778" lon="10.50355"><ele>1452</ele></trkpt>
<trkpt lat="46.87786" lon="10.50367"><ele>1450</ele></trkpt>
<trkpt lat="46.87795" lon="10.50369"><ele>1450</ele></trkpt>
<trkpt lat="46.87805" lon="10.50367"><ele>1448</ele></trkpt>
<trkpt lat="46.87815" lon="10.50367"><ele>1447</ele></trkpt>
<trkpt lat="46.87824" lon="10.50364"><ele>1446</ele></trkpt>
<trkpt lat="46.87836" lon="10.50365"><ele>1443</ele></trkpt>
<trkpt lat="46.87846" lon="10.50367"><ele>1444</ele></trkpt>
<trkpt lat="46.87856" lon="10.50368"><ele>1446</ele></trkpt>
<trkpt lat="46.87865" lon="10.50363"><ele>1448</ele></trkpt>
<trkpt lat="46.87874" lon="10.50357"><ele>1449</ele></trkpt>
<trkpt lat="46.87884" lon="10.50355"><ele>1448</ele></trkpt>
<trkpt lat="46.87893" lon="10.50354"><ele>1446</ele></trkpt>
<trkpt lat="46.87902" lon="10.50346"><ele>1444</ele></trkpt>
<trkpt lat="46.8791" lon="10.50341"><ele>1442</ele></trkpt>
<trkpt lat="46.87919" lon="10.50334"><ele>1441</ele></trkpt>
<trkpt lat="46.87927" lon="10.50328"><ele>1441</ele></trkpt>
<trkpt lat="46.87936" lon="10.50325"><ele>1440</ele></trkpt>
<trkpt lat="46.87944" lon="10.50317"><ele>1440</ele></trkpt>
<trkpt lat="46.87953" lon="10.5031"><ele>1440</ele></trkpt>
<trkpt lat="46.87962" lon="10.50303"><ele>1440</ele></trkpt>
<trkpt lat="46.8797" lon="10.50295"><ele>1439</ele></trkpt>
<trkpt lat="46.87979" lon="10.50299"><ele>1438</ele></trkpt>
<trkpt lat="46.87989" lon="10.50297"><ele>1436</ele></trkpt>
<trkpt lat="46.88" lon="10.50297"><ele>1436</ele></trkpt>
<trkpt lat="46.8801" lon="10.503"><ele>1436</ele></trkpt>
<trkpt lat="46.88019" lon="10.50303"><ele>1438</ele></trkpt>
<trkpt lat="46.88028" lon="10.50299"><ele>1439</ele></trkpt>
<trkpt lat="46.88038" lon="10.50294"><ele>1440</ele></trkpt>
<trkpt lat="46.88047" lon="10.5029"><ele>1440</ele></trkpt>
<trkpt lat="46.88056" lon="10.50292"><ele>1438</ele></trkpt>
<trkpt lat="46.88065" lon="10.50288"><ele>1436</ele></trkpt>
<trkpt lat="46.88074" lon="10.50289"><ele>1433</ele></trkpt>
<trkpt lat="46.88083" lon="10.50294"><ele>1432</ele></trkpt>
<trkpt lat="46.88093" lon="10.50296"><ele>1433</ele></trkpt>
<trkpt lat="46.88102" lon="10.50299"><ele>1436</ele></trkpt>
<trkpt lat="46.8811" lon="10.50305"><ele>1438</ele></trkpt>
<trkpt lat="46.88116" lon="10.50315"><ele>1439</ele></trkpt>
<trkpt lat="46.88122" lon="10.50326"><ele>1438</ele></trkpt>
<trkpt lat="46.88128" lon="10.50335"><ele>1436</ele></trkpt>
<trkpt lat="46.88137" lon="10.50337"><ele>1434</ele></trkpt>
<trkpt lat="46.88147" lon="10.50336"><ele>1434</ele></trkpt>
<trkpt lat="46.88157" lon="10.50335"><ele>1434</ele></trkpt>
<trkpt lat="46.88166" lon="10.50332"><ele>1433</ele></trkpt>
<trkpt lat="46.88175" lon="10.5033"><ele>1431</ele></trkpt>
<trkpt lat="46.88185" lon="10.50332"><ele>1429</ele></trkpt>
<trkpt lat="46.88195" lon="10.5033"><ele>1426</ele></trkpt>
<trkpt lat="46.88205" lon="10.50329"><ele>1425</ele></trkpt>
<trkpt lat="46.88214" lon="10.50328"><ele>1424</ele></trkpt>
<trkpt lat="46.88224" lon="10.50329"><ele>1424</ele></trkpt>
<trkpt lat="46.88233" lon="10.50333"><ele>1424</ele></trkpt>
<trkpt lat="46.88242" lon="10.50331"><ele>1425</ele></trkpt>
<trkpt lat="46.88251" lon="10.50337"><ele>1425</ele></trkpt>
<trkpt lat="46.88259" lon="10.50336"><ele>1424</ele></trkpt>
<trkpt lat="46.88269" lon="10.50335"><ele>1422</ele></trkpt>
<trkpt lat="46.88279" lon="10.50334"><ele>1419</ele></trkpt>
<trkpt lat="46.88289" lon="10.50331"><ele>1416</ele></trkpt>
<trkpt lat="46.88299" lon="10.5033"><ele>1415</ele></trkpt>
<trkpt lat="46.88308" lon="10.50334"><ele>1414</ele></trkpt>
<trkpt lat="46.88317" lon="10.5034"><ele>1413</ele></trkpt>
<trkpt lat="46.88326" lon="10.50342"><ele>1412</ele></trkpt>
<trkpt lat="46.88335" lon="10.50341"><ele>1411</ele></trkpt>
<trkpt lat="46.88345" lon="10.50344"><ele>1409</ele></trkpt>
<trkpt lat="46.88354" lon="10.50348"><ele>1408</ele></trkpt>
<trkpt lat="46.88364" lon="10.50343"><ele>1406</ele></trkpt>
<trkpt lat="46.88373" lon="10.50345"><ele>1403</ele></trkpt>
<trkpt lat="46.88382" lon="10.50344"><ele>1400</ele></trkpt>
<trkpt lat="46.88391" lon="10.50338"><ele>1398</ele></trkpt>
<trkpt lat="46.88398" lon="10.50327"><ele>1396</ele></trkpt>
<trkpt lat="46.88403" lon="10.50316"><ele>1395</ele></trkpt>
<trkpt lat="46.88412" lon="10.50309"><ele>1394</ele></trkpt>
<trkpt lat="46.8842" lon="10.50301"><ele>1394</ele></trkpt>
<trkpt lat="46.88428" lon="10.50293"><ele>1394</ele></trkpt>
<trkpt lat="46.88437" lon="10.50288"><ele>1395</ele></trkpt>
<trkpt lat="46.88446" lon="10.50284"><ele>1397</ele></trkpt>
<trkpt lat="46.88453" lon="10.50273"><ele>1400</ele></trkpt>
<trkpt lat="46.88461" lon="10.50265"><ele>1402</ele></trkpt>
<trkpt lat="46.8847" lon="10.50258"><ele>1403</ele></trkpt>
<trkpt lat="46.88479" lon="10.50253"><ele>1403</ele></trkpt>
<trkpt lat="46.88484" lon="10.50241"><ele>1402</ele></trkpt>
<trkpt lat="46.88488" lon="10.50226"><ele>1400</ele></trkpt>
<trkpt lat="46.88495" lon="10.50216"><ele>1398</ele></trkpt>
<trkpt lat="46.885" lon="10.50205"><ele>1396</ele></trkpt>
<trkpt lat="46.88507" lon="10.50196"><ele>1395</ele></trkpt>
<trkpt lat="46.88516" lon="10.50188"><ele>1394</ele></trkpt>
<trkpt lat="46.88524" lon="10.50181"><ele>1394</ele></trkpt>
<trkpt lat="46.88532" lon="10.50174"><ele>1394</ele></trkpt>
<trkpt lat="46.8854" lon="10.50165"><ele>1395</ele></trkpt>
<trkpt lat="46.88548" lon="10.50157"><ele>1395</ele></trkpt>
<trkpt lat="46.88558" lon="10.50152"><ele>1395</ele></trkpt>
<trkpt lat="46.88566" lon="10.50144"><ele>1395</ele></trkpt>
<trkpt lat="46.88569" lon="10.50131"><ele>1396</ele></trkpt>
<trkpt lat="46.88576" lon="10.50122"><ele>1396</ele></trkpt>
<trkpt lat="46.88583" lon="10.50112"><ele>1393</ele></trkpt>
<trkpt lat="46.88592" lon="10.50104"><ele>1389</ele></trkpt>
<trkpt lat="46.88596" lon="10.50093"><ele>1385</ele></trkpt>
<trkpt lat="46.88603" lon="10.50082"><ele>1383</ele></trkpt>
<trkpt lat="46.8861" lon="10.50073"><ele>1381</ele></trkpt>
<trkpt lat="46.88616" lon="10.50062"><ele>1381</ele></trkpt>
<trkpt lat="46.88623" lon="10.50052"><ele>1381</ele></trkpt>
<trkpt lat="46.88628" lon="10.5004"><ele>1381</ele></trkpt>
<trkpt lat="46.88633" lon="10.50028"><ele>1381</ele></trkpt>
<trkpt lat="46.88639" lon="10.50016"><ele>1381</ele></trkpt>
<trkpt lat="46.88647" lon="10.50006"><ele>1381</ele></trkpt>
<trkpt lat="46.88653" lon="10.49994"><ele>1382</ele></trkpt>
<trkpt lat="46.88659" lon="10.49984"><ele>1384</ele></trkpt>
<trkpt lat="46.88663" lon="10.49971"><ele>1386</ele></trkpt>
<trkpt lat="46.88671" lon="10.49962"><ele>1388</ele></trkpt>
<trkpt lat="46.88677" lon="10.4995"><ele>1390</ele></trkpt>

				</trkseg>
		  </trk>
		</gpx>
		