<?xml version="1.0" encoding="utf-8"?>
		<gpx xmlns="http://www.topografix.com/GPX/1/1" xmlns:xsd="http://www.w3.org/2001/XMLSchema" xmlns:xsi="http://www.w3.org/2001/XMLSchema-instance" version="1.1" creator="Fugawi 4,5,14,1696 http://www.fugawi.com/" xsi:schemaLocation="http://www.topografix.com/GPX/1/1 http://www.topografix.com/GPX/1/1/gpx.xsd">
			<trk>
				<name>Gerry Trail</name>
				<desc></desc>
				<trkseg>
					<trkpt lat="46.87965" lon="10.48545"><ele>1723</ele></trkpt>
<trkpt lat="46.87966" lon="10.48551"><ele>1723</ele></trkpt>
<trkpt lat="46.87967" lon="10.48558"><ele>1723</ele></trkpt>
<trkpt lat="46.87967" lon="10.48565"><ele>1723</ele></trkpt>
<trkpt lat="46.87966" lon="10.48573"><ele>1725</ele></trkpt>
<trkpt lat="46.87964" lon="10.48581"><ele>1725</ele></trkpt>
<trkpt lat="46.87962" lon="10.48589"><ele>1725</ele></trkpt>
<trkpt lat="46.87958" lon="10.48598"><ele>1725</ele></trkpt>
<trkpt lat="46.8795" lon="10.4861"><ele>1721</ele></trkpt>
<trkpt lat="46.87939" lon="10.48619"><ele>1721</ele></trkpt>
<trkpt lat="46.8793" lon="10.48628"><ele>1721</ele></trkpt>
<trkpt lat="46.87919" lon="10.48634"><ele>1721</ele></trkpt>
<trkpt lat="46.87914" lon="10.48636"><ele>1709</ele></trkpt>
<trkpt lat="46.87906" lon="10.48655"><ele>1709</ele></trkpt>
<trkpt lat="46.87895" lon="10.48675"><ele>1709</ele></trkpt>
<trkpt lat="46.87883" lon="10.4868"><ele>1709</ele></trkpt>
<trkpt lat="46.87877" lon="10.48677"><ele>1696</ele></trkpt>
<trkpt lat="46.87854" lon="10.48668"><ele>1696</ele></trkpt>
<trkpt lat="46.8785" lon="10.48668"><ele>1696</ele></trkpt>
<trkpt lat="46.87825" lon="10.48682"><ele>1696</ele></trkpt>
<trkpt lat="46.87821" lon="10.4869"><ele>1684</ele></trkpt>
<trkpt lat="46.87819" lon="10.48694"><ele>1684</ele></trkpt>
<trkpt lat="46.87817" lon="10.48699"><ele>1684</ele></trkpt>
<trkpt lat="46.87815" lon="10.48704"><ele>1684</ele></trkpt>
<trkpt lat="46.87812" lon="10.48708"><ele>1681</ele></trkpt>
<trkpt lat="46.87799" lon="10.48726"><ele>1681</ele></trkpt>
<trkpt lat="46.87781" lon="10.48749"><ele>1681</ele></trkpt>
<trkpt lat="46.87776" lon="10.4877"><ele>1681</ele></trkpt>
<trkpt lat="46.8778" lon="10.48805"><ele>1672</ele></trkpt>
<trkpt lat="46.87772" lon="10.48845"><ele>1672</ele></trkpt>
<trkpt lat="46.87771" lon="10.48848"><ele>1672</ele></trkpt>
<trkpt lat="46.87775" lon="10.48879"><ele>1672</ele></trkpt>
<trkpt lat="46.87773" lon="10.48904"><ele>1662</ele></trkpt>
<trkpt lat="46.87771" lon="10.48939"><ele>1662</ele></trkpt>
<trkpt lat="46.87773" lon="10.48951"><ele>1662</ele></trkpt>
<trkpt lat="46.87777" lon="10.48961"><ele>1662</ele></trkpt>
<trkpt lat="46.87781" lon="10.48975"><ele>1654</ele></trkpt>
<trkpt lat="46.87773" lon="10.49005"><ele>1654</ele></trkpt>
<trkpt lat="46.87773" lon="10.49024"><ele>1654</ele></trkpt>
<trkpt lat="46.87774" lon="10.49035"><ele>1654</ele></trkpt>
<trkpt lat="46.87775" lon="10.49048"><ele>1639</ele></trkpt>
<trkpt lat="46.87775" lon="10.49077"><ele>1639</ele></trkpt>
<trkpt lat="46.87778" lon="10.49083"><ele>1639</ele></trkpt>
<trkpt lat="46.87783" lon="10.49089"><ele>1639</ele></trkpt>
<trkpt lat="46.87797" lon="10.49118"><ele>1631</ele></trkpt>
<trkpt lat="46.87796" lon="10.49134"><ele>1631</ele></trkpt>
<trkpt lat="46.87797" lon="10.49136"><ele>1631</ele></trkpt>
<trkpt lat="46.87803" lon="10.49141"><ele>1631</ele></trkpt>
<trkpt lat="46.87809" lon="10.49144"><ele>1629</ele></trkpt>
<trkpt lat="46.87812" lon="10.49144"><ele>1629</ele></trkpt>
<trkpt lat="46.87816" lon="10.49144"><ele>1629</ele></trkpt>
<trkpt lat="46.87818" lon="10.49143"><ele>1629</ele></trkpt>
<trkpt lat="46.87818" lon="10.49144"><ele>1631</ele></trkpt>
<trkpt lat="46.87822" lon="10.49178"><ele>1631</ele></trkpt>
<trkpt lat="46.87815" lon="10.49203"><ele>1631</ele></trkpt>
<trkpt lat="46.87814" lon="10.49206"><ele>1631</ele></trkpt>
<trkpt lat="46.87811" lon="10.49217"><ele>1624</ele></trkpt>
<trkpt lat="46.8781" lon="10.49222"><ele>1624</ele></trkpt>
<trkpt lat="46.87803" lon="10.49233"><ele>1624</ele></trkpt>
<trkpt lat="46.87799" lon="10.49242"><ele>1624</ele></trkpt>
<trkpt lat="46.87798" lon="10.49249"><ele>1618</ele></trkpt>
<trkpt lat="46.87796" lon="10.49257"><ele>1618</ele></trkpt>
<trkpt lat="46.87795" lon="10.49264"><ele>1618</ele></trkpt>
<trkpt lat="46.87794" lon="10.49271"><ele>1618</ele></trkpt>
<trkpt lat="46.87789" lon="10.49302"><ele>1613</ele></trkpt>
<trkpt lat="46.87788" lon="10.49314"><ele>1613</ele></trkpt>
<trkpt lat="46.87787" lon="10.49345"><ele>1613</ele></trkpt>
<trkpt lat="46.87788" lon="10.49356"><ele>1613</ele></trkpt>
<trkpt lat="46.87788" lon="10.49364"><ele>1608</ele></trkpt>
<trkpt lat="46.8779" lon="10.49385"><ele>1608</ele></trkpt>
<trkpt lat="46.8779" lon="10.49391"><ele>1608</ele></trkpt>
<trkpt lat="46.8779" lon="10.49398"><ele>1608</ele></trkpt>
<trkpt lat="46.87793" lon="10.49417"><ele>1607</ele></trkpt>
<trkpt lat="46.87793" lon="10.49429"><ele>1607</ele></trkpt>
<trkpt lat="46.87792" lon="10.49441"><ele>1607</ele></trkpt>
<trkpt lat="46.87791" lon="10.49453"><ele>1607</ele></trkpt>
<trkpt lat="46.87792" lon="10.49465"><ele>1604</ele></trkpt>
<trkpt lat="46.87793" lon="10.49477"><ele>1604</ele></trkpt>
<trkpt lat="46.87795" lon="10.495"><ele>1604</ele></trkpt>
<trkpt lat="46.878" lon="10.49542"><ele>1604</ele></trkpt>
<trkpt lat="46.87803" lon="10.4957"><ele>1600</ele></trkpt>
<trkpt lat="46.87806" lon="10.49597"><ele>1600</ele></trkpt>
<trkpt lat="46.878" lon="10.49631"><ele>1600</ele></trkpt>
<trkpt lat="46.87799" lon="10.49636"><ele>1600</ele></trkpt>
<trkpt lat="46.8779" lon="10.49644"><ele>1587</ele></trkpt>
<trkpt lat="46.87778" lon="10.49651"><ele>1587</ele></trkpt>
<trkpt lat="46.87775" lon="10.49654"><ele>1587</ele></trkpt>
<trkpt lat="46.87775" lon="10.49656"><ele>1587</ele></trkpt>
<trkpt lat="46.87772" lon="10.4966"><ele>1583</ele></trkpt>
<trkpt lat="46.87773" lon="10.49687"><ele>1583</ele></trkpt>
<trkpt lat="46.8777" lon="10.49729"><ele>1583</ele></trkpt>

				</trkseg>
		  </trk>
		</gpx>
		