<?xml version="1.0" encoding="UTF-8"?><gpx xmlns="http://www.topografix.com/GPX/1/1" creator="CONTWISE MAPS" xsi:schemaLocation="http://www.topografix.com/GPX/1/1 http://www.topografix.com/GPX/1/1/gpx.xsd http://www.topografix.com/GPX/gpx_overlay/0/3 http://www.topografix.com/GPX/gpx_overlay/0/3/gpx_overlay.xsd http://www.topografix.com/GPX/gpx_modified/0/1 http://www.topografix.com/GPX/gpx_modified/0/1/gpx_modified.xsd http://www.topografix.com/GPX/Private/TopoGrafix/0/3 http://www.topografix.com/GPX/Private/TopoGrafix/0/3/topografix.xsd" xmlns:xsi="http://www.w3.org/2001/XMLSchema-instance" version="1.1"><wpt lon="10.540309" lat="46.862891"><ele><![CDATA[0]]></ele><name><![CDATA[sunnastuba_bergkastel]]></name></wpt>
<trk><name><![CDATA[goldseejumpline_180223604]]></name><extensions><label xmlns="http://www.topografix.com/GPX/gpx_overlay/0/3"></label>
</extensions>
<trkseg><trkpt lon="10.54375" lat="46.86388"><ele><![CDATA[2136]]></ele></trkpt>
<trkpt lon="10.54361" lat="46.86393"><ele><![CDATA[2137]]></ele></trkpt>
<trkpt lon="10.54346" lat="46.86396"><ele><![CDATA[2138]]></ele></trkpt>
<trkpt lon="10.54331" lat="46.86403"><ele><![CDATA[2137]]></ele></trkpt>
<trkpt lon="10.5432" lat="46.86417"><ele><![CDATA[2133]]></ele></trkpt>
<trkpt lon="10.5432" lat="46.86425"><ele><![CDATA[2131]]></ele></trkpt>
<trkpt lon="10.54309" lat="46.86432"><ele><![CDATA[2130]]></ele></trkpt>
<trkpt lon="10.54295" lat="46.8644"><ele><![CDATA[2129]]></ele></trkpt>
<trkpt lon="10.54285" lat="46.86449"><ele><![CDATA[2128]]></ele></trkpt>
<trkpt lon="10.54281" lat="46.86456"><ele><![CDATA[2128]]></ele></trkpt>
<trkpt lon="10.54269" lat="46.8646"><ele><![CDATA[2127]]></ele></trkpt>
<trkpt lon="10.54263" lat="46.86463"><ele><![CDATA[2127]]></ele></trkpt>
<trkpt lon="10.54256" lat="46.86466"><ele><![CDATA[2126]]></ele></trkpt>
<trkpt lon="10.5424" lat="46.86474"><ele><![CDATA[2127]]></ele></trkpt>
<trkpt lon="10.54219" lat="46.86483"><ele><![CDATA[2125]]></ele></trkpt>
<trkpt lon="10.54209" lat="46.86486"><ele><![CDATA[2122]]></ele></trkpt>
<trkpt lon="10.54194" lat="46.8649"><ele><![CDATA[2122]]></ele></trkpt>
<trkpt lon="10.54172" lat="46.86492"><ele><![CDATA[2123]]></ele></trkpt>
<trkpt lon="10.54161" lat="46.86492"><ele><![CDATA[2123]]></ele></trkpt>
<trkpt lon="10.54155" lat="46.86489"><ele><![CDATA[2123]]></ele></trkpt>
<trkpt lon="10.54148" lat="46.86489"><ele><![CDATA[2124]]></ele></trkpt>
<trkpt lon="10.54142" lat="46.86491"><ele><![CDATA[2124]]></ele></trkpt>
</trkseg>
</trk>
</gpx>
