<?xml version="1.0" encoding="utf-8"?>
		<gpx xmlns="http://www.topografix.com/GPX/1/1" xmlns:xsd="http://www.w3.org/2001/XMLSchema" xmlns:xsi="http://www.w3.org/2001/XMLSchema-instance" version="1.1" creator="Fugawi 4,5,14,1696 http://www.fugawi.com/" xsi:schemaLocation="http://www.topografix.com/GPX/1/1 http://www.topografix.com/GPX/1/1/gpx.xsd">
			<trk>
				<name>Goldseetrail</name>
				<desc></desc>
				<trkseg>
					<trkpt lat="46.85924" lon="10.54469"><ele>2236</ele></trkpt>
<trkpt lat="46.85929" lon="10.54464"><ele>2235</ele></trkpt>
<trkpt lat="46.85929" lon="10.54463"><ele>2235</ele></trkpt>
<trkpt lat="46.85932" lon="10.5446"><ele>2235</ele></trkpt>
<trkpt lat="46.85933" lon="10.54458"><ele>2236</ele></trkpt>
<trkpt lat="46.85934" lon="10.54458"><ele>2234</ele></trkpt>
<trkpt lat="46.85935" lon="10.54456"><ele>2234</ele></trkpt>
<trkpt lat="46.85935" lon="10.54455"><ele>2234</ele></trkpt>
<trkpt lat="46.85936" lon="10.54454"><ele>2234</ele></trkpt>
<trkpt lat="46.85935" lon="10.54456"><ele>2234</ele></trkpt>
<trkpt lat="46.85934" lon="10.54458"><ele>2234</ele></trkpt>
<trkpt lat="46.85929" lon="10.54464"><ele>2235</ele></trkpt>
<trkpt lat="46.85924" lon="10.54474"><ele>2235</ele></trkpt>
<trkpt lat="46.85918" lon="10.54488"><ele>2233</ele></trkpt>
<trkpt lat="46.85915" lon="10.54496"><ele>2234</ele></trkpt>
<trkpt lat="46.85912" lon="10.54504"><ele>2232</ele></trkpt>
<trkpt lat="46.85907" lon="10.54513"><ele>2231</ele></trkpt>
<trkpt lat="46.85898" lon="10.54523"><ele>2233</ele></trkpt>
<trkpt lat="46.85906" lon="10.54531"><ele>2232</ele></trkpt>
<trkpt lat="46.85911" lon="10.54527"><ele>2230</ele></trkpt>
<trkpt lat="46.8592" lon="10.54511"><ele>2229</ele></trkpt>
<trkpt lat="46.85925" lon="10.54505"><ele>2229</ele></trkpt>
<trkpt lat="46.85928" lon="10.54504"><ele>2229</ele></trkpt>
<trkpt lat="46.85934" lon="10.545"><ele>2228</ele></trkpt>
<trkpt lat="46.85942" lon="10.54489"><ele>2228</ele></trkpt>
<trkpt lat="46.85948" lon="10.54484"><ele>2229</ele></trkpt>
<trkpt lat="46.85952" lon="10.54478"><ele>2228</ele></trkpt>
<trkpt lat="46.8596" lon="10.54477"><ele>2226</ele></trkpt>
<trkpt lat="46.85955" lon="10.5448"><ele>2228</ele></trkpt>
<trkpt lat="46.8596" lon="10.54493"><ele>2224</ele></trkpt>
<trkpt lat="46.85962" lon="10.54482"><ele>2226</ele></trkpt>
<trkpt lat="46.85962" lon="10.54477"><ele>2226</ele></trkpt>
<trkpt lat="46.8597" lon="10.54486"><ele>2223</ele></trkpt>
<trkpt lat="46.8597" lon="10.54505"><ele>2224</ele></trkpt>
<trkpt lat="46.85979" lon="10.54507"><ele>2222</ele></trkpt>
<trkpt lat="46.85985" lon="10.54491"><ele>2222</ele></trkpt>
<trkpt lat="46.85991" lon="10.54474"><ele>2221</ele></trkpt>
<trkpt lat="46.85997" lon="10.54485"><ele>2219</ele></trkpt>
<trkpt lat="46.86001" lon="10.54493"><ele>2219</ele></trkpt>
<trkpt lat="46.86013" lon="10.54499"><ele>2217</ele></trkpt>
<trkpt lat="46.8602" lon="10.54501"><ele>2217</ele></trkpt>
<trkpt lat="46.86031" lon="10.54502"><ele>2214</ele></trkpt>
<trkpt lat="46.86035" lon="10.54496"><ele>2213</ele></trkpt>
<trkpt lat="46.86042" lon="10.54487"><ele>2212</ele></trkpt>
<trkpt lat="46.86047" lon="10.54487"><ele>2211</ele></trkpt>
<trkpt lat="46.86056" lon="10.5449"><ele>2210</ele></trkpt>
<trkpt lat="46.86059" lon="10.54475"><ele>2209</ele></trkpt>
<trkpt lat="46.86062" lon="10.54472"><ele>2209</ele></trkpt>
<trkpt lat="46.86073" lon="10.54469"><ele>2208</ele></trkpt>
<trkpt lat="46.86078" lon="10.54464"><ele>2208</ele></trkpt>
<trkpt lat="46.86088" lon="10.54458"><ele>2209</ele></trkpt>
<trkpt lat="46.86097" lon="10.54451"><ele>2208</ele></trkpt>
<trkpt lat="46.86102" lon="10.5445"><ele>2207</ele></trkpt>
<trkpt lat="46.8611" lon="10.54455"><ele>2206</ele></trkpt>
<trkpt lat="46.86117" lon="10.54445"><ele>2206</ele></trkpt>
<trkpt lat="46.86124" lon="10.54441"><ele>2206</ele></trkpt>
<trkpt lat="46.86128" lon="10.54438"><ele>2204</ele></trkpt>
<trkpt lat="46.86133" lon="10.54433"><ele>2206</ele></trkpt>
<trkpt lat="46.86142" lon="10.54426"><ele>2204</ele></trkpt>
<trkpt lat="46.86152" lon="10.54416"><ele>2202</ele></trkpt>
<trkpt lat="46.86157" lon="10.54408"><ele>2202</ele></trkpt>
<trkpt lat="46.8615" lon="10.54378"><ele>2205</ele></trkpt>
<trkpt lat="46.86155" lon="10.54369"><ele>2204</ele></trkpt>
<trkpt lat="46.86157" lon="10.54363"><ele>2204</ele></trkpt>
<trkpt lat="46.86159" lon="10.54361"><ele>2204</ele></trkpt>
<trkpt lat="46.86157" lon="10.54368"><ele>2204</ele></trkpt>
<trkpt lat="46.86174" lon="10.54399"><ele>2198</ele></trkpt>
<trkpt lat="46.86168" lon="10.54408"><ele>2199</ele></trkpt>
<trkpt lat="46.8617" lon="10.54417"><ele>2197</ele></trkpt>
<trkpt lat="46.86163" lon="10.54426"><ele>2198</ele></trkpt>
<trkpt lat="46.86164" lon="10.5444"><ele>2197</ele></trkpt>
<trkpt lat="46.86169" lon="10.54443"><ele>2194</ele></trkpt>
<trkpt lat="46.86173" lon="10.54435"><ele>2194</ele></trkpt>
<trkpt lat="46.86174" lon="10.54426"><ele>2196</ele></trkpt>
<trkpt lat="46.86178" lon="10.54421"><ele>2194</ele></trkpt>
<trkpt lat="46.86181" lon="10.54416"><ele>2195</ele></trkpt>
<trkpt lat="46.86181" lon="10.54408"><ele>2195</ele></trkpt>
<trkpt lat="46.86187" lon="10.54416"><ele>2192</ele></trkpt>
<trkpt lat="46.86184" lon="10.54431"><ele>2194</ele></trkpt>
<trkpt lat="46.86192" lon="10.54437"><ele>2189</ele></trkpt>
<trkpt lat="46.86199" lon="10.5443"><ele>2188</ele></trkpt>
<trkpt lat="46.86205" lon="10.54421"><ele>2186</ele></trkpt>
<trkpt lat="46.86207" lon="10.54402"><ele>2188</ele></trkpt>
<trkpt lat="46.86209" lon="10.5439"><ele>2188</ele></trkpt>
<trkpt lat="46.86213" lon="10.54378"><ele>2186</ele></trkpt>
<trkpt lat="46.86217" lon="10.54364"><ele>2187</ele></trkpt>
<trkpt lat="46.86215" lon="10.54354"><ele>2186</ele></trkpt>
<trkpt lat="46.86214" lon="10.54353"><ele>2186</ele></trkpt>
<trkpt lat="46.86218" lon="10.54348"><ele>2186</ele></trkpt>
<trkpt lat="46.86226" lon="10.5436"><ele>2184</ele></trkpt>
<trkpt lat="46.86227" lon="10.54366"><ele>2184</ele></trkpt>
<trkpt lat="46.86226" lon="10.54382"><ele>2184</ele></trkpt>
<trkpt lat="46.86228" lon="10.54388"><ele>2183</ele></trkpt>
<trkpt lat="46.86228" lon="10.54399"><ele>2182</ele></trkpt>
<trkpt lat="46.86228" lon="10.54407"><ele>2182</ele></trkpt>
<trkpt lat="46.86226" lon="10.54421"><ele>2181</ele></trkpt>
<trkpt lat="46.86232" lon="10.54426"><ele>2178</ele></trkpt>
<trkpt lat="46.86235" lon="10.54417"><ele>2179</ele></trkpt>
<trkpt lat="46.86238" lon="10.54399"><ele>2180</ele></trkpt>
<trkpt lat="46.86238" lon="10.54391"><ele>2180</ele></trkpt>
<trkpt lat="46.86241" lon="10.54388"><ele>2177</ele></trkpt>
<trkpt lat="46.86247" lon="10.54406"><ele>2177</ele></trkpt>
<trkpt lat="46.86245" lon="10.54422"><ele>2175</ele></trkpt>
<trkpt lat="46.86243" lon="10.54427"><ele>2175</ele></trkpt>
<trkpt lat="46.8624" lon="10.54438"><ele>2174</ele></trkpt>
<trkpt lat="46.86248" lon="10.54425"><ele>2173</ele></trkpt>
<trkpt lat="46.86252" lon="10.54409"><ele>2174</ele></trkpt>
<trkpt lat="46.86255" lon="10.544"><ele>2175</ele></trkpt>
<trkpt lat="46.86257" lon="10.54391"><ele>2173</ele></trkpt>
<trkpt lat="46.86259" lon="10.54386"><ele>2173</ele></trkpt>
<trkpt lat="46.86261" lon="10.54407"><ele>2172</ele></trkpt>
<trkpt lat="46.86263" lon="10.54412"><ele>2171</ele></trkpt>
<trkpt lat="46.86264" lon="10.54425"><ele>2169</ele></trkpt>
<trkpt lat="46.86272" lon="10.54415"><ele>2168</ele></trkpt>
<trkpt lat="46.86272" lon="10.54396"><ele>2169</ele></trkpt>
<trkpt lat="46.86277" lon="10.54392"><ele>2168</ele></trkpt>
<trkpt lat="46.86284" lon="10.54387"><ele>2165</ele></trkpt>
<trkpt lat="46.86289" lon="10.54368"><ele>2166</ele></trkpt>
<trkpt lat="46.86292" lon="10.54361"><ele>2164</ele></trkpt>
<trkpt lat="46.86299" lon="10.54343"><ele>2164</ele></trkpt>
<trkpt lat="46.86303" lon="10.54335"><ele>2162</ele></trkpt>
<trkpt lat="46.86306" lon="10.54327"><ele>2162</ele></trkpt>
<trkpt lat="46.86312" lon="10.54315"><ele>2162</ele></trkpt>
<trkpt lat="46.86311" lon="10.54316"><ele>2162</ele></trkpt>
<trkpt lat="46.86312" lon="10.54315"><ele>2162</ele></trkpt>
<trkpt lat="46.86313" lon="10.54313"><ele>2162</ele></trkpt>
<trkpt lat="46.86314" lon="10.5431"><ele>2162</ele></trkpt>
<trkpt lat="46.86316" lon="10.54308"><ele>2162</ele></trkpt>
<trkpt lat="46.86319" lon="10.54304"><ele>2161</ele></trkpt>
<trkpt lat="46.8632" lon="10.54301"><ele>2161</ele></trkpt>
<trkpt lat="46.86321" lon="10.543"><ele>2161</ele></trkpt>
<trkpt lat="46.86322" lon="10.543"><ele>2161</ele></trkpt>
<trkpt lat="46.86322" lon="10.54299"><ele>2161</ele></trkpt>
<trkpt lat="46.86321" lon="10.543"><ele>2161</ele></trkpt>
<trkpt lat="46.86321" lon="10.54302"><ele>2161</ele></trkpt>
<trkpt lat="46.8632" lon="10.54301"><ele>2161</ele></trkpt>
<trkpt lat="46.86321" lon="10.543"><ele>2161</ele></trkpt>
<trkpt lat="46.86322" lon="10.54299"><ele>2161</ele></trkpt>
<trkpt lat="46.86324" lon="10.54297"><ele>2161</ele></trkpt>
<trkpt lat="46.86327" lon="10.5429"><ele>2159</ele></trkpt>
<trkpt lat="46.86332" lon="10.54288"><ele>2159</ele></trkpt>
<trkpt lat="46.8634" lon="10.54279"><ele>2158</ele></trkpt>
<trkpt lat="46.86343" lon="10.5427"><ele>2158</ele></trkpt>
<trkpt lat="46.86346" lon="10.54256"><ele>2157</ele></trkpt>
<trkpt lat="46.86352" lon="10.54254"><ele>2158</ele></trkpt>
<trkpt lat="46.86361" lon="10.54238"><ele>2157</ele></trkpt>
<trkpt lat="46.86372" lon="10.54227"><ele>2152</ele></trkpt>
<trkpt lat="46.86376" lon="10.54218"><ele>2152</ele></trkpt>
<trkpt lat="46.86381" lon="10.54208"><ele>2151</ele></trkpt>
<trkpt lat="46.86386" lon="10.542"><ele>2153</ele></trkpt>
<trkpt lat="46.86392" lon="10.54189"><ele>2152</ele></trkpt>
<trkpt lat="46.86399" lon="10.54184"><ele>2150</ele></trkpt>
<trkpt lat="46.86397" lon="10.54188"><ele>2150</ele></trkpt>
<trkpt lat="46.86395" lon="10.54203"><ele>2150</ele></trkpt>
<trkpt lat="46.86387" lon="10.54211"><ele>2151</ele></trkpt>
<trkpt lat="46.86385" lon="10.54218"><ele>2149</ele></trkpt>
<trkpt lat="46.86385" lon="10.54227"><ele>2149</ele></trkpt>
<trkpt lat="46.86385" lon="10.54232"><ele>2148</ele></trkpt>
<trkpt lat="46.86382" lon="10.54264"><ele>2146</ele></trkpt>
<trkpt lat="46.86386" lon="10.54281"><ele>2144</ele></trkpt>
<trkpt lat="46.86384" lon="10.543"><ele>2143</ele></trkpt>
<trkpt lat="46.86388" lon="10.54308"><ele>2140</ele></trkpt>
<trkpt lat="46.86393" lon="10.54326"><ele>2139</ele></trkpt>
<trkpt lat="46.86388" lon="10.54344"><ele>2138</ele></trkpt>
<trkpt lat="46.86385" lon="10.54345"><ele>2140</ele></trkpt>
<trkpt lat="46.8638" lon="10.54351"><ele>2140</ele></trkpt>
<trkpt lat="46.86378" lon="10.54354"><ele>2142</ele></trkpt>
<trkpt lat="46.86377" lon="10.54362"><ele>2141</ele></trkpt>
<trkpt lat="46.86376" lon="10.54366"><ele>2141</ele></trkpt>
<trkpt lat="46.86374" lon="10.54366"><ele>2141</ele></trkpt>
<trkpt lat="46.86375" lon="10.54366"><ele>2141</ele></trkpt>
<trkpt lat="46.86376" lon="10.54365"><ele>2141</ele></trkpt>
<trkpt lat="46.86377" lon="10.54365"><ele>2141</ele></trkpt>
<trkpt lat="46.86376" lon="10.54364"><ele>2141</ele></trkpt>
<trkpt lat="46.86377" lon="10.54365"><ele>2141</ele></trkpt>
<trkpt lat="46.86376" lon="10.54364"><ele>2141</ele></trkpt>
<trkpt lat="46.86375" lon="10.54366"><ele>2141</ele></trkpt>
<trkpt lat="46.86375" lon="10.54368"><ele>2141</ele></trkpt>
<trkpt lat="46.86374" lon="10.5437"><ele>2140</ele></trkpt>
<trkpt lat="46.86373" lon="10.54371"><ele>2140</ele></trkpt>
<trkpt lat="46.86372" lon="10.54373"><ele>2140</ele></trkpt>
<trkpt lat="46.86369" lon="10.5438"><ele>2143</ele></trkpt>
<trkpt lat="46.86365" lon="10.54389"><ele>2141</ele></trkpt>
<trkpt lat="46.86364" lon="10.54395"><ele>2139</ele></trkpt>
<trkpt lat="46.86363" lon="10.54407"><ele>2139</ele></trkpt>
<trkpt lat="46.86363" lon="10.54415"><ele>2138</ele></trkpt>
<trkpt lat="46.86367" lon="10.544"><ele>2139</ele></trkpt>
<trkpt lat="46.8637" lon="10.54393"><ele>2138</ele></trkpt>
<trkpt lat="46.86375" lon="10.5439"><ele>2138</ele></trkpt>
<trkpt lat="46.8638" lon="10.54385"><ele>2136</ele></trkpt>
<trkpt lat="46.86383" lon="10.54378"><ele>2138</ele></trkpt>
<trkpt lat="46.8639" lon="10.54375"><ele>2136</ele></trkpt>
<trkpt lat="46.86396" lon="10.54368"><ele>2137</ele></trkpt>
<trkpt lat="46.864" lon="10.5436"><ele>2135</ele></trkpt>
<trkpt lat="46.86404" lon="10.54365"><ele>2135</ele></trkpt>
<trkpt lat="46.8641" lon="10.54367"><ele>2133</ele></trkpt>
<trkpt lat="46.86413" lon="10.54358"><ele>2133</ele></trkpt>
<trkpt lat="46.86415" lon="10.54349"><ele>2132</ele></trkpt>
<trkpt lat="46.86417" lon="10.5434"><ele>2133</ele></trkpt>
<trkpt lat="46.86419" lon="10.54336"><ele>2133</ele></trkpt>
<trkpt lat="46.86424" lon="10.54336"><ele>2131</ele></trkpt>
<trkpt lat="46.86433" lon="10.54352"><ele>2130</ele></trkpt>
<trkpt lat="46.86438" lon="10.54358"><ele>2128</ele></trkpt>
<trkpt lat="46.86448" lon="10.54358"><ele>2126</ele></trkpt>
<trkpt lat="46.86453" lon="10.54351"><ele>2125</ele></trkpt>
<trkpt lat="46.86454" lon="10.54344"><ele>2125</ele></trkpt>
<trkpt lat="46.86456" lon="10.54341"><ele>2127</ele></trkpt>
<trkpt lat="46.86467" lon="10.54322"><ele>2123</ele></trkpt>
<trkpt lat="46.86471" lon="10.54317"><ele>2124</ele></trkpt>
<trkpt lat="46.8648" lon="10.54302"><ele>2122</ele></trkpt>
<trkpt lat="46.86482" lon="10.54292"><ele>2123</ele></trkpt>
<trkpt lat="46.86481" lon="10.5429"><ele>2123</ele></trkpt>
<trkpt lat="46.86478" lon="10.54292"><ele>2123</ele></trkpt>
<trkpt lat="46.86478" lon="10.54291"><ele>2123</ele></trkpt>
<trkpt lat="46.86477" lon="10.54291"><ele>2123</ele></trkpt>
<trkpt lat="46.86476" lon="10.54294"><ele>2122</ele></trkpt>
<trkpt lat="46.86477" lon="10.54296"><ele>2122</ele></trkpt>
<trkpt lat="46.86476" lon="10.54293"><ele>2122</ele></trkpt>
<trkpt lat="46.86477" lon="10.54293"><ele>2122</ele></trkpt>
<trkpt lat="46.86478" lon="10.54293"><ele>2122</ele></trkpt>
<trkpt lat="46.86478" lon="10.5429"><ele>2123</ele></trkpt>
<trkpt lat="46.86479" lon="10.5428"><ele>2123</ele></trkpt>
<trkpt lat="46.86483" lon="10.54268"><ele>2123</ele></trkpt>
<trkpt lat="46.86486" lon="10.54261"><ele>2122</ele></trkpt>
<trkpt lat="46.86489" lon="10.54246"><ele>2122</ele></trkpt>
<trkpt lat="46.86488" lon="10.54229"><ele>2122</ele></trkpt>
<trkpt lat="46.86489" lon="10.54221"><ele>2122</ele></trkpt>
<trkpt lat="46.86489" lon="10.54205"><ele>2122</ele></trkpt>
<trkpt lat="46.86489" lon="10.542"><ele>2122</ele></trkpt>
<trkpt lat="46.86491" lon="10.54193"><ele>2122</ele></trkpt>
<trkpt lat="46.86491" lon="10.54192"><ele>2122</ele></trkpt>
<trkpt lat="46.86491" lon="10.5419"><ele>2122</ele></trkpt>
<trkpt lat="46.86491" lon="10.54187"><ele>2122</ele></trkpt>
<trkpt lat="46.86491" lon="10.54184"><ele>2122</ele></trkpt>
<trkpt lat="46.86493" lon="10.54169"><ele>2120</ele></trkpt>
<trkpt lat="46.86492" lon="10.54162"><ele>2123</ele></trkpt>
<trkpt lat="46.86489" lon="10.54155"><ele>2123</ele></trkpt>
<trkpt lat="46.8649" lon="10.54156"><ele>2123</ele></trkpt>
<trkpt lat="46.8649" lon="10.54154"><ele>2123</ele></trkpt>
<trkpt lat="46.86489" lon="10.54151"><ele>2124</ele></trkpt>
<trkpt lat="46.86491" lon="10.54141"><ele>2124</ele></trkpt>
<trkpt lat="46.86496" lon="10.54139"><ele>2121</ele></trkpt>
<trkpt lat="46.86503" lon="10.5414"><ele>2118</ele></trkpt>
<trkpt lat="46.86508" lon="10.54146"><ele>2118</ele></trkpt>
<trkpt lat="46.86518" lon="10.54147"><ele>2116</ele></trkpt>
<trkpt lat="46.86521" lon="10.54137"><ele>2114</ele></trkpt>
<trkpt lat="46.86519" lon="10.54125"><ele>2115</ele></trkpt>
<trkpt lat="46.86517" lon="10.54116"><ele>2117</ele></trkpt>
<trkpt lat="46.86519" lon="10.54098"><ele>2115</ele></trkpt>
<trkpt lat="46.86521" lon="10.54076"><ele>2115</ele></trkpt>
<trkpt lat="46.86525" lon="10.54055"><ele>2115</ele></trkpt>
<trkpt lat="46.8653" lon="10.54034"><ele>2112</ele></trkpt>
<trkpt lat="46.86532" lon="10.54025"><ele>2112</ele></trkpt>
<trkpt lat="46.86535" lon="10.54016"><ele>2112</ele></trkpt>
<trkpt lat="46.86538" lon="10.53996"><ele>2109</ele></trkpt>
<trkpt lat="46.86538" lon="10.53986"><ele>2108</ele></trkpt>
<trkpt lat="46.86542" lon="10.5398"><ele>2108</ele></trkpt>
<trkpt lat="46.86545" lon="10.53987"><ele>2106</ele></trkpt>
<trkpt lat="46.86549" lon="10.54006"><ele>2107</ele></trkpt>
<trkpt lat="46.8655" lon="10.54021"><ele>2107</ele></trkpt>
<trkpt lat="46.8656" lon="10.54032"><ele>2104</ele></trkpt>
<trkpt lat="46.86565" lon="10.54038"><ele>2102</ele></trkpt>
<trkpt lat="46.86569" lon="10.5405"><ele>2102</ele></trkpt>
<trkpt lat="46.86574" lon="10.54031"><ele>2099</ele></trkpt>
<trkpt lat="46.86571" lon="10.54023"><ele>2099</ele></trkpt>
<trkpt lat="46.86568" lon="10.54016"><ele>2102</ele></trkpt>
<trkpt lat="46.86566" lon="10.54"><ele>2102</ele></trkpt>
<trkpt lat="46.86565" lon="10.53982"><ele>2100</ele></trkpt>
<trkpt lat="46.86564" lon="10.53974"><ele>2100</ele></trkpt>
<trkpt lat="46.86562" lon="10.53957"><ele>2098</ele></trkpt>
<trkpt lat="46.86562" lon="10.53947"><ele>2096</ele></trkpt>
<trkpt lat="46.86561" lon="10.53938"><ele>2099</ele></trkpt>
<trkpt lat="46.86558" lon="10.53921"><ele>2095</ele></trkpt>
<trkpt lat="46.86555" lon="10.53913"><ele>2095</ele></trkpt>
<trkpt lat="46.86553" lon="10.53903"><ele>2096</ele></trkpt>
<trkpt lat="46.86548" lon="10.53882"><ele>2093</ele></trkpt>
<trkpt lat="46.86546" lon="10.53871"><ele>2091</ele></trkpt>
<trkpt lat="46.86544" lon="10.5386"><ele>2094</ele></trkpt>
<trkpt lat="46.86542" lon="10.5385"><ele>2093</ele></trkpt>
<trkpt lat="46.86538" lon="10.53829"><ele>2090</ele></trkpt>
<trkpt lat="46.86537" lon="10.53819"><ele>2089</ele></trkpt>
<trkpt lat="46.86534" lon="10.53807"><ele>2092</ele></trkpt>
<trkpt lat="46.86537" lon="10.53805"><ele>2090</ele></trkpt>
<trkpt lat="46.86541" lon="10.53804"><ele>2090</ele></trkpt>
<trkpt lat="46.86542" lon="10.53809"><ele>2089</ele></trkpt>
<trkpt lat="46.86544" lon="10.53817"><ele>2089</ele></trkpt>
<trkpt lat="46.86557" lon="10.53842"><ele>2085</ele></trkpt>
<trkpt lat="46.86567" lon="10.53858"><ele>2084</ele></trkpt>
<trkpt lat="46.86579" lon="10.53873"><ele>2085</ele></trkpt>
<trkpt lat="46.86583" lon="10.53882"><ele>2082</ele></trkpt>
<trkpt lat="46.86595" lon="10.53892"><ele>2082</ele></trkpt>
<trkpt lat="46.86607" lon="10.53906"><ele>2079</ele></trkpt>
<trkpt lat="46.8661" lon="10.53916"><ele>2080</ele></trkpt>
<trkpt lat="46.86614" lon="10.53925"><ele>2081</ele></trkpt>
<trkpt lat="46.86614" lon="10.53922"><ele>2080</ele></trkpt>
<trkpt lat="46.86613" lon="10.53923"><ele>2081</ele></trkpt>
<trkpt lat="46.86614" lon="10.53922"><ele>2080</ele></trkpt>
<trkpt lat="46.86614" lon="10.53923"><ele>2081</ele></trkpt>
<trkpt lat="46.86616" lon="10.53924"><ele>2078</ele></trkpt>
<trkpt lat="46.86617" lon="10.53925"><ele>2078</ele></trkpt>
<trkpt lat="46.86619" lon="10.53927"><ele>2078</ele></trkpt>
<trkpt lat="46.86624" lon="10.53935"><ele>2076</ele></trkpt>
<trkpt lat="46.86628" lon="10.53941"><ele>2077</ele></trkpt>
<trkpt lat="46.8663" lon="10.53944"><ele>2077</ele></trkpt>
<trkpt lat="46.86633" lon="10.5395"><ele>2076</ele></trkpt>
<trkpt lat="46.86636" lon="10.53952"><ele>2076</ele></trkpt>
<trkpt lat="46.8664" lon="10.53948"><ele>2076</ele></trkpt>
<trkpt lat="46.86639" lon="10.53941"><ele>2075</ele></trkpt>
<trkpt lat="46.86634" lon="10.53935"><ele>2073</ele></trkpt>
<trkpt lat="46.86635" lon="10.53936"><ele>2075</ele></trkpt>
<trkpt lat="46.86634" lon="10.53935"><ele>2073</ele></trkpt>
<trkpt lat="46.86634" lon="10.53934"><ele>2073</ele></trkpt>
<trkpt lat="46.86635" lon="10.53934"><ele>2073</ele></trkpt>
<trkpt lat="46.86634" lon="10.53933"><ele>2073</ele></trkpt>
<trkpt lat="46.86633" lon="10.53931"><ele>2073</ele></trkpt>
<trkpt lat="46.8663" lon="10.53926"><ele>2076</ele></trkpt>
<trkpt lat="46.86628" lon="10.53917"><ele>2074</ele></trkpt>
<trkpt lat="46.86625" lon="10.53909"><ele>2072</ele></trkpt>
<trkpt lat="46.86621" lon="10.53895"><ele>2074</ele></trkpt>
<trkpt lat="46.86617" lon="10.53889"><ele>2074</ele></trkpt>
<trkpt lat="46.86624" lon="10.53884"><ele>2069</ele></trkpt>
<trkpt lat="46.8663" lon="10.53889"><ele>2071</ele></trkpt>
<trkpt lat="46.86639" lon="10.53894"><ele>2069</ele></trkpt>
<trkpt lat="46.8664" lon="10.53892"><ele>2069</ele></trkpt>
<trkpt lat="46.86642" lon="10.5389"><ele>2067</ele></trkpt>
<trkpt lat="46.86643" lon="10.53889"><ele>2067</ele></trkpt>
<trkpt lat="46.86645" lon="10.53888"><ele>2067</ele></trkpt>
<trkpt lat="46.8665" lon="10.53887"><ele>2065</ele></trkpt>
<trkpt lat="46.86652" lon="10.53887"><ele>2065</ele></trkpt>
<trkpt lat="46.86655" lon="10.53886"><ele>2065</ele></trkpt>
<trkpt lat="46.86656" lon="10.53886"><ele>2065</ele></trkpt>
<trkpt lat="46.86655" lon="10.53886"><ele>2065</ele></trkpt>

				</trkseg>
		  </trk>
		</gpx>
		