<?xml version="1.0" encoding="utf-8"?>
		<gpx xmlns="http://www.topografix.com/GPX/1/1" xmlns:xsd="http://www.w3.org/2001/XMLSchema" xmlns:xsi="http://www.w3.org/2001/XMLSchema-instance" version="1.1" creator="Fugawi 4,5,14,1696 http://www.fugawi.com/" xsi:schemaLocation="http://www.topografix.com/GPX/1/1 http://www.topografix.com/GPX/1/1/gpx.xsd">
			<trk>
				<name>Gorf Trail</name>
				<desc></desc>
				<trkseg>
					<trkpt lat="46.79012" lon="10.52035"><ele>1718</ele></trkpt>
<trkpt lat="46.79012" lon="10.52028"><ele>1719</ele></trkpt>
<trkpt lat="46.79186" lon="10.52158"><ele>1660</ele></trkpt>
<trkpt lat="46.79311" lon="10.52194"><ele>1635</ele></trkpt>
<trkpt lat="46.79453" lon="10.522"><ele>1618</ele></trkpt>
<trkpt lat="46.79618" lon="10.52083"><ele>1638</ele></trkpt>
<trkpt lat="46.79789" lon="10.52064"><ele>1644</ele></trkpt>
<trkpt lat="46.79837" lon="10.52167"><ele>1610</ele></trkpt>
<trkpt lat="46.79976" lon="10.52176"><ele>1592</ele></trkpt>
<trkpt lat="46.80052" lon="10.52161"><ele>1581</ele></trkpt>

				</trkseg>
		  </trk>
		</gpx>
		