<?xml version="1.0" encoding="UTF-8"?><gpx xmlns="http://www.topografix.com/GPX/1/1" creator="CONTWISE MAPS" xsi:schemaLocation="http://www.topografix.com/GPX/1/1 http://www.topografix.com/GPX/1/1/gpx.xsd http://www.topografix.com/GPX/gpx_overlay/0/3 http://www.topografix.com/GPX/gpx_overlay/0/3/gpx_overlay.xsd http://www.topografix.com/GPX/gpx_modified/0/1 http://www.topografix.com/GPX/gpx_modified/0/1/gpx_modified.xsd http://www.topografix.com/GPX/Private/TopoGrafix/0/3 http://www.topografix.com/GPX/Private/TopoGrafix/0/3/topografix.xsd" xmlns:xsi="http://www.w3.org/2001/XMLSchema-instance" version="1.1"><wpt lon="10.53824" lat="46.86536"><ele><![CDATA[2090]]></ele><name><![CDATA[gpx-upload_track_3_132957371]]></name></wpt>
<trk><name><![CDATA[gpx-upload_track_1_132957369]]></name><extensions><label xmlns="http://www.topografix.com/GPX/gpx_overlay/0/3"></label>
</extensions>
<trkseg><trkpt lon="10.54041" lat="46.86282"><ele><![CDATA[2172]]></ele></trkpt>
<trkpt lon="10.54033" lat="46.86286"><ele><![CDATA[2172]]></ele></trkpt>
<trkpt lon="10.54028" lat="46.86287"><ele><![CDATA[2172]]></ele></trkpt>
<trkpt lon="10.54011" lat="46.86287"><ele><![CDATA[2172]]></ele></trkpt>
<trkpt lon="10.53982" lat="46.86284"><ele><![CDATA[2171]]></ele></trkpt>
<trkpt lon="10.53971" lat="46.86287"><ele><![CDATA[2171]]></ele></trkpt>
<trkpt lon="10.53962" lat="46.86289"><ele><![CDATA[2171]]></ele></trkpt>
<trkpt lon="10.53956" lat="46.86295"><ele><![CDATA[2171]]></ele></trkpt>
<trkpt lon="10.53936" lat="46.863"><ele><![CDATA[2167]]></ele></trkpt>
<trkpt lon="10.53926" lat="46.86301"><ele><![CDATA[2167]]></ele></trkpt>
<trkpt lon="10.5391" lat="46.86306"><ele><![CDATA[2167]]></ele></trkpt>
<trkpt lon="10.53905" lat="46.86311"><ele><![CDATA[2167]]></ele></trkpt>
<trkpt lon="10.53891" lat="46.86316"><ele><![CDATA[2161]]></ele></trkpt>
<trkpt lon="10.53878" lat="46.86323"><ele><![CDATA[2161]]></ele></trkpt>
<trkpt lon="10.5384" lat="46.86339"><ele><![CDATA[2161]]></ele></trkpt>
<trkpt lon="10.53797" lat="46.86344"><ele><![CDATA[2161]]></ele></trkpt>
<trkpt lon="10.53783" lat="46.86347"><ele><![CDATA[2157]]></ele></trkpt>
<trkpt lon="10.53771" lat="46.86353"><ele><![CDATA[2157]]></ele></trkpt>
<trkpt lon="10.53771" lat="46.86358"><ele><![CDATA[2157]]></ele></trkpt>
<trkpt lon="10.53772" lat="46.86361"><ele><![CDATA[2157]]></ele></trkpt>
<trkpt lon="10.53774" lat="46.86363"><ele><![CDATA[2152]]></ele></trkpt>
<trkpt lon="10.53772" lat="46.86365"><ele><![CDATA[2152]]></ele></trkpt>
<trkpt lon="10.53769" lat="46.86365"><ele><![CDATA[2152]]></ele></trkpt>
<trkpt lon="10.53765" lat="46.86364"><ele><![CDATA[2152]]></ele></trkpt>
<trkpt lon="10.53765" lat="46.86362"><ele><![CDATA[2150]]></ele></trkpt>
<trkpt lon="10.53764" lat="46.86359"><ele><![CDATA[2150]]></ele></trkpt>
<trkpt lon="10.53763" lat="46.86356"><ele><![CDATA[2150]]></ele></trkpt>
<trkpt lon="10.53762" lat="46.86353"><ele><![CDATA[2150]]></ele></trkpt>
<trkpt lon="10.53762" lat="46.86351"><ele><![CDATA[2153]]></ele></trkpt>
<trkpt lon="10.53758" lat="46.8635"><ele><![CDATA[2153]]></ele></trkpt>
<trkpt lon="10.53755" lat="46.8635"><ele><![CDATA[2153]]></ele></trkpt>
<trkpt lon="10.53754" lat="46.86353"><ele><![CDATA[2153]]></ele></trkpt>
<trkpt lon="10.53754" lat="46.86355"><ele><![CDATA[2150]]></ele></trkpt>
<trkpt lon="10.53752" lat="46.86358"><ele><![CDATA[2150]]></ele></trkpt>
<trkpt lon="10.53755" lat="46.86363"><ele><![CDATA[2150]]></ele></trkpt>
<trkpt lon="10.53771" lat="46.86372"><ele><![CDATA[2150]]></ele></trkpt>
<trkpt lon="10.53788" lat="46.86382"><ele><![CDATA[2147]]></ele></trkpt>
<trkpt lon="10.538" lat="46.86388"><ele><![CDATA[2147]]></ele></trkpt>
<trkpt lon="10.53805" lat="46.8639"><ele><![CDATA[2147]]></ele></trkpt>
<trkpt lon="10.53816" lat="46.86393"><ele><![CDATA[2147]]></ele></trkpt>
<trkpt lon="10.53821" lat="46.86396"><ele><![CDATA[2149]]></ele></trkpt>
<trkpt lon="10.53823" lat="46.86399"><ele><![CDATA[2149]]></ele></trkpt>
<trkpt lon="10.53824" lat="46.86405"><ele><![CDATA[2149]]></ele></trkpt>
<trkpt lon="10.53815" lat="46.8641"><ele><![CDATA[2149]]></ele></trkpt>
<trkpt lon="10.53813" lat="46.86411"><ele><![CDATA[2144]]></ele></trkpt>
<trkpt lon="10.53812" lat="46.86413"><ele><![CDATA[2144]]></ele></trkpt>
<trkpt lon="10.53812" lat="46.86416"><ele><![CDATA[2144]]></ele></trkpt>
<trkpt lon="10.53815" lat="46.86418"><ele><![CDATA[2144]]></ele></trkpt>
<trkpt lon="10.53824" lat="46.86419"><ele><![CDATA[2142]]></ele></trkpt>
<trkpt lon="10.53832" lat="46.86421"><ele><![CDATA[2142]]></ele></trkpt>
<trkpt lon="10.53836" lat="46.86423"><ele><![CDATA[2142]]></ele></trkpt>
<trkpt lon="10.53856" lat="46.86426"><ele><![CDATA[2142]]></ele></trkpt>
<trkpt lon="10.53875" lat="46.86433"><ele><![CDATA[2136]]></ele></trkpt>
<trkpt lon="10.53891" lat="46.86439"><ele><![CDATA[2136]]></ele></trkpt>
<trkpt lon="10.53914" lat="46.86442"><ele><![CDATA[2136]]></ele></trkpt>
<trkpt lon="10.53919" lat="46.86442"><ele><![CDATA[2136]]></ele></trkpt>
<trkpt lon="10.53925" lat="46.86443"><ele><![CDATA[2134]]></ele></trkpt>
<trkpt lon="10.53928" lat="46.86443"><ele><![CDATA[2134]]></ele></trkpt>
</trkseg>
</trk>
<trk><name><![CDATA[gpx-upload_track_2_132957370]]></name><extensions><label xmlns="http://www.topografix.com/GPX/gpx_overlay/0/3"></label>
</extensions>
<trkseg><trkpt lon="10.53928" lat="46.86443"><ele><![CDATA[2134]]></ele></trkpt>
<trkpt lon="10.53931" lat="46.86443"><ele><![CDATA[2134]]></ele></trkpt>
<trkpt lon="10.53934" lat="46.86444"><ele><![CDATA[2134]]></ele></trkpt>
<trkpt lon="10.53938" lat="46.86445"><ele><![CDATA[2134]]></ele></trkpt>
<trkpt lon="10.5397" lat="46.86455"><ele><![CDATA[2133]]></ele></trkpt>
<trkpt lon="10.53975" lat="46.86455"><ele><![CDATA[2133]]></ele></trkpt>
<trkpt lon="10.53991" lat="46.8646"><ele><![CDATA[2133]]></ele></trkpt>
<trkpt lon="10.54012" lat="46.86472"><ele><![CDATA[2133]]></ele></trkpt>
<trkpt lon="10.54022" lat="46.86474"><ele><![CDATA[2131]]></ele></trkpt>
<trkpt lon="10.54035" lat="46.86474"><ele><![CDATA[2131]]></ele></trkpt>
<trkpt lon="10.54049" lat="46.86477"><ele><![CDATA[2131]]></ele></trkpt>
<trkpt lon="10.54062" lat="46.86475"><ele><![CDATA[2131]]></ele></trkpt>
<trkpt lon="10.54069" lat="46.86475"><ele><![CDATA[2128]]></ele></trkpt>
<trkpt lon="10.54072" lat="46.86475"><ele><![CDATA[2128]]></ele></trkpt>
<trkpt lon="10.54074" lat="46.86476"><ele><![CDATA[2128]]></ele></trkpt>
<trkpt lon="10.54075" lat="46.86478"><ele><![CDATA[2128]]></ele></trkpt>
<trkpt lon="10.54075" lat="46.8648"><ele><![CDATA[2128]]></ele></trkpt>
<trkpt lon="10.54074" lat="46.86482"><ele><![CDATA[2128]]></ele></trkpt>
<trkpt lon="10.54072" lat="46.86483"><ele><![CDATA[2128]]></ele></trkpt>
<trkpt lon="10.54066" lat="46.86485"><ele><![CDATA[2128]]></ele></trkpt>
<trkpt lon="10.54058" lat="46.86487"><ele><![CDATA[2126]]></ele></trkpt>
<trkpt lon="10.54046" lat="46.86488"><ele><![CDATA[2126]]></ele></trkpt>
<trkpt lon="10.54036" lat="46.86487"><ele><![CDATA[2126]]></ele></trkpt>
<trkpt lon="10.54029" lat="46.86485"><ele><![CDATA[2126]]></ele></trkpt>
<trkpt lon="10.54024" lat="46.86486"><ele><![CDATA[2125]]></ele></trkpt>
<trkpt lon="10.54022" lat="46.86487"><ele><![CDATA[2125]]></ele></trkpt>
<trkpt lon="10.5402" lat="46.86491"><ele><![CDATA[2125]]></ele></trkpt>
<trkpt lon="10.54023" lat="46.86494"><ele><![CDATA[2125]]></ele></trkpt>
<trkpt lon="10.54031" lat="46.86496"><ele><![CDATA[2123]]></ele></trkpt>
<trkpt lon="10.54041" lat="46.86496"><ele><![CDATA[2123]]></ele></trkpt>
<trkpt lon="10.54054" lat="46.86498"><ele><![CDATA[2123]]></ele></trkpt>
<trkpt lon="10.54085" lat="46.86498"><ele><![CDATA[2123]]></ele></trkpt>
<trkpt lon="10.54094" lat="46.86497"><ele><![CDATA[2122]]></ele></trkpt>
<trkpt lon="10.54101" lat="46.86495"><ele><![CDATA[2122]]></ele></trkpt>
<trkpt lon="10.54107" lat="46.86494"><ele><![CDATA[2122]]></ele></trkpt>
<trkpt lon="10.54113" lat="46.86494"><ele><![CDATA[2122]]></ele></trkpt>
<trkpt lon="10.54119" lat="46.86494"><ele><![CDATA[2122]]></ele></trkpt>
<trkpt lon="10.54128" lat="46.86493"><ele><![CDATA[2122]]></ele></trkpt>
<trkpt lon="10.54136" lat="46.86494"><ele><![CDATA[2122]]></ele></trkpt>
<trkpt lon="10.54138" lat="46.86495"><ele><![CDATA[2122]]></ele></trkpt>
<trkpt lon="10.54141" lat="46.86502"><ele><![CDATA[2118]]></ele></trkpt>
<trkpt lon="10.54142" lat="46.86504"><ele><![CDATA[2118]]></ele></trkpt>
<trkpt lon="10.54145" lat="46.86505"><ele><![CDATA[2118]]></ele></trkpt>
<trkpt lon="10.54149" lat="46.86505"><ele><![CDATA[2118]]></ele></trkpt>
<trkpt lon="10.54152" lat="46.86505"><ele><![CDATA[2118]]></ele></trkpt>
<trkpt lon="10.54155" lat="46.86506"><ele><![CDATA[2118]]></ele></trkpt>
<trkpt lon="10.54157" lat="46.86509"><ele><![CDATA[2118]]></ele></trkpt>
<trkpt lon="10.54158" lat="46.86511"><ele><![CDATA[2118]]></ele></trkpt>
<trkpt lon="10.54157" lat="46.86512"><ele><![CDATA[2116]]></ele></trkpt>
<trkpt lon="10.54155" lat="46.86515"><ele><![CDATA[2116]]></ele></trkpt>
<trkpt lon="10.54153" lat="46.86518"><ele><![CDATA[2116]]></ele></trkpt>
<trkpt lon="10.54153" lat="46.86519"><ele><![CDATA[2116]]></ele></trkpt>
<trkpt lon="10.54153" lat="46.86523"><ele><![CDATA[2114]]></ele></trkpt>
<trkpt lon="10.54152" lat="46.86524"><ele><![CDATA[2114]]></ele></trkpt>
<trkpt lon="10.5415" lat="46.86525"><ele><![CDATA[2114]]></ele></trkpt>
<trkpt lon="10.54145" lat="46.86526"><ele><![CDATA[2114]]></ele></trkpt>
<trkpt lon="10.54138" lat="46.86526"><ele><![CDATA[2114]]></ele></trkpt>
<trkpt lon="10.54133" lat="46.86526"><ele><![CDATA[2114]]></ele></trkpt>
<trkpt lon="10.54125" lat="46.86528"><ele><![CDATA[2114]]></ele></trkpt>
<trkpt lon="10.54118" lat="46.86528"><ele><![CDATA[2114]]></ele></trkpt>
<trkpt lon="10.54112" lat="46.86527"><ele><![CDATA[2115]]></ele></trkpt>
<trkpt lon="10.54101" lat="46.86523"><ele><![CDATA[2115]]></ele></trkpt>
<trkpt lon="10.54091" lat="46.86521"><ele><![CDATA[2115]]></ele></trkpt>
<trkpt lon="10.54075" lat="46.86521"><ele><![CDATA[2115]]></ele></trkpt>
<trkpt lon="10.54046" lat="46.86524"><ele><![CDATA[2114]]></ele></trkpt>
<trkpt lon="10.5404" lat="46.86526"><ele><![CDATA[2114]]></ele></trkpt>
<trkpt lon="10.54028" lat="46.86527"><ele><![CDATA[2114]]></ele></trkpt>
<trkpt lon="10.53999" lat="46.86533"><ele><![CDATA[2114]]></ele></trkpt>
<trkpt lon="10.53991" lat="46.86535"><ele><![CDATA[2112]]></ele></trkpt>
<trkpt lon="10.53982" lat="46.86535"><ele><![CDATA[2112]]></ele></trkpt>
<trkpt lon="10.53976" lat="46.86534"><ele><![CDATA[2112]]></ele></trkpt>
<trkpt lon="10.53974" lat="46.86533"><ele><![CDATA[2112]]></ele></trkpt>
<trkpt lon="10.53972" lat="46.86532"><ele><![CDATA[2110]]></ele></trkpt>
<trkpt lon="10.53971" lat="46.86532"><ele><![CDATA[2110]]></ele></trkpt>
<trkpt lon="10.53968" lat="46.86534"><ele><![CDATA[2110]]></ele></trkpt>
<trkpt lon="10.53967" lat="46.86536"><ele><![CDATA[2110]]></ele></trkpt>
<trkpt lon="10.53968" lat="46.86538"><ele><![CDATA[2108]]></ele></trkpt>
<trkpt lon="10.53969" lat="46.86539"><ele><![CDATA[2108]]></ele></trkpt>
<trkpt lon="10.5397" lat="46.8654"><ele><![CDATA[2108]]></ele></trkpt>
<trkpt lon="10.53978" lat="46.86542"><ele><![CDATA[2108]]></ele></trkpt>
<trkpt lon="10.54011" lat="46.8655"><ele><![CDATA[2107]]></ele></trkpt>
<trkpt lon="10.54032" lat="46.86553"><ele><![CDATA[2107]]></ele></trkpt>
<trkpt lon="10.54049" lat="46.86568"><ele><![CDATA[2107]]></ele></trkpt>
<trkpt lon="10.54049" lat="46.86571"><ele><![CDATA[2107]]></ele></trkpt>
<trkpt lon="10.54046" lat="46.86573"><ele><![CDATA[2099]]></ele></trkpt>
<trkpt lon="10.54043" lat="46.86575"><ele><![CDATA[2099]]></ele></trkpt>
<trkpt lon="10.54036" lat="46.86576"><ele><![CDATA[2099]]></ele></trkpt>
<trkpt lon="10.54023" lat="46.86571"><ele><![CDATA[2099]]></ele></trkpt>
<trkpt lon="10.54002" lat="46.86568"><ele><![CDATA[2102]]></ele></trkpt>
<trkpt lon="10.53987" lat="46.86566"><ele><![CDATA[2102]]></ele></trkpt>
<trkpt lon="10.5398" lat="46.86565"><ele><![CDATA[2102]]></ele></trkpt>
<trkpt lon="10.53962" lat="46.86563"><ele><![CDATA[2102]]></ele></trkpt>
<trkpt lon="10.5395" lat="46.8656"><ele><![CDATA[2100]]></ele></trkpt>
<trkpt lon="10.53946" lat="46.86561"><ele><![CDATA[2100]]></ele></trkpt>
<trkpt lon="10.53944" lat="46.86564"><ele><![CDATA[2100]]></ele></trkpt>
<trkpt lon="10.53946" lat="46.86567"><ele><![CDATA[2100]]></ele></trkpt>
<trkpt lon="10.53955" lat="46.86569"><ele><![CDATA[2098]]></ele></trkpt>
<trkpt lon="10.53967" lat="46.86574"><ele><![CDATA[2098]]></ele></trkpt>
<trkpt lon="10.53976" lat="46.86579"><ele><![CDATA[2098]]></ele></trkpt>
<trkpt lon="10.53993" lat="46.86586"><ele><![CDATA[2098]]></ele></trkpt>
<trkpt lon="10.54015" lat="46.86597"><ele><![CDATA[2090]]></ele></trkpt>
<trkpt lon="10.54015" lat="46.86598"><ele><![CDATA[2090]]></ele></trkpt>
<trkpt lon="10.54015" lat="46.866"><ele><![CDATA[2090]]></ele></trkpt>
<trkpt lon="10.54012" lat="46.86601"><ele><![CDATA[2090]]></ele></trkpt>
<trkpt lon="10.54008" lat="46.866"><ele><![CDATA[2089]]></ele></trkpt>
<trkpt lon="10.54003" lat="46.86599"><ele><![CDATA[2089]]></ele></trkpt>
<trkpt lon="10.53992" lat="46.86595"><ele><![CDATA[2089]]></ele></trkpt>
<trkpt lon="10.53977" lat="46.86589"><ele><![CDATA[2089]]></ele></trkpt>
<trkpt lon="10.53952" lat="46.86585"><ele><![CDATA[2093]]></ele></trkpt>
<trkpt lon="10.53934" lat="46.86579"><ele><![CDATA[2093]]></ele></trkpt>
<trkpt lon="10.53929" lat="46.86577"><ele><![CDATA[2093]]></ele></trkpt>
<trkpt lon="10.53905" lat="46.86566"><ele><![CDATA[2093]]></ele></trkpt>
<trkpt lon="10.5388" lat="46.86556"><ele><![CDATA[2090]]></ele></trkpt>
<trkpt lon="10.5385" lat="46.86547"><ele><![CDATA[2090]]></ele></trkpt>
<trkpt lon="10.53839" lat="46.86542"><ele><![CDATA[2090]]></ele></trkpt>
<trkpt lon="10.53828" lat="46.86537"><ele><![CDATA[2090]]></ele></trkpt>
<trkpt lon="10.53824" lat="46.86536"><ele><![CDATA[2090]]></ele></trkpt>
</trkseg>
</trk>
<trk><name><![CDATA[gpx-upload_track_4_132957372]]></name><extensions><label xmlns="http://www.topografix.com/GPX/gpx_overlay/0/3"></label>
</extensions>
<trkseg><trkpt lon="10.53824" lat="46.86536"><ele><![CDATA[2090]]></ele></trkpt>
<trkpt lon="10.53824" lat="46.86536"><ele><![CDATA[2090]]></ele></trkpt>
<trkpt lon="10.53815" lat="46.86534"><ele><![CDATA[2090]]></ele></trkpt>
<trkpt lon="10.53812" lat="46.86534"><ele><![CDATA[2090]]></ele></trkpt>
<trkpt lon="10.53809" lat="46.86535"><ele><![CDATA[2092]]></ele></trkpt>
<trkpt lon="10.53807" lat="46.86535"><ele><![CDATA[2092]]></ele></trkpt>
<trkpt lon="10.53802" lat="46.86535"><ele><![CDATA[2092]]></ele></trkpt>
<trkpt lon="10.53799" lat="46.86534"><ele><![CDATA[2092]]></ele></trkpt>
<trkpt lon="10.53795" lat="46.86533"><ele><![CDATA[2092]]></ele></trkpt>
<trkpt lon="10.5379" lat="46.86534"><ele><![CDATA[2092]]></ele></trkpt>
<trkpt lon="10.53785" lat="46.86534"><ele><![CDATA[2092]]></ele></trkpt>
<trkpt lon="10.53764" lat="46.86527"><ele><![CDATA[2092]]></ele></trkpt>
<trkpt lon="10.53755" lat="46.86526"><ele><![CDATA[2090]]></ele></trkpt>
<trkpt lon="10.53748" lat="46.86522"><ele><![CDATA[2090]]></ele></trkpt>
<trkpt lon="10.53737" lat="46.8652"><ele><![CDATA[2090]]></ele></trkpt>
<trkpt lon="10.5373" lat="46.86514"><ele><![CDATA[2090]]></ele></trkpt>
<trkpt lon="10.53725" lat="46.86513"><ele><![CDATA[2088]]></ele></trkpt>
<trkpt lon="10.53723" lat="46.86518"><ele><![CDATA[2088]]></ele></trkpt>
<trkpt lon="10.53721" lat="46.86527"><ele><![CDATA[2088]]></ele></trkpt>
<trkpt lon="10.53723" lat="46.86536"><ele><![CDATA[2088]]></ele></trkpt>
<trkpt lon="10.5373" lat="46.86541"><ele><![CDATA[2084]]></ele></trkpt>
<trkpt lon="10.53734" lat="46.86546"><ele><![CDATA[2084]]></ele></trkpt>
<trkpt lon="10.53742" lat="46.86548"><ele><![CDATA[2084]]></ele></trkpt>
<trkpt lon="10.53756" lat="46.86556"><ele><![CDATA[2084]]></ele></trkpt>
<trkpt lon="10.53761" lat="46.86555"><ele><![CDATA[2082]]></ele></trkpt>
<trkpt lon="10.53767" lat="46.86556"><ele><![CDATA[2082]]></ele></trkpt>
<trkpt lon="10.5377" lat="46.86557"><ele><![CDATA[2082]]></ele></trkpt>
<trkpt lon="10.53772" lat="46.86559"><ele><![CDATA[2082]]></ele></trkpt>
<trkpt lon="10.53774" lat="46.86561"><ele><![CDATA[2083]]></ele></trkpt>
<trkpt lon="10.53774" lat="46.86564"><ele><![CDATA[2083]]></ele></trkpt>
<trkpt lon="10.5377" lat="46.86566"><ele><![CDATA[2083]]></ele></trkpt>
<trkpt lon="10.53765" lat="46.86567"><ele><![CDATA[2083]]></ele></trkpt>
<trkpt lon="10.53762" lat="46.86566"><ele><![CDATA[2079]]></ele></trkpt>
<trkpt lon="10.53759" lat="46.86568"><ele><![CDATA[2079]]></ele></trkpt>
<trkpt lon="10.53758" lat="46.86569"><ele><![CDATA[2079]]></ele></trkpt>
<trkpt lon="10.53757" lat="46.86571"><ele><![CDATA[2079]]></ele></trkpt>
<trkpt lon="10.53758" lat="46.86572"><ele><![CDATA[2076]]></ele></trkpt>
<trkpt lon="10.5376" lat="46.86574"><ele><![CDATA[2076]]></ele></trkpt>
<trkpt lon="10.53764" lat="46.86574"><ele><![CDATA[2076]]></ele></trkpt>
<trkpt lon="10.53774" lat="46.86573"><ele><![CDATA[2076]]></ele></trkpt>
<trkpt lon="10.53777" lat="46.86572"><ele><![CDATA[2076]]></ele></trkpt>
<trkpt lon="10.53778" lat="46.86572"><ele><![CDATA[2076]]></ele></trkpt>
<trkpt lon="10.53781" lat="46.86575"><ele><![CDATA[2076]]></ele></trkpt>
<trkpt lon="10.53781" lat="46.86577"><ele><![CDATA[2076]]></ele></trkpt>
<trkpt lon="10.5378" lat="46.86581"><ele><![CDATA[2072]]></ele></trkpt>
<trkpt lon="10.53775" lat="46.86583"><ele><![CDATA[2072]]></ele></trkpt>
<trkpt lon="10.53771" lat="46.86585"><ele><![CDATA[2072]]></ele></trkpt>
<trkpt lon="10.53765" lat="46.86584"><ele><![CDATA[2072]]></ele></trkpt>
<trkpt lon="10.53761" lat="46.86583"><ele><![CDATA[2073]]></ele></trkpt>
<trkpt lon="10.53755" lat="46.86584"><ele><![CDATA[2073]]></ele></trkpt>
<trkpt lon="10.53753" lat="46.86586"><ele><![CDATA[2073]]></ele></trkpt>
<trkpt lon="10.53753" lat="46.86587"><ele><![CDATA[2073]]></ele></trkpt>
<trkpt lon="10.53754" lat="46.86589"><ele><![CDATA[2068]]></ele></trkpt>
<trkpt lon="10.53755" lat="46.8659"><ele><![CDATA[2068]]></ele></trkpt>
<trkpt lon="10.53758" lat="46.86591"><ele><![CDATA[2068]]></ele></trkpt>
<trkpt lon="10.53759" lat="46.86592"><ele><![CDATA[2068]]></ele></trkpt>
<trkpt lon="10.53759" lat="46.86593"><ele><![CDATA[2068]]></ele></trkpt>
<trkpt lon="10.53758" lat="46.86595"><ele><![CDATA[2068]]></ele></trkpt>
<trkpt lon="10.53756" lat="46.86596"><ele><![CDATA[2068]]></ele></trkpt>
<trkpt lon="10.53753" lat="46.86597"><ele><![CDATA[2068]]></ele></trkpt>
<trkpt lon="10.53748" lat="46.86596"><ele><![CDATA[2068]]></ele></trkpt>
<trkpt lon="10.53745" lat="46.86595"><ele><![CDATA[2068]]></ele></trkpt>
<trkpt lon="10.53741" lat="46.86592"><ele><![CDATA[2068]]></ele></trkpt>
<trkpt lon="10.53731" lat="46.86589"><ele><![CDATA[2068]]></ele></trkpt>
<trkpt lon="10.53725" lat="46.86586"><ele><![CDATA[2071]]></ele></trkpt>
<trkpt lon="10.53714" lat="46.86585"><ele><![CDATA[2071]]></ele></trkpt>
<trkpt lon="10.53711" lat="46.86584"><ele><![CDATA[2071]]></ele></trkpt>
<trkpt lon="10.53704" lat="46.86584"><ele><![CDATA[2071]]></ele></trkpt>
<trkpt lon="10.53698" lat="46.86584"><ele><![CDATA[2067]]></ele></trkpt>
<trkpt lon="10.53692" lat="46.86581"><ele><![CDATA[2067]]></ele></trkpt>
<trkpt lon="10.53685" lat="46.86578"><ele><![CDATA[2067]]></ele></trkpt>
<trkpt lon="10.5368" lat="46.86577"><ele><![CDATA[2067]]></ele></trkpt>
<trkpt lon="10.53674" lat="46.86574"><ele><![CDATA[2065]]></ele></trkpt>
<trkpt lon="10.5367" lat="46.86572"><ele><![CDATA[2065]]></ele></trkpt>
<trkpt lon="10.53667" lat="46.86572"><ele><![CDATA[2065]]></ele></trkpt>
<trkpt lon="10.53666" lat="46.86572"><ele><![CDATA[2065]]></ele></trkpt>
<trkpt lon="10.53665" lat="46.86572"><ele><![CDATA[2063]]></ele></trkpt>
<trkpt lon="10.53664" lat="46.86573"><ele><![CDATA[2063]]></ele></trkpt>
<trkpt lon="10.53664" lat="46.86575"><ele><![CDATA[2063]]></ele></trkpt>
<trkpt lon="10.53665" lat="46.86577"><ele><![CDATA[2063]]></ele></trkpt>
<trkpt lon="10.53667" lat="46.86578"><ele><![CDATA[2065]]></ele></trkpt>
<trkpt lon="10.53667" lat="46.86579"><ele><![CDATA[2065]]></ele></trkpt>
<trkpt lon="10.53667" lat="46.86581"><ele><![CDATA[2065]]></ele></trkpt>
<trkpt lon="10.53666" lat="46.86582"><ele><![CDATA[2065]]></ele></trkpt>
<trkpt lon="10.53664" lat="46.86583"><ele><![CDATA[2060]]></ele></trkpt>
<trkpt lon="10.53662" lat="46.86584"><ele><![CDATA[2060]]></ele></trkpt>
<trkpt lon="10.53657" lat="46.86584"><ele><![CDATA[2060]]></ele></trkpt>
<trkpt lon="10.53653" lat="46.86582"><ele><![CDATA[2060]]></ele></trkpt>
<trkpt lon="10.53651" lat="46.8658"><ele><![CDATA[2058]]></ele></trkpt>
<trkpt lon="10.53651" lat="46.86578"><ele><![CDATA[2058]]></ele></trkpt>
<trkpt lon="10.53648" lat="46.86575"><ele><![CDATA[2058]]></ele></trkpt>
<trkpt lon="10.53648" lat="46.8657"><ele><![CDATA[2058]]></ele></trkpt>
<trkpt lon="10.53648" lat="46.86568"><ele><![CDATA[2062]]></ele></trkpt>
<trkpt lon="10.53646" lat="46.86566"><ele><![CDATA[2062]]></ele></trkpt>
<trkpt lon="10.53644" lat="46.86562"><ele><![CDATA[2062]]></ele></trkpt>
<trkpt lon="10.53634" lat="46.86562"><ele><![CDATA[2062]]></ele></trkpt>
<trkpt lon="10.53624" lat="46.8656"><ele><![CDATA[2059]]></ele></trkpt>
<trkpt lon="10.5362" lat="46.86556"><ele><![CDATA[2059]]></ele></trkpt>
<trkpt lon="10.53614" lat="46.86551"><ele><![CDATA[2059]]></ele></trkpt>
<trkpt lon="10.5361" lat="46.86547"><ele><![CDATA[2059]]></ele></trkpt>
<trkpt lon="10.53605" lat="46.86545"><ele><![CDATA[2058]]></ele></trkpt>
<trkpt lon="10.53603" lat="46.86542"><ele><![CDATA[2058]]></ele></trkpt>
<trkpt lon="10.53603" lat="46.86541"><ele><![CDATA[2058]]></ele></trkpt>
<trkpt lon="10.536" lat="46.8654"><ele><![CDATA[2058]]></ele></trkpt>
<trkpt lon="10.53596" lat="46.86541"><ele><![CDATA[2058]]></ele></trkpt>
<trkpt lon="10.53595" lat="46.86543"><ele><![CDATA[2058]]></ele></trkpt>
<trkpt lon="10.53595" lat="46.86545"><ele><![CDATA[2058]]></ele></trkpt>
<trkpt lon="10.53597" lat="46.86547"><ele><![CDATA[2058]]></ele></trkpt>
<trkpt lon="10.53599" lat="46.86547"><ele><![CDATA[2056]]></ele></trkpt>
<trkpt lon="10.536" lat="46.86548"><ele><![CDATA[2056]]></ele></trkpt>
<trkpt lon="10.53603" lat="46.86549"><ele><![CDATA[2056]]></ele></trkpt>
<trkpt lon="10.53604" lat="46.8655"><ele><![CDATA[2056]]></ele></trkpt>
<trkpt lon="10.53604" lat="46.86551"><ele><![CDATA[2058]]></ele></trkpt>
<trkpt lon="10.53603" lat="46.86552"><ele><![CDATA[2058]]></ele></trkpt>
<trkpt lon="10.53602" lat="46.86553"><ele><![CDATA[2058]]></ele></trkpt>
<trkpt lon="10.53598" lat="46.86552"><ele><![CDATA[2058]]></ele></trkpt>
<trkpt lon="10.53596" lat="46.86551"><ele><![CDATA[2056]]></ele></trkpt>
<trkpt lon="10.53594" lat="46.86551"><ele><![CDATA[2056]]></ele></trkpt>
<trkpt lon="10.53591" lat="46.86551"><ele><![CDATA[2056]]></ele></trkpt>
<trkpt lon="10.53589" lat="46.86551"><ele><![CDATA[2056]]></ele></trkpt>
<trkpt lon="10.53588" lat="46.86552"><ele><![CDATA[2052]]></ele></trkpt>
<trkpt lon="10.53587" lat="46.86553"><ele><![CDATA[2052]]></ele></trkpt>
<trkpt lon="10.53588" lat="46.86554"><ele><![CDATA[2052]]></ele></trkpt>
<trkpt lon="10.53588" lat="46.86556"><ele><![CDATA[2052]]></ele></trkpt>
<trkpt lon="10.53588" lat="46.86557"><ele><![CDATA[2050]]></ele></trkpt>
<trkpt lon="10.53585" lat="46.86558"><ele><![CDATA[2050]]></ele></trkpt>
<trkpt lon="10.53583" lat="46.86558"><ele><![CDATA[2050]]></ele></trkpt>
<trkpt lon="10.53581" lat="46.86557"><ele><![CDATA[2050]]></ele></trkpt>
<trkpt lon="10.53581" lat="46.86555"><ele><![CDATA[2050]]></ele></trkpt>
<trkpt lon="10.53581" lat="46.86553"><ele><![CDATA[2050]]></ele></trkpt>
<trkpt lon="10.53582" lat="46.86552"><ele><![CDATA[2050]]></ele></trkpt>
<trkpt lon="10.53581" lat="46.86551"><ele><![CDATA[2050]]></ele></trkpt>
<trkpt lon="10.5358" lat="46.86548"><ele><![CDATA[2052]]></ele></trkpt>
<trkpt lon="10.5358" lat="46.86548"><ele><![CDATA[2052]]></ele></trkpt>
<trkpt lon="10.53579" lat="46.86546"><ele><![CDATA[2052]]></ele></trkpt>
<trkpt lon="10.53579" lat="46.86545"><ele><![CDATA[2052]]></ele></trkpt>
<trkpt lon="10.53579" lat="46.86542"><ele><![CDATA[2055]]></ele></trkpt>
<trkpt lon="10.53578" lat="46.86542"><ele><![CDATA[2055]]></ele></trkpt>
<trkpt lon="10.53571" lat="46.86536"><ele><![CDATA[2055]]></ele></trkpt>
<trkpt lon="10.53561" lat="46.86524"><ele><![CDATA[2055]]></ele></trkpt>
<trkpt lon="10.53557" lat="46.86516"><ele><![CDATA[2051]]></ele></trkpt>
<trkpt lon="10.53538" lat="46.86499"><ele><![CDATA[2051]]></ele></trkpt>
<trkpt lon="10.53534" lat="46.86491"><ele><![CDATA[2051]]></ele></trkpt>
<trkpt lon="10.5353" lat="46.86488"><ele><![CDATA[2051]]></ele></trkpt>
<trkpt lon="10.53527" lat="46.86483"><ele><![CDATA[2049]]></ele></trkpt>
<trkpt lon="10.53521" lat="46.86481"><ele><![CDATA[2049]]></ele></trkpt>
<trkpt lon="10.5351" lat="46.86475"><ele><![CDATA[2049]]></ele></trkpt>
<trkpt lon="10.53506" lat="46.86466"><ele><![CDATA[2049]]></ele></trkpt>
<trkpt lon="10.53503" lat="46.86464"><ele><![CDATA[2043]]></ele></trkpt>
<trkpt lon="10.535" lat="46.86461"><ele><![CDATA[2043]]></ele></trkpt>
<trkpt lon="10.53499" lat="46.86459"><ele><![CDATA[2043]]></ele></trkpt>
<trkpt lon="10.53499" lat="46.86457"><ele><![CDATA[2043]]></ele></trkpt>
<trkpt lon="10.53497" lat="46.86455"><ele><![CDATA[2040]]></ele></trkpt>
<trkpt lon="10.53495" lat="46.86455"><ele><![CDATA[2040]]></ele></trkpt>
<trkpt lon="10.53493" lat="46.86455"><ele><![CDATA[2040]]></ele></trkpt>
<trkpt lon="10.53492" lat="46.86457"><ele><![CDATA[2040]]></ele></trkpt>
<trkpt lon="10.53493" lat="46.86458"><ele><![CDATA[2039]]></ele></trkpt>
<trkpt lon="10.53494" lat="46.8646"><ele><![CDATA[2039]]></ele></trkpt>
<trkpt lon="10.53497" lat="46.86462"><ele><![CDATA[2039]]></ele></trkpt>
<trkpt lon="10.53499" lat="46.86464"><ele><![CDATA[2039]]></ele></trkpt>
<trkpt lon="10.53501" lat="46.86466"><ele><![CDATA[2042]]></ele></trkpt>
<trkpt lon="10.53501" lat="46.86468"><ele><![CDATA[2042]]></ele></trkpt>
<trkpt lon="10.53501" lat="46.8647"><ele><![CDATA[2042]]></ele></trkpt>
<trkpt lon="10.53503" lat="46.86476"><ele><![CDATA[2042]]></ele></trkpt>
<trkpt lon="10.53503" lat="46.86483"><ele><![CDATA[2041]]></ele></trkpt>
<trkpt lon="10.53505" lat="46.86487"><ele><![CDATA[2041]]></ele></trkpt>
<trkpt lon="10.53504" lat="46.86491"><ele><![CDATA[2041]]></ele></trkpt>
<trkpt lon="10.53508" lat="46.86495"><ele><![CDATA[2041]]></ele></trkpt>
<trkpt lon="10.53508" lat="46.865"><ele><![CDATA[2039]]></ele></trkpt>
<trkpt lon="10.5351" lat="46.86502"><ele><![CDATA[2039]]></ele></trkpt>
<trkpt lon="10.5351" lat="46.86506"><ele><![CDATA[2039]]></ele></trkpt>
<trkpt lon="10.53515" lat="46.86511"><ele><![CDATA[2039]]></ele></trkpt>
<trkpt lon="10.53514" lat="46.86516"><ele><![CDATA[2039]]></ele></trkpt>
<trkpt lon="10.53515" lat="46.86527"><ele><![CDATA[2039]]></ele></trkpt>
<trkpt lon="10.5351" lat="46.86533"><ele><![CDATA[2039]]></ele></trkpt>
<trkpt lon="10.53503" lat="46.86533"><ele><![CDATA[2039]]></ele></trkpt>
<trkpt lon="10.53499" lat="46.8653"><ele><![CDATA[2034]]></ele></trkpt>
<trkpt lon="10.53495" lat="46.86524"><ele><![CDATA[2034]]></ele></trkpt>
<trkpt lon="10.53493" lat="46.86518"><ele><![CDATA[2034]]></ele></trkpt>
<trkpt lon="10.53493" lat="46.86515"><ele><![CDATA[2034]]></ele></trkpt>
<trkpt lon="10.53495" lat="46.86509"><ele><![CDATA[2036]]></ele></trkpt>
<trkpt lon="10.53491" lat="46.86506"><ele><![CDATA[2036]]></ele></trkpt>
<trkpt lon="10.53488" lat="46.86506"><ele><![CDATA[2036]]></ele></trkpt>
<trkpt lon="10.53474" lat="46.8651"><ele><![CDATA[2036]]></ele></trkpt>
<trkpt lon="10.53466" lat="46.86516"><ele><![CDATA[2032]]></ele></trkpt>
<trkpt lon="10.53461" lat="46.86517"><ele><![CDATA[2032]]></ele></trkpt>
<trkpt lon="10.53456" lat="46.86515"><ele><![CDATA[2032]]></ele></trkpt>
<trkpt lon="10.53454" lat="46.86512"><ele><![CDATA[2032]]></ele></trkpt>
<trkpt lon="10.53457" lat="46.86504"><ele><![CDATA[2031]]></ele></trkpt>
<trkpt lon="10.53456" lat="46.86501"><ele><![CDATA[2031]]></ele></trkpt>
<trkpt lon="10.53457" lat="46.86497"><ele><![CDATA[2031]]></ele></trkpt>
<trkpt lon="10.53455" lat="46.86495"><ele><![CDATA[2031]]></ele></trkpt>
<trkpt lon="10.53458" lat="46.86486"><ele><![CDATA[2031]]></ele></trkpt>
<trkpt lon="10.53455" lat="46.86482"><ele><![CDATA[2031]]></ele></trkpt>
<trkpt lon="10.53449" lat="46.8648"><ele><![CDATA[2031]]></ele></trkpt>
<trkpt lon="10.53446" lat="46.86478"><ele><![CDATA[2031]]></ele></trkpt>
<trkpt lon="10.53433" lat="46.86481"><ele><![CDATA[2026]]></ele></trkpt>
<trkpt lon="10.53421" lat="46.86492"><ele><![CDATA[2026]]></ele></trkpt>
<trkpt lon="10.53418" lat="46.86504"><ele><![CDATA[2026]]></ele></trkpt>
<trkpt lon="10.53421" lat="46.86513"><ele><![CDATA[2026]]></ele></trkpt>
<trkpt lon="10.53439" lat="46.86534"><ele><![CDATA[2024]]></ele></trkpt>
<trkpt lon="10.53449" lat="46.8654"><ele><![CDATA[2024]]></ele></trkpt>
</trkseg>
</trk>
</gpx>
