<?xml version="1.0" encoding="utf-8"?>
		<gpx xmlns="http://www.topografix.com/GPX/1/1" xmlns:xsd="http://www.w3.org/2001/XMLSchema" xmlns:xsi="http://www.w3.org/2001/XMLSchema-instance" version="1.1" creator="Fugawi 4,5,14,1696 http://www.fugawi.com/" xsi:schemaLocation="http://www.topografix.com/GPX/1/1 http://www.topografix.com/GPX/1/1/gpx.xsd">
			<trk>
				<name>Piz Trail</name>
				<desc></desc>
				<trkseg>
					<trkpt lat="46.80524" lon="10.49156"><ele>2156</ele></trkpt>
<trkpt lat="46.80526" lon="10.49174"><ele>2156</ele></trkpt>
<trkpt lat="46.8052" lon="10.49189"><ele>2156</ele></trkpt>
<trkpt lat="46.80521" lon="10.49206"><ele>2156</ele></trkpt>
<trkpt lat="46.80528" lon="10.49219"><ele>2156</ele></trkpt>
<trkpt lat="46.8053" lon="10.49233"><ele>2156</ele></trkpt>
<trkpt lat="46.80536" lon="10.49247"><ele>2156</ele></trkpt>
<trkpt lat="46.80543" lon="10.49258"><ele>2156</ele></trkpt>
<trkpt lat="46.80548" lon="10.49272"><ele>2156</ele></trkpt>
<trkpt lat="46.80555" lon="10.49281"><ele>2155</ele></trkpt>
<trkpt lat="46.80561" lon="10.49291"><ele>2154</ele></trkpt>
<trkpt lat="46.80561" lon="10.49307"><ele>2153</ele></trkpt>
<trkpt lat="46.80564" lon="10.49321"><ele>2153</ele></trkpt>
<trkpt lat="46.80566" lon="10.49334"><ele>2152</ele></trkpt>
<trkpt lat="46.80567" lon="10.49347"><ele>2151</ele></trkpt>
<trkpt lat="46.80569" lon="10.49361"><ele>2151</ele></trkpt>
<trkpt lat="46.80567" lon="10.49375"><ele>2150</ele></trkpt>
<trkpt lat="46.80562" lon="10.49386"><ele>2149</ele></trkpt>
<trkpt lat="46.80563" lon="10.49404"><ele>2148</ele></trkpt>
<trkpt lat="46.80572" lon="10.49412"><ele>2148</ele></trkpt>
<trkpt lat="46.80572" lon="10.49399"><ele>2147</ele></trkpt>
<trkpt lat="46.80571" lon="10.49384"><ele>2146</ele></trkpt>
<trkpt lat="46.80578" lon="10.49367"><ele>2145</ele></trkpt>
<trkpt lat="46.80586" lon="10.49345"><ele>2144</ele></trkpt>
<trkpt lat="46.8059" lon="10.49331"><ele>2143</ele></trkpt>
<trkpt lat="46.80594" lon="10.49317"><ele>2142</ele></trkpt>
<trkpt lat="46.806" lon="10.49302"><ele>2142</ele></trkpt>
<trkpt lat="46.80602" lon="10.49289"><ele>2141</ele></trkpt>
<trkpt lat="46.80601" lon="10.49274"><ele>2140</ele></trkpt>
<trkpt lat="46.80597" lon="10.49257"><ele>2140</ele></trkpt>
<trkpt lat="46.80594" lon="10.49241"><ele>2139</ele></trkpt>
<trkpt lat="46.80593" lon="10.49228"><ele>2138</ele></trkpt>
<trkpt lat="46.80592" lon="10.49214"><ele>2138</ele></trkpt>
<trkpt lat="46.80588" lon="10.492"><ele>2137</ele></trkpt>
<trkpt lat="46.80592" lon="10.49187"><ele>2137</ele></trkpt>
<trkpt lat="46.80597" lon="10.49198"><ele>2136</ele></trkpt>
<trkpt lat="46.80603" lon="10.49213"><ele>2135</ele></trkpt>
<trkpt lat="46.80611" lon="10.49223"><ele>2135</ele></trkpt>
<trkpt lat="46.80617" lon="10.49236"><ele>2134</ele></trkpt>
<trkpt lat="46.80623" lon="10.49248"><ele>2133</ele></trkpt>
<trkpt lat="46.80632" lon="10.49257"><ele>2133</ele></trkpt>
<trkpt lat="46.8064" lon="10.49269"><ele>2132</ele></trkpt>
<trkpt lat="46.80646" lon="10.49283"><ele>2131</ele></trkpt>
<trkpt lat="46.80647" lon="10.49301"><ele>2130</ele></trkpt>
<trkpt lat="46.80645" lon="10.49315"><ele>2129</ele></trkpt>
<trkpt lat="46.80644" lon="10.49332"><ele>2128</ele></trkpt>
<trkpt lat="46.80643" lon="10.49347"><ele>2126</ele></trkpt>
<trkpt lat="46.80645" lon="10.49365"><ele>2125</ele></trkpt>
<trkpt lat="46.80646" lon="10.49382"><ele>2123</ele></trkpt>
<trkpt lat="46.80653" lon="10.49396"><ele>2122</ele></trkpt>
<trkpt lat="46.80656" lon="10.49414"><ele>2121</ele></trkpt>
<trkpt lat="46.80657" lon="10.49428"><ele>2119</ele></trkpt>
<trkpt lat="46.80661" lon="10.49442"><ele>2118</ele></trkpt>
<trkpt lat="46.80659" lon="10.49456"><ele>2117</ele></trkpt>
<trkpt lat="46.80653" lon="10.49468"><ele>2116</ele></trkpt>
<trkpt lat="46.80649" lon="10.4948"><ele>2115</ele></trkpt>
<trkpt lat="46.8066" lon="10.49479"><ele>2113</ele></trkpt>
<trkpt lat="46.80661" lon="10.49493"><ele>2112</ele></trkpt>
<trkpt lat="46.80655" lon="10.49504"><ele>2111</ele></trkpt>
<trkpt lat="46.80647" lon="10.49515"><ele>2110</ele></trkpt>
<trkpt lat="46.80641" lon="10.49527"><ele>2109</ele></trkpt>
<trkpt lat="46.80639" lon="10.49541"><ele>2108</ele></trkpt>
<trkpt lat="46.80649" lon="10.49541"><ele>2107</ele></trkpt>
<trkpt lat="46.80654" lon="10.49553"><ele>2106</ele></trkpt>
<trkpt lat="46.80662" lon="10.49564"><ele>2105</ele></trkpt>
<trkpt lat="46.80669" lon="10.49576"><ele>2105</ele></trkpt>
<trkpt lat="46.80678" lon="10.49577"><ele>2104</ele></trkpt>
<trkpt lat="46.80681" lon="10.49591"><ele>2103</ele></trkpt>
<trkpt lat="46.80682" lon="10.49604"><ele>2102</ele></trkpt>
<trkpt lat="46.80675" lon="10.49616"><ele>2101</ele></trkpt>
<trkpt lat="46.80684" lon="10.49621"><ele>2101</ele></trkpt>
<trkpt lat="46.80692" lon="10.49618"><ele>2100</ele></trkpt>
<trkpt lat="46.80695" lon="10.49605"><ele>2099</ele></trkpt>
<trkpt lat="46.80703" lon="10.49592"><ele>2098</ele></trkpt>
<trkpt lat="46.80707" lon="10.49581"><ele>2097</ele></trkpt>
<trkpt lat="46.80711" lon="10.49568"><ele>2096</ele></trkpt>
<trkpt lat="46.80714" lon="10.49555"><ele>2096</ele></trkpt>
<trkpt lat="46.80722" lon="10.49542"><ele>2095</ele></trkpt>
<trkpt lat="46.80729" lon="10.49532"><ele>2094</ele></trkpt>
<trkpt lat="46.80741" lon="10.49525"><ele>2094</ele></trkpt>
<trkpt lat="46.8075" lon="10.4952"><ele>2094</ele></trkpt>
<trkpt lat="46.80764" lon="10.4952"><ele>2094</ele></trkpt>
<trkpt lat="46.80776" lon="10.49518"><ele>2093</ele></trkpt>
<trkpt lat="46.80798" lon="10.49512"><ele>2093</ele></trkpt>
<trkpt lat="46.80807" lon="10.49513"><ele>2093</ele></trkpt>
<trkpt lat="46.80819" lon="10.49511"><ele>2092</ele></trkpt>
<trkpt lat="46.80829" lon="10.49506"><ele>2092</ele></trkpt>
<trkpt lat="46.80838" lon="10.49499"><ele>2092</ele></trkpt>
<trkpt lat="46.80848" lon="10.49485"><ele>2091</ele></trkpt>
<trkpt lat="46.80855" lon="10.49459"><ele>2091</ele></trkpt>
<trkpt lat="46.8085" lon="10.49445"><ele>2091</ele></trkpt>
<trkpt lat="46.80846" lon="10.49431"><ele>2090</ele></trkpt>
<trkpt lat="46.80837" lon="10.49407"><ele>2089</ele></trkpt>
<trkpt lat="46.80833" lon="10.49394"><ele>2088</ele></trkpt>
<trkpt lat="46.80828" lon="10.4938"><ele>2087</ele></trkpt>
<trkpt lat="46.80833" lon="10.49367"><ele>2086</ele></trkpt>
<trkpt lat="46.80838" lon="10.49378"><ele>2085</ele></trkpt>
<trkpt lat="46.80846" lon="10.49404"><ele>2083</ele></trkpt>
<trkpt lat="46.80855" lon="10.49413"><ele>2082</ele></trkpt>
<trkpt lat="46.80865" lon="10.4941"><ele>2081</ele></trkpt>
<trkpt lat="46.80874" lon="10.49415"><ele>2080</ele></trkpt>
<trkpt lat="46.80885" lon="10.49421"><ele>2078</ele></trkpt>
<trkpt lat="46.80894" lon="10.49426"><ele>2077</ele></trkpt>
<trkpt lat="46.80903" lon="10.49433"><ele>2076</ele></trkpt>
<trkpt lat="46.80914" lon="10.49442"><ele>2075</ele></trkpt>
<trkpt lat="46.80927" lon="10.49452"><ele>2074</ele></trkpt>
<trkpt lat="46.80938" lon="10.49452"><ele>2073</ele></trkpt>
<trkpt lat="46.80943" lon="10.49465"><ele>2072</ele></trkpt>
<trkpt lat="46.8095" lon="10.49454"><ele>2071</ele></trkpt>
<trkpt lat="46.80956" lon="10.49465"><ele>2069</ele></trkpt>
<trkpt lat="46.8095" lon="10.49477"><ele>2068</ele></trkpt>
<trkpt lat="46.80942" lon="10.49491"><ele>2067</ele></trkpt>
<trkpt lat="46.80945" lon="10.49507"><ele>2066</ele></trkpt>
<trkpt lat="46.80949" lon="10.49519"><ele>2065</ele></trkpt>
<trkpt lat="46.80957" lon="10.49528"><ele>2064</ele></trkpt>
<trkpt lat="46.80964" lon="10.49537"><ele>2063</ele></trkpt>
<trkpt lat="46.80967" lon="10.49524"><ele>2062</ele></trkpt>
<trkpt lat="46.80961" lon="10.4951"><ele>2060</ele></trkpt>
<trkpt lat="46.80962" lon="10.49493"><ele>2059</ele></trkpt>
<trkpt lat="46.80971" lon="10.49485"><ele>2058</ele></trkpt>
<trkpt lat="46.80981" lon="10.49478"><ele>2057</ele></trkpt>
<trkpt lat="46.81005" lon="10.49475"><ele>2054</ele></trkpt>
<trkpt lat="46.81015" lon="10.49474"><ele>2053</ele></trkpt>
<trkpt lat="46.81024" lon="10.49471"><ele>2052</ele></trkpt>
<trkpt lat="46.81035" lon="10.49466"><ele>2050</ele></trkpt>
<trkpt lat="46.81034" lon="10.49441"><ele>2048</ele></trkpt>
<trkpt lat="46.81028" lon="10.49428"><ele>2046</ele></trkpt>
<trkpt lat="46.81023" lon="10.49414"><ele>2045</ele></trkpt>
<trkpt lat="46.81024" lon="10.494"><ele>2044</ele></trkpt>
<trkpt lat="46.81033" lon="10.49404"><ele>2042</ele></trkpt>
<trkpt lat="46.8104" lon="10.49396"><ele>2041</ele></trkpt>
<trkpt lat="46.8105" lon="10.49395"><ele>2040</ele></trkpt>
<trkpt lat="46.81057" lon="10.49406"><ele>2038</ele></trkpt>
<trkpt lat="46.81063" lon="10.49417"><ele>2037</ele></trkpt>
<trkpt lat="46.8107" lon="10.49427"><ele>2036</ele></trkpt>
<trkpt lat="46.8108" lon="10.49427"><ele>2034</ele></trkpt>
<trkpt lat="46.8109" lon="10.49429"><ele>2033</ele></trkpt>
<trkpt lat="46.811" lon="10.49427"><ele>2032</ele></trkpt>
<trkpt lat="46.81114" lon="10.49424"><ele>2030</ele></trkpt>
<trkpt lat="46.81123" lon="10.49429"><ele>2028</ele></trkpt>
<trkpt lat="46.81131" lon="10.49438"><ele>2027</ele></trkpt>
<trkpt lat="46.81142" lon="10.49442"><ele>2026</ele></trkpt>
<trkpt lat="46.81151" lon="10.49449"><ele>2024</ele></trkpt>
<trkpt lat="46.81156" lon="10.49462"><ele>2023</ele></trkpt>
<trkpt lat="46.8116" lon="10.49477"><ele>2022</ele></trkpt>
<trkpt lat="46.81157" lon="10.49492"><ele>2021</ele></trkpt>
<trkpt lat="46.81146" lon="10.49494"><ele>2019</ele></trkpt>
<trkpt lat="46.81145" lon="10.49508"><ele>2018</ele></trkpt>
<trkpt lat="46.81155" lon="10.49506"><ele>2017</ele></trkpt>
<trkpt lat="46.81164" lon="10.49504"><ele>2016</ele></trkpt>
<trkpt lat="46.81171" lon="10.49515"><ele>2014</ele></trkpt>
<trkpt lat="46.81181" lon="10.49519"><ele>2013</ele></trkpt>
<trkpt lat="46.8119" lon="10.49522"><ele>2012</ele></trkpt>
<trkpt lat="46.81194" lon="10.49506"><ele>2011</ele></trkpt>
<trkpt lat="46.81205" lon="10.49499"><ele>2009</ele></trkpt>
<trkpt lat="46.81211" lon="10.49489"><ele>2008</ele></trkpt>
<trkpt lat="46.8122" lon="10.49497"><ele>2007</ele></trkpt>
<trkpt lat="46.81218" lon="10.49511"><ele>2006</ele></trkpt>
<trkpt lat="46.81209" lon="10.49518"><ele>2005</ele></trkpt>
<trkpt lat="46.81205" lon="10.49533"><ele>2004</ele></trkpt>
<trkpt lat="46.81214" lon="10.49538"><ele>2003</ele></trkpt>
<trkpt lat="46.81223" lon="10.49549"><ele>2002</ele></trkpt>
<trkpt lat="46.81229" lon="10.49566"><ele>2001</ele></trkpt>
<trkpt lat="46.81236" lon="10.49575"><ele>2000</ele></trkpt>
<trkpt lat="46.81246" lon="10.49577"><ele>1999</ele></trkpt>
<trkpt lat="46.81246" lon="10.49563"><ele>1998</ele></trkpt>
<trkpt lat="46.81239" lon="10.49549"><ele>1997</ele></trkpt>
<trkpt lat="46.81241" lon="10.49534"><ele>1996</ele></trkpt>
<trkpt lat="46.81244" lon="10.49516"><ele>1995</ele></trkpt>
<trkpt lat="46.81247" lon="10.49502"><ele>1994</ele></trkpt>
<trkpt lat="46.81257" lon="10.49512"><ele>1993</ele></trkpt>
<trkpt lat="46.8126" lon="10.49526"><ele>1992</ele></trkpt>
<trkpt lat="46.81262" lon="10.49511"><ele>1991</ele></trkpt>
<trkpt lat="46.81277" lon="10.49522"><ele>1990</ele></trkpt>
<trkpt lat="46.81283" lon="10.49531"><ele>1989</ele></trkpt>
<trkpt lat="46.81288" lon="10.49545"><ele>1987</ele></trkpt>
<trkpt lat="46.81287" lon="10.4953"><ele>1986</ele></trkpt>
<trkpt lat="46.81286" lon="10.49517"><ele>1985</ele></trkpt>
<trkpt lat="46.81296" lon="10.49515"><ele>1984</ele></trkpt>
<trkpt lat="46.81312" lon="10.49527"><ele>1982</ele></trkpt>
<trkpt lat="46.81317" lon="10.49539"><ele>1981</ele></trkpt>
<trkpt lat="46.81326" lon="10.49538"><ele>1980</ele></trkpt>
<trkpt lat="46.81322" lon="10.49552"><ele>1978</ele></trkpt>
<trkpt lat="46.81333" lon="10.49553"><ele>1977</ele></trkpt>
<trkpt lat="46.81337" lon="10.4954"><ele>1976</ele></trkpt>
<trkpt lat="46.81344" lon="10.49526"><ele>1974</ele></trkpt>
<trkpt lat="46.81353" lon="10.4951"><ele>1973</ele></trkpt>
<trkpt lat="46.81363" lon="10.495"><ele>1971</ele></trkpt>
<trkpt lat="46.81368" lon="10.49488"><ele>1970</ele></trkpt>
<trkpt lat="46.81376" lon="10.49477"><ele>1969</ele></trkpt>
<trkpt lat="46.81381" lon="10.49465"><ele>1968</ele></trkpt>
<trkpt lat="46.81384" lon="10.49452"><ele>1967</ele></trkpt>
<trkpt lat="46.81389" lon="10.49439"><ele>1966</ele></trkpt>
<trkpt lat="46.81395" lon="10.49428"><ele>1965</ele></trkpt>
<trkpt lat="46.81402" lon="10.4944"><ele>1964</ele></trkpt>
<trkpt lat="46.81407" lon="10.49455"><ele>1963</ele></trkpt>
<trkpt lat="46.81416" lon="10.49451"><ele>1962</ele></trkpt>
<trkpt lat="46.81424" lon="10.49459"><ele>1961</ele></trkpt>
<trkpt lat="46.81425" lon="10.49472"><ele>1960</ele></trkpt>
<trkpt lat="46.81417" lon="10.49482"><ele>1959</ele></trkpt>
<trkpt lat="46.81413" lon="10.49496"><ele>1958</ele></trkpt>
<trkpt lat="46.8141" lon="10.49515"><ele>1957</ele></trkpt>
<trkpt lat="46.81408" lon="10.49528"><ele>1956</ele></trkpt>
<trkpt lat="46.81408" lon="10.49552"><ele>1955</ele></trkpt>
<trkpt lat="46.81405" lon="10.49569"><ele>1954</ele></trkpt>
<trkpt lat="46.81413" lon="10.49561"><ele>1953</ele></trkpt>
<trkpt lat="46.81419" lon="10.49546"><ele>1952</ele></trkpt>
<trkpt lat="46.81422" lon="10.4953"><ele>1951</ele></trkpt>
<trkpt lat="46.81427" lon="10.49516"><ele>1950</ele></trkpt>
<trkpt lat="46.81431" lon="10.49503"><ele>1949</ele></trkpt>
<trkpt lat="46.81435" lon="10.49516"><ele>1948</ele></trkpt>
<trkpt lat="46.81435" lon="10.4953"><ele>1947</ele></trkpt>
<trkpt lat="46.81435" lon="10.49549"><ele>1946</ele></trkpt>
<trkpt lat="46.81441" lon="10.49564"><ele>1944</ele></trkpt>
<trkpt lat="46.81434" lon="10.49577"><ele>1943</ele></trkpt>
<trkpt lat="46.81444" lon="10.49581"><ele>1942</ele></trkpt>
<trkpt lat="46.8145" lon="10.4957"><ele>1941</ele></trkpt>
<trkpt lat="46.81452" lon="10.49557"><ele>1940</ele></trkpt>
<trkpt lat="46.81456" lon="10.49543"><ele>1939</ele></trkpt>
<trkpt lat="46.81466" lon="10.49538"><ele>1938</ele></trkpt>
<trkpt lat="46.81463" lon="10.49551"><ele>1937</ele></trkpt>
<trkpt lat="46.81472" lon="10.49553"><ele>1937</ele></trkpt>
<trkpt lat="46.81475" lon="10.49569"><ele>1935</ele></trkpt>
<trkpt lat="46.81473" lon="10.49584"><ele>1934</ele></trkpt>
<trkpt lat="46.81467" lon="10.49599"><ele>1932</ele></trkpt>
<trkpt lat="46.81466" lon="10.49612"><ele>1931</ele></trkpt>
<trkpt lat="46.81473" lon="10.49602"><ele>1929</ele></trkpt>
<trkpt lat="46.81483" lon="10.49604"><ele>1927</ele></trkpt>
<trkpt lat="46.81489" lon="10.49592"><ele>1925</ele></trkpt>
<trkpt lat="46.81498" lon="10.49595"><ele>1924</ele></trkpt>
<trkpt lat="46.81507" lon="10.49599"><ele>1922</ele></trkpt>
<trkpt lat="46.81517" lon="10.49606"><ele>1920</ele></trkpt>
<trkpt lat="46.81513" lon="10.49619"><ele>1918</ele></trkpt>
<trkpt lat="46.81506" lon="10.49628"><ele>1917</ele></trkpt>
<trkpt lat="46.81516" lon="10.4963"><ele>1915</ele></trkpt>
<trkpt lat="46.8152" lon="10.49645"><ele>1913</ele></trkpt>
<trkpt lat="46.81519" lon="10.4966"><ele>1911</ele></trkpt>
<trkpt lat="46.81523" lon="10.49674"><ele>1909</ele></trkpt>
<trkpt lat="46.81532" lon="10.49682"><ele>1908</ele></trkpt>
<trkpt lat="46.81538" lon="10.49696"><ele>1906</ele></trkpt>
<trkpt lat="46.81548" lon="10.4969"><ele>1904</ele></trkpt>
<trkpt lat="46.81559" lon="10.4969"><ele>1902</ele></trkpt>
<trkpt lat="46.81563" lon="10.49703"><ele>1901</ele></trkpt>
<trkpt lat="46.8156" lon="10.49717"><ele>1900</ele></trkpt>
<trkpt lat="46.8156" lon="10.49732"><ele>1899</ele></trkpt>
<trkpt lat="46.81564" lon="10.49749"><ele>1898</ele></trkpt>
<trkpt lat="46.81573" lon="10.49734"><ele>1897</ele></trkpt>
<trkpt lat="46.81576" lon="10.49747"><ele>1896</ele></trkpt>
<trkpt lat="46.81572" lon="10.49778"><ele>1894</ele></trkpt>
<trkpt lat="46.81571" lon="10.49795"><ele>1893</ele></trkpt>
<trkpt lat="46.81578" lon="10.49805"><ele>1892</ele></trkpt>
<trkpt lat="46.81584" lon="10.4979"><ele>1891</ele></trkpt>
<trkpt lat="46.81589" lon="10.49778"><ele>1890</ele></trkpt>
<trkpt lat="46.81599" lon="10.49794"><ele>1888</ele></trkpt>
<trkpt lat="46.81602" lon="10.49815"><ele>1887</ele></trkpt>
<trkpt lat="46.81603" lon="10.49833"><ele>1886</ele></trkpt>
<trkpt lat="46.8161" lon="10.49845"><ele>1885</ele></trkpt>
<trkpt lat="46.8162" lon="10.49838"><ele>1884</ele></trkpt>
<trkpt lat="46.81625" lon="10.49822"><ele>1883</ele></trkpt>
<trkpt lat="46.8163" lon="10.49803"><ele>1882</ele></trkpt>
<trkpt lat="46.81633" lon="10.4979"><ele>1881</ele></trkpt>
<trkpt lat="46.81636" lon="10.49774"><ele>1880</ele></trkpt>
<trkpt lat="46.81645" lon="10.49774"><ele>1879</ele></trkpt>
<trkpt lat="46.8165" lon="10.49757"><ele>1878</ele></trkpt>
<trkpt lat="46.81658" lon="10.49763"><ele>1877</ele></trkpt>
<trkpt lat="46.81657" lon="10.49778"><ele>1877</ele></trkpt>
<trkpt lat="46.81669" lon="10.4979"><ele>1875</ele></trkpt>
<trkpt lat="46.81675" lon="10.4978"><ele>1875</ele></trkpt>
<trkpt lat="46.8168" lon="10.49768"><ele>1874</ele></trkpt>
<trkpt lat="46.81683" lon="10.4975"><ele>1873</ele></trkpt>
<trkpt lat="46.81687" lon="10.49737"><ele>1872</ele></trkpt>
<trkpt lat="46.81697" lon="10.49741"><ele>1871</ele></trkpt>
<trkpt lat="46.81701" lon="10.49754"><ele>1870</ele></trkpt>
<trkpt lat="46.81708" lon="10.4977"><ele>1869</ele></trkpt>
<trkpt lat="46.81706" lon="10.49788"><ele>1868</ele></trkpt>
<trkpt lat="46.81702" lon="10.49803"><ele>1868</ele></trkpt>
<trkpt lat="46.81702" lon="10.49817"><ele>1867</ele></trkpt>
<trkpt lat="46.81696" lon="10.49834"><ele>1866</ele></trkpt>
<trkpt lat="46.81705" lon="10.49825"><ele>1865</ele></trkpt>
<trkpt lat="46.81715" lon="10.49797"><ele>1863</ele></trkpt>
<trkpt lat="46.81722" lon="10.49787"><ele>1863</ele></trkpt>
<trkpt lat="46.81728" lon="10.49777"><ele>1862</ele></trkpt>
<trkpt lat="46.81731" lon="10.49764"><ele>1861</ele></trkpt>
<trkpt lat="46.81744" lon="10.49759"><ele>1860</ele></trkpt>
<trkpt lat="46.81748" lon="10.49745"><ele>1859</ele></trkpt>
<trkpt lat="46.81747" lon="10.49729"><ele>1859</ele></trkpt>
<trkpt lat="46.81746" lon="10.49713"><ele>1858</ele></trkpt>
<trkpt lat="46.81754" lon="10.49692"><ele>1856</ele></trkpt>
<trkpt lat="46.81761" lon="10.4968"><ele>1854</ele></trkpt>
<trkpt lat="46.81759" lon="10.49698"><ele>1852</ele></trkpt>
<trkpt lat="46.8176" lon="10.49711"><ele>1851</ele></trkpt>
<trkpt lat="46.81769" lon="10.49701"><ele>1849</ele></trkpt>
<trkpt lat="46.81776" lon="10.49692"><ele>1847</ele></trkpt>
<trkpt lat="46.81783" lon="10.49683"><ele>1846</ele></trkpt>
<trkpt lat="46.81795" lon="10.49676"><ele>1844</ele></trkpt>
<trkpt lat="46.81804" lon="10.49669"><ele>1842</ele></trkpt>
<trkpt lat="46.81806" lon="10.49682"><ele>1840</ele></trkpt>
<trkpt lat="46.8181" lon="10.49697"><ele>1839</ele></trkpt>
<trkpt lat="46.81817" lon="10.49687"><ele>1837</ele></trkpt>
<trkpt lat="46.81825" lon="10.49677"><ele>1835</ele></trkpt>
<trkpt lat="46.8183" lon="10.49662"><ele>1833</ele></trkpt>
<trkpt lat="46.81838" lon="10.49656"><ele>1832</ele></trkpt>
<trkpt lat="46.81849" lon="10.4966"><ele>1830</ele></trkpt>
<trkpt lat="46.81858" lon="10.49669"><ele>1828</ele></trkpt>
<trkpt lat="46.81868" lon="10.49674"><ele>1827</ele></trkpt>
<trkpt lat="46.81881" lon="10.49671"><ele>1825</ele></trkpt>
<trkpt lat="46.81889" lon="10.49662"><ele>1824</ele></trkpt>
<trkpt lat="46.81885" lon="10.49682"><ele>1823</ele></trkpt>
<trkpt lat="46.81876" lon="10.49691"><ele>1822</ele></trkpt>
<trkpt lat="46.81871" lon="10.49704"><ele>1821</ele></trkpt>
<trkpt lat="46.81881" lon="10.49705"><ele>1820</ele></trkpt>
<trkpt lat="46.81888" lon="10.49716"><ele>1819</ele></trkpt>
<trkpt lat="46.81883" lon="10.49731"><ele>1818</ele></trkpt>
<trkpt lat="46.81877" lon="10.49742"><ele>1817</ele></trkpt>
<trkpt lat="46.8187" lon="10.49756"><ele>1816</ele></trkpt>
<trkpt lat="46.81856" lon="10.49777"><ele>1814</ele></trkpt>
<trkpt lat="46.81853" lon="10.49791"><ele>1813</ele></trkpt>
<trkpt lat="46.8185" lon="10.49807"><ele>1812</ele></trkpt>
<trkpt lat="46.81844" lon="10.49818"><ele>1811</ele></trkpt>
<trkpt lat="46.81837" lon="10.49831"><ele>1810</ele></trkpt>
<trkpt lat="46.81829" lon="10.49842"><ele>1809</ele></trkpt>
<trkpt lat="46.8182" lon="10.49854"><ele>1809</ele></trkpt>
<trkpt lat="46.81829" lon="10.49857"><ele>1809</ele></trkpt>
<trkpt lat="46.81838" lon="10.49852"><ele>1808</ele></trkpt>
<trkpt lat="46.81845" lon="10.4984"><ele>1808</ele></trkpt>
<trkpt lat="46.81864" lon="10.49821"><ele>1807</ele></trkpt>
<trkpt lat="46.81871" lon="10.49813"><ele>1807</ele></trkpt>
<trkpt lat="46.81878" lon="10.49803"><ele>1807</ele></trkpt>
<trkpt lat="46.81902" lon="10.49792"><ele>1806</ele></trkpt>
<trkpt lat="46.81914" lon="10.49792"><ele>1806</ele></trkpt>
<trkpt lat="46.81922" lon="10.49795"><ele>1805</ele></trkpt>
<trkpt lat="46.81926" lon="10.49808"><ele>1805</ele></trkpt>
<trkpt lat="46.81917" lon="10.4981"><ele>1805</ele></trkpt>
<trkpt lat="46.81908" lon="10.49816"><ele>1804</ele></trkpt>
<trkpt lat="46.81898" lon="10.49826"><ele>1804</ele></trkpt>
<trkpt lat="46.8189" lon="10.49835"><ele>1803</ele></trkpt>
<trkpt lat="46.81881" lon="10.49851"><ele>1800</ele></trkpt>
<trkpt lat="46.81875" lon="10.49864"><ele>1799</ele></trkpt>
<trkpt lat="46.8187" lon="10.49879"><ele>1797</ele></trkpt>
<trkpt lat="46.8187" lon="10.49896"><ele>1795</ele></trkpt>
<trkpt lat="46.81868" lon="10.49911"><ele>1794</ele></trkpt>
<trkpt lat="46.81862" lon="10.49925"><ele>1792</ele></trkpt>
<trkpt lat="46.81854" lon="10.49933"><ele>1791</ele></trkpt>
<trkpt lat="46.81863" lon="10.49937"><ele>1789</ele></trkpt>
<trkpt lat="46.81873" lon="10.49934"><ele>1788</ele></trkpt>
<trkpt lat="46.81888" lon="10.49944"><ele>1785</ele></trkpt>
<trkpt lat="46.81871" lon="10.49953"><ele>1783</ele></trkpt>
<trkpt lat="46.81861" lon="10.49962"><ele>1781</ele></trkpt>
<trkpt lat="46.81852" lon="10.49967"><ele>1779</ele></trkpt>
<trkpt lat="46.81848" lon="10.4998"><ele>1778</ele></trkpt>
<trkpt lat="46.81843" lon="10.49996"><ele>1777</ele></trkpt>
<trkpt lat="46.81838" lon="10.50008"><ele>1776</ele></trkpt>
<trkpt lat="46.81846" lon="10.5002"><ele>1775</ele></trkpt>
<trkpt lat="46.81847" lon="10.50038"><ele>1773</ele></trkpt>
<trkpt lat="46.81847" lon="10.50052"><ele>1773</ele></trkpt>
<trkpt lat="46.81845" lon="10.50066"><ele>1772</ele></trkpt>
<trkpt lat="46.81836" lon="10.50077"><ele>1771</ele></trkpt>
<trkpt lat="46.81844" lon="10.50087"><ele>1770</ele></trkpt>
<trkpt lat="46.8185" lon="10.50078"><ele>1769</ele></trkpt>
<trkpt lat="46.81855" lon="10.50066"><ele>1768</ele></trkpt>
<trkpt lat="46.81857" lon="10.50082"><ele>1767</ele></trkpt>
<trkpt lat="46.81849" lon="10.50095"><ele>1766</ele></trkpt>
<trkpt lat="46.81841" lon="10.50107"><ele>1765</ele></trkpt>
<trkpt lat="46.81837" lon="10.50122"><ele>1764</ele></trkpt>
<trkpt lat="46.81833" lon="10.50137"><ele>1762</ele></trkpt>
<trkpt lat="46.81841" lon="10.50133"><ele>1762</ele></trkpt>
<trkpt lat="46.81853" lon="10.5013"><ele>1760</ele></trkpt>
<trkpt lat="46.81855" lon="10.50143"><ele>1760</ele></trkpt>
<trkpt lat="46.81847" lon="10.50151"><ele>1759</ele></trkpt>
<trkpt lat="46.81856" lon="10.5016"><ele>1758</ele></trkpt>
<trkpt lat="46.81852" lon="10.50173"><ele>1758</ele></trkpt>
<trkpt lat="46.81845" lon="10.50186"><ele>1757</ele></trkpt>
<trkpt lat="46.81837" lon="10.50193"><ele>1756</ele></trkpt>
<trkpt lat="46.81826" lon="10.50205"><ele>1755</ele></trkpt>
<trkpt lat="46.81819" lon="10.5022"><ele>1754</ele></trkpt>
<trkpt lat="46.81813" lon="10.50237"><ele>1753</ele></trkpt>
<trkpt lat="46.8181" lon="10.50251"><ele>1753</ele></trkpt>
<trkpt lat="46.81802" lon="10.50258"><ele>1752</ele></trkpt>
<trkpt lat="46.81789" lon="10.50269"><ele>1751</ele></trkpt>
<trkpt lat="46.81786" lon="10.50283"><ele>1750</ele></trkpt>
<trkpt lat="46.81787" lon="10.50299"><ele>1750</ele></trkpt>
<trkpt lat="46.8179" lon="10.50316"><ele>1749</ele></trkpt>
<trkpt lat="46.81794" lon="10.50328"><ele>1748</ele></trkpt>
<trkpt lat="46.81801" lon="10.50341"><ele>1747</ele></trkpt>
<trkpt lat="46.81809" lon="10.50369"><ele>1744</ele></trkpt>
<trkpt lat="46.81805" lon="10.50382"><ele>1743</ele></trkpt>
<trkpt lat="46.81804" lon="10.50395"><ele>1742</ele></trkpt>
<trkpt lat="46.81799" lon="10.50408"><ele>1740</ele></trkpt>
<trkpt lat="46.81793" lon="10.50424"><ele>1739</ele></trkpt>
<trkpt lat="46.81787" lon="10.5044"><ele>1737</ele></trkpt>
<trkpt lat="46.81783" lon="10.50456"><ele>1736</ele></trkpt>
<trkpt lat="46.81786" lon="10.50469"><ele>1734</ele></trkpt>
<trkpt lat="46.81778" lon="10.50486"><ele>1733</ele></trkpt>
<trkpt lat="46.81769" lon="10.50496"><ele>1731</ele></trkpt>
<trkpt lat="46.81776" lon="10.50484"><ele>1730</ele></trkpt>
<trkpt lat="46.81784" lon="10.5048"><ele>1729</ele></trkpt>
<trkpt lat="46.81794" lon="10.50477"><ele>1727</ele></trkpt>
<trkpt lat="46.81802" lon="10.5047"><ele>1726</ele></trkpt>
<trkpt lat="46.81802" lon="10.50484"><ele>1725</ele></trkpt>
<trkpt lat="46.81811" lon="10.50488"><ele>1724</ele></trkpt>
<trkpt lat="46.81805" lon="10.50498"><ele>1723</ele></trkpt>
<trkpt lat="46.8181" lon="10.50512"><ele>1721</ele></trkpt>
<trkpt lat="46.81815" lon="10.50528"><ele>1720</ele></trkpt>
<trkpt lat="46.81819" lon="10.5054"><ele>1719</ele></trkpt>
<trkpt lat="46.8182" lon="10.50526"><ele>1718</ele></trkpt>
<trkpt lat="46.81828" lon="10.50512"><ele>1716</ele></trkpt>
<trkpt lat="46.81831" lon="10.50525"><ele>1715</ele></trkpt>
<trkpt lat="46.81826" lon="10.50537"><ele>1714</ele></trkpt>
<trkpt lat="46.81835" lon="10.50537"><ele>1713</ele></trkpt>
<trkpt lat="46.81837" lon="10.50552"><ele>1711</ele></trkpt>
<trkpt lat="46.81832" lon="10.50568"><ele>1710</ele></trkpt>
<trkpt lat="46.81833" lon="10.50581"><ele>1709</ele></trkpt>
<trkpt lat="46.81828" lon="10.50596"><ele>1708</ele></trkpt>
<trkpt lat="46.8182" lon="10.50608"><ele>1706</ele></trkpt>
<trkpt lat="46.81813" lon="10.5062"><ele>1705</ele></trkpt>
<trkpt lat="46.81806" lon="10.50634"><ele>1703</ele></trkpt>
<trkpt lat="46.818" lon="10.50644"><ele>1703</ele></trkpt>
<trkpt lat="46.81794" lon="10.50656"><ele>1702</ele></trkpt>
<trkpt lat="46.81787" lon="10.50672"><ele>1702</ele></trkpt>
<trkpt lat="46.81781" lon="10.50686"><ele>1702</ele></trkpt>
<trkpt lat="46.81777" lon="10.50704"><ele>1701</ele></trkpt>
<trkpt lat="46.81771" lon="10.50723"><ele>1701</ele></trkpt>
<trkpt lat="46.81768" lon="10.50735"><ele>1701</ele></trkpt>
<trkpt lat="46.81768" lon="10.50749"><ele>1700</ele></trkpt>
<trkpt lat="46.81766" lon="10.50764"><ele>1700</ele></trkpt>
<trkpt lat="46.81764" lon="10.50779"><ele>1700</ele></trkpt>
<trkpt lat="46.81762" lon="10.50792"><ele>1699</ele></trkpt>
<trkpt lat="46.81761" lon="10.50809"><ele>1699</ele></trkpt>
<trkpt lat="46.81757" lon="10.50829"><ele>1699</ele></trkpt>
<trkpt lat="46.81753" lon="10.50841"><ele>1698</ele></trkpt>
<trkpt lat="46.81746" lon="10.5086"><ele>1698</ele></trkpt>
<trkpt lat="46.81737" lon="10.50868"><ele>1698</ele></trkpt>
<trkpt lat="46.81729" lon="10.50885"><ele>1696</ele></trkpt>
<trkpt lat="46.81723" lon="10.50897"><ele>1695</ele></trkpt>
<trkpt lat="46.81713" lon="10.50899"><ele>1693</ele></trkpt>
<trkpt lat="46.81706" lon="10.50912"><ele>1692</ele></trkpt>
<trkpt lat="46.817" lon="10.50924"><ele>1691</ele></trkpt>
<trkpt lat="46.81692" lon="10.50934"><ele>1689</ele></trkpt>
<trkpt lat="46.81682" lon="10.50937"><ele>1688</ele></trkpt>
<trkpt lat="46.81691" lon="10.50943"><ele>1686</ele></trkpt>
<trkpt lat="46.817" lon="10.50938"><ele>1685</ele></trkpt>
<trkpt lat="46.81711" lon="10.50943"><ele>1683</ele></trkpt>
<trkpt lat="46.81701" lon="10.50953"><ele>1682</ele></trkpt>
<trkpt lat="46.81692" lon="10.50958"><ele>1680</ele></trkpt>
<trkpt lat="46.81682" lon="10.50961"><ele>1679</ele></trkpt>
<trkpt lat="46.8167" lon="10.50972"><ele>1677</ele></trkpt>
<trkpt lat="46.8168" lon="10.50971"><ele>1676</ele></trkpt>
<trkpt lat="46.8169" lon="10.50969"><ele>1674</ele></trkpt>
<trkpt lat="46.81701" lon="10.50971"><ele>1673</ele></trkpt>
<trkpt lat="46.81735" lon="10.5096"><ele>1671</ele></trkpt>
<trkpt lat="46.81745" lon="10.50964"><ele>1670</ele></trkpt>
<trkpt lat="46.81747" lon="10.50978"><ele>1670</ele></trkpt>
<trkpt lat="46.81758" lon="10.50972"><ele>1669</ele></trkpt>
<trkpt lat="46.81762" lon="10.50984"><ele>1668</ele></trkpt>
<trkpt lat="46.81755" lon="10.50994"><ele>1668</ele></trkpt>
<trkpt lat="46.81748" lon="10.51003"><ele>1667</ele></trkpt>
<trkpt lat="46.8174" lon="10.51012"><ele>1667</ele></trkpt>
<trkpt lat="46.81727" lon="10.51022"><ele>1666</ele></trkpt>
<trkpt lat="46.81718" lon="10.51017"><ele>1666</ele></trkpt>
<trkpt lat="46.81709" lon="10.51016"><ele>1665</ele></trkpt>
<trkpt lat="46.81697" lon="10.51021"><ele>1665</ele></trkpt>
<trkpt lat="46.81688" lon="10.51019"><ele>1664</ele></trkpt>
<trkpt lat="46.81678" lon="10.51018"><ele>1664</ele></trkpt>
<trkpt lat="46.81669" lon="10.51024"><ele>1663</ele></trkpt>
<trkpt lat="46.81662" lon="10.51032"><ele>1662</ele></trkpt>
<trkpt lat="46.81653" lon="10.51042"><ele>1661</ele></trkpt>
<trkpt lat="46.81644" lon="10.5105"><ele>1659</ele></trkpt>
<trkpt lat="46.81635" lon="10.51067"><ele>1657</ele></trkpt>
<trkpt lat="46.81628" lon="10.51077"><ele>1656</ele></trkpt>
<trkpt lat="46.81621" lon="10.51088"><ele>1655</ele></trkpt>
<trkpt lat="46.81617" lon="10.51103"><ele>1653</ele></trkpt>
<trkpt lat="46.81613" lon="10.51117"><ele>1652</ele></trkpt>
<trkpt lat="46.81615" lon="10.51135"><ele>1651</ele></trkpt>
<trkpt lat="46.81613" lon="10.51151"><ele>1649</ele></trkpt>
<trkpt lat="46.81605" lon="10.5116"><ele>1648</ele></trkpt>
<trkpt lat="46.81595" lon="10.51168"><ele>1646</ele></trkpt>
<trkpt lat="46.81584" lon="10.5117"><ele>1645</ele></trkpt>
<trkpt lat="46.81592" lon="10.51179"><ele>1644</ele></trkpt>
<trkpt lat="46.81603" lon="10.51179"><ele>1642</ele></trkpt>
<trkpt lat="46.81609" lon="10.51188"><ele>1641</ele></trkpt>
<trkpt lat="46.81611" lon="10.51203"><ele>1640</ele></trkpt>
<trkpt lat="46.816" lon="10.51208"><ele>1639</ele></trkpt>
<trkpt lat="46.81591" lon="10.51213"><ele>1639</ele></trkpt>
<trkpt lat="46.81599" lon="10.51221"><ele>1638</ele></trkpt>
<trkpt lat="46.81609" lon="10.51214"><ele>1638</ele></trkpt>
<trkpt lat="46.81627" lon="10.51214"><ele>1637</ele></trkpt>
<trkpt lat="46.81636" lon="10.51214"><ele>1637</ele></trkpt>
<trkpt lat="46.81645" lon="10.51205"><ele>1636</ele></trkpt>
<trkpt lat="46.8165" lon="10.51194"><ele>1636</ele></trkpt>
<trkpt lat="46.81656" lon="10.51178"><ele>1635</ele></trkpt>
<trkpt lat="46.81662" lon="10.51167"><ele>1635</ele></trkpt>
<trkpt lat="46.81671" lon="10.51163"><ele>1635</ele></trkpt>
<trkpt lat="46.81681" lon="10.51161"><ele>1634</ele></trkpt>
<trkpt lat="46.8169" lon="10.5116"><ele>1634</ele></trkpt>
<trkpt lat="46.817" lon="10.51157"><ele>1633</ele></trkpt>
<trkpt lat="46.81713" lon="10.51158"><ele>1633</ele></trkpt>
<trkpt lat="46.81724" lon="10.51156"><ele>1632</ele></trkpt>
<trkpt lat="46.81734" lon="10.51152"><ele>1632</ele></trkpt>
<trkpt lat="46.81745" lon="10.51151"><ele>1631</ele></trkpt>
<trkpt lat="46.81759" lon="10.5115"><ele>1631</ele></trkpt>
<trkpt lat="46.81774" lon="10.51149"><ele>1630</ele></trkpt>
<trkpt lat="46.81789" lon="10.51146"><ele>1629</ele></trkpt>
<trkpt lat="46.81798" lon="10.51143"><ele>1629</ele></trkpt>
<trkpt lat="46.81806" lon="10.51131"><ele>1628</ele></trkpt>
<trkpt lat="46.81812" lon="10.51118"><ele>1628</ele></trkpt>
<trkpt lat="46.81818" lon="10.51105"><ele>1627</ele></trkpt>
<trkpt lat="46.81826" lon="10.51095"><ele>1626</ele></trkpt>
<trkpt lat="46.81837" lon="10.51101"><ele>1626</ele></trkpt>
<trkpt lat="46.81847" lon="10.51108"><ele>1625</ele></trkpt>
<trkpt lat="46.81855" lon="10.51103"><ele>1625</ele></trkpt>
<trkpt lat="46.81863" lon="10.51094"><ele>1624</ele></trkpt>
<trkpt lat="46.8187" lon="10.51085"><ele>1624</ele></trkpt>
<trkpt lat="46.81875" lon="10.51073"><ele>1623</ele></trkpt>
<trkpt lat="46.81884" lon="10.51065"><ele>1623</ele></trkpt>
<trkpt lat="46.8189" lon="10.51055"><ele>1621</ele></trkpt>
<trkpt lat="46.819" lon="10.51045"><ele>1620</ele></trkpt>
<trkpt lat="46.8191" lon="10.51031"><ele>1618</ele></trkpt>
<trkpt lat="46.81918" lon="10.51019"><ele>1617</ele></trkpt>
<trkpt lat="46.81929" lon="10.51021"><ele>1615</ele></trkpt>
<trkpt lat="46.8193" lon="10.51043"><ele>1613</ele></trkpt>
<trkpt lat="46.81941" lon="10.51042"><ele>1612</ele></trkpt>
<trkpt lat="46.8195" lon="10.51036"><ele>1611</ele></trkpt>
<trkpt lat="46.81962" lon="10.51026"><ele>1609</ele></trkpt>
<trkpt lat="46.81978" lon="10.5102"><ele>1607</ele></trkpt>
<trkpt lat="46.81987" lon="10.51018"><ele>1606</ele></trkpt>
<trkpt lat="46.8199" lon="10.51037"><ele>1604</ele></trkpt>
<trkpt lat="46.8198" lon="10.5105"><ele>1603</ele></trkpt>
<trkpt lat="46.81971" lon="10.51064"><ele>1601</ele></trkpt>
<trkpt lat="46.81963" lon="10.51078"><ele>1599</ele></trkpt>
<trkpt lat="46.81954" lon="10.51093"><ele>1596</ele></trkpt>
<trkpt lat="46.81945" lon="10.51103"><ele>1594</ele></trkpt>
<trkpt lat="46.81939" lon="10.51113"><ele>1593</ele></trkpt>
<trkpt lat="46.81934" lon="10.51126"><ele>1591</ele></trkpt>
<trkpt lat="46.81925" lon="10.51136"><ele>1589</ele></trkpt>
<trkpt lat="46.81919" lon="10.51146"><ele>1587</ele></trkpt>
<trkpt lat="46.81928" lon="10.51149"><ele>1586</ele></trkpt>
<trkpt lat="46.81936" lon="10.51143"><ele>1584</ele></trkpt>
<trkpt lat="46.81942" lon="10.51129"><ele>1582</ele></trkpt>
<trkpt lat="46.81951" lon="10.51128"><ele>1580</ele></trkpt>
<trkpt lat="46.81962" lon="10.51125"><ele>1578</ele></trkpt>
<trkpt lat="46.8197" lon="10.51114"><ele>1576</ele></trkpt>
<trkpt lat="46.8198" lon="10.51111"><ele>1575</ele></trkpt>
<trkpt lat="46.81991" lon="10.51103"><ele>1572</ele></trkpt>
<trkpt lat="46.81999" lon="10.51094"><ele>1571</ele></trkpt>
<trkpt lat="46.82012" lon="10.51093"><ele>1568</ele></trkpt>
<trkpt lat="46.82024" lon="10.51087"><ele>1568</ele></trkpt>
<trkpt lat="46.82034" lon="10.51081"><ele>1568</ele></trkpt>
<trkpt lat="46.82042" lon="10.51072"><ele>1568</ele></trkpt>
<trkpt lat="46.82049" lon="10.51063"><ele>1568</ele></trkpt>
<trkpt lat="46.82057" lon="10.51052"><ele>1568</ele></trkpt>
<trkpt lat="46.82065" lon="10.51044"><ele>1568</ele></trkpt>
<trkpt lat="46.82072" lon="10.51031"><ele>1568</ele></trkpt>
<trkpt lat="46.82081" lon="10.51019"><ele>1568</ele></trkpt>
<trkpt lat="46.82094" lon="10.51006"><ele>1568</ele></trkpt>
<trkpt lat="46.82102" lon="10.50998"><ele>1568</ele></trkpt>
<trkpt lat="46.8211" lon="10.50989"><ele>1568</ele></trkpt>
<trkpt lat="46.82118" lon="10.50982"><ele>1568</ele></trkpt>
<trkpt lat="46.82126" lon="10.50974"><ele>1568</ele></trkpt>
<trkpt lat="46.82135" lon="10.50968"><ele>1568</ele></trkpt>
<trkpt lat="46.82144" lon="10.50962"><ele>1568</ele></trkpt>
<trkpt lat="46.82157" lon="10.50954"><ele>1568</ele></trkpt>
<trkpt lat="46.82167" lon="10.50948"><ele>1568</ele></trkpt>
<trkpt lat="46.82166" lon="10.50934"><ele>1568</ele></trkpt>
<trkpt lat="46.82169" lon="10.50927"><ele>1568</ele></trkpt>

				</trkseg>
		  </trk>
		</gpx>
		