<?xml version="1.0" encoding="utf-8"?>
		<gpx xmlns="http://www.topografix.com/GPX/1/1" xmlns:xsd="http://www.w3.org/2001/XMLSchema" xmlns:xsi="http://www.w3.org/2001/XMLSchema-instance" version="1.1" creator="Fugawi 4,5,14,1696 http://www.fugawi.com/" xsi:schemaLocation="http://www.topografix.com/GPX/1/1 http://www.topografix.com/GPX/1/1/gpx.xsd">
			<trk>
				<name>Plamort Trail</name>
				<desc></desc>
				<trkseg>
					<trkpt lat="46.85618" lon="10.53182"><ele>2054</ele></trkpt>
<trkpt lat="46.85614" lon="10.53172"><ele>2052</ele></trkpt>
<trkpt lat="46.85614" lon="10.53158"><ele>2048</ele></trkpt>
<trkpt lat="46.85613" lon="10.53143"><ele>2040</ele></trkpt>
<trkpt lat="46.85607" lon="10.53119"><ele>2037</ele></trkpt>
<trkpt lat="46.85573" lon="10.531"><ele>2038</ele></trkpt>
<trkpt lat="46.85556" lon="10.53071"><ele>2034</ele></trkpt>
<trkpt lat="46.85533" lon="10.53055"><ele>2034</ele></trkpt>
<trkpt lat="46.85494" lon="10.5303"><ele>2039</ele></trkpt>
<trkpt lat="46.85456" lon="10.53013"><ele>2038</ele></trkpt>
<trkpt lat="46.8543" lon="10.52997"><ele>2032</ele></trkpt>
<trkpt lat="46.854" lon="10.52988"><ele>2032</ele></trkpt>
<trkpt lat="46.85351" lon="10.52983"><ele>2031</ele></trkpt>
<trkpt lat="46.85297" lon="10.52979"><ele>2030</ele></trkpt>
<trkpt lat="46.85239" lon="10.52999"><ele>2028</ele></trkpt>
<trkpt lat="46.85149" lon="10.53032"><ele>2024</ele></trkpt>
<trkpt lat="46.8512" lon="10.53012"><ele>2014</ele></trkpt>
<trkpt lat="46.85082" lon="10.52983"><ele>1998</ele></trkpt>
<trkpt lat="46.85058" lon="10.52969"><ele>2012</ele></trkpt>
<trkpt lat="46.85027" lon="10.52943"><ele>2014</ele></trkpt>
<trkpt lat="46.84977" lon="10.52917"><ele>2017</ele></trkpt>
<trkpt lat="46.84935" lon="10.52868"><ele>2017</ele></trkpt>
<trkpt lat="46.84894" lon="10.5282"><ele>2020</ele></trkpt>
<trkpt lat="46.84877" lon="10.52786"><ele>2022</ele></trkpt>
<trkpt lat="46.8485" lon="10.52764"><ele>2024</ele></trkpt>
<trkpt lat="46.84836" lon="10.52759"><ele>2025</ele></trkpt>
<trkpt lat="46.84822" lon="10.52743"><ele>2027</ele></trkpt>
<trkpt lat="46.84794" lon="10.52722"><ele>2027</ele></trkpt>
<trkpt lat="46.84768" lon="10.52701"><ele>2030</ele></trkpt>
<trkpt lat="46.84741" lon="10.52679"><ele>2033</ele></trkpt>
<trkpt lat="46.84723" lon="10.52661"><ele>2032</ele></trkpt>
<trkpt lat="46.84705" lon="10.52653"><ele>2032</ele></trkpt>
<trkpt lat="46.8469" lon="10.52644"><ele>2033</ele></trkpt>
<trkpt lat="46.84668" lon="10.52626"><ele>2034</ele></trkpt>
<trkpt lat="46.84629" lon="10.52623"><ele>2034</ele></trkpt>
<trkpt lat="46.846" lon="10.52617"><ele>2034</ele></trkpt>
<trkpt lat="46.84571" lon="10.52601"><ele>2034</ele></trkpt>
<trkpt lat="46.8454" lon="10.52604"><ele>2033</ele></trkpt>
<trkpt lat="46.84501" lon="10.5262"><ele>2031</ele></trkpt>
<trkpt lat="46.84488" lon="10.52614"><ele>2031</ele></trkpt>
<trkpt lat="46.84464" lon="10.52624"><ele>2031</ele></trkpt>
<trkpt lat="46.8445" lon="10.52624"><ele>2031</ele></trkpt>
<trkpt lat="46.84434" lon="10.52618"><ele>2031</ele></trkpt>
<trkpt lat="46.84442" lon="10.52576"><ele>2030</ele></trkpt>
<trkpt lat="46.84444" lon="10.52532"><ele>2027</ele></trkpt>
<trkpt lat="46.84453" lon="10.52487"><ele>2025</ele></trkpt>
<trkpt lat="46.84456" lon="10.52442"><ele>2023</ele></trkpt>
<trkpt lat="46.84424" lon="10.52422"><ele>2025</ele></trkpt>
<trkpt lat="46.84399" lon="10.52398"><ele>2024</ele></trkpt>
<trkpt lat="46.84378" lon="10.52388"><ele>2023</ele></trkpt>
<trkpt lat="46.84356" lon="10.52372"><ele>2021</ele></trkpt>
<trkpt lat="46.8434" lon="10.52348"><ele>2017</ele></trkpt>
<trkpt lat="46.84317" lon="10.52334"><ele>2021</ele></trkpt>
<trkpt lat="46.84297" lon="10.52308"><ele>2017</ele></trkpt>
<trkpt lat="46.84282" lon="10.52269"><ele>2015</ele></trkpt>

				</trkseg>
		  </trk>
		</gpx>
		