<?xml version="1.0" encoding="utf-8"?>
		<gpx xmlns="http://www.topografix.com/GPX/1/1" xmlns:xsd="http://www.w3.org/2001/XMLSchema" xmlns:xsi="http://www.w3.org/2001/XMLSchema-instance" version="1.1" creator="Fugawi 4,5,14,1696 http://www.fugawi.com/" xsi:schemaLocation="http://www.topografix.com/GPX/1/1 http://www.topografix.com/GPX/1/1/gpx.xsd">
			<trk>
				<name>Plattweg Trail</name>
				<desc></desc>
				<trkseg>
					<trkpt lat="46.76349" lon="10.50699"><ele>2081</ele></trkpt>
<trkpt lat="46.76349" lon="10.50697"><ele>2082</ele></trkpt>
<trkpt lat="46.76358" lon="10.50682"><ele>2082</ele></trkpt>
<trkpt lat="46.76359" lon="10.5068"><ele>2078</ele></trkpt>
<trkpt lat="46.76359" lon="10.5068"><ele>2078</ele></trkpt>
<trkpt lat="46.76359" lon="10.50679"><ele>2085</ele></trkpt>
<trkpt lat="46.76359" lon="10.50678"><ele>2081</ele></trkpt>
<trkpt lat="46.76356" lon="10.50678"><ele>2082</ele></trkpt>
<trkpt lat="46.76356" lon="10.50674"><ele>2083</ele></trkpt>
<trkpt lat="46.76355" lon="10.50674"><ele>2081</ele></trkpt>
<trkpt lat="46.76377" lon="10.507"><ele>2079</ele></trkpt>
<trkpt lat="46.76379" lon="10.50703"><ele>2078</ele></trkpt>
<trkpt lat="46.76386" lon="10.50711"><ele>2077</ele></trkpt>
<trkpt lat="46.76391" lon="10.50715"><ele>2075</ele></trkpt>
<trkpt lat="46.76404" lon="10.50724"><ele>2071</ele></trkpt>
<trkpt lat="46.76412" lon="10.50726"><ele>2069</ele></trkpt>
<trkpt lat="46.76423" lon="10.50728"><ele>2066</ele></trkpt>
<trkpt lat="46.76425" lon="10.50731"><ele>2066</ele></trkpt>
<trkpt lat="46.76431" lon="10.5074"><ele>2065</ele></trkpt>
<trkpt lat="46.76448" lon="10.50755"><ele>2063</ele></trkpt>
<trkpt lat="46.76447" lon="10.50793"><ele>2061</ele></trkpt>
<trkpt lat="46.7645" lon="10.50833"><ele>2061</ele></trkpt>
<trkpt lat="46.76457" lon="10.50854"><ele>2062</ele></trkpt>
<trkpt lat="46.76459" lon="10.50856"><ele>2063</ele></trkpt>
<trkpt lat="46.76463" lon="10.50861"><ele>2062</ele></trkpt>
<trkpt lat="46.76474" lon="10.50868"><ele>2062</ele></trkpt>
<trkpt lat="46.76479" lon="10.50876"><ele>2060</ele></trkpt>
<trkpt lat="46.76484" lon="10.50883"><ele>2062</ele></trkpt>
<trkpt lat="46.76489" lon="10.50893"><ele>2062</ele></trkpt>
<trkpt lat="46.76501" lon="10.50917"><ele>2061</ele></trkpt>
<trkpt lat="46.76504" lon="10.50932"><ele>2061</ele></trkpt>
<trkpt lat="46.76532" lon="10.50948"><ele>2060</ele></trkpt>
<trkpt lat="46.76559" lon="10.50962"><ele>2059</ele></trkpt>
<trkpt lat="46.76578" lon="10.50968"><ele>2055</ele></trkpt>
<trkpt lat="46.76586" lon="10.50974"><ele>2054</ele></trkpt>
<trkpt lat="46.7659" lon="10.50985"><ele>2052</ele></trkpt>
<trkpt lat="46.76592" lon="10.50991"><ele>2050</ele></trkpt>
<trkpt lat="46.76593" lon="10.50995"><ele>2049</ele></trkpt>
<trkpt lat="46.76597" lon="10.50997"><ele>2046</ele></trkpt>
<trkpt lat="46.76604" lon="10.51001"><ele>2045</ele></trkpt>
<trkpt lat="46.76605" lon="10.51003"><ele>2044</ele></trkpt>
<trkpt lat="46.76605" lon="10.51005"><ele>2045</ele></trkpt>
<trkpt lat="46.76604" lon="10.5101"><ele>2043</ele></trkpt>
<trkpt lat="46.76604" lon="10.51011"><ele>2043</ele></trkpt>
<trkpt lat="46.76602" lon="10.5102"><ele>2040</ele></trkpt>
<trkpt lat="46.76604" lon="10.51024"><ele>2038</ele></trkpt>
<trkpt lat="46.76604" lon="10.51025"><ele>2037</ele></trkpt>
<trkpt lat="46.7661" lon="10.51029"><ele>2034</ele></trkpt>
<trkpt lat="46.76617" lon="10.51036"><ele>2031</ele></trkpt>
<trkpt lat="46.76617" lon="10.51037"><ele>2030</ele></trkpt>
<trkpt lat="46.76624" lon="10.51039"><ele>2029</ele></trkpt>
<trkpt lat="46.76631" lon="10.51041"><ele>2028</ele></trkpt>
<trkpt lat="46.7665" lon="10.51044"><ele>2025</ele></trkpt>
<trkpt lat="46.76665" lon="10.51043"><ele>2024</ele></trkpt>
<trkpt lat="46.7667" lon="10.51041"><ele>2024</ele></trkpt>
<trkpt lat="46.76672" lon="10.51042"><ele>2023</ele></trkpt>
<trkpt lat="46.76685" lon="10.51037"><ele>2023</ele></trkpt>
<trkpt lat="46.76709" lon="10.51036"><ele>2020</ele></trkpt>
<trkpt lat="46.76715" lon="10.51037"><ele>2019</ele></trkpt>
<trkpt lat="46.76727" lon="10.51042"><ele>2016</ele></trkpt>
<trkpt lat="46.76731" lon="10.5104"><ele>2017</ele></trkpt>
<trkpt lat="46.7674" lon="10.51052"><ele>2017</ele></trkpt>
<trkpt lat="46.76764" lon="10.51051"><ele>2018</ele></trkpt>
<trkpt lat="46.76765" lon="10.5105"><ele>2016</ele></trkpt>
<trkpt lat="46.76777" lon="10.51054"><ele>2017</ele></trkpt>
<trkpt lat="46.76797" lon="10.51054"><ele>2016</ele></trkpt>
<trkpt lat="46.76813" lon="10.51057"><ele>2013</ele></trkpt>
<trkpt lat="46.76817" lon="10.51058"><ele>2012</ele></trkpt>
<trkpt lat="46.76826" lon="10.51062"><ele>2012</ele></trkpt>
<trkpt lat="46.76826" lon="10.51058"><ele>2011</ele></trkpt>
<trkpt lat="46.76825" lon="10.51058"><ele>2012</ele></trkpt>
<trkpt lat="46.76833" lon="10.51066"><ele>2010</ele></trkpt>
<trkpt lat="46.76851" lon="10.51078"><ele>2010</ele></trkpt>
<trkpt lat="46.76852" lon="10.51083"><ele>2007</ele></trkpt>
<trkpt lat="46.76855" lon="10.5109"><ele>2004</ele></trkpt>
<trkpt lat="46.76862" lon="10.51093"><ele>2002</ele></trkpt>
<trkpt lat="46.76862" lon="10.51095"><ele>2001</ele></trkpt>
<trkpt lat="46.76872" lon="10.51101"><ele>2000</ele></trkpt>
<trkpt lat="46.76885" lon="10.51113"><ele>1995</ele></trkpt>
<trkpt lat="46.76891" lon="10.51104"><ele>1996</ele></trkpt>
<trkpt lat="46.76883" lon="10.51126"><ele>1995</ele></trkpt>
<trkpt lat="46.76875" lon="10.51147"><ele>1996</ele></trkpt>
<trkpt lat="46.76875" lon="10.51139"><ele>1995</ele></trkpt>
<trkpt lat="46.76891" lon="10.51111"><ele>1995</ele></trkpt>
<trkpt lat="46.76896" lon="10.51114"><ele>1994</ele></trkpt>
<trkpt lat="46.76897" lon="10.51114"><ele>1994</ele></trkpt>
<trkpt lat="46.76907" lon="10.5112"><ele>1993</ele></trkpt>
<trkpt lat="46.76912" lon="10.5113"><ele>1991</ele></trkpt>
<trkpt lat="46.76917" lon="10.51136"><ele>1989</ele></trkpt>
<trkpt lat="46.76916" lon="10.51139"><ele>1988</ele></trkpt>
<trkpt lat="46.76909" lon="10.5114"><ele>1985</ele></trkpt>
<trkpt lat="46.76897" lon="10.51138"><ele>1984</ele></trkpt>
<trkpt lat="46.76908" lon="10.51148"><ele>1980</ele></trkpt>
<trkpt lat="46.76909" lon="10.51151"><ele>1980</ele></trkpt>
<trkpt lat="46.76914" lon="10.51162"><ele>1979</ele></trkpt>
<trkpt lat="46.76921" lon="10.51171"><ele>1979</ele></trkpt>
<trkpt lat="46.76937" lon="10.51192"><ele>1979</ele></trkpt>
<trkpt lat="46.76944" lon="10.51185"><ele>1979</ele></trkpt>
<trkpt lat="46.76951" lon="10.51188"><ele>1979</ele></trkpt>
<trkpt lat="46.76958" lon="10.51195"><ele>1980</ele></trkpt>
<trkpt lat="46.76962" lon="10.51203"><ele>1979</ele></trkpt>
<trkpt lat="46.76971" lon="10.51214"><ele>1978</ele></trkpt>
<trkpt lat="46.76973" lon="10.51218"><ele>1979</ele></trkpt>
<trkpt lat="46.76986" lon="10.51224"><ele>1977</ele></trkpt>
<trkpt lat="46.76993" lon="10.51222"><ele>1977</ele></trkpt>
<trkpt lat="46.7701" lon="10.5123"><ele>1977</ele></trkpt>
<trkpt lat="46.77017" lon="10.51234"><ele>1977</ele></trkpt>
<trkpt lat="46.77013" lon="10.51244"><ele>1976</ele></trkpt>
<trkpt lat="46.77023" lon="10.51241"><ele>1977</ele></trkpt>
<trkpt lat="46.77016" lon="10.51247"><ele>1977</ele></trkpt>
<trkpt lat="46.7702" lon="10.51237"><ele>1978</ele></trkpt>
<trkpt lat="46.77036" lon="10.51235"><ele>1975</ele></trkpt>
<trkpt lat="46.77038" lon="10.51235"><ele>1975</ele></trkpt>
<trkpt lat="46.77056" lon="10.51237"><ele>1974</ele></trkpt>
<trkpt lat="46.77063" lon="10.51237"><ele>1974</ele></trkpt>
<trkpt lat="46.77095" lon="10.51246"><ele>1975</ele></trkpt>
<trkpt lat="46.77101" lon="10.51251"><ele>1975</ele></trkpt>
<trkpt lat="46.77104" lon="10.51249"><ele>1975</ele></trkpt>
<trkpt lat="46.77122" lon="10.51251"><ele>1976</ele></trkpt>
<trkpt lat="46.77125" lon="10.51252"><ele>1977</ele></trkpt>
<trkpt lat="46.77135" lon="10.51256"><ele>1977</ele></trkpt>
<trkpt lat="46.77139" lon="10.51257"><ele>1977</ele></trkpt>
<trkpt lat="46.77151" lon="10.51256"><ele>1979</ele></trkpt>
<trkpt lat="46.77177" lon="10.51251"><ele>1979</ele></trkpt>
<trkpt lat="46.77183" lon="10.51254"><ele>1979</ele></trkpt>
<trkpt lat="46.77206" lon="10.51263"><ele>1979</ele></trkpt>
<trkpt lat="46.7721" lon="10.51267"><ele>1980</ele></trkpt>
<trkpt lat="46.77213" lon="10.51268"><ele>1980</ele></trkpt>
<trkpt lat="46.77217" lon="10.51271"><ele>1981</ele></trkpt>
<trkpt lat="46.77226" lon="10.51277"><ele>1983</ele></trkpt>
<trkpt lat="46.77232" lon="10.51284"><ele>1983</ele></trkpt>
<trkpt lat="46.77238" lon="10.51279"><ele>1984</ele></trkpt>
<trkpt lat="46.77239" lon="10.51275"><ele>1984</ele></trkpt>
<trkpt lat="46.77246" lon="10.51258"><ele>1985</ele></trkpt>
<trkpt lat="46.77248" lon="10.51255"><ele>1985</ele></trkpt>
<trkpt lat="46.77257" lon="10.51241"><ele>1988</ele></trkpt>
<trkpt lat="46.77261" lon="10.51237"><ele>1987</ele></trkpt>
<trkpt lat="46.77275" lon="10.51239"><ele>1987</ele></trkpt>
<trkpt lat="46.77285" lon="10.51239"><ele>1988</ele></trkpt>
<trkpt lat="46.77315" lon="10.51198"><ele>1985</ele></trkpt>
<trkpt lat="46.77321" lon="10.51191"><ele>1985</ele></trkpt>
<trkpt lat="46.77341" lon="10.51192"><ele>1984</ele></trkpt>
<trkpt lat="46.77346" lon="10.51191"><ele>1984</ele></trkpt>
<trkpt lat="46.77357" lon="10.51205"><ele>1981</ele></trkpt>
<trkpt lat="46.77366" lon="10.51229"><ele>1978</ele></trkpt>
<trkpt lat="46.77379" lon="10.5125"><ele>1974</ele></trkpt>
<trkpt lat="46.77381" lon="10.51251"><ele>1975</ele></trkpt>
<trkpt lat="46.77386" lon="10.51255"><ele>1976</ele></trkpt>
<trkpt lat="46.77394" lon="10.51267"><ele>1975</ele></trkpt>
<trkpt lat="46.77396" lon="10.51269"><ele>1975</ele></trkpt>
<trkpt lat="46.77399" lon="10.51276"><ele>1977</ele></trkpt>
<trkpt lat="46.77406" lon="10.51279"><ele>1978</ele></trkpt>
<trkpt lat="46.7741" lon="10.5128"><ele>1978</ele></trkpt>
<trkpt lat="46.77421" lon="10.51289"><ele>1979</ele></trkpt>
<trkpt lat="46.77423" lon="10.51288"><ele>1979</ele></trkpt>
<trkpt lat="46.77443" lon="10.51312"><ele>1979</ele></trkpt>
<trkpt lat="46.77458" lon="10.51316"><ele>1979</ele></trkpt>
<trkpt lat="46.77462" lon="10.5132"><ele>1978</ele></trkpt>
<trkpt lat="46.77494" lon="10.51339"><ele>1977</ele></trkpt>
<trkpt lat="46.77519" lon="10.51352"><ele>1976</ele></trkpt>
<trkpt lat="46.77522" lon="10.51359"><ele>1976</ele></trkpt>
<trkpt lat="46.77532" lon="10.51376"><ele>1975</ele></trkpt>
<trkpt lat="46.77543" lon="10.5137"><ele>1974</ele></trkpt>
<trkpt lat="46.77564" lon="10.51379"><ele>1973</ele></trkpt>
<trkpt lat="46.77574" lon="10.51411"><ele>1973</ele></trkpt>
<trkpt lat="46.77574" lon="10.51405"><ele>1973</ele></trkpt>
<trkpt lat="46.77585" lon="10.51409"><ele>1975</ele></trkpt>
<trkpt lat="46.7759" lon="10.51409"><ele>1974</ele></trkpt>
<trkpt lat="46.77593" lon="10.51408"><ele>1972</ele></trkpt>
<trkpt lat="46.77596" lon="10.51412"><ele>1973</ele></trkpt>
<trkpt lat="46.77594" lon="10.51414"><ele>1974</ele></trkpt>
<trkpt lat="46.77602" lon="10.51408"><ele>1975</ele></trkpt>
<trkpt lat="46.77592" lon="10.51414"><ele>1976</ele></trkpt>
<trkpt lat="46.77602" lon="10.51409"><ele>1976</ele></trkpt>
<trkpt lat="46.77625" lon="10.51421"><ele>1977</ele></trkpt>
<trkpt lat="46.77628" lon="10.51421"><ele>1979</ele></trkpt>
<trkpt lat="46.77639" lon="10.51415"><ele>1979</ele></trkpt>
<trkpt lat="46.77646" lon="10.51415"><ele>1981</ele></trkpt>
<trkpt lat="46.77653" lon="10.51421"><ele>1981</ele></trkpt>
<trkpt lat="46.77654" lon="10.51423"><ele>1982</ele></trkpt>
<trkpt lat="46.77659" lon="10.51434"><ele>1984</ele></trkpt>
<trkpt lat="46.77661" lon="10.5143"><ele>1984</ele></trkpt>
<trkpt lat="46.77665" lon="10.51416"><ele>1984</ele></trkpt>
<trkpt lat="46.77679" lon="10.51452"><ele>1983</ele></trkpt>
<trkpt lat="46.77685" lon="10.5146"><ele>1983</ele></trkpt>
<trkpt lat="46.77687" lon="10.51462"><ele>1984</ele></trkpt>
<trkpt lat="46.77686" lon="10.51459"><ele>1983</ele></trkpt>
<trkpt lat="46.77685" lon="10.51458"><ele>1984</ele></trkpt>
<trkpt lat="46.77683" lon="10.51454"><ele>1984</ele></trkpt>
<trkpt lat="46.77693" lon="10.51446"><ele>1986</ele></trkpt>
<trkpt lat="46.77697" lon="10.51448"><ele>1986</ele></trkpt>
<trkpt lat="46.77704" lon="10.51452"><ele>1985</ele></trkpt>
<trkpt lat="46.77711" lon="10.5146"><ele>1986</ele></trkpt>
<trkpt lat="46.77713" lon="10.51461"><ele>1985</ele></trkpt>
<trkpt lat="46.77715" lon="10.51466"><ele>1985</ele></trkpt>
<trkpt lat="46.77735" lon="10.5147"><ele>1983</ele></trkpt>
<trkpt lat="46.77737" lon="10.5147"><ele>1982</ele></trkpt>
<trkpt lat="46.77741" lon="10.5147"><ele>1982</ele></trkpt>
<trkpt lat="46.77755" lon="10.51475"><ele>1984</ele></trkpt>
<trkpt lat="46.77762" lon="10.51476"><ele>1983</ele></trkpt>
<trkpt lat="46.77769" lon="10.51473"><ele>1983</ele></trkpt>
<trkpt lat="46.77773" lon="10.51477"><ele>1981</ele></trkpt>
<trkpt lat="46.77776" lon="10.51475"><ele>1981</ele></trkpt>
<trkpt lat="46.77787" lon="10.51482"><ele>1983</ele></trkpt>
<trkpt lat="46.77797" lon="10.51487"><ele>1984</ele></trkpt>
<trkpt lat="46.77805" lon="10.51484"><ele>1983</ele></trkpt>
<trkpt lat="46.77814" lon="10.51489"><ele>1981</ele></trkpt>
<trkpt lat="46.77819" lon="10.5149"><ele>1982</ele></trkpt>
<trkpt lat="46.77823" lon="10.51495"><ele>1983</ele></trkpt>
<trkpt lat="46.77832" lon="10.51496"><ele>1983</ele></trkpt>
<trkpt lat="46.77841" lon="10.51495"><ele>1984</ele></trkpt>
<trkpt lat="46.77864" lon="10.51503"><ele>1981</ele></trkpt>
<trkpt lat="46.77879" lon="10.51507"><ele>1979</ele></trkpt>
<trkpt lat="46.77886" lon="10.51517"><ele>1978</ele></trkpt>
<trkpt lat="46.77888" lon="10.5152"><ele>1979</ele></trkpt>
<trkpt lat="46.77883" lon="10.51529"><ele>1979</ele></trkpt>

				</trkseg>
		  </trk>
		</gpx>
		