<?xml version="1.0" encoding="UTF-8"?><gpx xmlns="http://www.topografix.com/GPX/1/1" creator="CONTWISE MAPS" xsi:schemaLocation="http://www.topografix.com/GPX/1/1 http://www.topografix.com/GPX/1/1/gpx.xsd http://www.topografix.com/GPX/gpx_overlay/0/3 http://www.topografix.com/GPX/gpx_overlay/0/3/gpx_overlay.xsd http://www.topografix.com/GPX/gpx_modified/0/1 http://www.topografix.com/GPX/gpx_modified/0/1/gpx_modified.xsd http://www.topografix.com/GPX/Private/TopoGrafix/0/3 http://www.topografix.com/GPX/Private/TopoGrafix/0/3/topografix.xsd" xmlns:xsi="http://www.w3.org/2001/XMLSchema-instance" version="1.1"><trk><name><![CDATA[gpx-upload_track_1_54538994]]></name><extensions><label xmlns="http://www.topografix.com/GPX/gpx_overlay/0/3"></label>
</extensions>
<trkseg><trkpt lon="10.49676" lat="46.87793"><ele><![CDATA[1583]]></ele></trkpt>
<trkpt lon="10.49733" lat="46.8782"><ele><![CDATA[1583]]></ele></trkpt>
<trkpt lon="10.49765" lat="46.87839"><ele><![CDATA[1583]]></ele></trkpt>
<trkpt lon="10.49787" lat="46.87844"><ele><![CDATA[1583]]></ele></trkpt>
<trkpt lon="10.49805" lat="46.87852"><ele><![CDATA[1578]]></ele></trkpt>
<trkpt lon="10.49814" lat="46.87858"><ele><![CDATA[1578]]></ele></trkpt>
<trkpt lon="10.49821" lat="46.87867"><ele><![CDATA[1578]]></ele></trkpt>
<trkpt lon="10.49836" lat="46.87871"><ele><![CDATA[1578]]></ele></trkpt>
<trkpt lon="10.4985" lat="46.87873"><ele><![CDATA[1572]]></ele></trkpt>
<trkpt lon="10.49861" lat="46.87878"><ele><![CDATA[1572]]></ele></trkpt>
<trkpt lon="10.49874" lat="46.87881"><ele><![CDATA[1572]]></ele></trkpt>
<trkpt lon="10.49884" lat="46.87887"><ele><![CDATA[1572]]></ele></trkpt>
<trkpt lon="10.49894" lat="46.87894"><ele><![CDATA[1567]]></ele></trkpt>
<trkpt lon="10.49908" lat="46.87893"><ele><![CDATA[1567]]></ele></trkpt>
<trkpt lon="10.4992" lat="46.87897"><ele><![CDATA[1567]]></ele></trkpt>
<trkpt lon="10.49934" lat="46.879"><ele><![CDATA[1567]]></ele></trkpt>
<trkpt lon="10.49935" lat="46.8791"><ele><![CDATA[1566]]></ele></trkpt>
<trkpt lon="10.49936" lat="46.8792"><ele><![CDATA[1566]]></ele></trkpt>
<trkpt lon="10.49937" lat="46.87929"><ele><![CDATA[1566]]></ele></trkpt>
<trkpt lon="10.4994" lat="46.87938"><ele><![CDATA[1566]]></ele></trkpt>
<trkpt lon="10.49944" lat="46.87948"><ele><![CDATA[1573]]></ele></trkpt>
<trkpt lon="10.49942" lat="46.87961"><ele><![CDATA[1573]]></ele></trkpt>
<trkpt lon="10.49951" lat="46.87967"><ele><![CDATA[1573]]></ele></trkpt>
<trkpt lon="10.4996" lat="46.87975"><ele><![CDATA[1573]]></ele></trkpt>
<trkpt lon="10.4997" lat="46.8798"><ele><![CDATA[1572]]></ele></trkpt>
<trkpt lon="10.49979" lat="46.87989"><ele><![CDATA[1572]]></ele></trkpt>
<trkpt lon="10.49993" lat="46.87989"><ele><![CDATA[1572]]></ele></trkpt>
<trkpt lon="10.50006" lat="46.87992"><ele><![CDATA[1572]]></ele></trkpt>
<trkpt lon="10.50024" lat="46.87994"><ele><![CDATA[1560]]></ele></trkpt>
<trkpt lon="10.50027" lat="46.88004"><ele><![CDATA[1560]]></ele></trkpt>
<trkpt lon="10.50021" lat="46.88013"><ele><![CDATA[1560]]></ele></trkpt>
<trkpt lon="10.50024" lat="46.88022"><ele><![CDATA[1560]]></ele></trkpt>
<trkpt lon="10.50032" lat="46.8803"><ele><![CDATA[1560]]></ele></trkpt>
<trkpt lon="10.50042" lat="46.88036"><ele><![CDATA[1560]]></ele></trkpt>
<trkpt lon="10.50046" lat="46.88045"><ele><![CDATA[1560]]></ele></trkpt>
<trkpt lon="10.50059" lat="46.88049"><ele><![CDATA[1560]]></ele></trkpt>
<trkpt lon="10.50068" lat="46.88056"><ele><![CDATA[1548]]></ele></trkpt>
<trkpt lon="10.50075" lat="46.88064"><ele><![CDATA[1548]]></ele></trkpt>
<trkpt lon="10.50083" lat="46.88056"><ele><![CDATA[1548]]></ele></trkpt>
<trkpt lon="10.50087" lat="46.88041"><ele><![CDATA[1548]]></ele></trkpt>
<trkpt lon="10.50085" lat="46.88029"><ele><![CDATA[1547]]></ele></trkpt>
<trkpt lon="10.50082" lat="46.88019"><ele><![CDATA[1547]]></ele></trkpt>
<trkpt lon="10.5008" lat="46.8801"><ele><![CDATA[1547]]></ele></trkpt>
<trkpt lon="10.50078" lat="46.87994"><ele><![CDATA[1547]]></ele></trkpt>
<trkpt lon="10.50078" lat="46.87992"><ele><![CDATA[1538]]></ele></trkpt>
<trkpt lon="10.50074" lat="46.87982"><ele><![CDATA[1538]]></ele></trkpt>
<trkpt lon="10.50066" lat="46.87969"><ele><![CDATA[1538]]></ele></trkpt>
<trkpt lon="10.50066" lat="46.87968"><ele><![CDATA[1538]]></ele></trkpt>
<trkpt lon="10.50062" lat="46.87954"><ele><![CDATA[1533]]></ele></trkpt>
<trkpt lon="10.50061" lat="46.87945"><ele><![CDATA[1533]]></ele></trkpt>
</trkseg>
</trk>
</gpx>
