<?xml version="1.0" encoding="UTF-8"?><gpx xmlns="http://www.topografix.com/GPX/1/1" creator="CONTWISE MAPS" xsi:schemaLocation="http://www.topografix.com/GPX/1/1 http://www.topografix.com/GPX/1/1/gpx.xsd http://www.topografix.com/GPX/gpx_overlay/0/3 http://www.topografix.com/GPX/gpx_overlay/0/3/gpx_overlay.xsd http://www.topografix.com/GPX/gpx_modified/0/1 http://www.topografix.com/GPX/gpx_modified/0/1/gpx_modified.xsd http://www.topografix.com/GPX/Private/TopoGrafix/0/3 http://www.topografix.com/GPX/Private/TopoGrafix/0/3/topografix.xsd" xmlns:xsi="http://www.w3.org/2001/XMLSchema-instance" version="1.1"><trk><name><![CDATA[gpx-upload_track_1_54539478]]></name><extensions><label xmlns="http://www.topografix.com/GPX/gpx_overlay/0/3"></label>
</extensions>
<trkseg><trkpt lon="10.50096" lat="46.87964"><ele><![CDATA[1521]]></ele></trkpt>
<trkpt lon="10.50097" lat="46.87953"><ele><![CDATA[1521]]></ele></trkpt>
<trkpt lon="10.50094" lat="46.87948"><ele><![CDATA[1521]]></ele></trkpt>
<trkpt lon="10.50096" lat="46.87943"><ele><![CDATA[1518]]></ele></trkpt>
<trkpt lon="10.50104" lat="46.87944"><ele><![CDATA[1518]]></ele></trkpt>
<trkpt lon="10.50106" lat="46.87949"><ele><![CDATA[1518]]></ele></trkpt>
<trkpt lon="10.50112" lat="46.87953"><ele><![CDATA[1518]]></ele></trkpt>
<trkpt lon="10.50119" lat="46.8795"><ele><![CDATA[1513]]></ele></trkpt>
<trkpt lon="10.50116" lat="46.87943"><ele><![CDATA[1513]]></ele></trkpt>
<trkpt lon="10.50123" lat="46.8794"><ele><![CDATA[1513]]></ele></trkpt>
<trkpt lon="10.50129" lat="46.87943"><ele><![CDATA[1513]]></ele></trkpt>
<trkpt lon="10.50133" lat="46.87946"><ele><![CDATA[1511]]></ele></trkpt>
<trkpt lon="10.50134" lat="46.87951"><ele><![CDATA[1511]]></ele></trkpt>
<trkpt lon="10.5014" lat="46.87954"><ele><![CDATA[1511]]></ele></trkpt>
<trkpt lon="10.50147" lat="46.87952"><ele><![CDATA[1511]]></ele></trkpt>
<trkpt lon="10.50147" lat="46.87945"><ele><![CDATA[1507]]></ele></trkpt>
<trkpt lon="10.50158" lat="46.87942"><ele><![CDATA[1507]]></ele></trkpt>
<trkpt lon="10.5017" lat="46.87942"><ele><![CDATA[1507]]></ele></trkpt>
<trkpt lon="10.50171" lat="46.87948"><ele><![CDATA[1507]]></ele></trkpt>
<trkpt lon="10.50166" lat="46.87955"><ele><![CDATA[1502]]></ele></trkpt>
<trkpt lon="10.50166" lat="46.87967"><ele><![CDATA[1502]]></ele></trkpt>
<trkpt lon="10.50168" lat="46.87978"><ele><![CDATA[1502]]></ele></trkpt>
<trkpt lon="10.50166" lat="46.87987"><ele><![CDATA[1502]]></ele></trkpt>
<trkpt lon="10.5017" lat="46.87997"><ele><![CDATA[1486]]></ele></trkpt>
<trkpt lon="10.50177" lat="46.88005"><ele><![CDATA[1486]]></ele></trkpt>
<trkpt lon="10.50184" lat="46.88013"><ele><![CDATA[1486]]></ele></trkpt>
<trkpt lon="10.5019" lat="46.88023"><ele><![CDATA[1486]]></ele></trkpt>
<trkpt lon="10.502" lat="46.88027"><ele><![CDATA[1475]]></ele></trkpt>
<trkpt lon="10.50206" lat="46.88021"><ele><![CDATA[1475]]></ele></trkpt>
<trkpt lon="10.50208" lat="46.88014"><ele><![CDATA[1475]]></ele></trkpt>
<trkpt lon="10.50214" lat="46.88011"><ele><![CDATA[1475]]></ele></trkpt>
<trkpt lon="10.50217" lat="46.88015"><ele><![CDATA[1470]]></ele></trkpt>
<trkpt lon="10.5022" lat="46.8802"><ele><![CDATA[1470]]></ele></trkpt>
<trkpt lon="10.50222" lat="46.88025"><ele><![CDATA[1470]]></ele></trkpt>
<trkpt lon="10.50223" lat="46.88029"><ele><![CDATA[1470]]></ele></trkpt>
<trkpt lon="10.50224" lat="46.88031"><ele><![CDATA[1465]]></ele></trkpt>
<trkpt lon="10.50228" lat="46.88035"><ele><![CDATA[1465]]></ele></trkpt>
<trkpt lon="10.50235" lat="46.88035"><ele><![CDATA[1465]]></ele></trkpt>
<trkpt lon="10.50238" lat="46.88029"><ele><![CDATA[1465]]></ele></trkpt>
<trkpt lon="10.50245" lat="46.88027"><ele><![CDATA[1459]]></ele></trkpt>
<trkpt lon="10.50253" lat="46.88029"><ele><![CDATA[1459]]></ele></trkpt>
<trkpt lon="10.50256" lat="46.88033"><ele><![CDATA[1459]]></ele></trkpt>
<trkpt lon="10.50257" lat="46.8804"><ele><![CDATA[1459]]></ele></trkpt>
<trkpt lon="10.50254" lat="46.88047"><ele><![CDATA[1459]]></ele></trkpt>
<trkpt lon="10.50255" lat="46.88056"><ele><![CDATA[1459]]></ele></trkpt>
<trkpt lon="10.50261" lat="46.88082"><ele><![CDATA[1459]]></ele></trkpt>
<trkpt lon="10.5026" lat="46.88091"><ele><![CDATA[1459]]></ele></trkpt>
<trkpt lon="10.50262" lat="46.88096"><ele><![CDATA[1450]]></ele></trkpt>
<trkpt lon="10.50265" lat="46.88101"><ele><![CDATA[1450]]></ele></trkpt>
<trkpt lon="10.50274" lat="46.88098"><ele><![CDATA[1450]]></ele></trkpt>
<trkpt lon="10.50282" lat="46.88091"><ele><![CDATA[1450]]></ele></trkpt>
</trkseg>
</trk>
</gpx>
