<?xml version="1.0" encoding="utf-8"?>
		<gpx xmlns="http://www.topografix.com/GPX/1/1" xmlns:xsd="http://www.w3.org/2001/XMLSchema" xmlns:xsi="http://www.w3.org/2001/XMLSchema-instance" version="1.1" creator="Fugawi 4,5,14,1696 http://www.fugawi.com/" xsi:schemaLocation="http://www.topografix.com/GPX/1/1 http://www.topografix.com/GPX/1/1/gpx.xsd">
			<trk>
				<name>Schöneben Trail</name>
				<desc></desc>
				<trkseg>
					<trkpt lat="46.80531" lon="10.49147"><ele>2108</ele></trkpt>
<trkpt lat="46.80532" lon="10.49152"><ele>2108</ele></trkpt>
<trkpt lat="46.80538" lon="10.49157"><ele>2107</ele></trkpt>
<trkpt lat="46.80554" lon="10.49164"><ele>2103</ele></trkpt>
<trkpt lat="46.80559" lon="10.49162"><ele>2101</ele></trkpt>
<trkpt lat="46.80562" lon="10.49158"><ele>2100</ele></trkpt>
<trkpt lat="46.80567" lon="10.49159"><ele>2099</ele></trkpt>
<trkpt lat="46.8057" lon="10.49156"><ele>2098</ele></trkpt>
<trkpt lat="46.80571" lon="10.49147"><ele>2097</ele></trkpt>
<trkpt lat="46.80573" lon="10.49143"><ele>2096</ele></trkpt>
<trkpt lat="46.80576" lon="10.49143"><ele>2096</ele></trkpt>
<trkpt lat="46.80591" lon="10.49163"><ele>2092</ele></trkpt>
<trkpt lat="46.80596" lon="10.49168"><ele>2091</ele></trkpt>
<trkpt lat="46.80614" lon="10.49188"><ele>2088</ele></trkpt>
<trkpt lat="46.80614" lon="10.49188"><ele>2088</ele></trkpt>
<trkpt lat="46.80617" lon="10.49182"><ele>2087</ele></trkpt>
<trkpt lat="46.8062" lon="10.49191"><ele>2087</ele></trkpt>
<trkpt lat="46.80657" lon="10.4926"><ele>2079</ele></trkpt>
<trkpt lat="46.80658" lon="10.4926"><ele>2079</ele></trkpt>
<trkpt lat="46.80676" lon="10.49267"><ele>2074</ele></trkpt>
<trkpt lat="46.80683" lon="10.49273"><ele>2073</ele></trkpt>
<trkpt lat="46.8069" lon="10.49284"><ele>2071</ele></trkpt>
<trkpt lat="46.80691" lon="10.49287"><ele>2071</ele></trkpt>
<trkpt lat="46.80697" lon="10.49304"><ele>2070</ele></trkpt>
<trkpt lat="46.80707" lon="10.49318"><ele>2067</ele></trkpt>
<trkpt lat="46.80721" lon="10.49325"><ele>2064</ele></trkpt>
<trkpt lat="46.8074" lon="10.49343"><ele>2060</ele></trkpt>
<trkpt lat="46.80741" lon="10.49344"><ele>2060</ele></trkpt>
<trkpt lat="46.80757" lon="10.49338"><ele>2057</ele></trkpt>
<trkpt lat="46.80769" lon="10.49345"><ele>2055</ele></trkpt>
<trkpt lat="46.80774" lon="10.49344"><ele>2054</ele></trkpt>
<trkpt lat="46.80785" lon="10.49344"><ele>2052</ele></trkpt>
<trkpt lat="46.80799" lon="10.49362"><ele>2050</ele></trkpt>
<trkpt lat="46.80816" lon="10.49359"><ele>2047</ele></trkpt>
<trkpt lat="46.80821" lon="10.49359"><ele>2046</ele></trkpt>
<trkpt lat="46.80839" lon="10.49368"><ele>2043</ele></trkpt>
<trkpt lat="46.80848" lon="10.49363"><ele>2040</ele></trkpt>
<trkpt lat="46.8086" lon="10.49362"><ele>2038</ele></trkpt>
<trkpt lat="46.80872" lon="10.49367"><ele>2035</ele></trkpt>
<trkpt lat="46.80881" lon="10.4936"><ele>2033</ele></trkpt>
<trkpt lat="46.80894" lon="10.49355"><ele>2029</ele></trkpt>
<trkpt lat="46.80904" lon="10.49351"><ele>2027</ele></trkpt>
<trkpt lat="46.8091" lon="10.4934"><ele>2025</ele></trkpt>
<trkpt lat="46.80914" lon="10.49337"><ele>2024</ele></trkpt>
<trkpt lat="46.8092" lon="10.49335"><ele>2023</ele></trkpt>
<trkpt lat="46.80926" lon="10.49337"><ele>2022</ele></trkpt>
<trkpt lat="46.80941" lon="10.49348"><ele>2019</ele></trkpt>
<trkpt lat="46.80943" lon="10.49349"><ele>2019</ele></trkpt>
<trkpt lat="46.80955" lon="10.49353"><ele>2017</ele></trkpt>
<trkpt lat="46.80967" lon="10.49367"><ele>2015</ele></trkpt>
<trkpt lat="46.80978" lon="10.49372"><ele>2013</ele></trkpt>
<trkpt lat="46.80989" lon="10.49367"><ele>2011</ele></trkpt>
<trkpt lat="46.80997" lon="10.49367"><ele>2010</ele></trkpt>
<trkpt lat="46.81007" lon="10.4936"><ele>2008</ele></trkpt>
<trkpt lat="46.81017" lon="10.49356"><ele>2005</ele></trkpt>
<trkpt lat="46.81027" lon="10.49358"><ele>2003</ele></trkpt>
<trkpt lat="46.8103" lon="10.49358"><ele>2003</ele></trkpt>
<trkpt lat="46.81032" lon="10.49355"><ele>2002</ele></trkpt>
<trkpt lat="46.81033" lon="10.49353"><ele>2002</ele></trkpt>
<trkpt lat="46.81034" lon="10.49346"><ele>2002</ele></trkpt>
<trkpt lat="46.81032" lon="10.49341"><ele>2002</ele></trkpt>
<trkpt lat="46.81033" lon="10.49331"><ele>2001</ele></trkpt>
<trkpt lat="46.81036" lon="10.4932"><ele>2000</ele></trkpt>
<trkpt lat="46.81041" lon="10.49316"><ele>1998</ele></trkpt>
<trkpt lat="46.81046" lon="10.49318"><ele>1997</ele></trkpt>
<trkpt lat="46.81051" lon="10.49315"><ele>1996</ele></trkpt>
<trkpt lat="46.81053" lon="10.4931"><ele>1995</ele></trkpt>
<trkpt lat="46.81056" lon="10.49307"><ele>1994</ele></trkpt>
<trkpt lat="46.81072" lon="10.49309"><ele>1991</ele></trkpt>
<trkpt lat="46.81079" lon="10.49321"><ele>1990</ele></trkpt>
<trkpt lat="46.81086" lon="10.49325"><ele>1989</ele></trkpt>
<trkpt lat="46.81091" lon="10.49331"><ele>1988</ele></trkpt>
<trkpt lat="46.81101" lon="10.49338"><ele>1986</ele></trkpt>
<trkpt lat="46.81107" lon="10.49345"><ele>1985</ele></trkpt>
<trkpt lat="46.8111" lon="10.49347"><ele>1984</ele></trkpt>
<trkpt lat="46.81115" lon="10.4935"><ele>1983</ele></trkpt>
<trkpt lat="46.81122" lon="10.49352"><ele>1982</ele></trkpt>
<trkpt lat="46.81128" lon="10.49351"><ele>1980</ele></trkpt>
<trkpt lat="46.81132" lon="10.49354"><ele>1979</ele></trkpt>
<trkpt lat="46.8114" lon="10.49364"><ele>1978</ele></trkpt>
<trkpt lat="46.81143" lon="10.4937"><ele>1978</ele></trkpt>
<trkpt lat="46.8114" lon="10.49378"><ele>1979</ele></trkpt>
<trkpt lat="46.81138" lon="10.49381"><ele>1980</ele></trkpt>
<trkpt lat="46.81138" lon="10.49385"><ele>1980</ele></trkpt>
<trkpt lat="46.81156" lon="10.49398"><ele>1977</ele></trkpt>
<trkpt lat="46.81172" lon="10.49403"><ele>1974</ele></trkpt>
<trkpt lat="46.81181" lon="10.49396"><ele>1972</ele></trkpt>
<trkpt lat="46.81187" lon="10.49389"><ele>1970</ele></trkpt>
<trkpt lat="46.81189" lon="10.49387"><ele>1969</ele></trkpt>
<trkpt lat="46.81193" lon="10.49383"><ele>1968</ele></trkpt>
<trkpt lat="46.81212" lon="10.49388"><ele>1965</ele></trkpt>
<trkpt lat="46.81224" lon="10.49392"><ele>1963</ele></trkpt>
<trkpt lat="46.81237" lon="10.494"><ele>1961</ele></trkpt>
<trkpt lat="46.81242" lon="10.49398"><ele>1960</ele></trkpt>
<trkpt lat="46.81254" lon="10.4938"><ele>1955</ele></trkpt>
<trkpt lat="46.81257" lon="10.49374"><ele>1954</ele></trkpt>
<trkpt lat="46.81264" lon="10.49369"><ele>1952</ele></trkpt>
<trkpt lat="46.81268" lon="10.4937"><ele>1951</ele></trkpt>
<trkpt lat="46.81271" lon="10.49373"><ele>1951</ele></trkpt>
<trkpt lat="46.81283" lon="10.49392"><ele>1949</ele></trkpt>
<trkpt lat="46.8129" lon="10.494"><ele>1948</ele></trkpt>
<trkpt lat="46.81297" lon="10.49396"><ele>1946</ele></trkpt>
<trkpt lat="46.81302" lon="10.49395"><ele>1945</ele></trkpt>
<trkpt lat="46.81307" lon="10.49396"><ele>1943</ele></trkpt>
<trkpt lat="46.81321" lon="10.49401"><ele>1940</ele></trkpt>
<trkpt lat="46.81342" lon="10.49412"><ele>1937</ele></trkpt>
<trkpt lat="46.81348" lon="10.4941"><ele>1936</ele></trkpt>
<trkpt lat="46.81358" lon="10.49388"><ele>1934</ele></trkpt>
<trkpt lat="46.81359" lon="10.49385"><ele>1934</ele></trkpt>
<trkpt lat="46.81362" lon="10.49382"><ele>1934</ele></trkpt>
<trkpt lat="46.81366" lon="10.49383"><ele>1934</ele></trkpt>
<trkpt lat="46.81375" lon="10.49394"><ele>1933</ele></trkpt>
<trkpt lat="46.81378" lon="10.49396"><ele>1932</ele></trkpt>
<trkpt lat="46.81393" lon="10.49405"><ele>1931</ele></trkpt>
<trkpt lat="46.81398" lon="10.49411"><ele>1931</ele></trkpt>
<trkpt lat="46.81406" lon="10.4942"><ele>1930</ele></trkpt>
<trkpt lat="46.81421" lon="10.49416"><ele>1929</ele></trkpt>
<trkpt lat="46.81426" lon="10.49417"><ele>1928</ele></trkpt>
<trkpt lat="46.81434" lon="10.49418"><ele>1927</ele></trkpt>
<trkpt lat="46.81446" lon="10.49425"><ele>1924</ele></trkpt>
<trkpt lat="46.81458" lon="10.49428"><ele>1922</ele></trkpt>
<trkpt lat="46.81465" lon="10.49436"><ele>1920</ele></trkpt>
<trkpt lat="46.81482" lon="10.49449"><ele>1916</ele></trkpt>
<trkpt lat="46.81489" lon="10.4945"><ele>1914</ele></trkpt>
<trkpt lat="46.81499" lon="10.49452"><ele>1913</ele></trkpt>
<trkpt lat="46.81508" lon="10.49455"><ele>1911</ele></trkpt>
<trkpt lat="46.81511" lon="10.49461"><ele>1910</ele></trkpt>
<trkpt lat="46.81513" lon="10.49485"><ele>1906</ele></trkpt>
<trkpt lat="46.81514" lon="10.49505"><ele>1903</ele></trkpt>
<trkpt lat="46.81511" lon="10.49513"><ele>1903</ele></trkpt>
<trkpt lat="46.81511" lon="10.49518"><ele>1902</ele></trkpt>
<trkpt lat="46.81513" lon="10.49523"><ele>1901</ele></trkpt>
<trkpt lat="46.81517" lon="10.49525"><ele>1901</ele></trkpt>
<trkpt lat="46.81542" lon="10.49526"><ele>1897</ele></trkpt>
<trkpt lat="46.81553" lon="10.4954"><ele>1893</ele></trkpt>
<trkpt lat="46.81556" lon="10.49542"><ele>1893</ele></trkpt>
<trkpt lat="46.81568" lon="10.49543"><ele>1891</ele></trkpt>
<trkpt lat="46.81577" lon="10.49537"><ele>1891</ele></trkpt>
<trkpt lat="46.8158" lon="10.49535"><ele>1891</ele></trkpt>
<trkpt lat="46.81586" lon="10.49531"><ele>1890</ele></trkpt>
<trkpt lat="46.81593" lon="10.49535"><ele>1888</ele></trkpt>
<trkpt lat="46.81594" lon="10.49536"><ele>1888</ele></trkpt>
<trkpt lat="46.81597" lon="10.49539"><ele>1886</ele></trkpt>
<trkpt lat="46.81601" lon="10.49557"><ele>1882</ele></trkpt>
<trkpt lat="46.81606" lon="10.49577"><ele>1876</ele></trkpt>
<trkpt lat="46.81606" lon="10.49608"><ele>1871</ele></trkpt>
<trkpt lat="46.81609" lon="10.49614"><ele>1870</ele></trkpt>
<trkpt lat="46.81612" lon="10.49619"><ele>1868</ele></trkpt>
<trkpt lat="46.81615" lon="10.49631"><ele>1865</ele></trkpt>
<trkpt lat="46.81615" lon="10.49637"><ele>1864</ele></trkpt>
<trkpt lat="46.81616" lon="10.49648"><ele>1862</ele></trkpt>
<trkpt lat="46.81619" lon="10.49658"><ele>1860</ele></trkpt>
<trkpt lat="46.81621" lon="10.49659"><ele>1859</ele></trkpt>
<trkpt lat="46.81625" lon="10.49657"><ele>1858</ele></trkpt>
<trkpt lat="46.81637" lon="10.49639"><ele>1858</ele></trkpt>
<trkpt lat="46.81641" lon="10.49633"><ele>1858</ele></trkpt>
<trkpt lat="46.81648" lon="10.49629"><ele>1857</ele></trkpt>
<trkpt lat="46.81651" lon="10.49628"><ele>1856</ele></trkpt>
<trkpt lat="46.81654" lon="10.4963"><ele>1855</ele></trkpt>
<trkpt lat="46.81658" lon="10.49628"><ele>1855</ele></trkpt>
<trkpt lat="46.81661" lon="10.49629"><ele>1854</ele></trkpt>
<trkpt lat="46.81664" lon="10.49632"><ele>1852</ele></trkpt>
<trkpt lat="46.81669" lon="10.49647"><ele>1848</ele></trkpt>
<trkpt lat="46.8168" lon="10.49648"><ele>1844</ele></trkpt>
<trkpt lat="46.8169" lon="10.49641"><ele>1842</ele></trkpt>
<trkpt lat="46.81698" lon="10.49626"><ele>1841</ele></trkpt>
<trkpt lat="46.81702" lon="10.49627"><ele>1840</ele></trkpt>
<trkpt lat="46.81706" lon="10.49632"><ele>1838</ele></trkpt>
<trkpt lat="46.81707" lon="10.49633"><ele>1837</ele></trkpt>
<trkpt lat="46.81711" lon="10.49638"><ele>1835</ele></trkpt>
<trkpt lat="46.8172" lon="10.49635"><ele>1832</ele></trkpt>
<trkpt lat="46.81724" lon="10.49629"><ele>1832</ele></trkpt>
<trkpt lat="46.81731" lon="10.4963"><ele>1829</ele></trkpt>
<trkpt lat="46.81737" lon="10.49628"><ele>1828</ele></trkpt>
<trkpt lat="46.81751" lon="10.49617"><ele>1824</ele></trkpt>
<trkpt lat="46.81758" lon="10.49606"><ele>1824</ele></trkpt>
<trkpt lat="46.81766" lon="10.49593"><ele>1823</ele></trkpt>
<trkpt lat="46.81786" lon="10.49579"><ele>1820</ele></trkpt>
<trkpt lat="46.818" lon="10.49577"><ele>1817</ele></trkpt>
<trkpt lat="46.8181" lon="10.4958"><ele>1813</ele></trkpt>
<trkpt lat="46.81827" lon="10.49589"><ele>1807</ele></trkpt>
<trkpt lat="46.81836" lon="10.49587"><ele>1805</ele></trkpt>
<trkpt lat="46.81837" lon="10.49587"><ele>1805</ele></trkpt>
<trkpt lat="46.81843" lon="10.49583"><ele>1805</ele></trkpt>
<trkpt lat="46.81848" lon="10.49583"><ele>1805</ele></trkpt>
<trkpt lat="46.81856" lon="10.49585"><ele>1804</ele></trkpt>
<trkpt lat="46.81865" lon="10.49597"><ele>1802</ele></trkpt>
<trkpt lat="46.81866" lon="10.49604"><ele>1801</ele></trkpt>
<trkpt lat="46.81864" lon="10.49613"><ele>1800</ele></trkpt>
<trkpt lat="46.81867" lon="10.49636"><ele>1798</ele></trkpt>
<trkpt lat="46.81869" lon="10.49641"><ele>1797</ele></trkpt>
<trkpt lat="46.81875" lon="10.49647"><ele>1795</ele></trkpt>
<trkpt lat="46.81875" lon="10.49647"><ele>1795</ele></trkpt>
<trkpt lat="46.81879" lon="10.49647"><ele>1795</ele></trkpt>
<trkpt lat="46.8189" lon="10.49644"><ele>1794</ele></trkpt>
<trkpt lat="46.81893" lon="10.49642"><ele>1793</ele></trkpt>
<trkpt lat="46.81895" lon="10.49643"><ele>1793</ele></trkpt>
<trkpt lat="46.81898" lon="10.4965"><ele>1792</ele></trkpt>
<trkpt lat="46.81903" lon="10.49652"><ele>1791</ele></trkpt>
<trkpt lat="46.81904" lon="10.4965"><ele>1791</ele></trkpt>
<trkpt lat="46.81917" lon="10.49652"><ele>1789</ele></trkpt>
<trkpt lat="46.81926" lon="10.4965"><ele>1789</ele></trkpt>
<trkpt lat="46.81941" lon="10.49651"><ele>1788</ele></trkpt>
<trkpt lat="46.8195" lon="10.49657"><ele>1787</ele></trkpt>
<trkpt lat="46.81956" lon="10.49673"><ele>1785</ele></trkpt>
<trkpt lat="46.81959" lon="10.49687"><ele>1782</ele></trkpt>
<trkpt lat="46.81957" lon="10.49693"><ele>1781</ele></trkpt>
<trkpt lat="46.81959" lon="10.49701"><ele>1780</ele></trkpt>
<trkpt lat="46.81964" lon="10.49713"><ele>1778</ele></trkpt>
<trkpt lat="46.81968" lon="10.49717"><ele>1777</ele></trkpt>
<trkpt lat="46.8197" lon="10.49753"><ele>1771</ele></trkpt>
<trkpt lat="46.81971" lon="10.49771"><ele>1768</ele></trkpt>
<trkpt lat="46.81967" lon="10.49781"><ele>1766</ele></trkpt>
<trkpt lat="46.81967" lon="10.49786"><ele>1766</ele></trkpt>
<trkpt lat="46.81967" lon="10.49789"><ele>1765</ele></trkpt>
<trkpt lat="46.81969" lon="10.49796"><ele>1764</ele></trkpt>
<trkpt lat="46.81977" lon="10.49804"><ele>1762</ele></trkpt>
<trkpt lat="46.81978" lon="10.49809"><ele>1761</ele></trkpt>
<trkpt lat="46.81979" lon="10.49819"><ele>1760</ele></trkpt>
<trkpt lat="46.81977" lon="10.49829"><ele>1759</ele></trkpt>
<trkpt lat="46.81978" lon="10.49837"><ele>1757</ele></trkpt>
<trkpt lat="46.81977" lon="10.49843"><ele>1755</ele></trkpt>
<trkpt lat="46.81977" lon="10.49843"><ele>1755</ele></trkpt>
<trkpt lat="46.8197" lon="10.49851"><ele>1754</ele></trkpt>
<trkpt lat="46.81963" lon="10.49866"><ele>1752</ele></trkpt>
<trkpt lat="46.81961" lon="10.49879"><ele>1749</ele></trkpt>
<trkpt lat="46.81959" lon="10.49886"><ele>1748</ele></trkpt>
<trkpt lat="46.81958" lon="10.49887"><ele>1748</ele></trkpt>
<trkpt lat="46.81952" lon="10.49894"><ele>1747</ele></trkpt>
<trkpt lat="46.8193" lon="10.49929"><ele>1743</ele></trkpt>
<trkpt lat="46.81928" lon="10.4993"><ele>1743</ele></trkpt>
<trkpt lat="46.81921" lon="10.49936"><ele>1744</ele></trkpt>
<trkpt lat="46.81904" lon="10.49957"><ele>1744</ele></trkpt>
<trkpt lat="46.8189" lon="10.49982"><ele>1744</ele></trkpt>
<trkpt lat="46.81877" lon="10.49992"><ele>1745</ele></trkpt>
<trkpt lat="46.81875" lon="10.49996"><ele>1745</ele></trkpt>
<trkpt lat="46.8187" lon="10.50009"><ele>1745</ele></trkpt>
<trkpt lat="46.81866" lon="10.50024"><ele>1743</ele></trkpt>
<trkpt lat="46.81864" lon="10.50052"><ele>1739</ele></trkpt>
<trkpt lat="46.81865" lon="10.50068"><ele>1736</ele></trkpt>
<trkpt lat="46.81865" lon="10.50079"><ele>1734</ele></trkpt>
<trkpt lat="46.81867" lon="10.50094"><ele>1731</ele></trkpt>
<trkpt lat="46.8187" lon="10.50112"><ele>1727</ele></trkpt>
<trkpt lat="46.81874" lon="10.50124"><ele>1724</ele></trkpt>
<trkpt lat="46.81873" lon="10.50134"><ele>1723</ele></trkpt>
<trkpt lat="46.81876" lon="10.50156"><ele>1719</ele></trkpt>
<trkpt lat="46.81865" lon="10.50172"><ele>1719</ele></trkpt>
<trkpt lat="46.81857" lon="10.50181"><ele>1720</ele></trkpt>
<trkpt lat="46.81846" lon="10.50209"><ele>1719</ele></trkpt>
<trkpt lat="46.81845" lon="10.50224"><ele>1717</ele></trkpt>
<trkpt lat="46.81835" lon="10.50247"><ele>1715</ele></trkpt>
<trkpt lat="46.81833" lon="10.50257"><ele>1713</ele></trkpt>
<trkpt lat="46.81827" lon="10.50269"><ele>1713</ele></trkpt>
<trkpt lat="46.81821" lon="10.50273"><ele>1714</ele></trkpt>
<trkpt lat="46.81818" lon="10.5028"><ele>1713</ele></trkpt>
<trkpt lat="46.81818" lon="10.5029"><ele>1712</ele></trkpt>
<trkpt lat="46.81822" lon="10.50303"><ele>1709</ele></trkpt>
<trkpt lat="46.81823" lon="10.50314"><ele>1707</ele></trkpt>
<trkpt lat="46.81821" lon="10.50328"><ele>1706</ele></trkpt>
<trkpt lat="46.81819" lon="10.50334"><ele>1706</ele></trkpt>
<trkpt lat="46.81818" lon="10.50339"><ele>1705</ele></trkpt>
<trkpt lat="46.81819" lon="10.50358"><ele>1703</ele></trkpt>
<trkpt lat="46.81815" lon="10.50384"><ele>1702</ele></trkpt>
<trkpt lat="46.81815" lon="10.50388"><ele>1701</ele></trkpt>
<trkpt lat="46.81818" lon="10.50403"><ele>1699</ele></trkpt>
<trkpt lat="46.81823" lon="10.50414"><ele>1697</ele></trkpt>
<trkpt lat="46.81828" lon="10.50422"><ele>1694</ele></trkpt>
<trkpt lat="46.81829" lon="10.50423"><ele>1694</ele></trkpt>
<trkpt lat="46.81828" lon="10.50431"><ele>1693</ele></trkpt>
<trkpt lat="46.81831" lon="10.50449"><ele>1691</ele></trkpt>
<trkpt lat="46.81829" lon="10.50462"><ele>1690</ele></trkpt>
<trkpt lat="46.81827" lon="10.50469"><ele>1689</ele></trkpt>
<trkpt lat="46.81823" lon="10.50477"><ele>1690</ele></trkpt>
<trkpt lat="46.81824" lon="10.50483"><ele>1689</ele></trkpt>
<trkpt lat="46.81831" lon="10.50492"><ele>1686</ele></trkpt>
<trkpt lat="46.81834" lon="10.505"><ele>1684</ele></trkpt>
<trkpt lat="46.81839" lon="10.50524"><ele>1679</ele></trkpt>
<trkpt lat="46.8184" lon="10.50531"><ele>1677</ele></trkpt>
<trkpt lat="46.8185" lon="10.50539"><ele>1674</ele></trkpt>
<trkpt lat="46.81853" lon="10.5055"><ele>1672</ele></trkpt>
<trkpt lat="46.81862" lon="10.50562"><ele>1669</ele></trkpt>
<trkpt lat="46.81863" lon="10.50574"><ele>1666</ele></trkpt>
<trkpt lat="46.81867" lon="10.50593"><ele>1663</ele></trkpt>
<trkpt lat="46.81871" lon="10.50602"><ele>1662</ele></trkpt>
<trkpt lat="46.81873" lon="10.50629"><ele>1658</ele></trkpt>
<trkpt lat="46.81874" lon="10.50645"><ele>1656</ele></trkpt>
<trkpt lat="46.81881" lon="10.50698"><ele>1650</ele></trkpt>
<trkpt lat="46.8188" lon="10.5072"><ele>1649</ele></trkpt>
<trkpt lat="46.81883" lon="10.50729"><ele>1648</ele></trkpt>
<trkpt lat="46.81883" lon="10.5073"><ele>1648</ele></trkpt>
<trkpt lat="46.81885" lon="10.50733"><ele>1647</ele></trkpt>
<trkpt lat="46.81888" lon="10.50733"><ele>1646</ele></trkpt>
<trkpt lat="46.81896" lon="10.50728"><ele>1645</ele></trkpt>
<trkpt lat="46.819" lon="10.50729"><ele>1644</ele></trkpt>
<trkpt lat="46.81901" lon="10.50733"><ele>1643</ele></trkpt>
<trkpt lat="46.81902" lon="10.50737"><ele>1642</ele></trkpt>
<trkpt lat="46.81903" lon="10.50746"><ele>1642</ele></trkpt>
<trkpt lat="46.81906" lon="10.5075"><ele>1641</ele></trkpt>
<trkpt lat="46.81914" lon="10.50757"><ele>1637</ele></trkpt>
<trkpt lat="46.81916" lon="10.50763"><ele>1635</ele></trkpt>
<trkpt lat="46.81918" lon="10.5077"><ele>1633</ele></trkpt>
<trkpt lat="46.81922" lon="10.50774"><ele>1631</ele></trkpt>
<trkpt lat="46.81926" lon="10.50776"><ele>1628</ele></trkpt>
<trkpt lat="46.81928" lon="10.50779"><ele>1626</ele></trkpt>
<trkpt lat="46.81929" lon="10.50781"><ele>1625</ele></trkpt>
<trkpt lat="46.8193" lon="10.50786"><ele>1624</ele></trkpt>
<trkpt lat="46.81931" lon="10.50794"><ele>1623</ele></trkpt>
<trkpt lat="46.81939" lon="10.50816"><ele>1615</ele></trkpt>
<trkpt lat="46.8194" lon="10.50823"><ele>1614</ele></trkpt>
<trkpt lat="46.81939" lon="10.50832"><ele>1613</ele></trkpt>
<trkpt lat="46.8194" lon="10.5084"><ele>1611</ele></trkpt>
<trkpt lat="46.8194" lon="10.50852"><ele>1609</ele></trkpt>
<trkpt lat="46.81943" lon="10.50865"><ele>1606</ele></trkpt>
<trkpt lat="46.8194" lon="10.5088"><ele>1605</ele></trkpt>
<trkpt lat="46.81939" lon="10.50894"><ele>1604</ele></trkpt>
<trkpt lat="46.81941" lon="10.50905"><ele>1601</ele></trkpt>
<trkpt lat="46.81938" lon="10.50917"><ele>1601</ele></trkpt>
<trkpt lat="46.81931" lon="10.50929"><ele>1601</ele></trkpt>
<trkpt lat="46.81911" lon="10.50951"><ele>1603</ele></trkpt>
<trkpt lat="46.81899" lon="10.50963"><ele>1604</ele></trkpt>
<trkpt lat="46.81899" lon="10.50971"><ele>1601</ele></trkpt>
<trkpt lat="46.81912" lon="10.50981"><ele>1595</ele></trkpt>
<trkpt lat="46.81927" lon="10.50987"><ele>1589</ele></trkpt>
<trkpt lat="46.81936" lon="10.50983"><ele>1587</ele></trkpt>
<trkpt lat="46.81966" lon="10.50973"><ele>1578</ele></trkpt>
<trkpt lat="46.81973" lon="10.50978"><ele>1574</ele></trkpt>
<trkpt lat="46.81977" lon="10.50986"><ele>1571</ele></trkpt>
<trkpt lat="46.8199" lon="10.50996"><ele>1565</ele></trkpt>
<trkpt lat="46.81997" lon="10.50992"><ele>1564</ele></trkpt>
<trkpt lat="46.82002" lon="10.50987"><ele>1562</ele></trkpt>
<trkpt lat="46.82007" lon="10.50987"><ele>1559</ele></trkpt>
<trkpt lat="46.82015" lon="10.5099"><ele>1554</ele></trkpt>
<trkpt lat="46.82025" lon="10.50999"><ele>1547</ele></trkpt>
<trkpt lat="46.82028" lon="10.51008"><ele>1543</ele></trkpt>
<trkpt lat="46.82027" lon="10.51026"><ele>1540</ele></trkpt>
<trkpt lat="46.82024" lon="10.51044"><ele>1537</ele></trkpt>
<trkpt lat="46.82021" lon="10.51061"><ele>1535</ele></trkpt>
<trkpt lat="46.82015" lon="10.5107"><ele>1535</ele></trkpt>
<trkpt lat="46.82011" lon="10.51078"><ele>1535</ele></trkpt>
<trkpt lat="46.8201" lon="10.51086"><ele>1533</ele></trkpt>
<trkpt lat="46.82011" lon="10.51088"><ele>1532</ele></trkpt>
<trkpt lat="46.82011" lon="10.5109"><ele>1531</ele></trkpt>

				</trkseg>
		  </trk>
		</gpx>
		