<?xml version="1.0" encoding="UTF-8" standalone="yes"?>
<gpx version="1.1" creator="outdooractive - http://www.outdooractive.com" xmlns="http://www.topografix.com/GPX/1/1" xmlns:oa="http://www.outdooractive.com/GPX/Extensions/1" xmlns:xsi="http://www.w3.org/2001/XMLSchema-instance" xsi:schemaLocation="http://www.topografix.com/GPX/1/1 http://www.topografix.com/GPX/1/1/gpx.xsd http://www.outdooractive.com/GPX/Extensions/1 https://www.outdooractive.com/schema/gpx_extensions.xsd">
  <metadata>
    <name>Stallwies Trail (6042)</name>
    <author>
      <name>Jakob Falkner - Ötztal</name>
    </author>
    <link href="https://www.outdooractive.com/r/43652843"/>
    <time>2025-10-17T15:04:39.474Z</time>
    <extensions>
      <oa:oaCategory>mountainbiking</oa:oaCategory>
    </extensions>
  </metadata>
  <trk>
    <name>Stallwies Trail (6042)</name>
    <desc>Der rote Stallwies Trail ist ein kurzer, aber feiner Trail auf der stillen (liftfreien) Seite der BIKE REPUBLIC SÖLDEN.</desc>
    <type>mountainbiking</type>
    <trkseg>
      <trkpt lat="46.962578" lon="11.036305">
        <ele>1905.70233</ele>
      </trkpt>
      <trkpt lat="46.962574" lon="11.036202">
        <ele>1904.37185</ele>
      </trkpt>
      <trkpt lat="46.962572" lon="11.036108">
        <ele>1902.94313</ele>
      </trkpt>
      <trkpt lat="46.962571" lon="11.036025">
        <ele>1901.75644</ele>
      </trkpt>
      <trkpt lat="46.962571" lon="11.035953">
        <ele>1901.10487</ele>
      </trkpt>
      <trkpt lat="46.962574" lon="11.035869">
        <ele>1900.27749</ele>
      </trkpt>
      <trkpt lat="46.962586" lon="11.035688">
        <ele>1898.60923</ele>
      </trkpt>
      <trkpt lat="46.96259" lon="11.035626">
        <ele>1898.65141</ele>
      </trkpt>
      <trkpt lat="46.962591" lon="11.035571">
        <ele>1898.77772</ele>
      </trkpt>
      <trkpt lat="46.96259" lon="11.035475">
        <ele>1898.26244</ele>
      </trkpt>
      <trkpt lat="46.962591" lon="11.035441">
        <ele>1897.78808</ele>
      </trkpt>
      <trkpt lat="46.962594" lon="11.035406">
        <ele>1897.31531</ele>
      </trkpt>
      <trkpt lat="46.9626" lon="11.035373">
        <ele>1897.0353</ele>
      </trkpt>
      <trkpt lat="46.962607" lon="11.035344">
        <ele>1896.83504</ele>
      </trkpt>
      <trkpt lat="46.962622" lon="11.035297">
        <ele>1896.59507</ele>
      </trkpt>
      <trkpt lat="46.962631" lon="11.035265">
        <ele>1896.49901</ele>
      </trkpt>
      <trkpt lat="46.962637" lon="11.035231">
        <ele>1896.50656</ele>
      </trkpt>
      <trkpt lat="46.96264" lon="11.0352">
        <ele>1896.73738</ele>
      </trkpt>
      <trkpt lat="46.962639" lon="11.035161">
        <ele>1897.00697</ele>
      </trkpt>
      <trkpt lat="46.962636" lon="11.035112">
        <ele>1897.27205</ele>
      </trkpt>
      <trkpt lat="46.962629" lon="11.035055">
        <ele>1897.15631</ele>
      </trkpt>
      <trkpt lat="46.962622" lon="11.035016">
        <ele>1896.86563</ele>
      </trkpt>
      <trkpt lat="46.962618" lon="11.034983">
        <ele>1896.57106</ele>
      </trkpt>
      <trkpt lat="46.962617" lon="11.03495">
        <ele>1896.22667</ele>
      </trkpt>
      <trkpt lat="46.962618" lon="11.034918">
        <ele>1895.82932</ele>
      </trkpt>
      <trkpt lat="46.96262" lon="11.034898">
        <ele>1895.60762</ele>
      </trkpt>
      <trkpt lat="46.962623" lon="11.034879">
        <ele>1895.43806</ele>
      </trkpt>
      <trkpt lat="46.962626" lon="11.03486">
        <ele>1895.23433</ele>
      </trkpt>
      <trkpt lat="46.962631" lon="11.034842">
        <ele>1895.18856</ele>
      </trkpt>
      <trkpt lat="46.962658" lon="11.034757">
        <ele>1894.22018</ele>
      </trkpt>
      <trkpt lat="46.962693" lon="11.034657">
        <ele>1894.41324</ele>
      </trkpt>
      <trkpt lat="46.962696" lon="11.03464">
        <ele>1894.61914</ele>
      </trkpt>
      <trkpt lat="46.962698" lon="11.034622">
        <ele>1894.83646</ele>
      </trkpt>
      <trkpt lat="46.962698" lon="11.034599">
        <ele>1895.01877</ele>
      </trkpt>
      <trkpt lat="46.962694" lon="11.034573">
        <ele>1894.98953</ele>
      </trkpt>
      <trkpt lat="46.962689" lon="11.034551">
        <ele>1894.95327</ele>
      </trkpt>
      <trkpt lat="46.962678" lon="11.034512">
        <ele>1894.94717</ele>
      </trkpt>
      <trkpt lat="46.962672" lon="11.034477">
        <ele>1895.14283</ele>
      </trkpt>
      <trkpt lat="46.962667" lon="11.034439">
        <ele>1895.1266</ele>
      </trkpt>
      <trkpt lat="46.962664" lon="11.034396">
        <ele>1894.87017</ele>
      </trkpt>
      <trkpt lat="46.962662" lon="11.034357">
        <ele>1894.49069</ele>
      </trkpt>
      <trkpt lat="46.962659" lon="11.03426">
        <ele>1893.49106</ele>
      </trkpt>
      <trkpt lat="46.962655" lon="11.034184">
        <ele>1892.51137</ele>
      </trkpt>
      <trkpt lat="46.96265" lon="11.034099">
        <ele>1891.68732</ele>
      </trkpt>
      <trkpt lat="46.962643" lon="11.034011">
        <ele>1890.70064</ele>
      </trkpt>
      <trkpt lat="46.962639" lon="11.03393">
        <ele>1889.85281</ele>
      </trkpt>
      <trkpt lat="46.962638" lon="11.033887">
        <ele>1889.53801</ele>
      </trkpt>
      <trkpt lat="46.962639" lon="11.033854">
        <ele>1889.41922</ele>
      </trkpt>
      <trkpt lat="46.96264" lon="11.033833">
        <ele>1889.36046</ele>
      </trkpt>
      <trkpt lat="46.962645" lon="11.033808">
        <ele>1889.45953</ele>
      </trkpt>
      <trkpt lat="46.962645" lon="11.033785">
        <ele>1889.29884</ele>
      </trkpt>
      <trkpt lat="46.962643" lon="11.033749">
        <ele>1888.91474</ele>
      </trkpt>
      <trkpt lat="46.962636" lon="11.033691">
        <ele>1888.119</ele>
      </trkpt>
      <trkpt lat="46.962636" lon="11.033668">
        <ele>1887.91934</ele>
      </trkpt>
      <trkpt lat="46.962636" lon="11.033641">
        <ele>1887.68711</ele>
      </trkpt>
      <trkpt lat="46.962639" lon="11.033582">
        <ele>1887.29465</ele>
      </trkpt>
      <trkpt lat="46.962645" lon="11.033505">
        <ele>1886.86443</ele>
      </trkpt>
      <trkpt lat="46.962656" lon="11.033402">
        <ele>1886.47843</ele>
      </trkpt>
      <trkpt lat="46.962671" lon="11.033279">
        <ele>1886.10331</ele>
      </trkpt>
      <trkpt lat="46.962677" lon="11.033209">
        <ele>1885.85041</ele>
      </trkpt>
      <trkpt lat="46.962701" lon="11.033056">
        <ele>1885.66629</ele>
      </trkpt>
      <trkpt lat="46.962703" lon="11.033033">
        <ele>1885.4897</ele>
      </trkpt>
      <trkpt lat="46.962703" lon="11.03299">
        <ele>1884.89223</ele>
      </trkpt>
      <trkpt lat="46.962705" lon="11.032966">
        <ele>1884.61232</ele>
      </trkpt>
      <trkpt lat="46.96271" lon="11.032943">
        <ele>1884.52765</ele>
      </trkpt>
      <trkpt lat="46.962726" lon="11.032881">
        <ele>1884.80105</ele>
      </trkpt>
      <trkpt lat="46.962728" lon="11.03287">
        <ele>1884.88831</ele>
      </trkpt>
      <trkpt lat="46.962729" lon="11.032858">
        <ele>1884.94613</ele>
      </trkpt>
      <trkpt lat="46.962729" lon="11.032841">
        <ele>1885.0205</ele>
      </trkpt>
      <trkpt lat="46.962728" lon="11.032823">
        <ele>1885.11739</ele>
      </trkpt>
      <trkpt lat="46.962721" lon="11.032776">
        <ele>1885.20656</ele>
      </trkpt>
      <trkpt lat="46.962719" lon="11.032754">
        <ele>1885.27476</ele>
      </trkpt>
      <trkpt lat="46.962718" lon="11.032728">
        <ele>1885.27258</ele>
      </trkpt>
      <trkpt lat="46.962718" lon="11.032701">
        <ele>1885.18456</ele>
      </trkpt>
      <trkpt lat="46.962722" lon="11.03265">
        <ele>1885.04936</ele>
      </trkpt>
      <trkpt lat="46.962742" lon="11.032474">
        <ele>1883.49877</ele>
      </trkpt>
      <trkpt lat="46.962744" lon="11.032451">
        <ele>1883.49127</ele>
      </trkpt>
      <trkpt lat="46.962745" lon="11.032431">
        <ele>1883.54709</ele>
      </trkpt>
      <trkpt lat="46.962743" lon="11.032409">
        <ele>1883.4802</ele>
      </trkpt>
      <trkpt lat="46.962738" lon="11.032384">
        <ele>1883.25924</ele>
      </trkpt>
      <trkpt lat="46.962734" lon="11.032358">
        <ele>1883.07881</ele>
      </trkpt>
      <trkpt lat="46.962729" lon="11.032302">
        <ele>1882.66297</ele>
      </trkpt>
      <trkpt lat="46.962725" lon="11.032218">
        <ele>1882.03873</ele>
      </trkpt>
      <trkpt lat="46.962725" lon="11.032175">
        <ele>1881.78506</ele>
      </trkpt>
      <trkpt lat="46.962725" lon="11.032145">
        <ele>1881.5737</ele>
      </trkpt>
      <trkpt lat="46.962728" lon="11.032086">
        <ele>1881.32943</ele>
      </trkpt>
      <trkpt lat="46.962734" lon="11.032011">
        <ele>1881.13041</ele>
      </trkpt>
      <trkpt lat="46.962742" lon="11.031913">
        <ele>1880.87342</ele>
      </trkpt>
      <trkpt lat="46.962751" lon="11.03182">
        <ele>1880.75289</ele>
      </trkpt>
      <trkpt lat="46.962762" lon="11.031722">
        <ele>1880.22675</ele>
      </trkpt>
      <trkpt lat="46.962781" lon="11.031605">
        <ele>1879.95166</ele>
      </trkpt>
      <trkpt lat="46.962784" lon="11.03158">
        <ele>1879.88289</ele>
      </trkpt>
      <trkpt lat="46.962785" lon="11.031564">
        <ele>1879.81401</ele>
      </trkpt>
      <trkpt lat="46.962786" lon="11.031525">
        <ele>1879.68269</ele>
      </trkpt>
      <trkpt lat="46.962785" lon="11.031409">
        <ele>1879.49885</ele>
      </trkpt>
      <trkpt lat="46.962785" lon="11.031329">
        <ele>1879.08716</ele>
      </trkpt>
      <trkpt lat="46.962788" lon="11.031267">
        <ele>1878.69419</ele>
      </trkpt>
      <trkpt lat="46.962796" lon="11.031143">
        <ele>1877.13804</ele>
      </trkpt>
      <trkpt lat="46.962798" lon="11.031091">
        <ele>1876.0848</ele>
      </trkpt>
      <trkpt lat="46.962797" lon="11.031039">
        <ele>1874.82875</ele>
      </trkpt>
      <trkpt lat="46.962793" lon="11.030955">
        <ele>1872.70787</ele>
      </trkpt>
      <trkpt lat="46.962792" lon="11.030912">
        <ele>1871.64235</ele>
      </trkpt>
      <trkpt lat="46.962792" lon="11.030857">
        <ele>1870.4162</ele>
      </trkpt>
      <trkpt lat="46.962794" lon="11.030829">
        <ele>1869.86357</ele>
      </trkpt>
      <trkpt lat="46.962797" lon="11.030812">
        <ele>1869.56988</ele>
      </trkpt>
      <trkpt lat="46.962801" lon="11.030793">
        <ele>1869.26804</ele>
      </trkpt>
      <trkpt lat="46.962807" lon="11.030774">
        <ele>1869.01385</ele>
      </trkpt>
      <trkpt lat="46.962814" lon="11.030753">
        <ele>1868.75442</ele>
      </trkpt>
      <trkpt lat="46.962828" lon="11.030719">
        <ele>1868.42623</ele>
      </trkpt>
      <trkpt lat="46.962863" lon="11.030644">
        <ele>1867.46502</ele>
      </trkpt>
      <trkpt lat="46.962883" lon="11.030595">
        <ele>1866.69064</ele>
      </trkpt>
      <trkpt lat="46.962895" lon="11.030561">
        <ele>1866.22263</ele>
      </trkpt>
      <trkpt lat="46.96291" lon="11.030508">
        <ele>1865.5937</ele>
      </trkpt>
      <trkpt lat="46.962924" lon="11.030465">
        <ele>1865.05351</ele>
      </trkpt>
      <trkpt lat="46.962942" lon="11.030418">
        <ele>1864.44805</ele>
      </trkpt>
      <trkpt lat="46.962975" lon="11.030336">
        <ele>1863.48085</ele>
      </trkpt>
      <trkpt lat="46.962991" lon="11.030293">
        <ele>1863.11371</ele>
      </trkpt>
      <trkpt lat="46.963008" lon="11.03024">
        <ele>1862.7378</ele>
      </trkpt>
      <trkpt lat="46.963024" lon="11.030181">
        <ele>1862.24853</ele>
      </trkpt>
      <trkpt lat="46.963032" lon="11.030151">
        <ele>1861.96486</ele>
      </trkpt>
      <trkpt lat="46.963043" lon="11.030121">
        <ele>1861.74606</ele>
      </trkpt>
      <trkpt lat="46.963059" lon="11.030082">
        <ele>1861.4935</ele>
      </trkpt>
      <trkpt lat="46.963067" lon="11.030052">
        <ele>1861.15461</ele>
      </trkpt>
      <trkpt lat="46.963072" lon="11.030032">
        <ele>1860.91318</ele>
      </trkpt>
      <trkpt lat="46.963075" lon="11.03001">
        <ele>1860.58126</ele>
      </trkpt>
      <trkpt lat="46.963085" lon="11.029927">
        <ele>1859.4406</ele>
      </trkpt>
      <trkpt lat="46.963096" lon="11.029856">
        <ele>1858.71288</ele>
      </trkpt>
      <trkpt lat="46.963138" lon="11.029616">
        <ele>1856.42306</ele>
      </trkpt>
      <trkpt lat="46.963145" lon="11.029569">
        <ele>1855.8224</ele>
      </trkpt>
      <trkpt lat="46.963157" lon="11.029485">
        <ele>1854.80002</ele>
      </trkpt>
      <trkpt lat="46.963167" lon="11.029389">
        <ele>1853.28379</ele>
      </trkpt>
      <trkpt lat="46.96317" lon="11.029372">
        <ele>1852.98821</ele>
      </trkpt>
      <trkpt lat="46.963177" lon="11.029351">
        <ele>1852.65735</ele>
      </trkpt>
      <trkpt lat="46.963186" lon="11.029332">
        <ele>1852.35678</ele>
      </trkpt>
      <trkpt lat="46.963206" lon="11.029303">
        <ele>1851.94491</ele>
      </trkpt>
      <trkpt lat="46.963238" lon="11.029263">
        <ele>1851.80408</ele>
      </trkpt>
      <trkpt lat="46.963247" lon="11.029248">
        <ele>1851.88739</ele>
      </trkpt>
      <trkpt lat="46.963251" lon="11.029235">
        <ele>1851.9017</ele>
      </trkpt>
      <trkpt lat="46.963252" lon="11.029222">
        <ele>1851.83938</ele>
      </trkpt>
      <trkpt lat="46.963252" lon="11.029205">
        <ele>1851.72225</ele>
      </trkpt>
      <trkpt lat="46.963246" lon="11.029149">
        <ele>1850.90191</ele>
      </trkpt>
      <trkpt lat="46.963242" lon="11.029108">
        <ele>1850.19629</ele>
      </trkpt>
      <trkpt lat="46.963246" lon="11.029072">
        <ele>1849.91245</ele>
      </trkpt>
      <trkpt lat="46.963258" lon="11.02896">
        <ele>1848.50061</ele>
      </trkpt>
      <trkpt lat="46.96327" lon="11.028881">
        <ele>1847.23416</ele>
      </trkpt>
      <trkpt lat="46.963276" lon="11.028851">
        <ele>1846.76438</ele>
      </trkpt>
      <trkpt lat="46.963283" lon="11.028818">
        <ele>1846.23027</ele>
      </trkpt>
      <trkpt lat="46.963292" lon="11.028784">
        <ele>1845.73164</ele>
      </trkpt>
      <trkpt lat="46.963303" lon="11.028749">
        <ele>1845.29754</ele>
      </trkpt>
      <trkpt lat="46.963326" lon="11.028679">
        <ele>1844.58404</ele>
      </trkpt>
      <trkpt lat="46.963349" lon="11.028619">
        <ele>1844.11957</ele>
      </trkpt>
      <trkpt lat="46.963394" lon="11.028522">
        <ele>1843.49495</ele>
      </trkpt>
      <trkpt lat="46.963429" lon="11.02844">
        <ele>1843.16054</ele>
      </trkpt>
      <trkpt lat="46.96345" lon="11.028396">
        <ele>1843.13584</ele>
      </trkpt>
      <trkpt lat="46.963462" lon="11.028375">
        <ele>1843.15669</ele>
      </trkpt>
      <trkpt lat="46.963474" lon="11.028357">
        <ele>1843.21432</ele>
      </trkpt>
      <trkpt lat="46.963487" lon="11.028341">
        <ele>1843.35091</ele>
      </trkpt>
      <trkpt lat="46.963509" lon="11.028316">
        <ele>1843.64547</ele>
      </trkpt>
      <trkpt lat="46.963526" lon="11.028292">
        <ele>1843.79086</ele>
      </trkpt>
      <trkpt lat="46.963537" lon="11.028273">
        <ele>1843.81162</ele>
      </trkpt>
      <trkpt lat="46.963557" lon="11.028234">
        <ele>1843.7033</ele>
      </trkpt>
      <trkpt lat="46.96357" lon="11.028211">
        <ele>1843.62029</ele>
      </trkpt>
      <trkpt lat="46.963584" lon="11.02819">
        <ele>1843.57763</ele>
      </trkpt>
      <trkpt lat="46.963604" lon="11.028163">
        <ele>1843.61283</ele>
      </trkpt>
      <trkpt lat="46.963616" lon="11.028143">
        <ele>1843.60541</ele>
      </trkpt>
      <trkpt lat="46.963631" lon="11.028115">
        <ele>1843.64224</ele>
      </trkpt>
      <trkpt lat="46.963647" lon="11.028082">
        <ele>1843.70936</ele>
      </trkpt>
      <trkpt lat="46.963678" lon="11.028009">
        <ele>1843.52969</ele>
      </trkpt>
      <trkpt lat="46.963689" lon="11.02798">
        <ele>1843.36514</ele>
      </trkpt>
      <trkpt lat="46.963698" lon="11.027955">
        <ele>1843.22693</ele>
      </trkpt>
      <trkpt lat="46.963704" lon="11.027932">
        <ele>1843.03791</ele>
      </trkpt>
      <trkpt lat="46.96371" lon="11.027903">
        <ele>1842.75654</ele>
      </trkpt>
      <trkpt lat="46.963723" lon="11.027831">
        <ele>1841.98133</ele>
        <extensions>
          <oa:locType>routingNode</oa:locType>
        </extensions>
      </trkpt>
    </trkseg>
  </trk>
</gpx>