<?xml version="1.0" encoding="UTF-8" standalone="yes"?>
<gpx version="1.1" creator="outdooractive - http://www.outdooractive.com" xmlns="http://www.topografix.com/GPX/1/1" xmlns:oa="http://www.outdooractive.com/GPX/Extensions/1" xmlns:xsi="http://www.w3.org/2001/XMLSchema-instance" xsi:schemaLocation="http://www.topografix.com/GPX/1/1 http://www.topografix.com/GPX/1/1/gpx.xsd http://www.outdooractive.com/GPX/Extensions/1 https://www.outdooractive.com/schema/gpx_extensions.xsd">
  <metadata>
    <name>Lochle Alm Trail (6014)</name>
    <author>
      <name>Bergbahnen Sölden, Mag. Jakob Falkner - Ötztal</name>
    </author>
    <link href="https://www.outdooractive.com/r/7728936"/>
    <time>2025-10-06T18:00:40.144Z</time>
    <extensions>
      <oa:oaCategory>mountainbiking</oa:oaCategory>
    </extensions>
  </metadata>
  <trk>
    <name>Lochle Alm Trail (6014)</name>
    <desc>Auf der stillen (liftfreien) Seite der BIKE REPUBLIC SÖLDEN führt der Naturtrail von der Lochle Alm Richtung Kleble Alm (oder umgekehrt).</desc>
    <type>mountainbiking</type>
    <trkseg>
      <trkpt lat="46.963036" lon="11.034414">
        <ele>1918.1</ele>
      </trkpt>
      <trkpt lat="46.962889" lon="11.034815">
        <ele>1910.5</ele>
      </trkpt>
      <trkpt lat="46.962679" lon="11.035389">
        <ele>1902.7</ele>
      </trkpt>
      <trkpt lat="46.962636" lon="11.035615">
        <ele>1902.4</ele>
      </trkpt>
      <trkpt lat="46.962623" lon="11.035679">
        <ele>1901.7</ele>
      </trkpt>
      <trkpt lat="46.962645" lon="11.03597">
        <ele>1907.0</ele>
      </trkpt>
      <trkpt lat="46.962653" lon="11.036104">
        <ele>1909.1</ele>
      </trkpt>
      <trkpt lat="46.962633" lon="11.036314">
        <ele>1910.3</ele>
      </trkpt>
      <trkpt lat="46.962542" lon="11.036675">
        <ele>1896.1</ele>
      </trkpt>
      <trkpt lat="46.962451" lon="11.037035">
        <ele>1886.6</ele>
      </trkpt>
      <trkpt lat="46.96238" lon="11.037323">
        <ele>1881.4</ele>
      </trkpt>
      <trkpt lat="46.962337" lon="11.037717">
        <ele>1875.9</ele>
      </trkpt>
      <trkpt lat="46.962353" lon="11.038219">
        <ele>1889.8</ele>
      </trkpt>
      <trkpt lat="46.962369" lon="11.038722">
        <ele>1899.7</ele>
      </trkpt>
      <trkpt lat="46.962346" lon="11.038994">
        <ele>1901.9</ele>
      </trkpt>
      <trkpt lat="46.962289" lon="11.039342">
        <ele>1898.0</ele>
      </trkpt>
      <trkpt lat="46.962254" lon="11.039431">
        <ele>1896.6</ele>
      </trkpt>
      <trkpt lat="46.962038" lon="11.039807">
        <ele>1886.1</ele>
      </trkpt>
      <trkpt lat="46.961959" lon="11.040182">
        <ele>1883.8</ele>
      </trkpt>
      <trkpt lat="46.961947" lon="11.040517">
        <ele>1888.9</ele>
      </trkpt>
      <trkpt lat="46.962019" lon="11.041046">
        <ele>1898.2</ele>
      </trkpt>
      <trkpt lat="46.962076" lon="11.041343">
        <ele>1902.0</ele>
      </trkpt>
      <trkpt lat="46.962116" lon="11.041644">
        <ele>1909.3</ele>
      </trkpt>
      <trkpt lat="46.962134" lon="11.042081">
        <ele>1903.3</ele>
      </trkpt>
      <trkpt lat="46.962124" lon="11.042573">
        <ele>1888.4</ele>
      </trkpt>
      <trkpt lat="46.962132" lon="11.042863">
        <ele>1879.9</ele>
      </trkpt>
      <trkpt lat="46.9622" lon="11.043114">
        <ele>1883.3</ele>
      </trkpt>
      <trkpt lat="46.9623" lon="11.043268">
        <ele>1887.3</ele>
      </trkpt>
      <trkpt lat="46.962445" lon="11.043414">
        <ele>1892.3</ele>
      </trkpt>
      <trkpt lat="46.962528" lon="11.043495">
        <ele>1897.4</ele>
      </trkpt>
      <trkpt lat="46.962622" lon="11.043653">
        <ele>1902.4</ele>
      </trkpt>
      <trkpt lat="46.962662" lon="11.043845">
        <ele>1899.1</ele>
      </trkpt>
      <trkpt lat="46.962632" lon="11.044008">
        <ele>1891.7</ele>
      </trkpt>
      <trkpt lat="46.962536" lon="11.044084">
        <ele>1879.8</ele>
      </trkpt>
      <trkpt lat="46.962332" lon="11.044186">
        <ele>1856.8</ele>
      </trkpt>
      <trkpt lat="46.962228" lon="11.044368">
        <ele>1845.2</ele>
      </trkpt>
      <trkpt lat="46.962212" lon="11.04459">
        <ele>1840.0</ele>
      </trkpt>
      <trkpt lat="46.96226" lon="11.044778">
        <ele>1842.2</ele>
      </trkpt>
      <trkpt lat="46.962365" lon="11.045048">
        <ele>1850.7</ele>
      </trkpt>
      <trkpt lat="46.962427" lon="11.045221">
        <ele>1853.7</ele>
      </trkpt>
      <trkpt lat="46.962452" lon="11.045346">
        <ele>1854.7</ele>
      </trkpt>
      <trkpt lat="46.962425" lon="11.045491">
        <ele>1850.8</ele>
      </trkpt>
      <trkpt lat="46.962305" lon="11.04566">
        <ele>1841.1</ele>
      </trkpt>
      <trkpt lat="46.962246" lon="11.045693">
        <ele>1837.5</ele>
      </trkpt>
      <trkpt lat="46.962239" lon="11.045693">
        <ele>1837.0</ele>
      </trkpt>
    </trkseg>
  </trk>
</gpx>