<?xml version="1.0" encoding="UTF-8"?><gpx xmlns="http://www.topografix.com/GPX/1/1" creator="CONTWISE MAPS" xsi:schemaLocation="http://www.topografix.com/GPX/1/1 http://www.topografix.com/GPX/1/1/gpx.xsd http://www.topografix.com/GPX/gpx_overlay/0/3 http://www.topografix.com/GPX/gpx_overlay/0/3/gpx_overlay.xsd http://www.topografix.com/GPX/gpx_modified/0/1 http://www.topografix.com/GPX/gpx_modified/0/1/gpx_modified.xsd http://www.topografix.com/GPX/Private/TopoGrafix/0/3 http://www.topografix.com/GPX/Private/TopoGrafix/0/3/topografix.xsd" xmlns:xsi="http://www.w3.org/2001/XMLSchema-instance" version="1.1"><wpt lon="13.78043" lat="47.423834"><name><![CDATA[trinkwasserbrunnen_weissenbach_ort]]></name></wpt>
<trk><name><![CDATA[jumper_trail_148935329]]></name><extensions><label xmlns="http://www.topografix.com/GPX/gpx_overlay/0/3"></label>
</extensions>
<trkseg><trkpt lon="13.79171" lat="47.42877"><ele><![CDATA[739]]></ele></trkpt>
<trkpt lon="13.79168" lat="47.42871"><ele><![CDATA[739]]></ele></trkpt>
<trkpt lon="13.79166" lat="47.42862"><ele><![CDATA[738]]></ele></trkpt>
<trkpt lon="13.79167" lat="47.42857"><ele><![CDATA[738]]></ele></trkpt>
<trkpt lon="13.79168" lat="47.42853"><ele><![CDATA[738]]></ele></trkpt>
<trkpt lon="13.7917" lat="47.4285"><ele><![CDATA[738]]></ele></trkpt>
<trkpt lon="13.79177" lat="47.42841"><ele><![CDATA[738]]></ele></trkpt>
<trkpt lon="13.79179" lat="47.4283"><ele><![CDATA[737]]></ele></trkpt>
<trkpt lon="13.79179" lat="47.42823"><ele><![CDATA[736]]></ele></trkpt>
<trkpt lon="13.79182" lat="47.42817"><ele><![CDATA[736]]></ele></trkpt>
<trkpt lon="13.79183" lat="47.42806"><ele><![CDATA[735]]></ele></trkpt>
<trkpt lon="13.79186" lat="47.42797"><ele><![CDATA[736]]></ele></trkpt>
<trkpt lon="13.79186" lat="47.42791"><ele><![CDATA[735]]></ele></trkpt>
<trkpt lon="13.79182" lat="47.42782"><ele><![CDATA[734]]></ele></trkpt>
<trkpt lon="13.79183" lat="47.42775"><ele><![CDATA[734]]></ele></trkpt>
<trkpt lon="13.7918" lat="47.42768"><ele><![CDATA[734]]></ele></trkpt>
<trkpt lon="13.79182" lat="47.42756"><ele><![CDATA[733]]></ele></trkpt>
<trkpt lon="13.79181" lat="47.42752"><ele><![CDATA[733]]></ele></trkpt>
<trkpt lon="13.79174" lat="47.42742"><ele><![CDATA[734]]></ele></trkpt>
<trkpt lon="13.79174" lat="47.42739"><ele><![CDATA[734]]></ele></trkpt>
<trkpt lon="13.79176" lat="47.42736"><ele><![CDATA[734]]></ele></trkpt>
<trkpt lon="13.79179" lat="47.42732"><ele><![CDATA[733]]></ele></trkpt>
<trkpt lon="13.7918" lat="47.42729"><ele><![CDATA[733]]></ele></trkpt>
<trkpt lon="13.79181" lat="47.42722"><ele><![CDATA[733]]></ele></trkpt>
<trkpt lon="13.79184" lat="47.42718"><ele><![CDATA[733]]></ele></trkpt>
<trkpt lon="13.79187" lat="47.42704"><ele><![CDATA[733]]></ele></trkpt>
<trkpt lon="13.7919" lat="47.42699"><ele><![CDATA[732]]></ele></trkpt>
<trkpt lon="13.7919" lat="47.42686"><ele><![CDATA[731]]></ele></trkpt>
<trkpt lon="13.79191" lat="47.42682"><ele><![CDATA[730]]></ele></trkpt>
<trkpt lon="13.7919" lat="47.42679"><ele><![CDATA[730]]></ele></trkpt>
<trkpt lon="13.79187" lat="47.42675"><ele><![CDATA[730]]></ele></trkpt>
<trkpt lon="13.79183" lat="47.42671"><ele><![CDATA[729]]></ele></trkpt>
<trkpt lon="13.79183" lat="47.42665"><ele><![CDATA[729]]></ele></trkpt>
<trkpt lon="13.79183" lat="47.42661"><ele><![CDATA[729]]></ele></trkpt>
<trkpt lon="13.79185" lat="47.42656"><ele><![CDATA[730]]></ele></trkpt>
<trkpt lon="13.79188" lat="47.42653"><ele><![CDATA[730]]></ele></trkpt>
<trkpt lon="13.79187" lat="47.42648"><ele><![CDATA[729]]></ele></trkpt>
<trkpt lon="13.79188" lat="47.42642"><ele><![CDATA[729]]></ele></trkpt>
<trkpt lon="13.79188" lat="47.42639"><ele><![CDATA[729]]></ele></trkpt>
<trkpt lon="13.79186" lat="47.42637"><ele><![CDATA[729]]></ele></trkpt>
<trkpt lon="13.79185" lat="47.42633"><ele><![CDATA[729]]></ele></trkpt>
<trkpt lon="13.79182" lat="47.42629"><ele><![CDATA[727]]></ele></trkpt>
<trkpt lon="13.79183" lat="47.42627"><ele><![CDATA[727]]></ele></trkpt>
<trkpt lon="13.79186" lat="47.42622"><ele><![CDATA[728]]></ele></trkpt>
<trkpt lon="13.79186" lat="47.42619"><ele><![CDATA[728]]></ele></trkpt>
<trkpt lon="13.79183" lat="47.42615"><ele><![CDATA[726]]></ele></trkpt>
<trkpt lon="13.79182" lat="47.4261"><ele><![CDATA[726]]></ele></trkpt>
<trkpt lon="13.79181" lat="47.42605"><ele><![CDATA[726]]></ele></trkpt>
<trkpt lon="13.79184" lat="47.42601"><ele><![CDATA[726]]></ele></trkpt>
<trkpt lon="13.79188" lat="47.42598"><ele><![CDATA[727]]></ele></trkpt>
<trkpt lon="13.79188" lat="47.42594"><ele><![CDATA[727]]></ele></trkpt>
<trkpt lon="13.79186" lat="47.42579"><ele><![CDATA[725]]></ele></trkpt>
<trkpt lon="13.7919" lat="47.42571"><ele><![CDATA[725]]></ele></trkpt>
<trkpt lon="13.79187" lat="47.42557"><ele><![CDATA[724]]></ele></trkpt>
<trkpt lon="13.79189" lat="47.42552"><ele><![CDATA[724]]></ele></trkpt>
<trkpt lon="13.79198" lat="47.42543"><ele><![CDATA[723]]></ele></trkpt>
<trkpt lon="13.79198" lat="47.4254"><ele><![CDATA[723]]></ele></trkpt>
<trkpt lon="13.79199" lat="47.42535"><ele><![CDATA[722]]></ele></trkpt>
<trkpt lon="13.79201" lat="47.42531"><ele><![CDATA[722]]></ele></trkpt>
<trkpt lon="13.79212" lat="47.42522"><ele><![CDATA[722]]></ele></trkpt>
<trkpt lon="13.79215" lat="47.42518"><ele><![CDATA[722]]></ele></trkpt>
<trkpt lon="13.79217" lat="47.42502"><ele><![CDATA[721]]></ele></trkpt>
<trkpt lon="13.7922" lat="47.42496"><ele><![CDATA[721]]></ele></trkpt>
<trkpt lon="13.79224" lat="47.42484"><ele><![CDATA[721]]></ele></trkpt>
<trkpt lon="13.79221" lat="47.42478"><ele><![CDATA[720]]></ele></trkpt>
<trkpt lon="13.79216" lat="47.42473"><ele><![CDATA[720]]></ele></trkpt>
<trkpt lon="13.79216" lat="47.42468"><ele><![CDATA[720]]></ele></trkpt>
<trkpt lon="13.79227" lat="47.42459"><ele><![CDATA[721]]></ele></trkpt>
<trkpt lon="13.79231" lat="47.4245"><ele><![CDATA[720]]></ele></trkpt>
<trkpt lon="13.79233" lat="47.42443"><ele><![CDATA[719]]></ele></trkpt>
<trkpt lon="13.79232" lat="47.42439"><ele><![CDATA[719]]></ele></trkpt>
<trkpt lon="13.79234" lat="47.42435"><ele><![CDATA[719]]></ele></trkpt>
<trkpt lon="13.79233" lat="47.42428"><ele><![CDATA[718]]></ele></trkpt>
<trkpt lon="13.79231" lat="47.42418"><ele><![CDATA[718]]></ele></trkpt>
<trkpt lon="13.79231" lat="47.42412"><ele><![CDATA[717]]></ele></trkpt>
<trkpt lon="13.79234" lat="47.42407"><ele><![CDATA[717]]></ele></trkpt>
<trkpt lon="13.79248" lat="47.42398"><ele><![CDATA[718]]></ele></trkpt>
<trkpt lon="13.79256" lat="47.4239"><ele><![CDATA[718]]></ele></trkpt>
<trkpt lon="13.79262" lat="47.4238"><ele><![CDATA[717]]></ele></trkpt>
<trkpt lon="13.79265" lat="47.42371"><ele><![CDATA[716]]></ele></trkpt>
<trkpt lon="13.79265" lat="47.42363"><ele><![CDATA[716]]></ele></trkpt>
<trkpt lon="13.79266" lat="47.42356"><ele><![CDATA[716]]></ele></trkpt>
<trkpt lon="13.79267" lat="47.42351"><ele><![CDATA[715]]></ele></trkpt>
<trkpt lon="13.79278" lat="47.42339"><ele><![CDATA[716]]></ele></trkpt>
<trkpt lon="13.79283" lat="47.42334"><ele><![CDATA[714]]></ele></trkpt>
<trkpt lon="13.79294" lat="47.42329"><ele><![CDATA[716]]></ele></trkpt>
<trkpt lon="13.79296" lat="47.42326"><ele><![CDATA[713]]></ele></trkpt>
<trkpt lon="13.79296" lat="47.4232"><ele><![CDATA[713]]></ele></trkpt>
<trkpt lon="13.79295" lat="47.42314"><ele><![CDATA[712]]></ele></trkpt>
<trkpt lon="13.7929" lat="47.42304"><ele><![CDATA[711]]></ele></trkpt>
<trkpt lon="13.79291" lat="47.42303"><ele><![CDATA[711]]></ele></trkpt>
<trkpt lon="13.79287" lat="47.423"><ele><![CDATA[711]]></ele></trkpt>
<trkpt lon="13.79286" lat="47.42297"><ele><![CDATA[710]]></ele></trkpt>
<trkpt lon="13.79289" lat="47.42294"><ele><![CDATA[711]]></ele></trkpt>
<trkpt lon="13.79294" lat="47.42292"><ele><![CDATA[710]]></ele></trkpt>
<trkpt lon="13.79297" lat="47.42291"><ele><![CDATA[710]]></ele></trkpt>
<trkpt lon="13.79298" lat="47.42289"><ele><![CDATA[710]]></ele></trkpt>
<trkpt lon="13.79298" lat="47.42285"><ele><![CDATA[710]]></ele></trkpt>
<trkpt lon="13.79296" lat="47.42279"><ele><![CDATA[710]]></ele></trkpt>
<trkpt lon="13.79294" lat="47.42276"><ele><![CDATA[709]]></ele></trkpt>
<trkpt lon="13.79289" lat="47.42271"><ele><![CDATA[709]]></ele></trkpt>
<trkpt lon="13.79282" lat="47.42265"><ele><![CDATA[709]]></ele></trkpt>
<trkpt lon="13.79281" lat="47.42263"><ele><![CDATA[709]]></ele></trkpt>
<trkpt lon="13.79283" lat="47.42259"><ele><![CDATA[709]]></ele></trkpt>
<trkpt lon="13.79295" lat="47.42253"><ele><![CDATA[709]]></ele></trkpt>
<trkpt lon="13.79302" lat="47.42252"><ele><![CDATA[709]]></ele></trkpt>
<trkpt lon="13.7931" lat="47.42254"><ele><![CDATA[709]]></ele></trkpt>
<trkpt lon="13.79317" lat="47.42253"><ele><![CDATA[710]]></ele></trkpt>
<trkpt lon="13.79324" lat="47.4225"><ele><![CDATA[710]]></ele></trkpt>
<trkpt lon="13.79322" lat="47.42239"><ele><![CDATA[709]]></ele></trkpt>
<trkpt lon="13.79324" lat="47.42235"><ele><![CDATA[709]]></ele></trkpt>
<trkpt lon="13.79328" lat="47.42229"><ele><![CDATA[710]]></ele></trkpt>
<trkpt lon="13.79334" lat="47.42217"><ele><![CDATA[709]]></ele></trkpt>
<trkpt lon="13.79334" lat="47.42211"><ele><![CDATA[709]]></ele></trkpt>
<trkpt lon="13.79335" lat="47.42206"><ele><![CDATA[708]]></ele></trkpt>
<trkpt lon="13.79342" lat="47.42191"><ele><![CDATA[709]]></ele></trkpt>
<trkpt lon="13.79342" lat="47.42185"><ele><![CDATA[708]]></ele></trkpt>
<trkpt lon="13.79344" lat="47.4218"><ele><![CDATA[707]]></ele></trkpt>
<trkpt lon="13.79346" lat="47.42173"><ele><![CDATA[707]]></ele></trkpt>
<trkpt lon="13.79349" lat="47.42167"><ele><![CDATA[707]]></ele></trkpt>
<trkpt lon="13.79356" lat="47.42162"><ele><![CDATA[708]]></ele></trkpt>
<trkpt lon="13.79358" lat="47.42158"><ele><![CDATA[708]]></ele></trkpt>
<trkpt lon="13.79364" lat="47.42153"><ele><![CDATA[708]]></ele></trkpt>
<trkpt lon="13.79371" lat="47.42141"><ele><![CDATA[707]]></ele></trkpt>
<trkpt lon="13.79381" lat="47.42137"><ele><![CDATA[707]]></ele></trkpt>
<trkpt lon="13.79391" lat="47.42133"><ele><![CDATA[707]]></ele></trkpt>
<trkpt lon="13.79396" lat="47.42129"><ele><![CDATA[707]]></ele></trkpt>
<trkpt lon="13.79397" lat="47.42125"><ele><![CDATA[707]]></ele></trkpt>
<trkpt lon="13.79395" lat="47.4212"><ele><![CDATA[706]]></ele></trkpt>
<trkpt lon="13.79398" lat="47.42113"><ele><![CDATA[706]]></ele></trkpt>
<trkpt lon="13.79399" lat="47.42109"><ele><![CDATA[705]]></ele></trkpt>
<trkpt lon="13.794" lat="47.421"><ele><![CDATA[704]]></ele></trkpt>
<trkpt lon="13.79402" lat="47.42092"><ele><![CDATA[705]]></ele></trkpt>
<trkpt lon="13.79401" lat="47.4208"><ele><![CDATA[703]]></ele></trkpt>
<trkpt lon="13.79403" lat="47.42068"><ele><![CDATA[703]]></ele></trkpt>
<trkpt lon="13.79414" lat="47.42056"><ele><![CDATA[702]]></ele></trkpt>
<trkpt lon="13.79418" lat="47.42049"><ele><![CDATA[701]]></ele></trkpt>
</trkseg>
</trk>
</gpx>
