<?xml version="1.0" encoding="UTF-8"?><gpx xmlns="http://www.topografix.com/GPX/1/1" creator="CONTWISE MAPS" xsi:schemaLocation="http://www.topografix.com/GPX/1/1 http://www.topografix.com/GPX/1/1/gpx.xsd http://www.topografix.com/GPX/gpx_overlay/0/3 http://www.topografix.com/GPX/gpx_overlay/0/3/gpx_overlay.xsd http://www.topografix.com/GPX/gpx_modified/0/1 http://www.topografix.com/GPX/gpx_modified/0/1/gpx_modified.xsd http://www.topografix.com/GPX/Private/TopoGrafix/0/3 http://www.topografix.com/GPX/Private/TopoGrafix/0/3/topografix.xsd" xmlns:xsi="http://www.w3.org/2001/XMLSchema-instance" version="1.1"><wpt lon="13.78043" lat="47.423834"><name><![CDATA[trinkwasserbrunnen_weissenbach_ort]]></name></wpt>
<trk><name><![CDATA[madame_flow_trail_148935381]]></name><extensions><label xmlns="http://www.topografix.com/GPX/gpx_overlay/0/3"></label>
</extensions>
<trkseg><trkpt lon="13.79423" lat="47.42039"><ele><![CDATA[701]]></ele></trkpt>
<trkpt lon="13.79419" lat="47.42038"><ele><![CDATA[701]]></ele></trkpt>
<trkpt lon="13.79417" lat="47.42043"><ele><![CDATA[701]]></ele></trkpt>
<trkpt lon="13.79417" lat="47.42049"><ele><![CDATA[701]]></ele></trkpt>
<trkpt lon="13.79421" lat="47.42053"><ele><![CDATA[703]]></ele></trkpt>
<trkpt lon="13.79429" lat="47.42053"><ele><![CDATA[703]]></ele></trkpt>
<trkpt lon="13.79456" lat="47.42047"><ele><![CDATA[702]]></ele></trkpt>
<trkpt lon="13.79463" lat="47.42047"><ele><![CDATA[702]]></ele></trkpt>
<trkpt lon="13.79469" lat="47.42048"><ele><![CDATA[702]]></ele></trkpt>
<trkpt lon="13.79477" lat="47.42053"><ele><![CDATA[704]]></ele></trkpt>
<trkpt lon="13.79486" lat="47.42056"><ele><![CDATA[703]]></ele></trkpt>
<trkpt lon="13.7949" lat="47.4206"><ele><![CDATA[703]]></ele></trkpt>
<trkpt lon="13.79488" lat="47.42061"><ele><![CDATA[704]]></ele></trkpt>
<trkpt lon="13.79486" lat="47.42075"><ele><![CDATA[705]]></ele></trkpt>
<trkpt lon="13.79484" lat="47.4208"><ele><![CDATA[705]]></ele></trkpt>
<trkpt lon="13.79476" lat="47.42084"><ele><![CDATA[705]]></ele></trkpt>
<trkpt lon="13.7947" lat="47.42086"><ele><![CDATA[705]]></ele></trkpt>
<trkpt lon="13.79465" lat="47.4209"><ele><![CDATA[705]]></ele></trkpt>
<trkpt lon="13.79461" lat="47.42097"><ele><![CDATA[705]]></ele></trkpt>
<trkpt lon="13.79454" lat="47.42099"><ele><![CDATA[705]]></ele></trkpt>
<trkpt lon="13.79448" lat="47.42099"><ele><![CDATA[706]]></ele></trkpt>
<trkpt lon="13.79442" lat="47.42105"><ele><![CDATA[706]]></ele></trkpt>
<trkpt lon="13.79438" lat="47.42113"><ele><![CDATA[707]]></ele></trkpt>
<trkpt lon="13.79431" lat="47.4212"><ele><![CDATA[707]]></ele></trkpt>
<trkpt lon="13.7942" lat="47.42125"><ele><![CDATA[707]]></ele></trkpt>
<trkpt lon="13.79407" lat="47.42135"><ele><![CDATA[707]]></ele></trkpt>
<trkpt lon="13.79398" lat="47.42144"><ele><![CDATA[708]]></ele></trkpt>
<trkpt lon="13.79396" lat="47.42158"><ele><![CDATA[708]]></ele></trkpt>
<trkpt lon="13.79387" lat="47.42166"><ele><![CDATA[708]]></ele></trkpt>
<trkpt lon="13.79382" lat="47.42175"><ele><![CDATA[709]]></ele></trkpt>
<trkpt lon="13.79375" lat="47.42184"><ele><![CDATA[709]]></ele></trkpt>
<trkpt lon="13.79374" lat="47.42192"><ele><![CDATA[709]]></ele></trkpt>
<trkpt lon="13.79371" lat="47.42201"><ele><![CDATA[710]]></ele></trkpt>
<trkpt lon="13.7934" lat="47.42209"><ele><![CDATA[710]]></ele></trkpt>
<trkpt lon="13.79338" lat="47.42215"><ele><![CDATA[710]]></ele></trkpt>
<trkpt lon="13.79332" lat="47.42221"><ele><![CDATA[709]]></ele></trkpt>
<trkpt lon="13.79324" lat="47.42235"><ele><![CDATA[709]]></ele></trkpt>
<trkpt lon="13.79322" lat="47.42239"><ele><![CDATA[709]]></ele></trkpt>
<trkpt lon="13.79324" lat="47.4225"><ele><![CDATA[710]]></ele></trkpt>
<trkpt lon="13.79317" lat="47.42253"><ele><![CDATA[710]]></ele></trkpt>
<trkpt lon="13.7931" lat="47.42254"><ele><![CDATA[709]]></ele></trkpt>
<trkpt lon="13.79302" lat="47.42252"><ele><![CDATA[709]]></ele></trkpt>
<trkpt lon="13.79295" lat="47.42253"><ele><![CDATA[709]]></ele></trkpt>
<trkpt lon="13.79287" lat="47.42257"><ele><![CDATA[709]]></ele></trkpt>
<trkpt lon="13.79283" lat="47.4226"><ele><![CDATA[709]]></ele></trkpt>
<trkpt lon="13.79281" lat="47.42263"><ele><![CDATA[709]]></ele></trkpt>
<trkpt lon="13.79282" lat="47.42265"><ele><![CDATA[709]]></ele></trkpt>
<trkpt lon="13.79294" lat="47.42276"><ele><![CDATA[709]]></ele></trkpt>
<trkpt lon="13.79298" lat="47.42285"><ele><![CDATA[710]]></ele></trkpt>
<trkpt lon="13.79297" lat="47.42291"><ele><![CDATA[710]]></ele></trkpt>
<trkpt lon="13.79289" lat="47.42294"><ele><![CDATA[711]]></ele></trkpt>
<trkpt lon="13.79286" lat="47.42297"><ele><![CDATA[710]]></ele></trkpt>
<trkpt lon="13.79287" lat="47.423"><ele><![CDATA[711]]></ele></trkpt>
<trkpt lon="13.79291" lat="47.42303"><ele><![CDATA[711]]></ele></trkpt>
<trkpt lon="13.79301" lat="47.42305"><ele><![CDATA[712]]></ele></trkpt>
<trkpt lon="13.79308" lat="47.42302"><ele><![CDATA[712]]></ele></trkpt>
<trkpt lon="13.79313" lat="47.42289"><ele><![CDATA[713]]></ele></trkpt>
<trkpt lon="13.79326" lat="47.42278"><ele><![CDATA[713]]></ele></trkpt>
<trkpt lon="13.79329" lat="47.42278"><ele><![CDATA[713]]></ele></trkpt>
<trkpt lon="13.79335" lat="47.42281"><ele><![CDATA[713]]></ele></trkpt>
<trkpt lon="13.79352" lat="47.42287"><ele><![CDATA[715]]></ele></trkpt>
<trkpt lon="13.7937" lat="47.42286"><ele><![CDATA[715]]></ele></trkpt>
<trkpt lon="13.79387" lat="47.42284"><ele><![CDATA[713]]></ele></trkpt>
<trkpt lon="13.79399" lat="47.42284"><ele><![CDATA[714]]></ele></trkpt>
<trkpt lon="13.79403" lat="47.42287"><ele><![CDATA[715]]></ele></trkpt>
<trkpt lon="13.79406" lat="47.42293"><ele><![CDATA[715]]></ele></trkpt>
<trkpt lon="13.79404" lat="47.42299"><ele><![CDATA[716]]></ele></trkpt>
<trkpt lon="13.79402" lat="47.42301"><ele><![CDATA[716]]></ele></trkpt>
<trkpt lon="13.79396" lat="47.42303"><ele><![CDATA[716]]></ele></trkpt>
<trkpt lon="13.79382" lat="47.42306"><ele><![CDATA[717]]></ele></trkpt>
<trkpt lon="13.79374" lat="47.42311"><ele><![CDATA[717]]></ele></trkpt>
<trkpt lon="13.79359" lat="47.42312"><ele><![CDATA[717]]></ele></trkpt>
<trkpt lon="13.79353" lat="47.42314"><ele><![CDATA[717]]></ele></trkpt>
<trkpt lon="13.79343" lat="47.42326"><ele><![CDATA[718]]></ele></trkpt>
<trkpt lon="13.79335" lat="47.42331"><ele><![CDATA[718]]></ele></trkpt>
<trkpt lon="13.79321" lat="47.42337"><ele><![CDATA[718]]></ele></trkpt>
<trkpt lon="13.79313" lat="47.42346"><ele><![CDATA[719]]></ele></trkpt>
<trkpt lon="13.7931" lat="47.42348"><ele><![CDATA[719]]></ele></trkpt>
<trkpt lon="13.79296" lat="47.42352"><ele><![CDATA[718]]></ele></trkpt>
<trkpt lon="13.79293" lat="47.42356"><ele><![CDATA[719]]></ele></trkpt>
<trkpt lon="13.79292" lat="47.42366"><ele><![CDATA[719]]></ele></trkpt>
<trkpt lon="13.79289" lat="47.4237"><ele><![CDATA[719]]></ele></trkpt>
<trkpt lon="13.79284" lat="47.42372"><ele><![CDATA[719]]></ele></trkpt>
<trkpt lon="13.79281" lat="47.42375"><ele><![CDATA[719]]></ele></trkpt>
<trkpt lon="13.79279" lat="47.42385"><ele><![CDATA[720]]></ele></trkpt>
<trkpt lon="13.79276" lat="47.42388"><ele><![CDATA[720]]></ele></trkpt>
<trkpt lon="13.79274" lat="47.42395"><ele><![CDATA[720]]></ele></trkpt>
<trkpt lon="13.7927" lat="47.42398"><ele><![CDATA[720]]></ele></trkpt>
<trkpt lon="13.79268" lat="47.42403"><ele><![CDATA[720]]></ele></trkpt>
<trkpt lon="13.7926" lat="47.4241"><ele><![CDATA[720]]></ele></trkpt>
<trkpt lon="13.79258" lat="47.4242"><ele><![CDATA[720]]></ele></trkpt>
<trkpt lon="13.79248" lat="47.42428"><ele><![CDATA[720]]></ele></trkpt>
<trkpt lon="13.79247" lat="47.42432"><ele><![CDATA[720]]></ele></trkpt>
<trkpt lon="13.7925" lat="47.4244"><ele><![CDATA[721]]></ele></trkpt>
<trkpt lon="13.79247" lat="47.42454"><ele><![CDATA[721]]></ele></trkpt>
<trkpt lon="13.79248" lat="47.42459"><ele><![CDATA[722]]></ele></trkpt>
<trkpt lon="13.79254" lat="47.42467"><ele><![CDATA[723]]></ele></trkpt>
<trkpt lon="13.79255" lat="47.42478"><ele><![CDATA[723]]></ele></trkpt>
<trkpt lon="13.79251" lat="47.42485"><ele><![CDATA[723]]></ele></trkpt>
<trkpt lon="13.79239" lat="47.42497"><ele><![CDATA[723]]></ele></trkpt>
<trkpt lon="13.79234" lat="47.42507"><ele><![CDATA[723]]></ele></trkpt>
<trkpt lon="13.79231" lat="47.42516"><ele><![CDATA[723]]></ele></trkpt>
<trkpt lon="13.79235" lat="47.42527"><ele><![CDATA[724]]></ele></trkpt>
<trkpt lon="13.79234" lat="47.42531"><ele><![CDATA[724]]></ele></trkpt>
<trkpt lon="13.79227" lat="47.4254"><ele><![CDATA[725]]></ele></trkpt>
<trkpt lon="13.79221" lat="47.42556"><ele><![CDATA[726]]></ele></trkpt>
<trkpt lon="13.79217" lat="47.42561"><ele><![CDATA[726]]></ele></trkpt>
<trkpt lon="13.79216" lat="47.42568"><ele><![CDATA[726]]></ele></trkpt>
<trkpt lon="13.79213" lat="47.42573"><ele><![CDATA[727]]></ele></trkpt>
<trkpt lon="13.79201" lat="47.42585"><ele><![CDATA[727]]></ele></trkpt>
<trkpt lon="13.79197" lat="47.42592"><ele><![CDATA[727]]></ele></trkpt>
<trkpt lon="13.79199" lat="47.42614"><ele><![CDATA[729]]></ele></trkpt>
<trkpt lon="13.79193" lat="47.42624"><ele><![CDATA[729]]></ele></trkpt>
<trkpt lon="13.79194" lat="47.4263"><ele><![CDATA[729]]></ele></trkpt>
<trkpt lon="13.79199" lat="47.42636"><ele><![CDATA[730]]></ele></trkpt>
<trkpt lon="13.79199" lat="47.42639"><ele><![CDATA[730]]></ele></trkpt>
<trkpt lon="13.79197" lat="47.42644"><ele><![CDATA[729]]></ele></trkpt>
<trkpt lon="13.79197" lat="47.42648"><ele><![CDATA[729]]></ele></trkpt>
<trkpt lon="13.79203" lat="47.42655"><ele><![CDATA[730]]></ele></trkpt>
<trkpt lon="13.79203" lat="47.42663"><ele><![CDATA[731]]></ele></trkpt>
<trkpt lon="13.79206" lat="47.42667"><ele><![CDATA[731]]></ele></trkpt>
<trkpt lon="13.79206" lat="47.4267"><ele><![CDATA[731]]></ele></trkpt>
<trkpt lon="13.79201" lat="47.42682"><ele><![CDATA[732]]></ele></trkpt>
<trkpt lon="13.79201" lat="47.42684"><ele><![CDATA[732]]></ele></trkpt>
<trkpt lon="13.79207" lat="47.42691"><ele><![CDATA[732]]></ele></trkpt>
<trkpt lon="13.79204" lat="47.42698"><ele><![CDATA[732]]></ele></trkpt>
<trkpt lon="13.792" lat="47.42702"><ele><![CDATA[733]]></ele></trkpt>
<trkpt lon="13.79192" lat="47.42707"><ele><![CDATA[733]]></ele></trkpt>
<trkpt lon="13.7919" lat="47.4271"><ele><![CDATA[733]]></ele></trkpt>
<trkpt lon="13.79191" lat="47.42713"><ele><![CDATA[733]]></ele></trkpt>
<trkpt lon="13.79195" lat="47.42719"><ele><![CDATA[734]]></ele></trkpt>
<trkpt lon="13.79193" lat="47.42727"><ele><![CDATA[734]]></ele></trkpt>
<trkpt lon="13.79198" lat="47.4274"><ele><![CDATA[734]]></ele></trkpt>
<trkpt lon="13.7919" lat="47.42749"><ele><![CDATA[734]]></ele></trkpt>
<trkpt lon="13.79188" lat="47.42753"><ele><![CDATA[735]]></ele></trkpt>
<trkpt lon="13.79196" lat="47.4276"><ele><![CDATA[735]]></ele></trkpt>
<trkpt lon="13.79198" lat="47.42764"><ele><![CDATA[736]]></ele></trkpt>
<trkpt lon="13.79189" lat="47.42779"><ele><![CDATA[735]]></ele></trkpt>
<trkpt lon="13.79193" lat="47.42787"><ele><![CDATA[735]]></ele></trkpt>
<trkpt lon="13.79193" lat="47.42795"><ele><![CDATA[735]]></ele></trkpt>
<trkpt lon="13.79192" lat="47.42808"><ele><![CDATA[737]]></ele></trkpt>
<trkpt lon="13.79189" lat="47.42816"><ele><![CDATA[737]]></ele></trkpt>
<trkpt lon="13.79189" lat="47.4283"><ele><![CDATA[738]]></ele></trkpt>
<trkpt lon="13.79184" lat="47.42846"><ele><![CDATA[738]]></ele></trkpt>
<trkpt lon="13.79179" lat="47.42854"><ele><![CDATA[739]]></ele></trkpt>
<trkpt lon="13.79179" lat="47.42861"><ele><![CDATA[739]]></ele></trkpt>
<trkpt lon="13.79177" lat="47.42866"><ele><![CDATA[739]]></ele></trkpt>
<trkpt lon="13.79171" lat="47.42875"><ele><![CDATA[739]]></ele></trkpt>
<trkpt lon="13.79172" lat="47.42879"><ele><![CDATA[739]]></ele></trkpt>
<trkpt lon="13.79177" lat="47.42888"><ele><![CDATA[740]]></ele></trkpt>
<trkpt lon="13.79192" lat="47.42899"><ele><![CDATA[740]]></ele></trkpt>
<trkpt lon="13.79196" lat="47.42896"><ele><![CDATA[740]]></ele></trkpt>
<trkpt lon="13.792" lat="47.42884"><ele><![CDATA[739]]></ele></trkpt>
<trkpt lon="13.79199" lat="47.42871"><ele><![CDATA[739]]></ele></trkpt>
<trkpt lon="13.79205" lat="47.42859"><ele><![CDATA[739]]></ele></trkpt>
<trkpt lon="13.79219" lat="47.42854"><ele><![CDATA[738]]></ele></trkpt>
<trkpt lon="13.79224" lat="47.42849"><ele><![CDATA[738]]></ele></trkpt>
<trkpt lon="13.79222" lat="47.42845"><ele><![CDATA[738]]></ele></trkpt>
<trkpt lon="13.79216" lat="47.42843"><ele><![CDATA[738]]></ele></trkpt>
<trkpt lon="13.79213" lat="47.42839"><ele><![CDATA[738]]></ele></trkpt>
<trkpt lon="13.79215" lat="47.42831"><ele><![CDATA[738]]></ele></trkpt>
<trkpt lon="13.79222" lat="47.42826"><ele><![CDATA[738]]></ele></trkpt>
<trkpt lon="13.79226" lat="47.42826"><ele><![CDATA[738]]></ele></trkpt>
<trkpt lon="13.79239" lat="47.42822"><ele><![CDATA[737]]></ele></trkpt>
<trkpt lon="13.79242" lat="47.42816"><ele><![CDATA[737]]></ele></trkpt>
<trkpt lon="13.7924" lat="47.42804"><ele><![CDATA[737]]></ele></trkpt>
<trkpt lon="13.79229" lat="47.42794"><ele><![CDATA[737]]></ele></trkpt>
<trkpt lon="13.7923" lat="47.42789"><ele><![CDATA[737]]></ele></trkpt>
<trkpt lon="13.79237" lat="47.42781"><ele><![CDATA[736]]></ele></trkpt>
<trkpt lon="13.79243" lat="47.42769"><ele><![CDATA[736]]></ele></trkpt>
<trkpt lon="13.79244" lat="47.42764"><ele><![CDATA[736]]></ele></trkpt>
<trkpt lon="13.79236" lat="47.42749"><ele><![CDATA[735]]></ele></trkpt>
<trkpt lon="13.79244" lat="47.42736"><ele><![CDATA[734]]></ele></trkpt>
<trkpt lon="13.7925" lat="47.42723"><ele><![CDATA[733]]></ele></trkpt>
<trkpt lon="13.79256" lat="47.4272"><ele><![CDATA[733]]></ele></trkpt>
<trkpt lon="13.79266" lat="47.42718"><ele><![CDATA[733]]></ele></trkpt>
<trkpt lon="13.79273" lat="47.42721"><ele><![CDATA[733]]></ele></trkpt>
<trkpt lon="13.79279" lat="47.42724"><ele><![CDATA[733]]></ele></trkpt>
<trkpt lon="13.79285" lat="47.42731"><ele><![CDATA[733]]></ele></trkpt>
<trkpt lon="13.79293" lat="47.42745"><ele><![CDATA[734]]></ele></trkpt>
<trkpt lon="13.79308" lat="47.42753"><ele><![CDATA[734]]></ele></trkpt>
<trkpt lon="13.79322" lat="47.42758"><ele><![CDATA[733]]></ele></trkpt>
<trkpt lon="13.79348" lat="47.4276"><ele><![CDATA[732]]></ele></trkpt>
<trkpt lon="13.79356" lat="47.42763"><ele><![CDATA[733]]></ele></trkpt>
<trkpt lon="13.79374" lat="47.42766"><ele><![CDATA[732]]></ele></trkpt>
<trkpt lon="13.79389" lat="47.42765"><ele><![CDATA[732]]></ele></trkpt>
<trkpt lon="13.79403" lat="47.42766"><ele><![CDATA[731]]></ele></trkpt>
<trkpt lon="13.79434" lat="47.42764"><ele><![CDATA[731]]></ele></trkpt>
<trkpt lon="13.79446" lat="47.42763"><ele><![CDATA[731]]></ele></trkpt>
<trkpt lon="13.7946" lat="47.42759"><ele><![CDATA[729]]></ele></trkpt>
<trkpt lon="13.79471" lat="47.42758"><ele><![CDATA[728]]></ele></trkpt>
<trkpt lon="13.79486" lat="47.4276"><ele><![CDATA[728]]></ele></trkpt>
<trkpt lon="13.79495" lat="47.42757"><ele><![CDATA[728]]></ele></trkpt>
<trkpt lon="13.79506" lat="47.42755"><ele><![CDATA[728]]></ele></trkpt>
<trkpt lon="13.79518" lat="47.42752"><ele><![CDATA[729]]></ele></trkpt>
<trkpt lon="13.79537" lat="47.42751"><ele><![CDATA[727]]></ele></trkpt>
<trkpt lon="13.7955" lat="47.42747"><ele><![CDATA[727]]></ele></trkpt>
<trkpt lon="13.79564" lat="47.42746"><ele><![CDATA[727]]></ele></trkpt>
<trkpt lon="13.79597" lat="47.42736"><ele><![CDATA[726]]></ele></trkpt>
<trkpt lon="13.79608" lat="47.42735"><ele><![CDATA[727]]></ele></trkpt>
<trkpt lon="13.79627" lat="47.42731"><ele><![CDATA[725]]></ele></trkpt>
<trkpt lon="13.79634" lat="47.42728"><ele><![CDATA[726]]></ele></trkpt>
<trkpt lon="13.79643" lat="47.42728"><ele><![CDATA[726]]></ele></trkpt>
<trkpt lon="13.79657" lat="47.42724"><ele><![CDATA[724]]></ele></trkpt>
<trkpt lon="13.79674" lat="47.42724"><ele><![CDATA[724]]></ele></trkpt>
<trkpt lon="13.79686" lat="47.42726"><ele><![CDATA[726]]></ele></trkpt>
<trkpt lon="13.79724" lat="47.42725"><ele><![CDATA[725]]></ele></trkpt>
<trkpt lon="13.79741" lat="47.42722"><ele><![CDATA[725]]></ele></trkpt>
<trkpt lon="13.79759" lat="47.42713"><ele><![CDATA[725]]></ele></trkpt>
<trkpt lon="13.79774" lat="47.42709"><ele><![CDATA[724]]></ele></trkpt>
<trkpt lon="13.7979" lat="47.42701"><ele><![CDATA[723]]></ele></trkpt>
<trkpt lon="13.7981" lat="47.42684"><ele><![CDATA[722]]></ele></trkpt>
<trkpt lon="13.79822" lat="47.4268"><ele><![CDATA[722]]></ele></trkpt>
<trkpt lon="13.79828" lat="47.42674"><ele><![CDATA[721]]></ele></trkpt>
<trkpt lon="13.79847" lat="47.42665"><ele><![CDATA[721]]></ele></trkpt>
<trkpt lon="13.79883" lat="47.4264"><ele><![CDATA[720]]></ele></trkpt>
<trkpt lon="13.79895" lat="47.42634"><ele><![CDATA[719]]></ele></trkpt>
<trkpt lon="13.79899" lat="47.42628"><ele><![CDATA[719]]></ele></trkpt>
<trkpt lon="13.79909" lat="47.42624"><ele><![CDATA[719]]></ele></trkpt>
<trkpt lon="13.7995" lat="47.42595"><ele><![CDATA[718]]></ele></trkpt>
<trkpt lon="13.79955" lat="47.42588"><ele><![CDATA[718]]></ele></trkpt>
<trkpt lon="13.79963" lat="47.42582"><ele><![CDATA[718]]></ele></trkpt>
<trkpt lon="13.79966" lat="47.42577"><ele><![CDATA[717]]></ele></trkpt>
<trkpt lon="13.7998" lat="47.42562"><ele><![CDATA[717]]></ele></trkpt>
<trkpt lon="13.79981" lat="47.42556"><ele><![CDATA[716]]></ele></trkpt>
<trkpt lon="13.79994" lat="47.42542"><ele><![CDATA[716]]></ele></trkpt>
<trkpt lon="13.79997" lat="47.42534"><ele><![CDATA[716]]></ele></trkpt>
<trkpt lon="13.80004" lat="47.42528"><ele><![CDATA[715]]></ele></trkpt>
<trkpt lon="13.80014" lat="47.42514"><ele><![CDATA[715]]></ele></trkpt>
<trkpt lon="13.80026" lat="47.42502"><ele><![CDATA[715]]></ele></trkpt>
<trkpt lon="13.80029" lat="47.42493"><ele><![CDATA[714]]></ele></trkpt>
<trkpt lon="13.80032" lat="47.42488"><ele><![CDATA[714]]></ele></trkpt>
<trkpt lon="13.80035" lat="47.42482"><ele><![CDATA[714]]></ele></trkpt>
<trkpt lon="13.80037" lat="47.42472"><ele><![CDATA[713]]></ele></trkpt>
<trkpt lon="13.80054" lat="47.42461"><ele><![CDATA[713]]></ele></trkpt>
<trkpt lon="13.80058" lat="47.42453"><ele><![CDATA[713]]></ele></trkpt>
<trkpt lon="13.80074" lat="47.42443"><ele><![CDATA[712]]></ele></trkpt>
<trkpt lon="13.80076" lat="47.42438"><ele><![CDATA[712]]></ele></trkpt>
<trkpt lon="13.80088" lat="47.42435"><ele><![CDATA[712]]></ele></trkpt>
<trkpt lon="13.80092" lat="47.4243"><ele><![CDATA[711]]></ele></trkpt>
<trkpt lon="13.801" lat="47.42428"><ele><![CDATA[711]]></ele></trkpt>
<trkpt lon="13.80099" lat="47.42425"><ele><![CDATA[711]]></ele></trkpt>
<trkpt lon="13.80099" lat="47.42419"><ele><![CDATA[711]]></ele></trkpt>
<trkpt lon="13.80095" lat="47.42407"><ele><![CDATA[711]]></ele></trkpt>
<trkpt lon="13.80095" lat="47.42405"><ele><![CDATA[711]]></ele></trkpt>
<trkpt lon="13.80092" lat="47.42403"><ele><![CDATA[711]]></ele></trkpt>
<trkpt lon="13.80081" lat="47.42401"><ele><![CDATA[711]]></ele></trkpt>
<trkpt lon="13.80065" lat="47.424"><ele><![CDATA[711]]></ele></trkpt>
<trkpt lon="13.80054" lat="47.42389"><ele><![CDATA[711]]></ele></trkpt>
<trkpt lon="13.80041" lat="47.42382"><ele><![CDATA[711]]></ele></trkpt>
<trkpt lon="13.80034" lat="47.42377"><ele><![CDATA[710]]></ele></trkpt>
<trkpt lon="13.80027" lat="47.42375"><ele><![CDATA[711]]></ele></trkpt>
<trkpt lon="13.80007" lat="47.42374"><ele><![CDATA[711]]></ele></trkpt>
<trkpt lon="13.79999" lat="47.42371"><ele><![CDATA[711]]></ele></trkpt>
<trkpt lon="13.79995" lat="47.42365"><ele><![CDATA[711]]></ele></trkpt>
<trkpt lon="13.79991" lat="47.42363"><ele><![CDATA[709]]></ele></trkpt>
<trkpt lon="13.79976" lat="47.42362"><ele><![CDATA[711]]></ele></trkpt>
<trkpt lon="13.79973" lat="47.4236"><ele><![CDATA[711]]></ele></trkpt>
<trkpt lon="13.79966" lat="47.42352"><ele><![CDATA[709]]></ele></trkpt>
<trkpt lon="13.7996" lat="47.42349"><ele><![CDATA[710]]></ele></trkpt>
<trkpt lon="13.7995" lat="47.42346"><ele><![CDATA[711]]></ele></trkpt>
<trkpt lon="13.79941" lat="47.42351"><ele><![CDATA[711]]></ele></trkpt>
<trkpt lon="13.79929" lat="47.42351"><ele><![CDATA[711]]></ele></trkpt>
<trkpt lon="13.79925" lat="47.42349"><ele><![CDATA[712]]></ele></trkpt>
<trkpt lon="13.79922" lat="47.42348"><ele><![CDATA[712]]></ele></trkpt>
<trkpt lon="13.79921" lat="47.42338"><ele><![CDATA[711]]></ele></trkpt>
<trkpt lon="13.79918" lat="47.42332"><ele><![CDATA[711]]></ele></trkpt>
<trkpt lon="13.79916" lat="47.42329"><ele><![CDATA[711]]></ele></trkpt>
<trkpt lon="13.79912" lat="47.42326"><ele><![CDATA[711]]></ele></trkpt>
<trkpt lon="13.79905" lat="47.42324"><ele><![CDATA[711]]></ele></trkpt>
<trkpt lon="13.7989" lat="47.42323"><ele><![CDATA[711]]></ele></trkpt>
<trkpt lon="13.79887" lat="47.42321"><ele><![CDATA[712]]></ele></trkpt>
<trkpt lon="13.79884" lat="47.42316"><ele><![CDATA[711]]></ele></trkpt>
<trkpt lon="13.79885" lat="47.42306"><ele><![CDATA[711]]></ele></trkpt>
<trkpt lon="13.79882" lat="47.42302"><ele><![CDATA[710]]></ele></trkpt>
<trkpt lon="13.79879" lat="47.423"><ele><![CDATA[710]]></ele></trkpt>
<trkpt lon="13.79876" lat="47.42297"><ele><![CDATA[710]]></ele></trkpt>
<trkpt lon="13.79874" lat="47.42292"><ele><![CDATA[711]]></ele></trkpt>
<trkpt lon="13.79872" lat="47.4228"><ele><![CDATA[710]]></ele></trkpt>
<trkpt lon="13.79869" lat="47.42274"><ele><![CDATA[710]]></ele></trkpt>
<trkpt lon="13.79855" lat="47.42265"><ele><![CDATA[711]]></ele></trkpt>
<trkpt lon="13.79844" lat="47.42261"><ele><![CDATA[711]]></ele></trkpt>
<trkpt lon="13.79839" lat="47.42257"><ele><![CDATA[711]]></ele></trkpt>
<trkpt lon="13.79835" lat="47.42253"><ele><![CDATA[711]]></ele></trkpt>
<trkpt lon="13.79834" lat="47.42249"><ele><![CDATA[711]]></ele></trkpt>
<trkpt lon="13.79835" lat="47.42239"><ele><![CDATA[711]]></ele></trkpt>
<trkpt lon="13.79832" lat="47.42229"><ele><![CDATA[710]]></ele></trkpt>
<trkpt lon="13.79835" lat="47.42219"><ele><![CDATA[710]]></ele></trkpt>
<trkpt lon="13.79827" lat="47.42212"><ele><![CDATA[709]]></ele></trkpt>
<trkpt lon="13.79816" lat="47.42207"><ele><![CDATA[709]]></ele></trkpt>
<trkpt lon="13.79813" lat="47.42199"><ele><![CDATA[709]]></ele></trkpt>
<trkpt lon="13.79812" lat="47.42197"><ele><![CDATA[706]]></ele></trkpt>
<trkpt lon="13.79797" lat="47.4219"><ele><![CDATA[709]]></ele></trkpt>
<trkpt lon="13.79792" lat="47.4218"><ele><![CDATA[708]]></ele></trkpt>
<trkpt lon="13.79786" lat="47.42177"><ele><![CDATA[708]]></ele></trkpt>
<trkpt lon="13.79783" lat="47.42174"><ele><![CDATA[709]]></ele></trkpt>
<trkpt lon="13.79781" lat="47.42171"><ele><![CDATA[709]]></ele></trkpt>
<trkpt lon="13.79781" lat="47.42164"><ele><![CDATA[708]]></ele></trkpt>
<trkpt lon="13.79774" lat="47.42154"><ele><![CDATA[707]]></ele></trkpt>
<trkpt lon="13.79771" lat="47.42151"><ele><![CDATA[708]]></ele></trkpt>
<trkpt lon="13.79758" lat="47.42146"><ele><![CDATA[708]]></ele></trkpt>
<trkpt lon="13.79753" lat="47.42143"><ele><![CDATA[708]]></ele></trkpt>
<trkpt lon="13.79745" lat="47.42132"><ele><![CDATA[708]]></ele></trkpt>
<trkpt lon="13.79737" lat="47.42131"><ele><![CDATA[708]]></ele></trkpt>
<trkpt lon="13.79724" lat="47.42133"><ele><![CDATA[708]]></ele></trkpt>
<trkpt lon="13.79709" lat="47.42132"><ele><![CDATA[708]]></ele></trkpt>
<trkpt lon="13.79703" lat="47.42133"><ele><![CDATA[708]]></ele></trkpt>
<trkpt lon="13.79698" lat="47.42136"><ele><![CDATA[708]]></ele></trkpt>
<trkpt lon="13.79693" lat="47.42136"><ele><![CDATA[708]]></ele></trkpt>
<trkpt lon="13.7969" lat="47.42134"><ele><![CDATA[708]]></ele></trkpt>
<trkpt lon="13.7969" lat="47.42127"><ele><![CDATA[708]]></ele></trkpt>
<trkpt lon="13.79687" lat="47.42122"><ele><![CDATA[708]]></ele></trkpt>
<trkpt lon="13.79683" lat="47.42119"><ele><![CDATA[708]]></ele></trkpt>
<trkpt lon="13.79677" lat="47.42116"><ele><![CDATA[708]]></ele></trkpt>
<trkpt lon="13.79665" lat="47.42114"><ele><![CDATA[708]]></ele></trkpt>
<trkpt lon="13.79656" lat="47.42114"><ele><![CDATA[708]]></ele></trkpt>
<trkpt lon="13.79641" lat="47.42106"><ele><![CDATA[708]]></ele></trkpt>
<trkpt lon="13.79626" lat="47.42102"><ele><![CDATA[706]]></ele></trkpt>
<trkpt lon="13.79611" lat="47.421"><ele><![CDATA[707]]></ele></trkpt>
<trkpt lon="13.79595" lat="47.42099"><ele><![CDATA[707]]></ele></trkpt>
<trkpt lon="13.79591" lat="47.42099"><ele><![CDATA[706]]></ele></trkpt>
<trkpt lon="13.79584" lat="47.42108"><ele><![CDATA[708]]></ele></trkpt>
<trkpt lon="13.7957" lat="47.42132"><ele><![CDATA[707]]></ele></trkpt>
<trkpt lon="13.79569" lat="47.42134"><ele><![CDATA[707]]></ele></trkpt>
<trkpt lon="13.7957" lat="47.4214"><ele><![CDATA[707]]></ele></trkpt>
<trkpt lon="13.79566" lat="47.42155"><ele><![CDATA[706]]></ele></trkpt>
<trkpt lon="13.79559" lat="47.42163"><ele><![CDATA[707]]></ele></trkpt>
<trkpt lon="13.79552" lat="47.42164"><ele><![CDATA[706]]></ele></trkpt>
<trkpt lon="13.79545" lat="47.4216"><ele><![CDATA[706]]></ele></trkpt>
<trkpt lon="13.79539" lat="47.42153"><ele><![CDATA[705]]></ele></trkpt>
<trkpt lon="13.79537" lat="47.42147"><ele><![CDATA[705]]></ele></trkpt>
<trkpt lon="13.79536" lat="47.4214"><ele><![CDATA[705]]></ele></trkpt>
<trkpt lon="13.79533" lat="47.42135"><ele><![CDATA[705]]></ele></trkpt>
<trkpt lon="13.79532" lat="47.42132"><ele><![CDATA[705]]></ele></trkpt>
<trkpt lon="13.79539" lat="47.42118"><ele><![CDATA[704]]></ele></trkpt>
<trkpt lon="13.79538" lat="47.42112"><ele><![CDATA[704]]></ele></trkpt>
<trkpt lon="13.7953" lat="47.42096"><ele><![CDATA[704]]></ele></trkpt>
<trkpt lon="13.79527" lat="47.42092"><ele><![CDATA[704]]></ele></trkpt>
<trkpt lon="13.79523" lat="47.42089"><ele><![CDATA[704]]></ele></trkpt>
<trkpt lon="13.79509" lat="47.42081"><ele><![CDATA[704]]></ele></trkpt>
<trkpt lon="13.79504" lat="47.42075"><ele><![CDATA[704]]></ele></trkpt>
<trkpt lon="13.79502" lat="47.42055"><ele><![CDATA[702]]></ele></trkpt>
</trkseg>
</trk>
</gpx>
