<?xml version="1.0" encoding="UTF-8"?><gpx xmlns="http://www.topografix.com/GPX/1/1" creator="CONTWISE MAPS" xsi:schemaLocation="http://www.topografix.com/GPX/1/1 http://www.topografix.com/GPX/1/1/gpx.xsd http://www.topografix.com/GPX/gpx_overlay/0/3 http://www.topografix.com/GPX/gpx_overlay/0/3/gpx_overlay.xsd http://www.topografix.com/GPX/gpx_modified/0/1 http://www.topografix.com/GPX/gpx_modified/0/1/gpx_modified.xsd http://www.topografix.com/GPX/Private/TopoGrafix/0/3 http://www.topografix.com/GPX/Private/TopoGrafix/0/3/topografix.xsd" xmlns:xsi="http://www.w3.org/2001/XMLSchema-instance" version="1.1"><trk><name><![CDATA[410_weltcup_downhill_bps_182369162]]></name><extensions><label xmlns="http://www.topografix.com/GPX/gpx_overlay/0/3"></label>
</extensions>
<trkseg><trkpt lon="13.70734" lat="47.38218"><ele><![CDATA[1342.35]]></ele></trkpt>
<trkpt lon="13.70739" lat="47.3822"><ele><![CDATA[1342.32]]></ele></trkpt>
<trkpt lon="13.70717" lat="47.38241"><ele><![CDATA[1329.79]]></ele></trkpt>
<trkpt lon="13.70703" lat="47.3825"><ele><![CDATA[1326.05]]></ele></trkpt>
<trkpt lon="13.70693" lat="47.38252"><ele><![CDATA[1324.35]]></ele></trkpt>
<trkpt lon="13.7068" lat="47.38251"><ele><![CDATA[1321.31]]></ele></trkpt>
<trkpt lon="13.70664" lat="47.38254"><ele><![CDATA[1317.54]]></ele></trkpt>
<trkpt lon="13.70638" lat="47.38274"><ele><![CDATA[1311.07]]></ele></trkpt>
<trkpt lon="13.70638" lat="47.38279"><ele><![CDATA[1309.88]]></ele></trkpt>
<trkpt lon="13.70641" lat="47.38283"><ele><![CDATA[1308.57]]></ele></trkpt>
<trkpt lon="13.70639" lat="47.38286"><ele><![CDATA[1307.11]]></ele></trkpt>
<trkpt lon="13.70633" lat="47.38286"><ele><![CDATA[1305.49]]></ele></trkpt>
<trkpt lon="13.70629" lat="47.38288"><ele><![CDATA[1305.49]]></ele></trkpt>
<trkpt lon="13.7063" lat="47.38293"><ele><![CDATA[1303.74]]></ele></trkpt>
<trkpt lon="13.7064" lat="47.38307"><ele><![CDATA[1294.79]]></ele></trkpt>
<trkpt lon="13.70643" lat="47.38316"><ele><![CDATA[1291.65]]></ele></trkpt>
<trkpt lon="13.7064" lat="47.38321"><ele><![CDATA[1290.57]]></ele></trkpt>
<trkpt lon="13.7064" lat="47.3832"><ele><![CDATA[1291.13]]></ele></trkpt>
<trkpt lon="13.70617" lat="47.38321"><ele><![CDATA[1288.43]]></ele></trkpt>
<trkpt lon="13.70609" lat="47.38319"><ele><![CDATA[1282.46]]></ele></trkpt>
<trkpt lon="13.70559" lat="47.38323"><ele><![CDATA[1272.17]]></ele></trkpt>
<trkpt lon="13.70545" lat="47.38326"><ele><![CDATA[1270.34]]></ele></trkpt>
<trkpt lon="13.70523" lat="47.38334"><ele><![CDATA[1268.54]]></ele></trkpt>
<trkpt lon="13.70507" lat="47.38337"><ele><![CDATA[1268.17]]></ele></trkpt>
<trkpt lon="13.705" lat="47.38341"><ele><![CDATA[1268.03]]></ele></trkpt>
<trkpt lon="13.70492" lat="47.38359"><ele><![CDATA[1266.9]]></ele></trkpt>
<trkpt lon="13.70488" lat="47.38375"><ele><![CDATA[1264.82]]></ele></trkpt>
<trkpt lon="13.7049" lat="47.38381"><ele><![CDATA[1263.95]]></ele></trkpt>
<trkpt lon="13.70489" lat="47.38385"><ele><![CDATA[1262.89]]></ele></trkpt>
<trkpt lon="13.7047" lat="47.38386"><ele><![CDATA[1258.76]]></ele></trkpt>
<trkpt lon="13.7045" lat="47.3838"><ele><![CDATA[1253.97]]></ele></trkpt>
<trkpt lon="13.70427" lat="47.38384"><ele><![CDATA[1248.62]]></ele></trkpt>
<trkpt lon="13.70397" lat="47.38393"><ele><![CDATA[1245.6]]></ele></trkpt>
<trkpt lon="13.70386" lat="47.38399"><ele><![CDATA[1231.48]]></ele></trkpt>
<trkpt lon="13.70386" lat="47.38398"><ele><![CDATA[1239.42]]></ele></trkpt>
<trkpt lon="13.70374" lat="47.38412"><ele><![CDATA[1233.09]]></ele></trkpt>
<trkpt lon="13.70376" lat="47.38422"><ele><![CDATA[1230.68]]></ele></trkpt>
<trkpt lon="13.70384" lat="47.38433"><ele><![CDATA[1228.33]]></ele></trkpt>
<trkpt lon="13.70403" lat="47.38452"><ele><![CDATA[1222.45]]></ele></trkpt>
<trkpt lon="13.70401" lat="47.38459"><ele><![CDATA[1220.66]]></ele></trkpt>
<trkpt lon="13.70375" lat="47.38466"><ele><![CDATA[1208.28]]></ele></trkpt>
<trkpt lon="13.70373" lat="47.38469"><ele><![CDATA[1204.5]]></ele></trkpt>
<trkpt lon="13.70375" lat="47.38476"><ele><![CDATA[1200.45]]></ele></trkpt>
<trkpt lon="13.70374" lat="47.38481"><ele><![CDATA[1196.65]]></ele></trkpt>
<trkpt lon="13.70367" lat="47.38484"><ele><![CDATA[1191.24]]></ele></trkpt>
<trkpt lon="13.7035" lat="47.38486"><ele><![CDATA[1188.36]]></ele></trkpt>
<trkpt lon="13.70342" lat="47.38493"><ele><![CDATA[1186.42]]></ele></trkpt>
<trkpt lon="13.70342" lat="47.38498"><ele><![CDATA[1185.05]]></ele></trkpt>
<trkpt lon="13.70367" lat="47.38506"><ele><![CDATA[1183.15]]></ele></trkpt>
<trkpt lon="13.70369" lat="47.3851"><ele><![CDATA[1181.45]]></ele></trkpt>
<trkpt lon="13.70368" lat="47.38514"><ele><![CDATA[1181.45]]></ele></trkpt>
<trkpt lon="13.70357" lat="47.38517"><ele><![CDATA[1180.29]]></ele></trkpt>
<trkpt lon="13.70332" lat="47.38535"><ele><![CDATA[1174.69]]></ele></trkpt>
<trkpt lon="13.70326" lat="47.38542"><ele><![CDATA[1170.28]]></ele></trkpt>
<trkpt lon="13.70326" lat="47.38551"><ele><![CDATA[1167.12]]></ele></trkpt>
<trkpt lon="13.70308" lat="47.38569"><ele><![CDATA[1156.73]]></ele></trkpt>
<trkpt lon="13.70307" lat="47.38576"><ele><![CDATA[1154.66]]></ele></trkpt>
<trkpt lon="13.70302" lat="47.38582"><ele><![CDATA[1151.07]]></ele></trkpt>
<trkpt lon="13.7028" lat="47.38596"><ele><![CDATA[1145.85]]></ele></trkpt>
<trkpt lon="13.70281" lat="47.38599"><ele><![CDATA[1145.85]]></ele></trkpt>
<trkpt lon="13.70296" lat="47.38604"><ele><![CDATA[1142.49]]></ele></trkpt>
<trkpt lon="13.70295" lat="47.38607"><ele><![CDATA[1141.27]]></ele></trkpt>
<trkpt lon="13.70288" lat="47.38612"><ele><![CDATA[1137.4]]></ele></trkpt>
<trkpt lon="13.70294" lat="47.38626"><ele><![CDATA[1135.09]]></ele></trkpt>
<trkpt lon="13.70291" lat="47.38635"><ele><![CDATA[1135.96]]></ele></trkpt>
<trkpt lon="13.7029" lat="47.38635"><ele><![CDATA[1133.41]]></ele></trkpt>
<trkpt lon="13.70274" lat="47.38654"><ele><![CDATA[1128.88]]></ele></trkpt>
<trkpt lon="13.70263" lat="47.3866"><ele><![CDATA[1127.91]]></ele></trkpt>
<trkpt lon="13.70244" lat="47.38678"><ele><![CDATA[1120.27]]></ele></trkpt>
<trkpt lon="13.70226" lat="47.38686"><ele><![CDATA[1118.25]]></ele></trkpt>
<trkpt lon="13.70203" lat="47.38678"><ele><![CDATA[1118.22]]></ele></trkpt>
<trkpt lon="13.70183" lat="47.38682"><ele><![CDATA[1114.2]]></ele></trkpt>
<trkpt lon="13.70179" lat="47.38674"><ele><![CDATA[1114.85]]></ele></trkpt>
<trkpt lon="13.70177" lat="47.38661"><ele><![CDATA[1116.44]]></ele></trkpt>
<trkpt lon="13.70179" lat="47.38639"><ele><![CDATA[1117.9]]></ele></trkpt>
<trkpt lon="13.70177" lat="47.38661"><ele><![CDATA[1116.44]]></ele></trkpt>
<trkpt lon="13.70179" lat="47.38674"><ele><![CDATA[1114.85]]></ele></trkpt>
<trkpt lon="13.70186" lat="47.38688"><ele><![CDATA[1113.58]]></ele></trkpt>
<trkpt lon="13.7018" lat="47.3869"><ele><![CDATA[1113.58]]></ele></trkpt>
<trkpt lon="13.70179" lat="47.38697"><ele><![CDATA[1112.4]]></ele></trkpt>
<trkpt lon="13.70182" lat="47.387"><ele><![CDATA[1112.4]]></ele></trkpt>
<trkpt lon="13.70204" lat="47.38708"><ele><![CDATA[1109.37]]></ele></trkpt>
<trkpt lon="13.70204" lat="47.38722"><ele><![CDATA[1107.93]]></ele></trkpt>
<trkpt lon="13.70203" lat="47.38722"><ele><![CDATA[1109.51]]></ele></trkpt>
<trkpt lon="13.70175" lat="47.38723"><ele><![CDATA[1106.53]]></ele></trkpt>
<trkpt lon="13.70171" lat="47.38727"><ele><![CDATA[1103.73]]></ele></trkpt>
<trkpt lon="13.70169" lat="47.38727"><ele><![CDATA[1103.73]]></ele></trkpt>
<trkpt lon="13.70147" lat="47.38716"><ele><![CDATA[1101.25]]></ele></trkpt>
<trkpt lon="13.70135" lat="47.38707"><ele><![CDATA[1098.24]]></ele></trkpt>
<trkpt lon="13.70125" lat="47.38705"><ele><![CDATA[1096.11]]></ele></trkpt>
<trkpt lon="13.70111" lat="47.38708"><ele><![CDATA[1092.54]]></ele></trkpt>
<trkpt lon="13.70111" lat="47.38707"><ele><![CDATA[1092.56]]></ele></trkpt>
<trkpt lon="13.701" lat="47.38721"><ele><![CDATA[1085.78]]></ele></trkpt>
<trkpt lon="13.70079" lat="47.3873"><ele><![CDATA[1080.4]]></ele></trkpt>
<trkpt lon="13.70064" lat="47.38741"><ele><![CDATA[1078.6]]></ele></trkpt>
<trkpt lon="13.70048" lat="47.38749"><ele><![CDATA[1077.71]]></ele></trkpt>
<trkpt lon="13.70024" lat="47.3877"><ele><![CDATA[1074.02]]></ele></trkpt>
<trkpt lon="13.7001" lat="47.3878"><ele><![CDATA[1071.74]]></ele></trkpt>
<trkpt lon="13.69992" lat="47.38786"><ele><![CDATA[1066.23]]></ele></trkpt>
<trkpt lon="13.6999" lat="47.38788"><ele><![CDATA[1065.04]]></ele></trkpt>
<trkpt lon="13.69993" lat="47.38796"><ele><![CDATA[1063.94]]></ele></trkpt>
<trkpt lon="13.6999" lat="47.38804"><ele><![CDATA[1063.94]]></ele></trkpt>
<trkpt lon="13.69985" lat="47.38807"><ele><![CDATA[1058.04]]></ele></trkpt>
<trkpt lon="13.69966" lat="47.38811"><ele><![CDATA[1058.04]]></ele></trkpt>
<trkpt lon="13.69955" lat="47.38816"><ele><![CDATA[1056.15]]></ele></trkpt>
<trkpt lon="13.69951" lat="47.38821"><ele><![CDATA[1055.27]]></ele></trkpt>
<trkpt lon="13.69942" lat="47.38825"><ele><![CDATA[1047.28]]></ele></trkpt>
<trkpt lon="13.69955" lat="47.38831"><ele><![CDATA[1046]]></ele></trkpt>
<trkpt lon="13.69955" lat="47.38833"><ele><![CDATA[1046]]></ele></trkpt>
<trkpt lon="13.69977" lat="47.38838"><ele><![CDATA[1047.14]]></ele></trkpt>
<trkpt lon="13.6998" lat="47.38848"><ele><![CDATA[1042.07]]></ele></trkpt>
<trkpt lon="13.69968" lat="47.38854"><ele><![CDATA[1038.77]]></ele></trkpt>
<trkpt lon="13.69918" lat="47.38853"><ele><![CDATA[1029.24]]></ele></trkpt>
<trkpt lon="13.69904" lat="47.38857"><ele><![CDATA[1022.3]]></ele></trkpt>
<trkpt lon="13.69902" lat="47.38867"><ele><![CDATA[1018.89]]></ele></trkpt>
<trkpt lon="13.6988" lat="47.38868"><ele><![CDATA[1010.83]]></ele></trkpt>
<trkpt lon="13.69885" lat="47.38882"><ele><![CDATA[1006.11]]></ele></trkpt>
<trkpt lon="13.69873" lat="47.38887"><ele><![CDATA[999.23]]></ele></trkpt>
<trkpt lon="13.69882" lat="47.38909"><ele><![CDATA[990.92]]></ele></trkpt>
<trkpt lon="13.6987" lat="47.38919"><ele><![CDATA[985.65]]></ele></trkpt>
<trkpt lon="13.6985" lat="47.38914"><ele><![CDATA[982.35]]></ele></trkpt>
<trkpt lon="13.6983" lat="47.38914"><ele><![CDATA[974.42]]></ele></trkpt>
<trkpt lon="13.69823" lat="47.38924"><ele><![CDATA[969.04]]></ele></trkpt>
<trkpt lon="13.69805" lat="47.38922"><ele><![CDATA[966.56]]></ele></trkpt>
<trkpt lon="13.69805" lat="47.38921"><ele><![CDATA[964.9]]></ele></trkpt>
<trkpt lon="13.69803" lat="47.3893"><ele><![CDATA[961.61]]></ele></trkpt>
<trkpt lon="13.69808" lat="47.38936"><ele><![CDATA[959.85]]></ele></trkpt>
<trkpt lon="13.69808" lat="47.38939"><ele><![CDATA[959.85]]></ele></trkpt>
<trkpt lon="13.69789" lat="47.38941"><ele><![CDATA[952.73]]></ele></trkpt>
<trkpt lon="13.69781" lat="47.38945"><ele><![CDATA[951.19]]></ele></trkpt>
<trkpt lon="13.6977" lat="47.38945"><ele><![CDATA[948.43]]></ele></trkpt>
<trkpt lon="13.69759" lat="47.38944"><ele><![CDATA[946.68]]></ele></trkpt>
<trkpt lon="13.69755" lat="47.3894"><ele><![CDATA[946.65]]></ele></trkpt>
<trkpt lon="13.69753" lat="47.38941"><ele><![CDATA[948.98]]></ele></trkpt>
<trkpt lon="13.69755" lat="47.3894"><ele><![CDATA[948.98]]></ele></trkpt>
<trkpt lon="13.69753" lat="47.38942"><ele><![CDATA[945.67]]></ele></trkpt>
<trkpt lon="13.69753" lat="47.38948"><ele><![CDATA[942.93]]></ele></trkpt>
<trkpt lon="13.69765" lat="47.38961"><ele><![CDATA[937.64]]></ele></trkpt>
<trkpt lon="13.69783" lat="47.38973"><ele><![CDATA[931.4]]></ele></trkpt>
<trkpt lon="13.69783" lat="47.38982"><ele><![CDATA[928.29]]></ele></trkpt>
<trkpt lon="13.69776" lat="47.3899"><ele><![CDATA[925.24]]></ele></trkpt>
<trkpt lon="13.69777" lat="47.3899"><ele><![CDATA[925.24]]></ele></trkpt>
<trkpt lon="13.69777" lat="47.38989"><ele><![CDATA[926.66]]></ele></trkpt>
<trkpt lon="13.69772" lat="47.38992"><ele><![CDATA[925.64]]></ele></trkpt>
<trkpt lon="13.69744" lat="47.38993"><ele><![CDATA[923.03]]></ele></trkpt>
<trkpt lon="13.69681" lat="47.39004"><ele><![CDATA[915.41]]></ele></trkpt>
<trkpt lon="13.69668" lat="47.39004"><ele><![CDATA[916.77]]></ele></trkpt>
<trkpt lon="13.69669" lat="47.39004"><ele><![CDATA[914.62]]></ele></trkpt>
<trkpt lon="13.69667" lat="47.39008"><ele><![CDATA[914.13]]></ele></trkpt>
<trkpt lon="13.69687" lat="47.39015"><ele><![CDATA[912.99]]></ele></trkpt>
<trkpt lon="13.69691" lat="47.39018"><ele><![CDATA[912.53]]></ele></trkpt>
<trkpt lon="13.69692" lat="47.39021"><ele><![CDATA[912.01]]></ele></trkpt>
<trkpt lon="13.69689" lat="47.39025"><ele><![CDATA[911.41]]></ele></trkpt>
<trkpt lon="13.6966" lat="47.39031"><ele><![CDATA[908.13]]></ele></trkpt>
<trkpt lon="13.69656" lat="47.39037"><ele><![CDATA[905.76]]></ele></trkpt>
<trkpt lon="13.69658" lat="47.39042"><ele><![CDATA[904.33]]></ele></trkpt>
<trkpt lon="13.69666" lat="47.39048"><ele><![CDATA[900.96]]></ele></trkpt>
<trkpt lon="13.69701" lat="47.39061"><ele><![CDATA[889.53]]></ele></trkpt>
<trkpt lon="13.69756" lat="47.39077"><ele><![CDATA[884.56]]></ele></trkpt>
<trkpt lon="13.69772" lat="47.39087"><ele><![CDATA[885.62]]></ele></trkpt>
<trkpt lon="13.69784" lat="47.39099"><ele><![CDATA[885.27]]></ele></trkpt>
<trkpt lon="13.69781" lat="47.39106"><ele><![CDATA[884.83]]></ele></trkpt>
<trkpt lon="13.69782" lat="47.39106"><ele><![CDATA[880.92]]></ele></trkpt>
<trkpt lon="13.69752" lat="47.39098"><ele><![CDATA[880.58]]></ele></trkpt>
<trkpt lon="13.6974" lat="47.39104"><ele><![CDATA[876.83]]></ele></trkpt>
<trkpt lon="13.69748" lat="47.39112"><ele><![CDATA[874.19]]></ele></trkpt>
<trkpt lon="13.69747" lat="47.39122"><ele><![CDATA[871.03]]></ele></trkpt>
<trkpt lon="13.6973" lat="47.39113"><ele><![CDATA[872.35]]></ele></trkpt>
<trkpt lon="13.69715" lat="47.39111"><ele><![CDATA[871.67]]></ele></trkpt>
<trkpt lon="13.6973" lat="47.39126"><ele><![CDATA[867.41]]></ele></trkpt>
<trkpt lon="13.6971" lat="47.39122"><ele><![CDATA[866.14]]></ele></trkpt>
<trkpt lon="13.69718" lat="47.39133"><ele><![CDATA[862.32]]></ele></trkpt>
<trkpt lon="13.69702" lat="47.39132"><ele><![CDATA[859.57]]></ele></trkpt>
<trkpt lon="13.69701" lat="47.39143"><ele><![CDATA[856.31]]></ele></trkpt>
<trkpt lon="13.69699" lat="47.39146"><ele><![CDATA[854.41]]></ele></trkpt>
<trkpt lon="13.69672" lat="47.39145"><ele><![CDATA[846.87]]></ele></trkpt>
<trkpt lon="13.69607" lat="47.39126"><ele><![CDATA[833.01]]></ele></trkpt>
<trkpt lon="13.69594" lat="47.39125"><ele><![CDATA[831.01]]></ele></trkpt>
<trkpt lon="13.69571" lat="47.39127"><ele><![CDATA[827.79]]></ele></trkpt>
<trkpt lon="13.69561" lat="47.39125"><ele><![CDATA[826.98]]></ele></trkpt>
<trkpt lon="13.69559" lat="47.39129"><ele><![CDATA[826.09]]></ele></trkpt>
<trkpt lon="13.69561" lat="47.39136"><ele><![CDATA[824.1]]></ele></trkpt>
<trkpt lon="13.69565" lat="47.39141"><ele><![CDATA[824.1]]></ele></trkpt>
<trkpt lon="13.69569" lat="47.39143"><ele><![CDATA[821.97]]></ele></trkpt>
<trkpt lon="13.6957" lat="47.39147"><ele><![CDATA[821.97]]></ele></trkpt>
<trkpt lon="13.69566" lat="47.39149"><ele><![CDATA[819.59]]></ele></trkpt>
<trkpt lon="13.6954" lat="47.39149"><ele><![CDATA[814.17]]></ele></trkpt>
<trkpt lon="13.69527" lat="47.39156"><ele><![CDATA[811.52]]></ele></trkpt>
<trkpt lon="13.69516" lat="47.39158"><ele><![CDATA[809.07]]></ele></trkpt>
<trkpt lon="13.69501" lat="47.39154"><ele><![CDATA[806.78]]></ele></trkpt>
<trkpt lon="13.69481" lat="47.39153"><ele><![CDATA[804.69]]></ele></trkpt>
<trkpt lon="13.69474" lat="47.39156"><ele><![CDATA[803.94]]></ele></trkpt>
<trkpt lon="13.69475" lat="47.39155"><ele><![CDATA[803.94]]></ele></trkpt>
<trkpt lon="13.69474" lat="47.3916"><ele><![CDATA[803.57]]></ele></trkpt>
<trkpt lon="13.69492" lat="47.39176"><ele><![CDATA[801.07]]></ele></trkpt>
<trkpt lon="13.69491" lat="47.39178"><ele><![CDATA[801.07]]></ele></trkpt>
<trkpt lon="13.69472" lat="47.39182"><ele><![CDATA[798.56]]></ele></trkpt>
<trkpt lon="13.69466" lat="47.39187"><ele><![CDATA[796.14]]></ele></trkpt>
<trkpt lon="13.69465" lat="47.3919"><ele><![CDATA[794.8]]></ele></trkpt>
<trkpt lon="13.69473" lat="47.392"><ele><![CDATA[791.98]]></ele></trkpt>
<trkpt lon="13.69476" lat="47.39214"><ele><![CDATA[785.78]]></ele></trkpt>
<trkpt lon="13.69484" lat="47.39227"><ele><![CDATA[784.07]]></ele></trkpt>
<trkpt lon="13.6952" lat="47.39262"><ele><![CDATA[767.67]]></ele></trkpt>
<trkpt lon="13.69521" lat="47.39276"><ele><![CDATA[762.98]]></ele></trkpt>
<trkpt lon="13.69561" lat="47.39307"><ele><![CDATA[761.23]]></ele></trkpt>
<trkpt lon="13.69562" lat="47.39317"><ele><![CDATA[760.99]]></ele></trkpt>
<trkpt lon="13.69551" lat="47.39323"><ele><![CDATA[758.83]]></ele></trkpt>
<trkpt lon="13.69504" lat="47.39313"><ele><![CDATA[754.02]]></ele></trkpt>
<trkpt lon="13.69487" lat="47.39311"><ele><![CDATA[754.02]]></ele></trkpt>
<trkpt lon="13.69482" lat="47.39319"><ele><![CDATA[752.72]]></ele></trkpt>
<trkpt lon="13.6947" lat="47.39315"><ele><![CDATA[755.26]]></ele></trkpt>
<trkpt lon="13.69436" lat="47.39307"><ele><![CDATA[751.34]]></ele></trkpt>
<trkpt lon="13.69427" lat="47.39302"><ele><![CDATA[747.68]]></ele></trkpt>
<trkpt lon="13.69424" lat="47.39303"><ele><![CDATA[747.68]]></ele></trkpt>
<trkpt lon="13.69423" lat="47.39304"><ele><![CDATA[747.68]]></ele></trkpt>
</trkseg>
</trk>
</gpx>
