<?xml version="1.0" encoding="UTF-8"?><gpx xmlns="http://www.topografix.com/GPX/1/1" creator="CONTWISE MAPS" xsi:schemaLocation="http://www.topografix.com/GPX/1/1 http://www.topografix.com/GPX/1/1/gpx.xsd http://www.topografix.com/GPX/gpx_overlay/0/3 http://www.topografix.com/GPX/gpx_overlay/0/3/gpx_overlay.xsd http://www.topografix.com/GPX/gpx_modified/0/1 http://www.topografix.com/GPX/gpx_modified/0/1/gpx_modified.xsd http://www.topografix.com/GPX/Private/TopoGrafix/0/3 http://www.topografix.com/GPX/Private/TopoGrafix/0/3/topografix.xsd" xmlns:xsi="http://www.w3.org/2001/XMLSchema-instance" version="1.1"><trk><name><![CDATA[405_99_jumpline_bps_182412556]]></name><extensions><label xmlns="http://www.topografix.com/GPX/gpx_overlay/0/3"></label>
</extensions>
<trkseg><trkpt lon="13.7217" lat="47.37729"><ele><![CDATA[1623.6]]></ele></trkpt>
<trkpt lon="13.72181" lat="47.37736"><ele><![CDATA[1622.81]]></ele></trkpt>
<trkpt lon="13.72218" lat="47.37764"><ele><![CDATA[1621.8]]></ele></trkpt>
<trkpt lon="13.72239" lat="47.37785"><ele><![CDATA[1617.34]]></ele></trkpt>
<trkpt lon="13.7227" lat="47.37829"><ele><![CDATA[1614.65]]></ele></trkpt>
<trkpt lon="13.72298" lat="47.37874"><ele><![CDATA[1611.18]]></ele></trkpt>
<trkpt lon="13.723" lat="47.37874"><ele><![CDATA[1611.46]]></ele></trkpt>
<trkpt lon="13.72312" lat="47.37887"><ele><![CDATA[1610.96]]></ele></trkpt>
<trkpt lon="13.72296" lat="47.3789"><ele><![CDATA[1608.88]]></ele></trkpt>
<trkpt lon="13.72264" lat="47.37876"><ele><![CDATA[1609.39]]></ele></trkpt>
<trkpt lon="13.72248" lat="47.37875"><ele><![CDATA[1609.92]]></ele></trkpt>
<trkpt lon="13.72245" lat="47.37878"><ele><![CDATA[1610.57]]></ele></trkpt>
<trkpt lon="13.72262" lat="47.37888"><ele><![CDATA[1607.99]]></ele></trkpt>
<trkpt lon="13.72263" lat="47.37897"><ele><![CDATA[1606.46]]></ele></trkpt>
<trkpt lon="13.72302" lat="47.37934"><ele><![CDATA[1601.93]]></ele></trkpt>
<trkpt lon="13.72308" lat="47.37937"><ele><![CDATA[1601.61]]></ele></trkpt>
<trkpt lon="13.7231" lat="47.37938"><ele><![CDATA[1601.61]]></ele></trkpt>
<trkpt lon="13.72344" lat="47.37945"><ele><![CDATA[1599.59]]></ele></trkpt>
<trkpt lon="13.7237" lat="47.3796"><ele><![CDATA[1597.85]]></ele></trkpt>
<trkpt lon="13.72384" lat="47.37966"><ele><![CDATA[1596.93]]></ele></trkpt>
<trkpt lon="13.72417" lat="47.37968"><ele><![CDATA[1595.84]]></ele></trkpt>
<trkpt lon="13.72436" lat="47.37965"><ele><![CDATA[1595.38]]></ele></trkpt>
<trkpt lon="13.72457" lat="47.37965"><ele><![CDATA[1594.12]]></ele></trkpt>
<trkpt lon="13.72464" lat="47.37967"><ele><![CDATA[1593.5]]></ele></trkpt>
<trkpt lon="13.72477" lat="47.37974"><ele><![CDATA[1591.42]]></ele></trkpt>
<trkpt lon="13.72493" lat="47.37977"><ele><![CDATA[1590.33]]></ele></trkpt>
<trkpt lon="13.72524" lat="47.37976"><ele><![CDATA[1588.67]]></ele></trkpt>
<trkpt lon="13.72547" lat="47.37981"><ele><![CDATA[1586.89]]></ele></trkpt>
<trkpt lon="13.72563" lat="47.37981"><ele><![CDATA[1585.41]]></ele></trkpt>
<trkpt lon="13.7258" lat="47.37984"><ele><![CDATA[1585.41]]></ele></trkpt>
<trkpt lon="13.72599" lat="47.37982"><ele><![CDATA[1583.46]]></ele></trkpt>
<trkpt lon="13.72613" lat="47.37985"><ele><![CDATA[1582.81]]></ele></trkpt>
<trkpt lon="13.72632" lat="47.37985"><ele><![CDATA[1581.78]]></ele></trkpt>
<trkpt lon="13.72656" lat="47.3799"><ele><![CDATA[1580.58]]></ele></trkpt>
<trkpt lon="13.72676" lat="47.3799"><ele><![CDATA[1578.38]]></ele></trkpt>
<trkpt lon="13.72772" lat="47.38003"><ele><![CDATA[1572.27]]></ele></trkpt>
<trkpt lon="13.72783" lat="47.38006"><ele><![CDATA[1570]]></ele></trkpt>
<trkpt lon="13.72795" lat="47.38006"><ele><![CDATA[1570]]></ele></trkpt>
<trkpt lon="13.72814" lat="47.38011"><ele><![CDATA[1568.76]]></ele></trkpt>
<trkpt lon="13.72837" lat="47.38006"><ele><![CDATA[1567.69]]></ele></trkpt>
<trkpt lon="13.72847" lat="47.38008"><ele><![CDATA[1567.3]]></ele></trkpt>
<trkpt lon="13.7285" lat="47.38009"><ele><![CDATA[1566.95]]></ele></trkpt>
<trkpt lon="13.72855" lat="47.38023"><ele><![CDATA[1565.51]]></ele></trkpt>
<trkpt lon="13.72851" lat="47.38025"><ele><![CDATA[1565.51]]></ele></trkpt>
<trkpt lon="13.72822" lat="47.38027"><ele><![CDATA[1563.22]]></ele></trkpt>
<trkpt lon="13.72804" lat="47.3804"><ele><![CDATA[1560.44]]></ele></trkpt>
<trkpt lon="13.72792" lat="47.38041"><ele><![CDATA[1559.24]]></ele></trkpt>
<trkpt lon="13.72781" lat="47.38045"><ele><![CDATA[1559.24]]></ele></trkpt>
<trkpt lon="13.72766" lat="47.38048"><ele><![CDATA[1555.83]]></ele></trkpt>
<trkpt lon="13.72728" lat="47.38047"><ele><![CDATA[1553.95]]></ele></trkpt>
<trkpt lon="13.72718" lat="47.38043"><ele><![CDATA[1552.94]]></ele></trkpt>
<trkpt lon="13.72712" lat="47.38046"><ele><![CDATA[1552.94]]></ele></trkpt>
<trkpt lon="13.72711" lat="47.38049"><ele><![CDATA[1551.74]]></ele></trkpt>
<trkpt lon="13.72717" lat="47.38055"><ele><![CDATA[1551.2]]></ele></trkpt>
<trkpt lon="13.72729" lat="47.38062"><ele><![CDATA[1550.37]]></ele></trkpt>
<trkpt lon="13.72755" lat="47.38068"><ele><![CDATA[1548.89]]></ele></trkpt>
<trkpt lon="13.72757" lat="47.38071"><ele><![CDATA[1548.89]]></ele></trkpt>
<trkpt lon="13.72756" lat="47.38074"><ele><![CDATA[1548.89]]></ele></trkpt>
<trkpt lon="13.72751" lat="47.38076"><ele><![CDATA[1548.89]]></ele></trkpt>
<trkpt lon="13.72726" lat="47.38077"><ele><![CDATA[1546.52]]></ele></trkpt>
<trkpt lon="13.72707" lat="47.38072"><ele><![CDATA[1544.37]]></ele></trkpt>
<trkpt lon="13.72694" lat="47.38072"><ele><![CDATA[1541.6]]></ele></trkpt>
<trkpt lon="13.72677" lat="47.38075"><ele><![CDATA[1540.72]]></ele></trkpt>
<trkpt lon="13.72645" lat="47.38073"><ele><![CDATA[1536.7]]></ele></trkpt>
<trkpt lon="13.72616" lat="47.3808"><ele><![CDATA[1533.57]]></ele></trkpt>
<trkpt lon="13.72606" lat="47.38085"><ele><![CDATA[1531.96]]></ele></trkpt>
<trkpt lon="13.72542" lat="47.38102"><ele><![CDATA[1529]]></ele></trkpt>
<trkpt lon="13.72531" lat="47.38101"><ele><![CDATA[1528.52]]></ele></trkpt>
<trkpt lon="13.72526" lat="47.38103"><ele><![CDATA[1528.03]]></ele></trkpt>
<trkpt lon="13.72524" lat="47.38104"><ele><![CDATA[1528.03]]></ele></trkpt>
<trkpt lon="13.7253" lat="47.38108"><ele><![CDATA[1527.52]]></ele></trkpt>
<trkpt lon="13.72563" lat="47.38109"><ele><![CDATA[1523.91]]></ele></trkpt>
<trkpt lon="13.72573" lat="47.38107"><ele><![CDATA[1522.52]]></ele></trkpt>
<trkpt lon="13.72616" lat="47.38114"><ele><![CDATA[1519.45]]></ele></trkpt>
<trkpt lon="13.7264" lat="47.3811"><ele><![CDATA[1519.03]]></ele></trkpt>
<trkpt lon="13.72647" lat="47.38112"><ele><![CDATA[1518.54]]></ele></trkpt>
<trkpt lon="13.72679" lat="47.38128"><ele><![CDATA[1515.18]]></ele></trkpt>
<trkpt lon="13.727" lat="47.38135"><ele><![CDATA[1513.25]]></ele></trkpt>
<trkpt lon="13.72712" lat="47.38151"><ele><![CDATA[1511.18]]></ele></trkpt>
<trkpt lon="13.7272" lat="47.38156"><ele><![CDATA[1510.66]]></ele></trkpt>
<trkpt lon="13.72734" lat="47.3816"><ele><![CDATA[1509.83]]></ele></trkpt>
<trkpt lon="13.72758" lat="47.38164"><ele><![CDATA[1508.66]]></ele></trkpt>
<trkpt lon="13.7277" lat="47.38168"><ele><![CDATA[1508.3]]></ele></trkpt>
<trkpt lon="13.72794" lat="47.3817"><ele><![CDATA[1505.78]]></ele></trkpt>
<trkpt lon="13.72807" lat="47.38175"><ele><![CDATA[1505.3]]></ele></trkpt>
<trkpt lon="13.7284" lat="47.38176"><ele><![CDATA[1503.03]]></ele></trkpt>
<trkpt lon="13.72873" lat="47.38181"><ele><![CDATA[1501.8]]></ele></trkpt>
<trkpt lon="13.72874" lat="47.38185"><ele><![CDATA[1501.32]]></ele></trkpt>
<trkpt lon="13.72874" lat="47.38188"><ele><![CDATA[1500.78]]></ele></trkpt>
<trkpt lon="13.72872" lat="47.3819"><ele><![CDATA[1500.78]]></ele></trkpt>
<trkpt lon="13.72853" lat="47.38194"><ele><![CDATA[1498.24]]></ele></trkpt>
<trkpt lon="13.72807" lat="47.38201"><ele><![CDATA[1492.9]]></ele></trkpt>
<trkpt lon="13.72784" lat="47.38209"><ele><![CDATA[1491.4]]></ele></trkpt>
<trkpt lon="13.72761" lat="47.38206"><ele><![CDATA[1490.4]]></ele></trkpt>
<trkpt lon="13.72748" lat="47.38208"><ele><![CDATA[1490.26]]></ele></trkpt>
<trkpt lon="13.72744" lat="47.38209"><ele><![CDATA[1488.2]]></ele></trkpt>
<trkpt lon="13.7275" lat="47.3822"><ele><![CDATA[1483.17]]></ele></trkpt>
<trkpt lon="13.7277" lat="47.38221"><ele><![CDATA[1485.53]]></ele></trkpt>
<trkpt lon="13.72779" lat="47.38227"><ele><![CDATA[1483.76]]></ele></trkpt>
<trkpt lon="13.72755" lat="47.38233"><ele><![CDATA[1481.23]]></ele></trkpt>
<trkpt lon="13.72725" lat="47.38235"><ele><![CDATA[1480.84]]></ele></trkpt>
<trkpt lon="13.72717" lat="47.38238"><ele><![CDATA[1480.59]]></ele></trkpt>
<trkpt lon="13.72699" lat="47.38236"><ele><![CDATA[1479.66]]></ele></trkpt>
<trkpt lon="13.72685" lat="47.38245"><ele><![CDATA[1477.77]]></ele></trkpt>
<trkpt lon="13.72686" lat="47.38249"><ele><![CDATA[1475.99]]></ele></trkpt>
<trkpt lon="13.72717" lat="47.38255"><ele><![CDATA[1473.26]]></ele></trkpt>
<trkpt lon="13.72719" lat="47.38257"><ele><![CDATA[1473.26]]></ele></trkpt>
<trkpt lon="13.72717" lat="47.38262"><ele><![CDATA[1472.6]]></ele></trkpt>
<trkpt lon="13.72692" lat="47.38263"><ele><![CDATA[1470.82]]></ele></trkpt>
<trkpt lon="13.72683" lat="47.38266"><ele><![CDATA[1469.37]]></ele></trkpt>
<trkpt lon="13.72681" lat="47.38266"><ele><![CDATA[1469.37]]></ele></trkpt>
<trkpt lon="13.72675" lat="47.38266"><ele><![CDATA[1468.77]]></ele></trkpt>
<trkpt lon="13.72561" lat="47.38275"><ele><![CDATA[1461.84]]></ele></trkpt>
<trkpt lon="13.72543" lat="47.38273"><ele><![CDATA[1461.38]]></ele></trkpt>
<trkpt lon="13.7247" lat="47.38255"><ele><![CDATA[1460.66]]></ele></trkpt>
<trkpt lon="13.72433" lat="47.38256"><ele><![CDATA[1459.31]]></ele></trkpt>
<trkpt lon="13.72414" lat="47.3825"><ele><![CDATA[1458.65]]></ele></trkpt>
<trkpt lon="13.724" lat="47.38243"><ele><![CDATA[1458.56]]></ele></trkpt>
<trkpt lon="13.72367" lat="47.38239"><ele><![CDATA[1459.11]]></ele></trkpt>
<trkpt lon="13.72355" lat="47.38235"><ele><![CDATA[1458.85]]></ele></trkpt>
<trkpt lon="13.72351" lat="47.38251"><ele><![CDATA[1455.14]]></ele></trkpt>
<trkpt lon="13.72365" lat="47.38256"><ele><![CDATA[1455.14]]></ele></trkpt>
<trkpt lon="13.72366" lat="47.3826"><ele><![CDATA[1451.47]]></ele></trkpt>
<trkpt lon="13.72356" lat="47.38268"><ele><![CDATA[1449.48]]></ele></trkpt>
<trkpt lon="13.7234" lat="47.3827"><ele><![CDATA[1447.41]]></ele></trkpt>
<trkpt lon="13.72329" lat="47.38268"><ele><![CDATA[1446.83]]></ele></trkpt>
<trkpt lon="13.72301" lat="47.38269"><ele><![CDATA[1445.09]]></ele></trkpt>
<trkpt lon="13.7228" lat="47.38273"><ele><![CDATA[1444.18]]></ele></trkpt>
<trkpt lon="13.72271" lat="47.38273"><ele><![CDATA[1443.7]]></ele></trkpt>
<trkpt lon="13.72248" lat="47.38268"><ele><![CDATA[1442.09]]></ele></trkpt>
<trkpt lon="13.7223" lat="47.38261"><ele><![CDATA[1437.17]]></ele></trkpt>
<trkpt lon="13.72209" lat="47.38259"><ele><![CDATA[1434.53]]></ele></trkpt>
<trkpt lon="13.722" lat="47.3826"><ele><![CDATA[1434.24]]></ele></trkpt>
<trkpt lon="13.72192" lat="47.38265"><ele><![CDATA[1434.15]]></ele></trkpt>
<trkpt lon="13.72162" lat="47.38269"><ele><![CDATA[1433.02]]></ele></trkpt>
<trkpt lon="13.72146" lat="47.38274"><ele><![CDATA[1430.61]]></ele></trkpt>
<trkpt lon="13.72133" lat="47.38282"><ele><![CDATA[1429.97]]></ele></trkpt>
<trkpt lon="13.72124" lat="47.38284"><ele><![CDATA[1427.84]]></ele></trkpt>
<trkpt lon="13.72089" lat="47.38285"><ele><![CDATA[1425.7]]></ele></trkpt>
<trkpt lon="13.72061" lat="47.3828"><ele><![CDATA[1425.03]]></ele></trkpt>
<trkpt lon="13.72043" lat="47.38285"><ele><![CDATA[1423.28]]></ele></trkpt>
<trkpt lon="13.72038" lat="47.38283"><ele><![CDATA[1423.28]]></ele></trkpt>
<trkpt lon="13.72027" lat="47.38287"><ele><![CDATA[1422.66]]></ele></trkpt>
<trkpt lon="13.72016" lat="47.38286"><ele><![CDATA[1422.26]]></ele></trkpt>
<trkpt lon="13.72008" lat="47.38289"><ele><![CDATA[1421.99]]></ele></trkpt>
<trkpt lon="13.7201" lat="47.38292"><ele><![CDATA[1421.59]]></ele></trkpt>
<trkpt lon="13.72009" lat="47.38295"><ele><![CDATA[1421.59]]></ele></trkpt>
<trkpt lon="13.72005" lat="47.38297"><ele><![CDATA[1421.06]]></ele></trkpt>
<trkpt lon="13.71999" lat="47.38297"><ele><![CDATA[1420.41]]></ele></trkpt>
<trkpt lon="13.71979" lat="47.38293"><ele><![CDATA[1417.35]]></ele></trkpt>
<trkpt lon="13.71897" lat="47.38293"><ele><![CDATA[1412.99]]></ele></trkpt>
<trkpt lon="13.71873" lat="47.38289"><ele><![CDATA[1413.28]]></ele></trkpt>
<trkpt lon="13.71859" lat="47.38281"><ele><![CDATA[1413.4]]></ele></trkpt>
<trkpt lon="13.71818" lat="47.38274"><ele><![CDATA[1413.8]]></ele></trkpt>
<trkpt lon="13.71808" lat="47.38275"><ele><![CDATA[1414.01]]></ele></trkpt>
<trkpt lon="13.71783" lat="47.38272"><ele><![CDATA[1414.37]]></ele></trkpt>
<trkpt lon="13.71761" lat="47.38281"><ele><![CDATA[1413.78]]></ele></trkpt>
<trkpt lon="13.71751" lat="47.38278"><ele><![CDATA[1412.89]]></ele></trkpt>
<trkpt lon="13.7169" lat="47.38272"><ele><![CDATA[1408.48]]></ele></trkpt>
<trkpt lon="13.71686" lat="47.38268"><ele><![CDATA[1408.22]]></ele></trkpt>
<trkpt lon="13.71644" lat="47.38258"><ele><![CDATA[1407.6]]></ele></trkpt>
<trkpt lon="13.71622" lat="47.38251"><ele><![CDATA[1407.1]]></ele></trkpt>
<trkpt lon="13.71582" lat="47.38251"><ele><![CDATA[1404.69]]></ele></trkpt>
<trkpt lon="13.71564" lat="47.38248"><ele><![CDATA[1403.8]]></ele></trkpt>
<trkpt lon="13.71543" lat="47.38251"><ele><![CDATA[1403.15]]></ele></trkpt>
<trkpt lon="13.71505" lat="47.38245"><ele><![CDATA[1403.15]]></ele></trkpt>
<trkpt lon="13.71491" lat="47.38254"><ele><![CDATA[1402.86]]></ele></trkpt>
<trkpt lon="13.71466" lat="47.38255"><ele><![CDATA[1401.93]]></ele></trkpt>
<trkpt lon="13.71443" lat="47.3826"><ele><![CDATA[1400.98]]></ele></trkpt>
<trkpt lon="13.7142" lat="47.38261"><ele><![CDATA[1400.01]]></ele></trkpt>
<trkpt lon="13.71394" lat="47.38254"><ele><![CDATA[1399.82]]></ele></trkpt>
<trkpt lon="13.71374" lat="47.38254"><ele><![CDATA[1399.87]]></ele></trkpt>
<trkpt lon="13.71348" lat="47.38265"><ele><![CDATA[1396.81]]></ele></trkpt>
<trkpt lon="13.71346" lat="47.3827"><ele><![CDATA[1395.69]]></ele></trkpt>
<trkpt lon="13.71338" lat="47.38276"><ele><![CDATA[1392.16]]></ele></trkpt>
<trkpt lon="13.71288" lat="47.3829"><ele><![CDATA[1385.21]]></ele></trkpt>
<trkpt lon="13.71258" lat="47.38295"><ele><![CDATA[1382.84]]></ele></trkpt>
<trkpt lon="13.7121" lat="47.38282"><ele><![CDATA[1383.19]]></ele></trkpt>
<trkpt lon="13.71178" lat="47.38276"><ele><![CDATA[1381.96]]></ele></trkpt>
<trkpt lon="13.71148" lat="47.38267"><ele><![CDATA[1381.14]]></ele></trkpt>
<trkpt lon="13.71124" lat="47.38262"><ele><![CDATA[1380.79]]></ele></trkpt>
<trkpt lon="13.71119" lat="47.38258"><ele><![CDATA[1380.62]]></ele></trkpt>
<trkpt lon="13.71081" lat="47.38251"><ele><![CDATA[1379.7]]></ele></trkpt>
<trkpt lon="13.71073" lat="47.38247"><ele><![CDATA[1379.37]]></ele></trkpt>
<trkpt lon="13.71027" lat="47.38244"><ele><![CDATA[1373.76]]></ele></trkpt>
<trkpt lon="13.71" lat="47.38239"><ele><![CDATA[1370.69]]></ele></trkpt>
<trkpt lon="13.70956" lat="47.38218"><ele><![CDATA[1369.26]]></ele></trkpt>
<trkpt lon="13.70949" lat="47.38217"><ele><![CDATA[1369.26]]></ele></trkpt>
<trkpt lon="13.70946" lat="47.38219"><ele><![CDATA[1369.15]]></ele></trkpt>
<trkpt lon="13.70946" lat="47.38221"><ele><![CDATA[1369]]></ele></trkpt>
<trkpt lon="13.70948" lat="47.38224"><ele><![CDATA[1368.79]]></ele></trkpt>
<trkpt lon="13.70951" lat="47.38225"><ele><![CDATA[1368.53]]></ele></trkpt>
<trkpt lon="13.7095" lat="47.38228"><ele><![CDATA[1368.27]]></ele></trkpt>
<trkpt lon="13.70943" lat="47.38229"><ele><![CDATA[1365.38]]></ele></trkpt>
<trkpt lon="13.7093" lat="47.38231"><ele><![CDATA[1363.34]]></ele></trkpt>
<trkpt lon="13.70925" lat="47.38228"><ele><![CDATA[1362.38]]></ele></trkpt>
<trkpt lon="13.70904" lat="47.38231"><ele><![CDATA[1360.17]]></ele></trkpt>
<trkpt lon="13.70897" lat="47.3823"><ele><![CDATA[1359.64]]></ele></trkpt>
<trkpt lon="13.70843" lat="47.38205"><ele><![CDATA[1356.56]]></ele></trkpt>
<trkpt lon="13.70831" lat="47.38197"><ele><![CDATA[1356.04]]></ele></trkpt>
<trkpt lon="13.70827" lat="47.38188"><ele><![CDATA[1355.28]]></ele></trkpt>
<trkpt lon="13.70822" lat="47.38183"><ele><![CDATA[1354.92]]></ele></trkpt>
<trkpt lon="13.70794" lat="47.38182"><ele><![CDATA[1353.53]]></ele></trkpt>
<trkpt lon="13.70782" lat="47.38184"><ele><![CDATA[1352.42]]></ele></trkpt>
<trkpt lon="13.70758" lat="47.38193"><ele><![CDATA[1349.55]]></ele></trkpt>
</trkseg>
</trk>
</gpx>
