<?xml version="1.0" encoding="UTF-8"?><gpx xmlns="http://www.topografix.com/GPX/1/1" creator="CONTWISE MAPS" xsi:schemaLocation="http://www.topografix.com/GPX/1/1 http://www.topografix.com/GPX/1/1/gpx.xsd http://www.topografix.com/GPX/gpx_overlay/0/3 http://www.topografix.com/GPX/gpx_overlay/0/3/gpx_overlay.xsd http://www.topografix.com/GPX/gpx_modified/0/1 http://www.topografix.com/GPX/gpx_modified/0/1/gpx_modified.xsd http://www.topografix.com/GPX/Private/TopoGrafix/0/3 http://www.topografix.com/GPX/Private/TopoGrafix/0/3/topografix.xsd" xmlns:xsi="http://www.w3.org/2001/XMLSchema-instance" version="1.1"><trk><name><![CDATA[403_pro_downhill__182369157]]></name><extensions><label xmlns="http://www.topografix.com/GPX/gpx_overlay/0/3"></label>
</extensions>
<trkseg><trkpt lon="13.72426" lat="47.37285"><ele><![CDATA[1819.74]]></ele></trkpt>
<trkpt lon="13.72424" lat="47.37288"><ele><![CDATA[1819.15]]></ele></trkpt>
<trkpt lon="13.72399" lat="47.37304"><ele><![CDATA[1805.52]]></ele></trkpt>
<trkpt lon="13.7236" lat="47.37334"><ele><![CDATA[1795]]></ele></trkpt>
<trkpt lon="13.72342" lat="47.3734"><ele><![CDATA[1793.44]]></ele></trkpt>
<trkpt lon="13.72326" lat="47.37342"><ele><![CDATA[1792.07]]></ele></trkpt>
<trkpt lon="13.7232" lat="47.37345"><ele><![CDATA[1791.51]]></ele></trkpt>
<trkpt lon="13.7232" lat="47.37349"><ele><![CDATA[1790.85]]></ele></trkpt>
<trkpt lon="13.72314" lat="47.37352"><ele><![CDATA[1790.08]]></ele></trkpt>
<trkpt lon="13.72303" lat="47.37352"><ele><![CDATA[1789.23]]></ele></trkpt>
<trkpt lon="13.72295" lat="47.37363"><ele><![CDATA[1787.4]]></ele></trkpt>
<trkpt lon="13.72277" lat="47.37363"><ele><![CDATA[1783.59]]></ele></trkpt>
<trkpt lon="13.72277" lat="47.37364"><ele><![CDATA[1783.59]]></ele></trkpt>
<trkpt lon="13.72278" lat="47.37368"><ele><![CDATA[1782.42]]></ele></trkpt>
<trkpt lon="13.72299" lat="47.37379"><ele><![CDATA[1777.38]]></ele></trkpt>
<trkpt lon="13.72302" lat="47.37383"><ele><![CDATA[1777.38]]></ele></trkpt>
<trkpt lon="13.72298" lat="47.37385"><ele><![CDATA[1774.74]]></ele></trkpt>
<trkpt lon="13.72288" lat="47.37383"><ele><![CDATA[1773.34]]></ele></trkpt>
<trkpt lon="13.72284" lat="47.37386"><ele><![CDATA[1771.85]]></ele></trkpt>
<trkpt lon="13.72287" lat="47.37392"><ele><![CDATA[1767.05]]></ele></trkpt>
<trkpt lon="13.72292" lat="47.37397"><ele><![CDATA[1767.05]]></ele></trkpt>
<trkpt lon="13.72302" lat="47.37415"><ele><![CDATA[1763.04]]></ele></trkpt>
<trkpt lon="13.72308" lat="47.3742"><ele><![CDATA[1762.01]]></ele></trkpt>
<trkpt lon="13.7235" lat="47.37439"><ele><![CDATA[1757.64]]></ele></trkpt>
<trkpt lon="13.72348" lat="47.37444"><ele><![CDATA[1756.75]]></ele></trkpt>
<trkpt lon="13.72302" lat="47.37445"><ele><![CDATA[1750.33]]></ele></trkpt>
<trkpt lon="13.723" lat="47.37457"><ele><![CDATA[1748.1]]></ele></trkpt>
<trkpt lon="13.72302" lat="47.3746"><ele><![CDATA[1748.1]]></ele></trkpt>
<trkpt lon="13.72312" lat="47.37466"><ele><![CDATA[1746.46]]></ele></trkpt>
<trkpt lon="13.72313" lat="47.37471"><ele><![CDATA[1744.36]]></ele></trkpt>
<trkpt lon="13.72308" lat="47.37472"><ele><![CDATA[1744.36]]></ele></trkpt>
<trkpt lon="13.723" lat="47.37468"><ele><![CDATA[1743.08]]></ele></trkpt>
<trkpt lon="13.72293" lat="47.37471"><ele><![CDATA[1737.36]]></ele></trkpt>
<trkpt lon="13.72284" lat="47.37486"><ele><![CDATA[1734.84]]></ele></trkpt>
<trkpt lon="13.72281" lat="47.37502"><ele><![CDATA[1731.69]]></ele></trkpt>
<trkpt lon="13.72291" lat="47.37505"><ele><![CDATA[1730.07]]></ele></trkpt>
<trkpt lon="13.72294" lat="47.3751"><ele><![CDATA[1729.21]]></ele></trkpt>
<trkpt lon="13.72291" lat="47.37512"><ele><![CDATA[1728.34]]></ele></trkpt>
<trkpt lon="13.72289" lat="47.37513"><ele><![CDATA[1728.34]]></ele></trkpt>
<trkpt lon="13.7223" lat="47.3751"><ele><![CDATA[1718.88]]></ele></trkpt>
<trkpt lon="13.72204" lat="47.37502"><ele><![CDATA[1712.65]]></ele></trkpt>
<trkpt lon="13.72175" lat="47.37497"><ele><![CDATA[1707.25]]></ele></trkpt>
<trkpt lon="13.72159" lat="47.37499"><ele><![CDATA[1704.31]]></ele></trkpt>
<trkpt lon="13.7214" lat="47.37498"><ele><![CDATA[1702.58]]></ele></trkpt>
<trkpt lon="13.72118" lat="47.37502"><ele><![CDATA[1700.73]]></ele></trkpt>
<trkpt lon="13.72108" lat="47.37502"><ele><![CDATA[1699.99]]></ele></trkpt>
<trkpt lon="13.72095" lat="47.37498"><ele><![CDATA[1699.41]]></ele></trkpt>
<trkpt lon="13.72091" lat="47.37501"><ele><![CDATA[1699.08]]></ele></trkpt>
<trkpt lon="13.72092" lat="47.37505"><ele><![CDATA[1698.68]]></ele></trkpt>
<trkpt lon="13.7211" lat="47.37512"><ele><![CDATA[1697.52]]></ele></trkpt>
<trkpt lon="13.72119" lat="47.37519"><ele><![CDATA[1695.24]]></ele></trkpt>
<trkpt lon="13.72143" lat="47.37525"><ele><![CDATA[1692.71]]></ele></trkpt>
<trkpt lon="13.72151" lat="47.37531"><ele><![CDATA[1690.75]]></ele></trkpt>
<trkpt lon="13.72159" lat="47.37534"><ele><![CDATA[1689.26]]></ele></trkpt>
<trkpt lon="13.72165" lat="47.3754"><ele><![CDATA[1685.7]]></ele></trkpt>
<trkpt lon="13.72163" lat="47.37548"><ele><![CDATA[1683.3]]></ele></trkpt>
<trkpt lon="13.72161" lat="47.37548"><ele><![CDATA[1683.3]]></ele></trkpt>
<trkpt lon="13.72162" lat="47.37548"><ele><![CDATA[1683.3]]></ele></trkpt>
<trkpt lon="13.72148" lat="47.37548"><ele><![CDATA[1681.5]]></ele></trkpt>
<trkpt lon="13.72099" lat="47.37534"><ele><![CDATA[1672.03]]></ele></trkpt>
<trkpt lon="13.72064" lat="47.37533"><ele><![CDATA[1670.48]]></ele></trkpt>
<trkpt lon="13.72028" lat="47.3752"><ele><![CDATA[1671.48]]></ele></trkpt>
<trkpt lon="13.72019" lat="47.37519"><ele><![CDATA[1671.62]]></ele></trkpt>
<trkpt lon="13.72013" lat="47.3752"><ele><![CDATA[1671.62]]></ele></trkpt>
<trkpt lon="13.72006" lat="47.37517"><ele><![CDATA[1670.93]]></ele></trkpt>
<trkpt lon="13.71934" lat="47.37556"><ele><![CDATA[1645.31]]></ele></trkpt>
<trkpt lon="13.71921" lat="47.37564"><ele><![CDATA[1644]]></ele></trkpt>
<trkpt lon="13.71912" lat="47.37573"><ele><![CDATA[1643.17]]></ele></trkpt>
<trkpt lon="13.71882" lat="47.37591"><ele><![CDATA[1642.74]]></ele></trkpt>
<trkpt lon="13.71851" lat="47.37603"><ele><![CDATA[1642.8]]></ele></trkpt>
<trkpt lon="13.7183" lat="47.376"><ele><![CDATA[1642.5]]></ele></trkpt>
<trkpt lon="13.71823" lat="47.37598"><ele><![CDATA[1640.6]]></ele></trkpt>
<trkpt lon="13.71822" lat="47.376"><ele><![CDATA[1640.6]]></ele></trkpt>
<trkpt lon="13.71822" lat="47.37598"><ele><![CDATA[1640.6]]></ele></trkpt>
<trkpt lon="13.71817" lat="47.37615"><ele><![CDATA[1637.36]]></ele></trkpt>
<trkpt lon="13.71824" lat="47.37618"><ele><![CDATA[1627.28]]></ele></trkpt>
<trkpt lon="13.71824" lat="47.37623"><ele><![CDATA[1627.28]]></ele></trkpt>
<trkpt lon="13.71827" lat="47.37629"><ele><![CDATA[1627.28]]></ele></trkpt>
<trkpt lon="13.71826" lat="47.37633"><ele><![CDATA[1621.49]]></ele></trkpt>
<trkpt lon="13.71822" lat="47.37636"><ele><![CDATA[1621.49]]></ele></trkpt>
<trkpt lon="13.71782" lat="47.37636"><ele><![CDATA[1612.55]]></ele></trkpt>
<trkpt lon="13.71781" lat="47.37639"><ele><![CDATA[1612.55]]></ele></trkpt>
<trkpt lon="13.71785" lat="47.37647"><ele><![CDATA[1604.99]]></ele></trkpt>
<trkpt lon="13.71784" lat="47.3765"><ele><![CDATA[1604.99]]></ele></trkpt>
<trkpt lon="13.71779" lat="47.37652"><ele><![CDATA[1603.19]]></ele></trkpt>
<trkpt lon="13.71738" lat="47.37656"><ele><![CDATA[1594.29]]></ele></trkpt>
<trkpt lon="13.71736" lat="47.37664"><ele><![CDATA[1588.2]]></ele></trkpt>
<trkpt lon="13.71708" lat="47.37681"><ele><![CDATA[1582.79]]></ele></trkpt>
<trkpt lon="13.71703" lat="47.37689"><ele><![CDATA[1582.79]]></ele></trkpt>
<trkpt lon="13.71701" lat="47.37699"><ele><![CDATA[1577.88]]></ele></trkpt>
<trkpt lon="13.71696" lat="47.37701"><ele><![CDATA[1577.88]]></ele></trkpt>
<trkpt lon="13.71663" lat="47.37697"><ele><![CDATA[1570.67]]></ele></trkpt>
<trkpt lon="13.71656" lat="47.37707"><ele><![CDATA[1567.52]]></ele></trkpt>
<trkpt lon="13.7164" lat="47.37719"><ele><![CDATA[1560.32]]></ele></trkpt>
<trkpt lon="13.7159" lat="47.37744"><ele><![CDATA[1551.06]]></ele></trkpt>
<trkpt lon="13.7157" lat="47.37757"><ele><![CDATA[1548.82]]></ele></trkpt>
<trkpt lon="13.71563" lat="47.37768"><ele><![CDATA[1548.19]]></ele></trkpt>
<trkpt lon="13.71558" lat="47.37787"><ele><![CDATA[1547.14]]></ele></trkpt>
<trkpt lon="13.71547" lat="47.37818"><ele><![CDATA[1544.45]]></ele></trkpt>
<trkpt lon="13.71546" lat="47.37819"><ele><![CDATA[1544.45]]></ele></trkpt>
<trkpt lon="13.71537" lat="47.37824"><ele><![CDATA[1544.17]]></ele></trkpt>
<trkpt lon="13.71501" lat="47.37824"><ele><![CDATA[1542.33]]></ele></trkpt>
<trkpt lon="13.71486" lat="47.37818"><ele><![CDATA[1541.38]]></ele></trkpt>
<trkpt lon="13.71477" lat="47.37817"><ele><![CDATA[1541.03]]></ele></trkpt>
<trkpt lon="13.71466" lat="47.3782"><ele><![CDATA[1540.1]]></ele></trkpt>
<trkpt lon="13.71446" lat="47.37832"><ele><![CDATA[1536.85]]></ele></trkpt>
<trkpt lon="13.71444" lat="47.3784"><ele><![CDATA[1535.79]]></ele></trkpt>
<trkpt lon="13.71446" lat="47.3785"><ele><![CDATA[1534.64]]></ele></trkpt>
<trkpt lon="13.71431" lat="47.37856"><ele><![CDATA[1529.7]]></ele></trkpt>
<trkpt lon="13.71403" lat="47.3786"><ele><![CDATA[1524.91]]></ele></trkpt>
<trkpt lon="13.71406" lat="47.37881"><ele><![CDATA[1519.52]]></ele></trkpt>
<trkpt lon="13.71402" lat="47.37886"><ele><![CDATA[1518.08]]></ele></trkpt>
<trkpt lon="13.71398" lat="47.37887"><ele><![CDATA[1516.49]]></ele></trkpt>
<trkpt lon="13.7139" lat="47.37884"><ele><![CDATA[1514.75]]></ele></trkpt>
<trkpt lon="13.71382" lat="47.37886"><ele><![CDATA[1512.88]]></ele></trkpt>
<trkpt lon="13.7137" lat="47.37892"><ele><![CDATA[1508.83]]></ele></trkpt>
<trkpt lon="13.71351" lat="47.37892"><ele><![CDATA[1500.27]]></ele></trkpt>
<trkpt lon="13.71341" lat="47.379"><ele><![CDATA[1496.28]]></ele></trkpt>
<trkpt lon="13.71315" lat="47.37914"><ele><![CDATA[1489.46]]></ele></trkpt>
<trkpt lon="13.71297" lat="47.37931"><ele><![CDATA[1490.85]]></ele></trkpt>
<trkpt lon="13.71296" lat="47.3794"><ele><![CDATA[1490.54]]></ele></trkpt>
<trkpt lon="13.7128" lat="47.37942"><ele><![CDATA[1489.48]]></ele></trkpt>
<trkpt lon="13.71277" lat="47.37947"><ele><![CDATA[1488.7]]></ele></trkpt>
<trkpt lon="13.71267" lat="47.37951"><ele><![CDATA[1486.78]]></ele></trkpt>
<trkpt lon="13.71264" lat="47.37958"><ele><![CDATA[1484.48]]></ele></trkpt>
<trkpt lon="13.71255" lat="47.37958"><ele><![CDATA[1483.22]]></ele></trkpt>
<trkpt lon="13.71249" lat="47.37962"><ele><![CDATA[1481.88]]></ele></trkpt>
<trkpt lon="13.71251" lat="47.37965"><ele><![CDATA[1480.45]]></ele></trkpt>
<trkpt lon="13.71251" lat="47.3797"><ele><![CDATA[1478.91]]></ele></trkpt>
<trkpt lon="13.71234" lat="47.37971"><ele><![CDATA[1477.28]]></ele></trkpt>
<trkpt lon="13.71219" lat="47.37977"><ele><![CDATA[1468.65]]></ele></trkpt>
<trkpt lon="13.71167" lat="47.38004"><ele><![CDATA[1457.65]]></ele></trkpt>
<trkpt lon="13.71163" lat="47.38011"><ele><![CDATA[1456.36]]></ele></trkpt>
<trkpt lon="13.71163" lat="47.38023"><ele><![CDATA[1453.26]]></ele></trkpt>
<trkpt lon="13.71142" lat="47.38024"><ele><![CDATA[1448.57]]></ele></trkpt>
<trkpt lon="13.71139" lat="47.38026"><ele><![CDATA[1446.64]]></ele></trkpt>
<trkpt lon="13.71145" lat="47.38032"><ele><![CDATA[1444.53]]></ele></trkpt>
<trkpt lon="13.71145" lat="47.38038"><ele><![CDATA[1442.24]]></ele></trkpt>
<trkpt lon="13.71134" lat="47.38043"><ele><![CDATA[1437.33]]></ele></trkpt>
<trkpt lon="13.71136" lat="47.38051"><ele><![CDATA[1429.72]]></ele></trkpt>
<trkpt lon="13.71146" lat="47.38056"><ele><![CDATA[1424.29]]></ele></trkpt>
<trkpt lon="13.71141" lat="47.38065"><ele><![CDATA[1415.86]]></ele></trkpt>
<trkpt lon="13.71143" lat="47.38074"><ele><![CDATA[1413.21]]></ele></trkpt>
<trkpt lon="13.71137" lat="47.38078"><ele><![CDATA[1413.21]]></ele></trkpt>
<trkpt lon="13.7114" lat="47.38088"><ele><![CDATA[1406.02]]></ele></trkpt>
<trkpt lon="13.71145" lat="47.38092"><ele><![CDATA[1403.84]]></ele></trkpt>
<trkpt lon="13.71141" lat="47.38097"><ele><![CDATA[1400.7]]></ele></trkpt>
<trkpt lon="13.71114" lat="47.38104"><ele><![CDATA[1394.4]]></ele></trkpt>
<trkpt lon="13.71066" lat="47.38108"><ele><![CDATA[1389.96]]></ele></trkpt>
<trkpt lon="13.71039" lat="47.38104"><ele><![CDATA[1385.33]]></ele></trkpt>
<trkpt lon="13.71029" lat="47.38113"><ele><![CDATA[1382]]></ele></trkpt>
<trkpt lon="13.71002" lat="47.38111"><ele><![CDATA[1380.23]]></ele></trkpt>
<trkpt lon="13.70995" lat="47.38117"><ele><![CDATA[1378.26]]></ele></trkpt>
<trkpt lon="13.7098" lat="47.38114"><ele><![CDATA[1378.26]]></ele></trkpt>
<trkpt lon="13.70943" lat="47.38117"><ele><![CDATA[1369.65]]></ele></trkpt>
<trkpt lon="13.70937" lat="47.38119"><ele><![CDATA[1369.65]]></ele></trkpt>
<trkpt lon="13.7093" lat="47.38127"><ele><![CDATA[1366.31]]></ele></trkpt>
<trkpt lon="13.70898" lat="47.38128"><ele><![CDATA[1361.43]]></ele></trkpt>
<trkpt lon="13.7088" lat="47.38133"><ele><![CDATA[1359.32]]></ele></trkpt>
<trkpt lon="13.70841" lat="47.3813"><ele><![CDATA[1356.88]]></ele></trkpt>
<trkpt lon="13.7083" lat="47.38133"><ele><![CDATA[1356.58]]></ele></trkpt>
<trkpt lon="13.70815" lat="47.38141"><ele><![CDATA[1355.91]]></ele></trkpt>
<trkpt lon="13.70795" lat="47.38141"><ele><![CDATA[1354.31]]></ele></trkpt>
<trkpt lon="13.70791" lat="47.38151"><ele><![CDATA[1353.27]]></ele></trkpt>
<trkpt lon="13.7077" lat="47.38154"><ele><![CDATA[1351.51]]></ele></trkpt>
<trkpt lon="13.70765" lat="47.38159"><ele><![CDATA[1350.97]]></ele></trkpt>
<trkpt lon="13.70756" lat="47.38195"><ele><![CDATA[1351.65]]></ele></trkpt>
<trkpt lon="13.7075" lat="47.382"><ele><![CDATA[1350.17]]></ele></trkpt>
</trkseg>
</trk>
</gpx>
