<?xml version="1.0" encoding="UTF-8"?><gpx xmlns="http://www.topografix.com/GPX/1/1" creator="CONTWISE MAPS" xsi:schemaLocation="http://www.topografix.com/GPX/1/1 http://www.topografix.com/GPX/1/1/gpx.xsd http://www.topografix.com/GPX/gpx_overlay/0/3 http://www.topografix.com/GPX/gpx_overlay/0/3/gpx_overlay.xsd http://www.topografix.com/GPX/gpx_modified/0/1 http://www.topografix.com/GPX/gpx_modified/0/1/gpx_modified.xsd http://www.topografix.com/GPX/Private/TopoGrafix/0/3 http://www.topografix.com/GPX/Private/TopoGrafix/0/3/topografix.xsd" xmlns:xsi="http://www.w3.org/2001/XMLSchema-instance" version="1.1"><trk><name><![CDATA[kessler_line__407_182369169]]></name><extensions><label xmlns="http://www.topografix.com/GPX/gpx_overlay/0/3"></label>
</extensions>
<trkseg><trkpt lon="13.707518" lat="47.382005"><ele><![CDATA[1350.092818]]></ele></trkpt>
<trkpt lon="13.707486" lat="47.382"><ele><![CDATA[1349.827791]]></ele></trkpt>
<trkpt lon="13.707459" lat="47.381985"><ele><![CDATA[1349.701311]]></ele></trkpt>
<trkpt lon="13.70744" lat="47.381974"><ele><![CDATA[1349.613568]]></ele></trkpt>
<trkpt lon="13.707382" lat="47.381931"><ele><![CDATA[1349.384159]]></ele></trkpt>
<trkpt lon="13.707292" lat="47.381862"><ele><![CDATA[1348.981833]]></ele></trkpt>
<trkpt lon="13.707215" lat="47.381811"><ele><![CDATA[1348.434243]]></ele></trkpt>
<trkpt lon="13.707085" lat="47.381749"><ele><![CDATA[1347.276738]]></ele></trkpt>
<trkpt lon="13.706954" lat="47.381689"><ele><![CDATA[1346.000993]]></ele></trkpt>
<trkpt lon="13.706843" lat="47.381635"><ele><![CDATA[1344.941358]]></ele></trkpt>
<trkpt lon="13.706723" lat="47.381569"><ele><![CDATA[1344.002806]]></ele></trkpt>
<trkpt lon="13.706601" lat="47.381512"><ele><![CDATA[1343.139178]]></ele></trkpt>
<trkpt lon="13.706459" lat="47.381454"><ele><![CDATA[1342.028371]]></ele></trkpt>
<trkpt lon="13.706311" lat="47.381389"><ele><![CDATA[1341.096075]]></ele></trkpt>
<trkpt lon="13.706195" lat="47.381339"><ele><![CDATA[1340.385458]]></ele></trkpt>
<trkpt lon="13.70608" lat="47.381291"><ele><![CDATA[1339.614697]]></ele></trkpt>
<trkpt lon="13.706002" lat="47.381264"><ele><![CDATA[1339.017196]]></ele></trkpt>
<trkpt lon="13.705934" lat="47.381262"><ele><![CDATA[1338.303316]]></ele></trkpt>
<trkpt lon="13.70583" lat="47.381274"><ele><![CDATA[1337.14644]]></ele></trkpt>
<trkpt lon="13.705709" lat="47.381295"><ele><![CDATA[1335.666762]]></ele></trkpt>
<trkpt lon="13.705138" lat="47.381249"><ele><![CDATA[1334.1674]]></ele></trkpt>
<trkpt lon="13.705074" lat="47.381285"><ele><![CDATA[1333.931533]]></ele></trkpt>
<trkpt lon="13.705005" lat="47.381439"><ele><![CDATA[1332.086211]]></ele></trkpt>
<trkpt lon="13.704991" lat="47.381475"><ele><![CDATA[1331.3097]]></ele></trkpt>
<trkpt lon="13.704974" lat="47.381496"><ele><![CDATA[1330.789855]]></ele></trkpt>
<trkpt lon="13.704941" lat="47.381521"><ele><![CDATA[1330.138071]]></ele></trkpt>
<trkpt lon="13.704896" lat="47.381536"><ele><![CDATA[1329.583246]]></ele></trkpt>
<trkpt lon="13.704847" lat="47.381539"><ele><![CDATA[1329.247181]]></ele></trkpt>
<trkpt lon="13.704768" lat="47.381535"><ele><![CDATA[1328.996318]]></ele></trkpt>
<trkpt lon="13.70464" lat="47.38155"><ele><![CDATA[1328.236694]]></ele></trkpt>
<trkpt lon="13.704555" lat="47.381563"><ele><![CDATA[1327.744725]]></ele></trkpt>
<trkpt lon="13.704509" lat="47.381575"><ele><![CDATA[1327.335616]]></ele></trkpt>
<trkpt lon="13.704424" lat="47.381593"><ele><![CDATA[1326.689547]]></ele></trkpt>
<trkpt lon="13.704369" lat="47.381605"><ele><![CDATA[1326.180184]]></ele></trkpt>
<trkpt lon="13.704314" lat="47.381617"><ele><![CDATA[1325.610626]]></ele></trkpt>
<trkpt lon="13.704257" lat="47.381633"><ele><![CDATA[1324.770113]]></ele></trkpt>
<trkpt lon="13.704205" lat="47.381652"><ele><![CDATA[1323.912409]]></ele></trkpt>
<trkpt lon="13.704166" lat="47.38168"><ele><![CDATA[1322.764307]]></ele></trkpt>
<trkpt lon="13.704133" lat="47.381702"><ele><![CDATA[1321.820323]]></ele></trkpt>
<trkpt lon="13.704097" lat="47.381713"><ele><![CDATA[1321.282559]]></ele></trkpt>
<trkpt lon="13.704069" lat="47.381711"><ele><![CDATA[1321.266044]]></ele></trkpt>
<trkpt lon="13.704055" lat="47.381706"><ele><![CDATA[1321.359332]]></ele></trkpt>
<trkpt lon="13.704008" lat="47.38169"><ele><![CDATA[1321.62465]]></ele></trkpt>
<trkpt lon="13.70397" lat="47.38168"><ele><![CDATA[1321.740067]]></ele></trkpt>
<trkpt lon="13.703898" lat="47.381674"><ele><![CDATA[1321.528403]]></ele></trkpt>
<trkpt lon="13.703836" lat="47.381682"><ele><![CDATA[1320.821904]]></ele></trkpt>
<trkpt lon="13.703795" lat="47.381688"><ele><![CDATA[1320.377082]]></ele></trkpt>
<trkpt lon="13.703753" lat="47.381692"><ele><![CDATA[1320.032266]]></ele></trkpt>
<trkpt lon="13.703719" lat="47.38169"><ele><![CDATA[1319.886133]]></ele></trkpt>
<trkpt lon="13.703668" lat="47.381688"><ele><![CDATA[1319.667935]]></ele></trkpt>
<trkpt lon="13.703636" lat="47.381679"><ele><![CDATA[1319.76373]]></ele></trkpt>
<trkpt lon="13.703585" lat="47.381654"><ele><![CDATA[1320.203157]]></ele></trkpt>
<trkpt lon="13.703543" lat="47.381619"><ele><![CDATA[1320.982402]]></ele></trkpt>
<trkpt lon="13.703481" lat="47.381579"><ele><![CDATA[1321.350457]]></ele></trkpt>
<trkpt lon="13.703447" lat="47.381568"><ele><![CDATA[1321.349776]]></ele></trkpt>
<trkpt lon="13.703416" lat="47.381566"><ele><![CDATA[1321.215699]]></ele></trkpt>
<trkpt lon="13.703357" lat="47.381565"><ele><![CDATA[1320.950891]]></ele></trkpt>
<trkpt lon="13.703311" lat="47.381579"><ele><![CDATA[1320.545699]]></ele></trkpt>
<trkpt lon="13.703289" lat="47.381601"><ele><![CDATA[1320.086347]]></ele></trkpt>
<trkpt lon="13.703283" lat="47.381622"><ele><![CDATA[1319.658453]]></ele></trkpt>
<trkpt lon="13.703286" lat="47.381638"><ele><![CDATA[1319.234415]]></ele></trkpt>
<trkpt lon="13.703288" lat="47.381657"><ele><![CDATA[1318.756276]]></ele></trkpt>
<trkpt lon="13.703276" lat="47.381671"><ele><![CDATA[1318.388765]]></ele></trkpt>
<trkpt lon="13.703252" lat="47.381687"><ele><![CDATA[1317.93479]]></ele></trkpt>
<trkpt lon="13.703219" lat="47.38169"><ele><![CDATA[1317.782926]]></ele></trkpt>
<trkpt lon="13.703187" lat="47.381682"><ele><![CDATA[1317.908561]]></ele></trkpt>
<trkpt lon="13.703141" lat="47.381654"><ele><![CDATA[1318.44654]]></ele></trkpt>
<trkpt lon="13.703116" lat="47.381639"><ele><![CDATA[1318.729581]]></ele></trkpt>
<trkpt lon="13.703093" lat="47.381629"><ele><![CDATA[1318.898315]]></ele></trkpt>
<trkpt lon="13.70305" lat="47.38162"><ele><![CDATA[1318.998489]]></ele></trkpt>
<trkpt lon="13.703011" lat="47.38163"><ele><![CDATA[1318.696274]]></ele></trkpt>
<trkpt lon="13.702988" lat="47.381652"><ele><![CDATA[1318.176468]]></ele></trkpt>
<trkpt lon="13.702994" lat="47.381678"><ele><![CDATA[1317.610809]]></ele></trkpt>
<trkpt lon="13.703027" lat="47.381714"><ele><![CDATA[1316.844476]]></ele></trkpt>
<trkpt lon="13.703083" lat="47.381762"><ele><![CDATA[1315.851917]]></ele></trkpt>
<trkpt lon="13.703141" lat="47.381788"><ele><![CDATA[1315.329353]]></ele></trkpt>
<trkpt lon="13.703158" lat="47.381796"><ele><![CDATA[1315.129354]]></ele></trkpt>
<trkpt lon="13.70321" lat="47.381811"><ele><![CDATA[1314.740446]]></ele></trkpt>
<trkpt lon="13.703249" lat="47.38182"><ele><![CDATA[1314.512139]]></ele></trkpt>
<trkpt lon="13.70332" lat="47.38183"><ele><![CDATA[1314.275152]]></ele></trkpt>
<trkpt lon="13.70335" lat="47.381849"><ele><![CDATA[1313.685699]]></ele></trkpt>
<trkpt lon="13.703353" lat="47.381872"><ele><![CDATA[1312.720978]]></ele></trkpt>
<trkpt lon="13.703335" lat="47.38189"><ele><![CDATA[1311.988382]]></ele></trkpt>
<trkpt lon="13.703302" lat="47.381897"><ele><![CDATA[1311.707905]]></ele></trkpt>
<trkpt lon="13.703231" lat="47.381903"><ele><![CDATA[1311.532117]]></ele></trkpt>
<trkpt lon="13.703138" lat="47.381914"><ele><![CDATA[1311.278659]]></ele></trkpt>
<trkpt lon="13.703063" lat="47.381928"><ele><![CDATA[1310.872587]]></ele></trkpt>
<trkpt lon="13.703018" lat="47.381939"><ele><![CDATA[1310.568373]]></ele></trkpt>
<trkpt lon="13.702991" lat="47.381957"><ele><![CDATA[1309.997904]]></ele></trkpt>
<trkpt lon="13.702951" lat="47.381974"><ele><![CDATA[1309.546788]]></ele></trkpt>
<trkpt lon="13.702912" lat="47.381975"><ele><![CDATA[1309.555642]]></ele></trkpt>
<trkpt lon="13.702875" lat="47.381974"><ele><![CDATA[1309.632018]]></ele></trkpt>
<trkpt lon="13.702812" lat="47.381974"><ele><![CDATA[1309.796409]]></ele></trkpt>
<trkpt lon="13.702772" lat="47.381972"><ele><![CDATA[1309.820843]]></ele></trkpt>
<trkpt lon="13.702678" lat="47.381966"><ele><![CDATA[1309.332479]]></ele></trkpt>
<trkpt lon="13.702599" lat="47.381965"><ele><![CDATA[1308.741975]]></ele></trkpt>
<trkpt lon="13.702523" lat="47.381973"><ele><![CDATA[1307.95791]]></ele></trkpt>
<trkpt lon="13.702468" lat="47.381991"><ele><![CDATA[1306.901464]]></ele></trkpt>
<trkpt lon="13.702428" lat="47.381996"><ele><![CDATA[1306.253192]]></ele></trkpt>
<trkpt lon="13.702365" lat="47.382005"><ele><![CDATA[1304.912743]]></ele></trkpt>
<trkpt lon="13.702286" lat="47.382008"><ele><![CDATA[1303.439364]]></ele></trkpt>
<trkpt lon="13.702206" lat="47.382"><ele><![CDATA[1302.39412]]></ele></trkpt>
<trkpt lon="13.702153" lat="47.382001"><ele><![CDATA[1301.465321]]></ele></trkpt>
<trkpt lon="13.70213" lat="47.382019"><ele><![CDATA[1300.428773]]></ele></trkpt>
<trkpt lon="13.702128" lat="47.382038"><ele><![CDATA[1299.535245]]></ele></trkpt>
<trkpt lon="13.702136" lat="47.382052"><ele><![CDATA[1299.090528]]></ele></trkpt>
<trkpt lon="13.702161" lat="47.382063"><ele><![CDATA[1299.019922]]></ele></trkpt>
<trkpt lon="13.702187" lat="47.382071"><ele><![CDATA[1299.11408]]></ele></trkpt>
<trkpt lon="13.702241" lat="47.382095"><ele><![CDATA[1298.948656]]></ele></trkpt>
<trkpt lon="13.702315" lat="47.38212"><ele><![CDATA[1299.092155]]></ele></trkpt>
<trkpt lon="13.702425" lat="47.382134"><ele><![CDATA[1300.48923]]></ele></trkpt>
<trkpt lon="13.702521" lat="47.382145"><ele><![CDATA[1301.092089]]></ele></trkpt>
<trkpt lon="13.702628" lat="47.382161"><ele><![CDATA[1301.253596]]></ele></trkpt>
<trkpt lon="13.702738" lat="47.382177"><ele><![CDATA[1301.440337]]></ele></trkpt>
<trkpt lon="13.702769" lat="47.382183"><ele><![CDATA[1301.41498]]></ele></trkpt>
<trkpt lon="13.702817" lat="47.382199"><ele><![CDATA[1300.735143]]></ele></trkpt>
<trkpt lon="13.702855" lat="47.382213"><ele><![CDATA[1299.912956]]></ele></trkpt>
<trkpt lon="13.702926" lat="47.382247"><ele><![CDATA[1298.105633]]></ele></trkpt>
<trkpt lon="13.702993" lat="47.382277"><ele><![CDATA[1296.339541]]></ele></trkpt>
<trkpt lon="13.703032" lat="47.382321"><ele><![CDATA[1294.061]]></ele></trkpt>
<trkpt lon="13.70303" lat="47.382351"><ele><![CDATA[1292.524441]]></ele></trkpt>
<trkpt lon="13.703019" lat="47.382369"><ele><![CDATA[1291.653549]]></ele></trkpt>
<trkpt lon="13.703006" lat="47.382377"><ele><![CDATA[1291.265301]]></ele></trkpt>
<trkpt lon="13.702976" lat="47.382385"><ele><![CDATA[1290.884983]]></ele></trkpt>
<trkpt lon="13.702934" lat="47.382375"><ele><![CDATA[1291.468503]]></ele></trkpt>
<trkpt lon="13.702878" lat="47.382352"><ele><![CDATA[1292.806001]]></ele></trkpt>
<trkpt lon="13.702843" lat="47.382346"><ele><![CDATA[1293.256896]]></ele></trkpt>
<trkpt lon="13.702757" lat="47.382342"><ele><![CDATA[1293.366947]]></ele></trkpt>
<trkpt lon="13.702702" lat="47.382335"><ele><![CDATA[1293.308762]]></ele></trkpt>
<trkpt lon="13.702647" lat="47.382323"><ele><![CDATA[1293.464685]]></ele></trkpt>
<trkpt lon="13.702608" lat="47.382328"><ele><![CDATA[1292.83099]]></ele></trkpt>
<trkpt lon="13.702586" lat="47.382345"><ele><![CDATA[1291.735708]]></ele></trkpt>
<trkpt lon="13.702585" lat="47.382376"><ele><![CDATA[1290.021647]]></ele></trkpt>
<trkpt lon="13.702613" lat="47.382396"><ele><![CDATA[1289.178046]]></ele></trkpt>
<trkpt lon="13.70266" lat="47.38242"><ele><![CDATA[1288.234116]]></ele></trkpt>
<trkpt lon="13.702677" lat="47.382441"><ele><![CDATA[1287.215071]]></ele></trkpt>
<trkpt lon="13.702672" lat="47.382458"><ele><![CDATA[1286.208244]]></ele></trkpt>
<trkpt lon="13.702658" lat="47.382469"><ele><![CDATA[1285.480577]]></ele></trkpt>
<trkpt lon="13.702636" lat="47.382472"><ele><![CDATA[1285.095735]]></ele></trkpt>
<trkpt lon="13.702606" lat="47.382472"><ele><![CDATA[1284.817259]]></ele></trkpt>
<trkpt lon="13.70245" lat="47.38247"><ele><![CDATA[1283.41159]]></ele></trkpt>
<trkpt lon="13.702342" lat="47.382461"><ele><![CDATA[1282.201994]]></ele></trkpt>
<trkpt lon="13.702295" lat="47.382457"><ele><![CDATA[1281.628297]]></ele></trkpt>
<trkpt lon="13.70228" lat="47.382457"><ele><![CDATA[1281.356019]]></ele></trkpt>
<trkpt lon="13.702269" lat="47.382461"><ele><![CDATA[1280.988485]]></ele></trkpt>
<trkpt lon="13.702267" lat="47.382472"><ele><![CDATA[1280.3832]]></ele></trkpt>
<trkpt lon="13.702273" lat="47.382501"><ele><![CDATA[1279.086302]]></ele></trkpt>
<trkpt lon="13.702379" lat="47.382626"><ele><![CDATA[1274.406988]]></ele></trkpt>
<trkpt lon="13.702474" lat="47.382699"><ele><![CDATA[1271.693216]]></ele></trkpt>
<trkpt lon="13.702598" lat="47.382763"><ele><![CDATA[1269.408347]]></ele></trkpt>
<trkpt lon="13.702609" lat="47.382772"><ele><![CDATA[1269.02043]]></ele></trkpt>
<trkpt lon="13.702612" lat="47.382783"><ele><![CDATA[1268.467964]]></ele></trkpt>
<trkpt lon="13.702609" lat="47.382792"><ele><![CDATA[1267.960537]]></ele></trkpt>
<trkpt lon="13.702602" lat="47.382798"><ele><![CDATA[1267.564071]]></ele></trkpt>
<trkpt lon="13.702586" lat="47.382802"><ele><![CDATA[1267.221505]]></ele></trkpt>
<trkpt lon="13.7025" lat="47.382797"><ele><![CDATA[1266.822024]]></ele></trkpt>
<trkpt lon="13.702188" lat="47.382794"><ele><![CDATA[1264.131292]]></ele></trkpt>
<trkpt lon="13.702057" lat="47.38278"><ele><![CDATA[1263.295965]]></ele></trkpt>
<trkpt lon="13.702023" lat="47.382769"><ele><![CDATA[1263.411568]]></ele></trkpt>
<trkpt lon="13.702" lat="47.382764"><ele><![CDATA[1263.386455]]></ele></trkpt>
<trkpt lon="13.701985" lat="47.382765"><ele><![CDATA[1263.158672]]></ele></trkpt>
<trkpt lon="13.701974" lat="47.382771"><ele><![CDATA[1262.721777]]></ele></trkpt>
<trkpt lon="13.701968" lat="47.382785"><ele><![CDATA[1261.948946]]></ele></trkpt>
<trkpt lon="13.701971" lat="47.382801"><ele><![CDATA[1261.19742]]></ele></trkpt>
<trkpt lon="13.701998" lat="47.382825"><ele><![CDATA[1260.391123]]></ele></trkpt>
<trkpt lon="13.702026" lat="47.382842"><ele><![CDATA[1259.906838]]></ele></trkpt>
<trkpt lon="13.702029" lat="47.38285"><ele><![CDATA[1259.56824]]></ele></trkpt>
<trkpt lon="13.702029" lat="47.38286"><ele><![CDATA[1259.052556]]></ele></trkpt>
<trkpt lon="13.702022" lat="47.382866"><ele><![CDATA[1258.676888]]></ele></trkpt>
<trkpt lon="13.702005" lat="47.382869"><ele><![CDATA[1258.281688]]></ele></trkpt>
<trkpt lon="13.701973" lat="47.382863"><ele><![CDATA[1258.132677]]></ele></trkpt>
<trkpt lon="13.70194" lat="47.382851"><ele><![CDATA[1258.307742]]></ele></trkpt>
<trkpt lon="13.701884" lat="47.382826"><ele><![CDATA[1258.832002]]></ele></trkpt>
<trkpt lon="13.701772" lat="47.382786"><ele><![CDATA[1259.622331]]></ele></trkpt>
<trkpt lon="13.701753" lat="47.382781"><ele><![CDATA[1259.672873]]></ele></trkpt>
<trkpt lon="13.70174" lat="47.382781"><ele><![CDATA[1259.568865]]></ele></trkpt>
<trkpt lon="13.701702" lat="47.382783"><ele><![CDATA[1259.101388]]></ele></trkpt>
<trkpt lon="13.70167" lat="47.382799"><ele><![CDATA[1258.005627]]></ele></trkpt>
<trkpt lon="13.701654" lat="47.382821"><ele><![CDATA[1256.645594]]></ele></trkpt>
<trkpt lon="13.701657" lat="47.38284"><ele><![CDATA[1255.622975]]></ele></trkpt>
<trkpt lon="13.701681" lat="47.382866"><ele><![CDATA[1254.441451]]></ele></trkpt>
<trkpt lon="13.701744" lat="47.38294"><ele><![CDATA[1251.132438]]></ele></trkpt>
<trkpt lon="13.701762" lat="47.382952"><ele><![CDATA[1250.740136]]></ele></trkpt>
<trkpt lon="13.701768" lat="47.382964"><ele><![CDATA[1250.107452]]></ele></trkpt>
<trkpt lon="13.701767" lat="47.382972"><ele><![CDATA[1249.624284]]></ele></trkpt>
<trkpt lon="13.701759" lat="47.382981"><ele><![CDATA[1248.997463]]></ele></trkpt>
<trkpt lon="13.701747" lat="47.382988"><ele><![CDATA[1248.435347]]></ele></trkpt>
<trkpt lon="13.701722" lat="47.382991"><ele><![CDATA[1247.853086]]></ele></trkpt>
<trkpt lon="13.701678" lat="47.382983"><ele><![CDATA[1247.593238]]></ele></trkpt>
<trkpt lon="13.701603" lat="47.382963"><ele><![CDATA[1247.84959]]></ele></trkpt>
<trkpt lon="13.701499" lat="47.382926"><ele><![CDATA[1248.898129]]></ele></trkpt>
<trkpt lon="13.701358" lat="47.382926"><ele><![CDATA[1246.920985]]></ele></trkpt>
<trkpt lon="13.701324" lat="47.38293"><ele><![CDATA[1246.085945]]></ele></trkpt>
<trkpt lon="13.701287" lat="47.382944"><ele><![CDATA[1244.567423]]></ele></trkpt>
<trkpt lon="13.701273" lat="47.382957"><ele><![CDATA[1243.330655]]></ele></trkpt>
<trkpt lon="13.701266" lat="47.382965"><ele><![CDATA[1242.517581]]></ele></trkpt>
<trkpt lon="13.701267" lat="47.382979"><ele><![CDATA[1241.449981]]></ele></trkpt>
<trkpt lon="13.701278" lat="47.382993"><ele><![CDATA[1240.46766]]></ele></trkpt>
<trkpt lon="13.701309" lat="47.383005"><ele><![CDATA[1240.020321]]></ele></trkpt>
<trkpt lon="13.701326" lat="47.383012"><ele><![CDATA[1239.776944]]></ele></trkpt>
<trkpt lon="13.701358" lat="47.383024"><ele><![CDATA[1239.423599]]></ele></trkpt>
<trkpt lon="13.701376" lat="47.383032"><ele><![CDATA[1239.090711]]></ele></trkpt>
<trkpt lon="13.701383" lat="47.383046"><ele><![CDATA[1238.138192]]></ele></trkpt>
<trkpt lon="13.701382" lat="47.38306"><ele><![CDATA[1237.034707]]></ele></trkpt>
<trkpt lon="13.701377" lat="47.383069"><ele><![CDATA[1236.291864]]></ele></trkpt>
<trkpt lon="13.701362" lat="47.383074"><ele><![CDATA[1235.539127]]></ele></trkpt>
<trkpt lon="13.701344" lat="47.383077"><ele><![CDATA[1234.931728]]></ele></trkpt>
<trkpt lon="13.701246" lat="47.383073"><ele><![CDATA[1233.225542]]></ele></trkpt>
<trkpt lon="13.701214" lat="47.383071"><ele><![CDATA[1232.80768]]></ele></trkpt>
<trkpt lon="13.701199" lat="47.383072"><ele><![CDATA[1232.386554]]></ele></trkpt>
<trkpt lon="13.701189" lat="47.383075"><ele><![CDATA[1231.933833]]></ele></trkpt>
<trkpt lon="13.701182" lat="47.383082"><ele><![CDATA[1231.214454]]></ele></trkpt>
<trkpt lon="13.701136" lat="47.383159"><ele><![CDATA[1224.452461]]></ele></trkpt>
<trkpt lon="13.701104" lat="47.383198"><ele><![CDATA[1221.583248]]></ele></trkpt>
<trkpt lon="13.701077" lat="47.383214"><ele><![CDATA[1220.296212]]></ele></trkpt>
<trkpt lon="13.701027" lat="47.383224"><ele><![CDATA[1218.912179]]></ele></trkpt>
<trkpt lon="13.700898" lat="47.383224"><ele><![CDATA[1216.91679]]></ele></trkpt>
<trkpt lon="13.700712" lat="47.383208"><ele><![CDATA[1215.464803]]></ele></trkpt>
<trkpt lon="13.700493" lat="47.383199"><ele><![CDATA[1213.757893]]></ele></trkpt>
<trkpt lon="13.700279" lat="47.383232"><ele><![CDATA[1210.589943]]></ele></trkpt>
<trkpt lon="13.700166" lat="47.383267"><ele><![CDATA[1207.880718]]></ele></trkpt>
<trkpt lon="13.700081" lat="47.38329"><ele><![CDATA[1205.959122]]></ele></trkpt>
<trkpt lon="13.700008" lat="47.383305"><ele><![CDATA[1204.587935]]></ele></trkpt>
<trkpt lon="13.69995" lat="47.383327"><ele><![CDATA[1202.738966]]></ele></trkpt>
<trkpt lon="13.699925" lat="47.383356"><ele><![CDATA[1200.662794]]></ele></trkpt>
<trkpt lon="13.699924" lat="47.383387"><ele><![CDATA[1199.374967]]></ele></trkpt>
<trkpt lon="13.699948" lat="47.383421"><ele><![CDATA[1198.18348]]></ele></trkpt>
<trkpt lon="13.699992" lat="47.383455"><ele><![CDATA[1197.247327]]></ele></trkpt>
<trkpt lon="13.700081" lat="47.3835"><ele><![CDATA[1196.175723]]></ele></trkpt>
<trkpt lon="13.700214" lat="47.383556"><ele><![CDATA[1195.020772]]></ele></trkpt>
<trkpt lon="13.700568" lat="47.383648"><ele><![CDATA[1195.696101]]></ele></trkpt>
<trkpt lon="13.700727" lat="47.383706"><ele><![CDATA[1195.835391]]></ele></trkpt>
<trkpt lon="13.700955" lat="47.383801"><ele><![CDATA[1195.513741]]></ele></trkpt>
<trkpt lon="13.701125" lat="47.38391"><ele><![CDATA[1194.062109]]></ele></trkpt>
<trkpt lon="13.701251" lat="47.384027"><ele><![CDATA[1192.034918]]></ele></trkpt>
<trkpt lon="13.701395" lat="47.384194"><ele><![CDATA[1188.855302]]></ele></trkpt>
<trkpt lon="13.701488" lat="47.384285"><ele><![CDATA[1187.90819]]></ele></trkpt>
<trkpt lon="13.701585" lat="47.384349"><ele><![CDATA[1187.777686]]></ele></trkpt>
<trkpt lon="13.701938" lat="47.384518"><ele><![CDATA[1188.328825]]></ele></trkpt>
<trkpt lon="13.702153" lat="47.384674"><ele><![CDATA[1187.210706]]></ele></trkpt>
<trkpt lon="13.702326" lat="47.384766"><ele><![CDATA[1185.980982]]></ele></trkpt>
<trkpt lon="13.702536" lat="47.384827"><ele><![CDATA[1185.952693]]></ele></trkpt>
<trkpt lon="13.702876" lat="47.384874"><ele><![CDATA[1188.75585]]></ele></trkpt>
<trkpt lon="13.703153" lat="47.384981"><ele><![CDATA[1189.891209]]></ele></trkpt>
<trkpt lon="13.703364" lat="47.385087"><ele><![CDATA[1189.382317]]></ele></trkpt>
<trkpt lon="13.703397" lat="47.385159"><ele><![CDATA[1187.179884]]></ele></trkpt>
<trkpt lon="13.703387" lat="47.385203"><ele><![CDATA[1185.515461]]></ele></trkpt>
<trkpt lon="13.703365" lat="47.385236"><ele><![CDATA[1183.97486]]></ele></trkpt>
<trkpt lon="13.703343" lat="47.385251"><ele><![CDATA[1183.002927]]></ele></trkpt>
<trkpt lon="13.703308" lat="47.385257"><ele><![CDATA[1182.026551]]></ele></trkpt>
<trkpt lon="13.703255" lat="47.385252"><ele><![CDATA[1181.088898]]></ele></trkpt>
<trkpt lon="13.703136" lat="47.38522"><ele><![CDATA[1179.697579]]></ele></trkpt>
<trkpt lon="13.70304" lat="47.385201"><ele><![CDATA[1178.508844]]></ele></trkpt>
<trkpt lon="13.702974" lat="47.385138"><ele><![CDATA[1179.792746]]></ele></trkpt>
<trkpt lon="13.702933" lat="47.385117"><ele><![CDATA[1179.99713]]></ele></trkpt>
<trkpt lon="13.702915" lat="47.385117"><ele><![CDATA[1179.70018]]></ele></trkpt>
<trkpt lon="13.702894" lat="47.385122"><ele><![CDATA[1179.179044]]></ele></trkpt>
<trkpt lon="13.702882" lat="47.385132"><ele><![CDATA[1178.566862]]></ele></trkpt>
<trkpt lon="13.702879" lat="47.385142"><ele><![CDATA[1178.085036]]></ele></trkpt>
<trkpt lon="13.702884" lat="47.385156"><ele><![CDATA[1177.567716]]></ele></trkpt>
<trkpt lon="13.70292" lat="47.385185"><ele><![CDATA[1176.970523]]></ele></trkpt>
<trkpt lon="13.702966" lat="47.385218"><ele><![CDATA[1176.479626]]></ele></trkpt>
<trkpt lon="13.703014" lat="47.385253"><ele><![CDATA[1176.005773]]></ele></trkpt>
<trkpt lon="13.703036" lat="47.385279"><ele><![CDATA[1175.459517]]></ele></trkpt>
<trkpt lon="13.70304" lat="47.385293"><ele><![CDATA[1175.010806]]></ele></trkpt>
<trkpt lon="13.703036" lat="47.385309"><ele><![CDATA[1174.302795]]></ele></trkpt>
<trkpt lon="13.703024" lat="47.385317"><ele><![CDATA[1173.725385]]></ele></trkpt>
<trkpt lon="13.703005" lat="47.385319"><ele><![CDATA[1173.263036]]></ele></trkpt>
<trkpt lon="13.702987" lat="47.385312"><ele><![CDATA[1173.126408]]></ele></trkpt>
<trkpt lon="13.702965" lat="47.3853"><ele><![CDATA[1173.113508]]></ele></trkpt>
<trkpt lon="13.702873" lat="47.385254"><ele><![CDATA[1173.137315]]></ele></trkpt>
<trkpt lon="13.702766" lat="47.38522"><ele><![CDATA[1172.67496]]></ele></trkpt>
<trkpt lon="13.702726" lat="47.385214"><ele><![CDATA[1172.409809]]></ele></trkpt>
<trkpt lon="13.702698" lat="47.385213"><ele><![CDATA[1172.100663]]></ele></trkpt>
<trkpt lon="13.702676" lat="47.385222"><ele><![CDATA[1171.405439]]></ele></trkpt>
<trkpt lon="13.702672" lat="47.385233"><ele><![CDATA[1170.809448]]></ele></trkpt>
<trkpt lon="13.702673" lat="47.385245"><ele><![CDATA[1170.22525]]></ele></trkpt>
<trkpt lon="13.702694" lat="47.385261"><ele><![CDATA[1169.749593]]></ele></trkpt>
<trkpt lon="13.702747" lat="47.385279"><ele><![CDATA[1169.647283]]></ele></trkpt>
<trkpt lon="13.702789" lat="47.385308"><ele><![CDATA[1168.994265]]></ele></trkpt>
<trkpt lon="13.702796" lat="47.385328"><ele><![CDATA[1168.255875]]></ele></trkpt>
<trkpt lon="13.702797" lat="47.385348"><ele><![CDATA[1167.59898]]></ele></trkpt>
<trkpt lon="13.702799" lat="47.3854"><ele><![CDATA[1166.243426]]></ele></trkpt>
<trkpt lon="13.702819" lat="47.385509"><ele><![CDATA[1163.904314]]></ele></trkpt>
<trkpt lon="13.702846" lat="47.385572"><ele><![CDATA[1162.979331]]></ele></trkpt>
<trkpt lon="13.702896" lat="47.385625"><ele><![CDATA[1163.176011]]></ele></trkpt>
<trkpt lon="13.702915" lat="47.385678"><ele><![CDATA[1162.57965]]></ele></trkpt>
<trkpt lon="13.70291" lat="47.385727"><ele><![CDATA[1161.60256]]></ele></trkpt>
<trkpt lon="13.702878" lat="47.385791"><ele><![CDATA[1159.710862]]></ele></trkpt>
<trkpt lon="13.702834" lat="47.385853"><ele><![CDATA[1157.563096]]></ele></trkpt>
<trkpt lon="13.702774" lat="47.385917"><ele><![CDATA[1155.087475]]></ele></trkpt>
<trkpt lon="13.702754" lat="47.385949"><ele><![CDATA[1153.95736]]></ele></trkpt>
<trkpt lon="13.702754" lat="47.385968"><ele><![CDATA[1153.592256]]></ele></trkpt>
<trkpt lon="13.702768" lat="47.38601"><ele><![CDATA[1152.843014]]></ele></trkpt>
<trkpt lon="13.70277" lat="47.386039"><ele><![CDATA[1152.079821]]></ele></trkpt>
<trkpt lon="13.702741" lat="47.386081"><ele><![CDATA[1150.001412]]></ele></trkpt>
<trkpt lon="13.702703" lat="47.386113"><ele><![CDATA[1148.12166]]></ele></trkpt>
<trkpt lon="13.70269" lat="47.386134"><ele><![CDATA[1147.222029]]></ele></trkpt>
<trkpt lon="13.702686" lat="47.386149"><ele><![CDATA[1146.649633]]></ele></trkpt>
<trkpt lon="13.702701" lat="47.386177"><ele><![CDATA[1146.187571]]></ele></trkpt>
<trkpt lon="13.702761" lat="47.386208"><ele><![CDATA[1146.546145]]></ele></trkpt>
<trkpt lon="13.702848" lat="47.386259"><ele><![CDATA[1146.578474]]></ele></trkpt>
<trkpt lon="13.702888" lat="47.386287"><ele><![CDATA[1146.375223]]></ele></trkpt>
<trkpt lon="13.702891" lat="47.386315"><ele><![CDATA[1145.584476]]></ele></trkpt>
<trkpt lon="13.702882" lat="47.386339"><ele><![CDATA[1144.732944]]></ele></trkpt>
<trkpt lon="13.702869" lat="47.386355"><ele><![CDATA[1144.049017]]></ele></trkpt>
<trkpt lon="13.702836" lat="47.386376"><ele><![CDATA[1142.986696]]></ele></trkpt>
<trkpt lon="13.702809" lat="47.386385"><ele><![CDATA[1142.384355]]></ele></trkpt>
<trkpt lon="13.702749" lat="47.386394"><ele><![CDATA[1141.363987]]></ele></trkpt>
<trkpt lon="13.702684" lat="47.386391"><ele><![CDATA[1140.533884]]></ele></trkpt>
<trkpt lon="13.702661" lat="47.386397"><ele><![CDATA[1140.071077]]></ele></trkpt>
<trkpt lon="13.702641" lat="47.386405"><ele><![CDATA[1139.607397]]></ele></trkpt>
<trkpt lon="13.702607" lat="47.386436"><ele><![CDATA[1138.558011]]></ele></trkpt>
<trkpt lon="13.702559" lat="47.386514"><ele><![CDATA[1136.741671]]></ele></trkpt>
<trkpt lon="13.702515" lat="47.386569"><ele><![CDATA[1135.486663]]></ele></trkpt>
<trkpt lon="13.702482" lat="47.38663"><ele><![CDATA[1134.326971]]></ele></trkpt>
<trkpt lon="13.702452" lat="47.38666"><ele><![CDATA[1133.63343]]></ele></trkpt>
<trkpt lon="13.702421" lat="47.386674"><ele><![CDATA[1133.089639]]></ele></trkpt>
<trkpt lon="13.702383" lat="47.386668"><ele><![CDATA[1132.683646]]></ele></trkpt>
<trkpt lon="13.702327" lat="47.386655"><ele><![CDATA[1132.124032]]></ele></trkpt>
<trkpt lon="13.702266" lat="47.386643"><ele><![CDATA[1131.484249]]></ele></trkpt>
<trkpt lon="13.702184" lat="47.386626"><ele><![CDATA[1130.690659]]></ele></trkpt>
<trkpt lon="13.702124" lat="47.386602"><ele><![CDATA[1130.16008]]></ele></trkpt>
<trkpt lon="13.702064" lat="47.386574"><ele><![CDATA[1129.576996]]></ele></trkpt>
<trkpt lon="13.702022" lat="47.386546"><ele><![CDATA[1129.283037]]></ele></trkpt>
<trkpt lon="13.701992" lat="47.386517"><ele><![CDATA[1129.182001]]></ele></trkpt>
<trkpt lon="13.701977" lat="47.386492"><ele><![CDATA[1129.301786]]></ele></trkpt>
<trkpt lon="13.701971" lat="47.386458"><ele><![CDATA[1129.741265]]></ele></trkpt>
<trkpt lon="13.701969" lat="47.386432"><ele><![CDATA[1130.050586]]></ele></trkpt>
<trkpt lon="13.701963" lat="47.386414"><ele><![CDATA[1130.079515]]></ele></trkpt>
<trkpt lon="13.701959" lat="47.386412"><ele><![CDATA[1130.026126]]></ele></trkpt>
<trkpt lon="13.701953" lat="47.386411"><ele><![CDATA[1129.937352]]></ele></trkpt>
<trkpt lon="13.701944" lat="47.386412"><ele><![CDATA[1129.785768]]></ele></trkpt>
<trkpt lon="13.701751" lat="47.386449"><ele><![CDATA[1125.669434]]></ele></trkpt>
<trkpt lon="13.701724" lat="47.386456"><ele><![CDATA[1124.801154]]></ele></trkpt>
<trkpt lon="13.701715" lat="47.386468"><ele><![CDATA[1124.369261]]></ele></trkpt>
<trkpt lon="13.701715" lat="47.386491"><ele><![CDATA[1124.032131]]></ele></trkpt>
<trkpt lon="13.701727" lat="47.386923"><ele><![CDATA[1118.230891]]></ele></trkpt>
<trkpt lon="13.701729" lat="47.386945"><ele><![CDATA[1117.976334]]></ele></trkpt>
<trkpt lon="13.701754" lat="47.386984"><ele><![CDATA[1117.881413]]></ele></trkpt>
<trkpt lon="13.701769" lat="47.387"><ele><![CDATA[1117.913853]]></ele></trkpt>
<trkpt lon="13.701787" lat="47.387016"><ele><![CDATA[1117.97452]]></ele></trkpt>
<trkpt lon="13.70184" lat="47.387055"><ele><![CDATA[1118.256297]]></ele></trkpt>
<trkpt lon="13.701982" lat="47.387138"><ele><![CDATA[1119.038751]]></ele></trkpt>
<trkpt lon="13.702034" lat="47.387169"><ele><![CDATA[1119.285734]]></ele></trkpt>
<trkpt lon="13.702068" lat="47.387192"><ele><![CDATA[1119.407932]]></ele></trkpt>
<trkpt lon="13.702075" lat="47.387201"><ele><![CDATA[1119.382459]]></ele></trkpt>
<trkpt lon="13.702077" lat="47.387212"><ele><![CDATA[1119.24053]]></ele></trkpt>
<trkpt lon="13.702076" lat="47.387222"><ele><![CDATA[1119.072592]]></ele></trkpt>
<trkpt lon="13.70207" lat="47.38723"><ele><![CDATA[1118.871452]]></ele></trkpt>
<trkpt lon="13.70204" lat="47.387251"><ele><![CDATA[1118.173588]]></ele></trkpt>
<trkpt lon="13.701999" lat="47.387261"><ele><![CDATA[1117.461255]]></ele></trkpt>
<trkpt lon="13.701928" lat="47.387251"><ele><![CDATA[1116.639931]]></ele></trkpt>
<trkpt lon="13.701864" lat="47.387226"><ele><![CDATA[1116.086452]]></ele></trkpt>
<trkpt lon="13.701825" lat="47.387215"><ele><![CDATA[1115.692521]]></ele></trkpt>
<trkpt lon="13.701814" lat="47.38721"><ele><![CDATA[1115.575818]]></ele></trkpt>
<trkpt lon="13.701802" lat="47.387209"><ele><![CDATA[1115.403968]]></ele></trkpt>
<trkpt lon="13.701789" lat="47.387212"><ele><![CDATA[1115.165352]]></ele></trkpt>
<trkpt lon="13.701753" lat="47.38724"><ele><![CDATA[1114.237276]]></ele></trkpt>
<trkpt lon="13.701744" lat="47.387249"><ele><![CDATA[1113.982579]]></ele></trkpt>
<trkpt lon="13.701735" lat="47.387258"><ele><![CDATA[1113.711627]]></ele></trkpt>
<trkpt lon="13.701723" lat="47.387266"><ele><![CDATA[1113.408928]]></ele></trkpt>
<trkpt lon="13.701698" lat="47.387272"><ele><![CDATA[1112.93742]]></ele></trkpt>
<trkpt lon="13.701684" lat="47.387273"><ele><![CDATA[1112.719837]]></ele></trkpt>
<trkpt lon="13.701671" lat="47.38727"><ele><![CDATA[1112.563895]]></ele></trkpt>
<trkpt lon="13.701627" lat="47.387242"><ele><![CDATA[1112.309272]]></ele></trkpt>
<trkpt lon="13.701557" lat="47.38719"><ele><![CDATA[1111.976683]]></ele></trkpt>
<trkpt lon="13.701477" lat="47.387139"><ele><![CDATA[1111.428871]]></ele></trkpt>
<trkpt lon="13.701416" lat="47.387106"><ele><![CDATA[1110.534714]]></ele></trkpt>
<trkpt lon="13.701365" lat="47.387051"><ele><![CDATA[1110.015657]]></ele></trkpt>
<trkpt lon="13.701345" lat="47.387041"><ele><![CDATA[1109.657012]]></ele></trkpt>
<trkpt lon="13.701331" lat="47.387037"><ele><![CDATA[1109.374786]]></ele></trkpt>
</trkseg>
</trk>
</gpx>
