<?xml version="1.0" encoding="UTF-8"?><gpx xmlns="http://www.topografix.com/GPX/1/1" creator="CONTWISE MAPS" xsi:schemaLocation="http://www.topografix.com/GPX/1/1 http://www.topografix.com/GPX/1/1/gpx.xsd http://www.topografix.com/GPX/gpx_overlay/0/3 http://www.topografix.com/GPX/gpx_overlay/0/3/gpx_overlay.xsd http://www.topografix.com/GPX/gpx_modified/0/1 http://www.topografix.com/GPX/gpx_modified/0/1/gpx_modified.xsd http://www.topografix.com/GPX/Private/TopoGrafix/0/3 http://www.topografix.com/GPX/Private/TopoGrafix/0/3/topografix.xsd" xmlns:xsi="http://www.w3.org/2001/XMLSchema-instance" version="1.1"><trk><name><![CDATA[409_jack_lumber_bps_182369161]]></name><extensions><label xmlns="http://www.topografix.com/GPX/gpx_overlay/0/3"></label>
</extensions>
<trkseg><trkpt lon="13.70277" lat="47.38133"><ele><![CDATA[1301.62]]></ele></trkpt>
<trkpt lon="13.70241" lat="47.38139"><ele><![CDATA[1298.8]]></ele></trkpt>
<trkpt lon="13.7021" lat="47.38134"><ele><![CDATA[1297.44]]></ele></trkpt>
<trkpt lon="13.70193" lat="47.38129"><ele><![CDATA[1295.27]]></ele></trkpt>
<trkpt lon="13.70191" lat="47.3813"><ele><![CDATA[1295.27]]></ele></trkpt>
<trkpt lon="13.70193" lat="47.38136"><ele><![CDATA[1293.71]]></ele></trkpt>
<trkpt lon="13.70211" lat="47.38146"><ele><![CDATA[1292.28]]></ele></trkpt>
<trkpt lon="13.70218" lat="47.38154"><ele><![CDATA[1289.71]]></ele></trkpt>
<trkpt lon="13.70225" lat="47.38159"><ele><![CDATA[1288.87]]></ele></trkpt>
<trkpt lon="13.70226" lat="47.3816"><ele><![CDATA[1302.55]]></ele></trkpt>
<trkpt lon="13.70239" lat="47.3819"><ele><![CDATA[1288.41]]></ele></trkpt>
<trkpt lon="13.70211" lat="47.38189"><ele><![CDATA[1283.27]]></ele></trkpt>
<trkpt lon="13.70192" lat="47.38198"><ele><![CDATA[1281.18]]></ele></trkpt>
<trkpt lon="13.70192" lat="47.38201"><ele><![CDATA[1280.08]]></ele></trkpt>
<trkpt lon="13.70193" lat="47.38201"><ele><![CDATA[1280.08]]></ele></trkpt>
<trkpt lon="13.70192" lat="47.38201"><ele><![CDATA[1280.08]]></ele></trkpt>
<trkpt lon="13.70205" lat="47.38203"><ele><![CDATA[1276.54]]></ele></trkpt>
<trkpt lon="13.70208" lat="47.38207"><ele><![CDATA[1276.54]]></ele></trkpt>
<trkpt lon="13.70251" lat="47.38219"><ele><![CDATA[1271.58]]></ele></trkpt>
<trkpt lon="13.70255" lat="47.38222"><ele><![CDATA[1270.95]]></ele></trkpt>
<trkpt lon="13.70255" lat="47.3823"><ele><![CDATA[1269.04]]></ele></trkpt>
<trkpt lon="13.70236" lat="47.38238"><ele><![CDATA[1264.99]]></ele></trkpt>
<trkpt lon="13.70211" lat="47.3824"><ele><![CDATA[1259.55]]></ele></trkpt>
<trkpt lon="13.70207" lat="47.38244"><ele><![CDATA[1256.54]]></ele></trkpt>
<trkpt lon="13.70208" lat="47.3825"><ele><![CDATA[1255.84]]></ele></trkpt>
<trkpt lon="13.7022" lat="47.38259"><ele><![CDATA[1252.9]]></ele></trkpt>
<trkpt lon="13.70248" lat="47.38269"><ele><![CDATA[1249.59]]></ele></trkpt>
<trkpt lon="13.70268" lat="47.38275"><ele><![CDATA[1248.32]]></ele></trkpt>
<trkpt lon="13.70272" lat="47.38281"><ele><![CDATA[1246.35]]></ele></trkpt>
<trkpt lon="13.7027" lat="47.38285"><ele><![CDATA[1244.95]]></ele></trkpt>
<trkpt lon="13.70269" lat="47.38287"><ele><![CDATA[1244.95]]></ele></trkpt>
<trkpt lon="13.70252" lat="47.38289"><ele><![CDATA[1241.88]]></ele></trkpt>
<trkpt lon="13.7023" lat="47.38285"><ele><![CDATA[1239.76]]></ele></trkpt>
<trkpt lon="13.70208" lat="47.38288"><ele><![CDATA[1237.2]]></ele></trkpt>
<trkpt lon="13.70194" lat="47.38296"><ele><![CDATA[1232.59]]></ele></trkpt>
<trkpt lon="13.70187" lat="47.38297"><ele><![CDATA[1232.59]]></ele></trkpt>
<trkpt lon="13.70175" lat="47.38294"><ele><![CDATA[1228.65]]></ele></trkpt>
<trkpt lon="13.70144" lat="47.38292"><ele><![CDATA[1221.14]]></ele></trkpt>
<trkpt lon="13.70129" lat="47.38293"><ele><![CDATA[1218.92]]></ele></trkpt>
<trkpt lon="13.70126" lat="47.38297"><ele><![CDATA[1218.92]]></ele></trkpt>
<trkpt lon="13.70129" lat="47.383"><ele><![CDATA[1215.89]]></ele></trkpt>
<trkpt lon="13.70137" lat="47.38302"><ele><![CDATA[1215.89]]></ele></trkpt>
<trkpt lon="13.70138" lat="47.38306"><ele><![CDATA[1214.32]]></ele></trkpt>
<trkpt lon="13.70136" lat="47.38306"><ele><![CDATA[1214.32]]></ele></trkpt>
<trkpt lon="13.70137" lat="47.38306"><ele><![CDATA[1214.32]]></ele></trkpt>
<trkpt lon="13.70119" lat="47.38307"><ele><![CDATA[1211.07]]></ele></trkpt>
</trkseg>
</trk>
</gpx>
