<?xml version="1.0" encoding="UTF-8"?><gpx xmlns="http://www.topografix.com/GPX/1/1" creator="CONTWISE MAPS" xsi:schemaLocation="http://www.topografix.com/GPX/1/1 http://www.topografix.com/GPX/1/1/gpx.xsd http://www.topografix.com/GPX/gpx_overlay/0/3 http://www.topografix.com/GPX/gpx_overlay/0/3/gpx_overlay.xsd http://www.topografix.com/GPX/gpx_modified/0/1 http://www.topografix.com/GPX/gpx_modified/0/1/gpx_modified.xsd http://www.topografix.com/GPX/Private/TopoGrafix/0/3 http://www.topografix.com/GPX/Private/TopoGrafix/0/3/topografix.xsd" xmlns:xsi="http://www.w3.org/2001/XMLSchema-instance" version="1.1"><trk><name><![CDATA[uphill_flow_trail__401_148935782]]></name><extensions><label xmlns="http://www.topografix.com/GPX/gpx_overlay/0/3"></label>
</extensions>
<trkseg><trkpt lon="13.709088" lat="47.382684"><ele><![CDATA[1348]]></ele></trkpt>
<trkpt lon="13.708977" lat="47.382619"><ele><![CDATA[1348]]></ele></trkpt>
<trkpt lon="13.708984" lat="47.382567"><ele><![CDATA[1350]]></ele></trkpt>
<trkpt lon="13.709265" lat="47.382622"><ele><![CDATA[1353]]></ele></trkpt>
<trkpt lon="13.709364" lat="47.382674"><ele><![CDATA[1354]]></ele></trkpt>
<trkpt lon="13.709401" lat="47.382721"><ele><![CDATA[1353]]></ele></trkpt>
<trkpt lon="13.709682" lat="47.38275"><ele><![CDATA[1355]]></ele></trkpt>
<trkpt lon="13.709738" lat="47.382789"><ele><![CDATA[1354]]></ele></trkpt>
<trkpt lon="13.709968" lat="47.38286"><ele><![CDATA[1354]]></ele></trkpt>
<trkpt lon="13.710073" lat="47.382942"><ele><![CDATA[1353]]></ele></trkpt>
<trkpt lon="13.71036" lat="47.382992"><ele><![CDATA[1355]]></ele></trkpt>
<trkpt lon="13.710604" lat="47.383054"><ele><![CDATA[1355]]></ele></trkpt>
<trkpt lon="13.710647" lat="47.383089"><ele><![CDATA[1354]]></ele></trkpt>
<trkpt lon="13.710728" lat="47.38309"><ele><![CDATA[1355]]></ele></trkpt>
<trkpt lon="13.710803" lat="47.383129"><ele><![CDATA[1356]]></ele></trkpt>
<trkpt lon="13.711414" lat="47.383285"><ele><![CDATA[1360]]></ele></trkpt>
<trkpt lon="13.711667" lat="47.383463"><ele><![CDATA[1357]]></ele></trkpt>
<trkpt lon="13.711855" lat="47.383465"><ele><![CDATA[1360]]></ele></trkpt>
<trkpt lon="13.711943" lat="47.383466"><ele><![CDATA[1361]]></ele></trkpt>
<trkpt lon="13.711979" lat="47.383517"><ele><![CDATA[1360]]></ele></trkpt>
<trkpt lon="13.712744" lat="47.383543"><ele><![CDATA[1363]]></ele></trkpt>
<trkpt lon="13.71285" lat="47.38357"><ele><![CDATA[1363]]></ele></trkpt>
<trkpt lon="13.713144" lat="47.383594"><ele><![CDATA[1363]]></ele></trkpt>
<trkpt lon="13.713155" lat="47.383667"><ele><![CDATA[1361]]></ele></trkpt>
<trkpt lon="13.713216" lat="47.383723"><ele><![CDATA[1359]]></ele></trkpt>
<trkpt lon="13.71424" lat="47.383696"><ele><![CDATA[1362]]></ele></trkpt>
<trkpt lon="13.71565" lat="47.38375"><ele><![CDATA[1365]]></ele></trkpt>
<trkpt lon="13.716988" lat="47.383706"><ele><![CDATA[1370]]></ele></trkpt>
<trkpt lon="13.717657" lat="47.383794"><ele><![CDATA[1372]]></ele></trkpt>
<trkpt lon="13.717919" lat="47.383861"><ele><![CDATA[1371]]></ele></trkpt>
<trkpt lon="13.718301" lat="47.383865"><ele><![CDATA[1375]]></ele></trkpt>
<trkpt lon="13.718457" lat="47.383927"><ele><![CDATA[1376]]></ele></trkpt>
<trkpt lon="13.718638" lat="47.383933"><ele><![CDATA[1378]]></ele></trkpt>
<trkpt lon="13.718652" lat="47.383886"><ele><![CDATA[1380]]></ele></trkpt>
<trkpt lon="13.71854" lat="47.383872"><ele><![CDATA[1379]]></ele></trkpt>
<trkpt lon="13.71841" lat="47.383773"><ele><![CDATA[1381]]></ele></trkpt>
<trkpt lon="13.718686" lat="47.38378"><ele><![CDATA[1384]]></ele></trkpt>
<trkpt lon="13.718725" lat="47.383729"><ele><![CDATA[1387]]></ele></trkpt>
<trkpt lon="13.718568" lat="47.383728"><ele><![CDATA[1384]]></ele></trkpt>
<trkpt lon="13.7185" lat="47.383676"><ele><![CDATA[1385]]></ele></trkpt>
<trkpt lon="13.718502" lat="47.383612"><ele><![CDATA[1387]]></ele></trkpt>
<trkpt lon="13.718902" lat="47.383676"><ele><![CDATA[1390]]></ele></trkpt>
<trkpt lon="13.719194" lat="47.38379"><ele><![CDATA[1389]]></ele></trkpt>
<trkpt lon="13.719375" lat="47.383822"><ele><![CDATA[1389]]></ele></trkpt>
<trkpt lon="13.719557" lat="47.383815"><ele><![CDATA[1391]]></ele></trkpt>
<trkpt lon="13.7199" lat="47.383904"><ele><![CDATA[1392]]></ele></trkpt>
<trkpt lon="13.720062" lat="47.38397"><ele><![CDATA[1391]]></ele></trkpt>
<trkpt lon="13.720182" lat="47.383946"><ele><![CDATA[1394]]></ele></trkpt>
<trkpt lon="13.720252" lat="47.383891"><ele><![CDATA[1396]]></ele></trkpt>
<trkpt lon="13.720222" lat="47.38384"><ele><![CDATA[1397]]></ele></trkpt>
<trkpt lon="13.720173" lat="47.383792"><ele><![CDATA[1398]]></ele></trkpt>
<trkpt lon="13.72003" lat="47.38374"><ele><![CDATA[1398]]></ele></trkpt>
<trkpt lon="13.719956" lat="47.383666"><ele><![CDATA[1400]]></ele></trkpt>
<trkpt lon="13.719857" lat="47.383631"><ele><![CDATA[1400]]></ele></trkpt>
<trkpt lon="13.720014" lat="47.383633"><ele><![CDATA[1402]]></ele></trkpt>
<trkpt lon="13.720731" lat="47.383782"><ele><![CDATA[1404]]></ele></trkpt>
<trkpt lon="13.720862" lat="47.38383"><ele><![CDATA[1405]]></ele></trkpt>
<trkpt lon="13.721194" lat="47.383851"><ele><![CDATA[1406]]></ele></trkpt>
<trkpt lon="13.721256" lat="47.383877"><ele><![CDATA[1405]]></ele></trkpt>
<trkpt lon="13.721516" lat="47.383773"><ele><![CDATA[1405]]></ele></trkpt>
<trkpt lon="13.721657" lat="47.383656"><ele><![CDATA[1406]]></ele></trkpt>
<trkpt lon="13.721784" lat="47.383585"><ele><![CDATA[1408]]></ele></trkpt>
<trkpt lon="13.721805" lat="47.383504"><ele><![CDATA[1411]]></ele></trkpt>
<trkpt lon="13.72173" lat="47.383482"><ele><![CDATA[1412]]></ele></trkpt>
<trkpt lon="13.721215" lat="47.383514"><ele><![CDATA[1414]]></ele></trkpt>
<trkpt lon="13.72116" lat="47.383458"><ele><![CDATA[1414]]></ele></trkpt>
<trkpt lon="13.721379" lat="47.383461"><ele><![CDATA[1415]]></ele></trkpt>
<trkpt lon="13.721984" lat="47.383357"><ele><![CDATA[1416]]></ele></trkpt>
<trkpt lon="13.722248" lat="47.383347"><ele><![CDATA[1417]]></ele></trkpt>
<trkpt lon="13.722469" lat="47.383528"><ele><![CDATA[1418]]></ele></trkpt>
<trkpt lon="13.722575" lat="47.383581"><ele><![CDATA[1418]]></ele></trkpt>
<trkpt lon="13.722787" lat="47.383638"><ele><![CDATA[1419]]></ele></trkpt>
<trkpt lon="13.722925" lat="47.383631"><ele><![CDATA[1419]]></ele></trkpt>
<trkpt lon="13.723064" lat="47.383569"><ele><![CDATA[1421]]></ele></trkpt>
<trkpt lon="13.723374" lat="47.383483"><ele><![CDATA[1423]]></ele></trkpt>
<trkpt lon="13.723905" lat="47.38357"><ele><![CDATA[1423]]></ele></trkpt>
<trkpt lon="13.724012" lat="47.383541"><ele><![CDATA[1426]]></ele></trkpt>
<trkpt lon="13.72415" lat="47.383543"><ele><![CDATA[1428]]></ele></trkpt>
<trkpt lon="13.724293" lat="47.3836"><ele><![CDATA[1427]]></ele></trkpt>
<trkpt lon="13.724712" lat="47.383673"><ele><![CDATA[1430]]></ele></trkpt>
<trkpt lon="13.725295" lat="47.383683"><ele><![CDATA[1434]]></ele></trkpt>
<trkpt lon="13.725415" lat="47.38368"><ele><![CDATA[1435]]></ele></trkpt>
<trkpt lon="13.725366" lat="47.38362"><ele><![CDATA[1436]]></ele></trkpt>
<trkpt lon="13.724968" lat="47.383484"><ele><![CDATA[1438]]></ele></trkpt>
<trkpt lon="13.724807" lat="47.383384"><ele><![CDATA[1439]]></ele></trkpt>
<trkpt lon="13.724709" lat="47.383268"><ele><![CDATA[1441]]></ele></trkpt>
<trkpt lon="13.72453" lat="47.383142"><ele><![CDATA[1441]]></ele></trkpt>
<trkpt lon="13.724606" lat="47.383143"><ele><![CDATA[1442]]></ele></trkpt>
<trkpt lon="13.724717" lat="47.383191"><ele><![CDATA[1443]]></ele></trkpt>
<trkpt lon="13.72472" lat="47.383109"><ele><![CDATA[1445]]></ele></trkpt>
<trkpt lon="13.724281" lat="47.382852"><ele><![CDATA[1450]]></ele></trkpt>
<trkpt lon="13.723967" lat="47.38258"><ele><![CDATA[1454]]></ele></trkpt>
<trkpt lon="13.723576" lat="47.382375"><ele><![CDATA[1459]]></ele></trkpt>
<trkpt lon="13.723359" lat="47.382171"><ele><![CDATA[1462]]></ele></trkpt>
<trkpt lon="13.723064" lat="47.382118"><ele><![CDATA[1461]]></ele></trkpt>
<trkpt lon="13.722324" lat="47.382092"><ele><![CDATA[1467]]></ele></trkpt>
<trkpt lon="13.722328" lat="47.381908"><ele><![CDATA[1473]]></ele></trkpt>
<trkpt lon="13.722921" lat="47.381915"><ele><![CDATA[1476]]></ele></trkpt>
<trkpt lon="13.723518" lat="47.38172"><ele><![CDATA[1481]]></ele></trkpt>
<trkpt lon="13.724037" lat="47.381692"><ele><![CDATA[1489]]></ele></trkpt>
<trkpt lon="13.724653" lat="47.381783"><ele><![CDATA[1494]]></ele></trkpt>
<trkpt lon="13.725098" lat="47.381754"><ele><![CDATA[1498]]></ele></trkpt>
<trkpt lon="13.725571" lat="47.381592"><ele><![CDATA[1502]]></ele></trkpt>
<trkpt lon="13.725946" lat="47.381395"><ele><![CDATA[1507]]></ele></trkpt>
<trkpt lon="13.726423" lat="47.381098"><ele><![CDATA[1513]]></ele></trkpt>
<trkpt lon="13.726942" lat="47.381054"><ele><![CDATA[1521]]></ele></trkpt>
<trkpt lon="13.727313" lat="47.381058"><ele><![CDATA[1523]]></ele></trkpt>
<trkpt lon="13.728175" lat="47.381134"><ele><![CDATA[1528]]></ele></trkpt>
<trkpt lon="13.728549" lat="47.380988"><ele><![CDATA[1533]]></ele></trkpt>
<trkpt lon="13.729051" lat="47.380641"><ele><![CDATA[1535]]></ele></trkpt>
<trkpt lon="13.72911" lat="47.380256"><ele><![CDATA[1545]]></ele></trkpt>
<trkpt lon="13.729648" lat="47.379473"><ele><![CDATA[1550]]></ele></trkpt>
<trkpt lon="13.729932" lat="47.378923"><ele><![CDATA[1559]]></ele></trkpt>
<trkpt lon="13.730163" lat="47.37859"><ele><![CDATA[1555]]></ele></trkpt>
<trkpt lon="13.730467" lat="47.378258"><ele><![CDATA[1561]]></ele></trkpt>
<trkpt lon="13.73002" lat="47.378354"><ele><![CDATA[1568]]></ele></trkpt>
<trkpt lon="13.729516" lat="47.378784"><ele><![CDATA[1573]]></ele></trkpt>
<trkpt lon="13.72919" lat="47.378999"><ele><![CDATA[1576]]></ele></trkpt>
<trkpt lon="13.728841" lat="47.379112"><ele><![CDATA[1579]]></ele></trkpt>
<trkpt lon="13.728195" lat="47.379273"><ele><![CDATA[1582]]></ele></trkpt>
<trkpt lon="13.728249" lat="47.379105"><ele><![CDATA[1586]]></ele></trkpt>
<trkpt lon="13.728599" lat="47.378908"><ele><![CDATA[1589]]></ele></trkpt>
<trkpt lon="13.728982" lat="47.378409"><ele><![CDATA[1593]]></ele></trkpt>
<trkpt lon="13.729092" lat="47.377941"><ele><![CDATA[1597]]></ele></trkpt>
<trkpt lon="13.729449" lat="47.377475"><ele><![CDATA[1598]]></ele></trkpt>
<trkpt lon="13.729606" lat="47.377108"><ele><![CDATA[1603]]></ele></trkpt>
<trkpt lon="13.729641" lat="47.376655"><ele><![CDATA[1613]]></ele></trkpt>
<trkpt lon="13.729752" lat="47.37617"><ele><![CDATA[1618]]></ele></trkpt>
<trkpt lon="13.730645" lat="47.375995"><ele><![CDATA[1618]]></ele></trkpt>
<trkpt lon="13.731289" lat="47.375919"><ele><![CDATA[1619]]></ele></trkpt>
<trkpt lon="13.731712" lat="47.375756"><ele><![CDATA[1625]]></ele></trkpt>
<trkpt lon="13.731617" lat="47.37562"><ele><![CDATA[1632]]></ele></trkpt>
<trkpt lon="13.731298" lat="47.37555"><ele><![CDATA[1636]]></ele></trkpt>
<trkpt lon="13.732012" lat="47.375519"><ele><![CDATA[1638]]></ele></trkpt>
<trkpt lon="13.732165" lat="47.375569"><ele><![CDATA[1637]]></ele></trkpt>
<trkpt lon="13.732452" lat="47.375586"><ele><![CDATA[1638]]></ele></trkpt>
<trkpt lon="13.732684" lat="47.37556"><ele><![CDATA[1639]]></ele></trkpt>
<trkpt lon="13.733026" lat="47.375607"><ele><![CDATA[1640]]></ele></trkpt>
<trkpt lon="13.733168" lat="47.375542"><ele><![CDATA[1641]]></ele></trkpt>
<trkpt lon="13.733155" lat="47.375508"><ele><![CDATA[1642]]></ele></trkpt>
<trkpt lon="13.73282" lat="47.375452"><ele><![CDATA[1643]]></ele></trkpt>
<trkpt lon="13.732856" lat="47.375419"><ele><![CDATA[1645]]></ele></trkpt>
<trkpt lon="13.733311" lat="47.375448"><ele><![CDATA[1645]]></ele></trkpt>
<trkpt lon="13.733381" lat="47.375425"><ele><![CDATA[1647]]></ele></trkpt>
<trkpt lon="13.733834" lat="47.37553"><ele><![CDATA[1650]]></ele></trkpt>
<trkpt lon="13.734102" lat="47.375752"><ele><![CDATA[1653]]></ele></trkpt>
<trkpt lon="13.734269" lat="47.375821"><ele><![CDATA[1653]]></ele></trkpt>
<trkpt lon="13.73452" lat="47.375876"><ele><![CDATA[1652]]></ele></trkpt>
<trkpt lon="13.734773" lat="47.375869"><ele><![CDATA[1652]]></ele></trkpt>
<trkpt lon="13.73497" lat="47.375838"><ele><![CDATA[1651]]></ele></trkpt>
<trkpt lon="13.735112" lat="47.375763"><ele><![CDATA[1654]]></ele></trkpt>
<trkpt lon="13.735499" lat="47.375706"><ele><![CDATA[1652]]></ele></trkpt>
<trkpt lon="13.735634" lat="47.375593"><ele><![CDATA[1653]]></ele></trkpt>
<trkpt lon="13.735743" lat="47.375456"><ele><![CDATA[1656]]></ele></trkpt>
<trkpt lon="13.736094" lat="47.375141"><ele><![CDATA[1660]]></ele></trkpt>
<trkpt lon="13.736112" lat="47.37495"><ele><![CDATA[1663]]></ele></trkpt>
<trkpt lon="13.736055" lat="47.375016"><ele><![CDATA[1663]]></ele></trkpt>
<trkpt lon="13.736051" lat="47.374864"><ele><![CDATA[1665]]></ele></trkpt>
<trkpt lon="13.735984" lat="47.37504"><ele><![CDATA[1665]]></ele></trkpt>
<trkpt lon="13.735886" lat="47.375043"><ele><![CDATA[1667]]></ele></trkpt>
<trkpt lon="13.735981" lat="47.374859"><ele><![CDATA[1667]]></ele></trkpt>
<trkpt lon="13.736046" lat="47.374793"><ele><![CDATA[1665]]></ele></trkpt>
<trkpt lon="13.735991" lat="47.374768"><ele><![CDATA[1667]]></ele></trkpt>
<trkpt lon="13.735918" lat="47.374858"><ele><![CDATA[1669]]></ele></trkpt>
<trkpt lon="13.735675" lat="47.375055"><ele><![CDATA[1671]]></ele></trkpt>
<trkpt lon="13.735477" lat="47.375143"><ele><![CDATA[1672]]></ele></trkpt>
<trkpt lon="13.735415" lat="47.375109"><ele><![CDATA[1675]]></ele></trkpt>
<trkpt lon="13.735763" lat="47.374889"><ele><![CDATA[1673]]></ele></trkpt>
<trkpt lon="13.735743" lat="47.374861"><ele><![CDATA[1674]]></ele></trkpt>
<trkpt lon="13.735453" lat="47.374967"><ele><![CDATA[1679]]></ele></trkpt>
<trkpt lon="13.735376" lat="47.374947"><ele><![CDATA[1681]]></ele></trkpt>
<trkpt lon="13.735561" lat="47.374863"><ele><![CDATA[1679]]></ele></trkpt>
<trkpt lon="13.735641" lat="47.374745"><ele><![CDATA[1680]]></ele></trkpt>
<trkpt lon="13.735623" lat="47.374607"><ele><![CDATA[1681]]></ele></trkpt>
<trkpt lon="13.735669" lat="47.374455"><ele><![CDATA[1679]]></ele></trkpt>
<trkpt lon="13.735479" lat="47.374177"><ele><![CDATA[1685]]></ele></trkpt>
<trkpt lon="13.73546" lat="47.374105"><ele><![CDATA[1685]]></ele></trkpt>
<trkpt lon="13.735391" lat="47.374066"><ele><![CDATA[1687]]></ele></trkpt>
<trkpt lon="13.735138" lat="47.373778"><ele><![CDATA[1691]]></ele></trkpt>
<trkpt lon="13.735161" lat="47.373688"><ele><![CDATA[1689]]></ele></trkpt>
<trkpt lon="13.735079" lat="47.37363"><ele><![CDATA[1691]]></ele></trkpt>
<trkpt lon="13.73487" lat="47.37328"><ele><![CDATA[1697]]></ele></trkpt>
<trkpt lon="13.734727" lat="47.373097"><ele><![CDATA[1701]]></ele></trkpt>
<trkpt lon="13.734707" lat="47.373026"><ele><![CDATA[1700]]></ele></trkpt>
<trkpt lon="13.734645" lat="47.37302"><ele><![CDATA[1702]]></ele></trkpt>
<trkpt lon="13.734682" lat="47.373206"><ele><![CDATA[1703]]></ele></trkpt>
<trkpt lon="13.734612" lat="47.373491"><ele><![CDATA[1703]]></ele></trkpt>
<trkpt lon="13.734728" lat="47.37365"><ele><![CDATA[1700]]></ele></trkpt>
<trkpt lon="13.734681" lat="47.373844"><ele><![CDATA[1705]]></ele></trkpt>
<trkpt lon="13.734782" lat="47.374031"><ele><![CDATA[1706]]></ele></trkpt>
<trkpt lon="13.734586" lat="47.374286"><ele><![CDATA[1709]]></ele></trkpt>
<trkpt lon="13.734457" lat="47.374394"><ele><![CDATA[1710]]></ele></trkpt>
<trkpt lon="13.73433" lat="47.374445"><ele><![CDATA[1712]]></ele></trkpt>
<trkpt lon="13.734127" lat="47.374443"><ele><![CDATA[1713]]></ele></trkpt>
<trkpt lon="13.734065" lat="47.374404"><ele><![CDATA[1715]]></ele></trkpt>
<trkpt lon="13.733932" lat="47.374393"><ele><![CDATA[1715]]></ele></trkpt>
<trkpt lon="13.733721" lat="47.374396"><ele><![CDATA[1715]]></ele></trkpt>
<trkpt lon="13.733708" lat="47.374353"><ele><![CDATA[1717]]></ele></trkpt>
<trkpt lon="13.733863" lat="47.374354"><ele><![CDATA[1717]]></ele></trkpt>
<trkpt lon="13.73394" lat="47.374336"><ele><![CDATA[1717]]></ele></trkpt>
<trkpt lon="13.734128" lat="47.3741"><ele><![CDATA[1720]]></ele></trkpt>
<trkpt lon="13.734166" lat="47.373991"><ele><![CDATA[1720]]></ele></trkpt>
<trkpt lon="13.734039" lat="47.373718"><ele><![CDATA[1720]]></ele></trkpt>
<trkpt lon="13.734034" lat="47.373623"><ele><![CDATA[1719]]></ele></trkpt>
<trkpt lon="13.734001" lat="47.373565"><ele><![CDATA[1719]]></ele></trkpt>
<trkpt lon="13.733938" lat="47.373531"><ele><![CDATA[1721]]></ele></trkpt>
<trkpt lon="13.733888" lat="47.373588"><ele><![CDATA[1723]]></ele></trkpt>
<trkpt lon="13.733945" lat="47.373822"><ele><![CDATA[1724]]></ele></trkpt>
<trkpt lon="13.733887" lat="47.373935"><ele><![CDATA[1726]]></ele></trkpt>
<trkpt lon="13.733787" lat="47.374011"><ele><![CDATA[1727]]></ele></trkpt>
<trkpt lon="13.733576" lat="47.374023"><ele><![CDATA[1729]]></ele></trkpt>
<trkpt lon="13.733498" lat="47.37405"><ele><![CDATA[1729]]></ele></trkpt>
<trkpt lon="13.733259" lat="47.374081"><ele><![CDATA[1728]]></ele></trkpt>
<trkpt lon="13.733239" lat="47.374043"><ele><![CDATA[1730]]></ele></trkpt>
<trkpt lon="13.733324" lat="47.373996"><ele><![CDATA[1731]]></ele></trkpt>
<trkpt lon="13.733459" lat="47.373945"><ele><![CDATA[1732]]></ele></trkpt>
<trkpt lon="13.733578" lat="47.373946"><ele><![CDATA[1731]]></ele></trkpt>
<trkpt lon="13.733652" lat="47.373771"><ele><![CDATA[1731]]></ele></trkpt>
<trkpt lon="13.73367" lat="47.373614"><ele><![CDATA[1730]]></ele></trkpt>
<trkpt lon="13.733671" lat="47.37359"><ele><![CDATA[1729]]></ele></trkpt>
<trkpt lon="13.733579" lat="47.373613"><ele><![CDATA[1732]]></ele></trkpt>
<trkpt lon="13.733503" lat="47.373874"><ele><![CDATA[1733]]></ele></trkpt>
<trkpt lon="13.733454" lat="47.373859"><ele><![CDATA[1733]]></ele></trkpt>
<trkpt lon="13.733488" lat="47.373607"><ele><![CDATA[1735]]></ele></trkpt>
<trkpt lon="13.733388" lat="47.373397"><ele><![CDATA[1736]]></ele></trkpt>
<trkpt lon="13.733256" lat="47.373329"><ele><![CDATA[1737]]></ele></trkpt>
<trkpt lon="13.733131" lat="47.373294"><ele><![CDATA[1739]]></ele></trkpt>
<trkpt lon="13.733081" lat="47.373322"><ele><![CDATA[1740]]></ele></trkpt>
<trkpt lon="13.733156" lat="47.373418"><ele><![CDATA[1740]]></ele></trkpt>
<trkpt lon="13.733119" lat="47.373517"><ele><![CDATA[1741]]></ele></trkpt>
<trkpt lon="13.733061" lat="47.37356"><ele><![CDATA[1741]]></ele></trkpt>
<trkpt lon="13.732971" lat="47.373549"><ele><![CDATA[1742]]></ele></trkpt>
<trkpt lon="13.73277" lat="47.373428"><ele><![CDATA[1744]]></ele></trkpt>
<trkpt lon="13.732476" lat="47.373415"><ele><![CDATA[1744]]></ele></trkpt>
<trkpt lon="13.732379" lat="47.373362"><ele><![CDATA[1744]]></ele></trkpt>
<trkpt lon="13.732163" lat="47.373331"><ele><![CDATA[1743]]></ele></trkpt>
<trkpt lon="13.731808" lat="47.373198"><ele><![CDATA[1745]]></ele></trkpt>
<trkpt lon="13.731682" lat="47.373206"><ele><![CDATA[1745]]></ele></trkpt>
<trkpt lon="13.731529" lat="47.373167"><ele><![CDATA[1746]]></ele></trkpt>
<trkpt lon="13.731126" lat="47.373"><ele><![CDATA[1746]]></ele></trkpt>
<trkpt lon="13.730854" lat="47.37294"><ele><![CDATA[1747]]></ele></trkpt>
<trkpt lon="13.730598" lat="47.372832"><ele><![CDATA[1749]]></ele></trkpt>
<trkpt lon="13.730465" lat="47.372812"><ele><![CDATA[1749]]></ele></trkpt>
<trkpt lon="13.730326" lat="47.372758"><ele><![CDATA[1750]]></ele></trkpt>
<trkpt lon="13.730257" lat="47.372705"><ele><![CDATA[1751]]></ele></trkpt>
<trkpt lon="13.730014" lat="47.372631"><ele><![CDATA[1753]]></ele></trkpt>
<trkpt lon="13.729874" lat="47.372624"><ele><![CDATA[1754]]></ele></trkpt>
<trkpt lon="13.729655" lat="47.37267"><ele><![CDATA[1756]]></ele></trkpt>
<trkpt lon="13.729605" lat="47.372712"><ele><![CDATA[1755]]></ele></trkpt>
<trkpt lon="13.729268" lat="47.372754"><ele><![CDATA[1758]]></ele></trkpt>
<trkpt lon="13.728463" lat="47.372867"><ele><![CDATA[1759]]></ele></trkpt>
<trkpt lon="13.727873" lat="47.373074"><ele><![CDATA[1762]]></ele></trkpt>
<trkpt lon="13.728324" lat="47.372809"><ele><![CDATA[1764]]></ele></trkpt>
<trkpt lon="13.727841" lat="47.372939"><ele><![CDATA[1768]]></ele></trkpt>
<trkpt lon="13.728399" lat="47.372685"><ele><![CDATA[1765]]></ele></trkpt>
<trkpt lon="13.727986" lat="47.372765"><ele><![CDATA[1771]]></ele></trkpt>
<trkpt lon="13.728436" lat="47.372289"><ele><![CDATA[1772]]></ele></trkpt>
<trkpt lon="13.728136" lat="47.372471"><ele><![CDATA[1776]]></ele></trkpt>
<trkpt lon="13.727621" lat="47.372682"><ele><![CDATA[1776]]></ele></trkpt>
<trkpt lon="13.728291" lat="47.372173"><ele><![CDATA[1779]]></ele></trkpt>
<trkpt lon="13.727562" lat="47.372467"><ele><![CDATA[1781]]></ele></trkpt>
<trkpt lon="13.728147" lat="47.372039"><ele><![CDATA[1783]]></ele></trkpt>
<trkpt lon="13.727685" lat="47.372129"><ele><![CDATA[1789]]></ele></trkpt>
<trkpt lon="13.72731" lat="47.372278"><ele><![CDATA[1788]]></ele></trkpt>
<trkpt lon="13.726999" lat="47.372369"><ele><![CDATA[1794]]></ele></trkpt>
<trkpt lon="13.726763" lat="47.372504"><ele><![CDATA[1795]]></ele></trkpt>
<trkpt lon="13.726172" lat="47.372627"><ele><![CDATA[1798]]></ele></trkpt>
<trkpt lon="13.725818" lat="47.372783"><ele><![CDATA[1797]]></ele></trkpt>
<trkpt lon="13.725598" lat="47.372867"><ele><![CDATA[1798]]></ele></trkpt>
<trkpt lon="13.725464" lat="47.37282"><ele><![CDATA[1800]]></ele></trkpt>
<trkpt lon="13.7257" lat="47.372707"><ele><![CDATA[1801]]></ele></trkpt>
<trkpt lon="13.725818" lat="47.372602"><ele><![CDATA[1802]]></ele></trkpt>
<trkpt lon="13.725722" lat="47.372602"><ele><![CDATA[1803]]></ele></trkpt>
<trkpt lon="13.725459" lat="47.372692"><ele><![CDATA[1804]]></ele></trkpt>
<trkpt lon="13.725475" lat="47.372638"><ele><![CDATA[1805]]></ele></trkpt>
<trkpt lon="13.725625" lat="47.37254"><ele><![CDATA[1807]]></ele></trkpt>
<trkpt lon="13.725979" lat="47.372387"><ele><![CDATA[1807]]></ele></trkpt>
<trkpt lon="13.726328" lat="47.372256"><ele><![CDATA[1812]]></ele></trkpt>
<trkpt lon="13.726586" lat="47.372158"><ele><![CDATA[1812]]></ele></trkpt>
<trkpt lon="13.726612" lat="47.37206"><ele><![CDATA[1815]]></ele></trkpt>
<trkpt lon="13.726467" lat="47.372104"><ele><![CDATA[1816]]></ele></trkpt>
<trkpt lon="13.726108" lat="47.372184"><ele><![CDATA[1817]]></ele></trkpt>
<trkpt lon="13.725679" lat="47.37226"><ele><![CDATA[1816]]></ele></trkpt>
<trkpt lon="13.725223" lat="47.372373"><ele><![CDATA[1817]]></ele></trkpt>
<trkpt lon="13.724949" lat="47.372482"><ele><![CDATA[1819]]></ele></trkpt>
<trkpt lon="13.724676" lat="47.372522"><ele><![CDATA[1822]]></ele></trkpt>
</trkseg>
</trk>
</gpx>
