<?xml version="1.0" encoding="UTF-8"?><gpx xmlns="http://www.topografix.com/GPX/1/1" creator="CONTWISE MAPS" xsi:schemaLocation="http://www.topografix.com/GPX/1/1 http://www.topografix.com/GPX/1/1/gpx.xsd http://www.topografix.com/GPX/gpx_overlay/0/3 http://www.topografix.com/GPX/gpx_overlay/0/3/gpx_overlay.xsd http://www.topografix.com/GPX/gpx_modified/0/1 http://www.topografix.com/GPX/gpx_modified/0/1/gpx_modified.xsd http://www.topografix.com/GPX/Private/TopoGrafix/0/3 http://www.topografix.com/GPX/Private/TopoGrafix/0/3/topografix.xsd" xmlns:xsi="http://www.w3.org/2001/XMLSchema-instance" version="1.1"><trk><name><![CDATA[404_rookie_downhill_bps_182369158]]></name><extensions><label xmlns="http://www.topografix.com/GPX/gpx_overlay/0/3"></label>
</extensions>
<trkseg><trkpt lon="13.72426" lat="47.37285"><ele><![CDATA[1819.75]]></ele></trkpt>
<trkpt lon="13.72424" lat="47.37288"><ele><![CDATA[1819.15]]></ele></trkpt>
<trkpt lon="13.72399" lat="47.37304"><ele><![CDATA[1805.52]]></ele></trkpt>
<trkpt lon="13.7236" lat="47.37334"><ele><![CDATA[1795]]></ele></trkpt>
<trkpt lon="13.7236" lat="47.37341"><ele><![CDATA[1793.76]]></ele></trkpt>
<trkpt lon="13.72347" lat="47.37354"><ele><![CDATA[1792.26]]></ele></trkpt>
<trkpt lon="13.7234" lat="47.37358"><ele><![CDATA[1791.15]]></ele></trkpt>
<trkpt lon="13.72334" lat="47.37358"><ele><![CDATA[1790.48]]></ele></trkpt>
<trkpt lon="13.72324" lat="47.37355"><ele><![CDATA[1789.72]]></ele></trkpt>
<trkpt lon="13.72317" lat="47.37357"><ele><![CDATA[1797.33]]></ele></trkpt>
<trkpt lon="13.72305" lat="47.37358"><ele><![CDATA[1795.13]]></ele></trkpt>
<trkpt lon="13.72305" lat="47.37362"><ele><![CDATA[1786.03]]></ele></trkpt>
<trkpt lon="13.72309" lat="47.37365"><ele><![CDATA[1786.03]]></ele></trkpt>
<trkpt lon="13.72335" lat="47.37373"><ele><![CDATA[1779.93]]></ele></trkpt>
<trkpt lon="13.72352" lat="47.37387"><ele><![CDATA[1777.55]]></ele></trkpt>
<trkpt lon="13.7235" lat="47.3739"><ele><![CDATA[1777.55]]></ele></trkpt>
<trkpt lon="13.72328" lat="47.37384"><ele><![CDATA[1776]]></ele></trkpt>
<trkpt lon="13.72325" lat="47.37386"><ele><![CDATA[1775.54]]></ele></trkpt>
<trkpt lon="13.72338" lat="47.37395"><ele><![CDATA[1773.82]]></ele></trkpt>
<trkpt lon="13.72343" lat="47.37402"><ele><![CDATA[1773.11]]></ele></trkpt>
<trkpt lon="13.72354" lat="47.37408"><ele><![CDATA[1772.33]]></ele></trkpt>
<trkpt lon="13.72355" lat="47.37412"><ele><![CDATA[1769.87]]></ele></trkpt>
<trkpt lon="13.72351" lat="47.37414"><ele><![CDATA[1769.87]]></ele></trkpt>
<trkpt lon="13.72338" lat="47.37405"><ele><![CDATA[1772.75]]></ele></trkpt>
<trkpt lon="13.72335" lat="47.37411"><ele><![CDATA[1769.88]]></ele></trkpt>
<trkpt lon="13.72329" lat="47.37417"><ele><![CDATA[1767.88]]></ele></trkpt>
<trkpt lon="13.72387" lat="47.37447"><ele><![CDATA[1764.02]]></ele></trkpt>
<trkpt lon="13.72415" lat="47.37466"><ele><![CDATA[1761.83]]></ele></trkpt>
<trkpt lon="13.72392" lat="47.37469"><ele><![CDATA[1755.82]]></ele></trkpt>
<trkpt lon="13.72372" lat="47.37465"><ele><![CDATA[1753.14]]></ele></trkpt>
<trkpt lon="13.72358" lat="47.37471"><ele><![CDATA[1750.78]]></ele></trkpt>
<trkpt lon="13.72345" lat="47.37466"><ele><![CDATA[1748.91]]></ele></trkpt>
<trkpt lon="13.72341" lat="47.37461"><ele><![CDATA[1747.77]]></ele></trkpt>
<trkpt lon="13.72335" lat="47.37462"><ele><![CDATA[1746.49]]></ele></trkpt>
<trkpt lon="13.7232" lat="47.37482"><ele><![CDATA[1739.04]]></ele></trkpt>
<trkpt lon="13.72288" lat="47.37492"><ele><![CDATA[1732.93]]></ele></trkpt>
<trkpt lon="13.72281" lat="47.37502"><ele><![CDATA[1731.69]]></ele></trkpt>
<trkpt lon="13.72291" lat="47.37505"><ele><![CDATA[1730.07]]></ele></trkpt>
<trkpt lon="13.72294" lat="47.3751"><ele><![CDATA[1729.21]]></ele></trkpt>
<trkpt lon="13.7229" lat="47.37514"><ele><![CDATA[1728.3]]></ele></trkpt>
<trkpt lon="13.7223" lat="47.3751"><ele><![CDATA[1718.88]]></ele></trkpt>
<trkpt lon="13.72204" lat="47.37502"><ele><![CDATA[1712.65]]></ele></trkpt>
<trkpt lon="13.72175" lat="47.37497"><ele><![CDATA[1707.25]]></ele></trkpt>
<trkpt lon="13.72159" lat="47.37499"><ele><![CDATA[1705.27]]></ele></trkpt>
<trkpt lon="13.7214" lat="47.37498"><ele><![CDATA[1702.58]]></ele></trkpt>
<trkpt lon="13.72118" lat="47.37502"><ele><![CDATA[1700.73]]></ele></trkpt>
<trkpt lon="13.72108" lat="47.37502"><ele><![CDATA[1699.99]]></ele></trkpt>
<trkpt lon="13.72096" lat="47.37498"><ele><![CDATA[1699.4]]></ele></trkpt>
<trkpt lon="13.72091" lat="47.37501"><ele><![CDATA[1699.11]]></ele></trkpt>
<trkpt lon="13.72091" lat="47.375"><ele><![CDATA[1699.11]]></ele></trkpt>
<trkpt lon="13.72092" lat="47.37505"><ele><![CDATA[1698.68]]></ele></trkpt>
<trkpt lon="13.7211" lat="47.37512"><ele><![CDATA[1697.52]]></ele></trkpt>
<trkpt lon="13.72119" lat="47.37519"><ele><![CDATA[1695.24]]></ele></trkpt>
<trkpt lon="13.72143" lat="47.37525"><ele><![CDATA[1692.71]]></ele></trkpt>
<trkpt lon="13.72151" lat="47.37531"><ele><![CDATA[1690.75]]></ele></trkpt>
<trkpt lon="13.72159" lat="47.37534"><ele><![CDATA[1689.26]]></ele></trkpt>
<trkpt lon="13.72165" lat="47.3754"><ele><![CDATA[1685.7]]></ele></trkpt>
<trkpt lon="13.72163" lat="47.37548"><ele><![CDATA[1686.72]]></ele></trkpt>
<trkpt lon="13.72161" lat="47.37548"><ele><![CDATA[1686.72]]></ele></trkpt>
<trkpt lon="13.72163" lat="47.37548"><ele><![CDATA[1686.72]]></ele></trkpt>
<trkpt lon="13.72163" lat="47.37547"><ele><![CDATA[1683.44]]></ele></trkpt>
<trkpt lon="13.72148" lat="47.37548"><ele><![CDATA[1681.5]]></ele></trkpt>
<trkpt lon="13.72099" lat="47.37534"><ele><![CDATA[1672.03]]></ele></trkpt>
<trkpt lon="13.72064" lat="47.37533"><ele><![CDATA[1670.48]]></ele></trkpt>
<trkpt lon="13.72028" lat="47.3752"><ele><![CDATA[1671.48]]></ele></trkpt>
<trkpt lon="13.72019" lat="47.37519"><ele><![CDATA[1677.29]]></ele></trkpt>
<trkpt lon="13.72014" lat="47.37521"><ele><![CDATA[1677.29]]></ele></trkpt>
<trkpt lon="13.72014" lat="47.3752"><ele><![CDATA[1671.52]]></ele></trkpt>
<trkpt lon="13.72044" lat="47.37535"><ele><![CDATA[1665.87]]></ele></trkpt>
<trkpt lon="13.72048" lat="47.37541"><ele><![CDATA[1665.05]]></ele></trkpt>
<trkpt lon="13.72062" lat="47.3755"><ele><![CDATA[1663.75]]></ele></trkpt>
<trkpt lon="13.72051" lat="47.37559"><ele><![CDATA[1661.65]]></ele></trkpt>
<trkpt lon="13.72035" lat="47.37555"><ele><![CDATA[1660.37]]></ele></trkpt>
<trkpt lon="13.72031" lat="47.37557"><ele><![CDATA[1659.65]]></ele></trkpt>
<trkpt lon="13.72031" lat="47.3756"><ele><![CDATA[1658.83]]></ele></trkpt>
<trkpt lon="13.72038" lat="47.37563"><ele><![CDATA[1657.92]]></ele></trkpt>
<trkpt lon="13.72037" lat="47.37566"><ele><![CDATA[1657.92]]></ele></trkpt>
<trkpt lon="13.72034" lat="47.3757"><ele><![CDATA[1654.95]]></ele></trkpt>
<trkpt lon="13.72021" lat="47.37575"><ele><![CDATA[1653.99]]></ele></trkpt>
<trkpt lon="13.7202" lat="47.37577"><ele><![CDATA[1653.11]]></ele></trkpt>
<trkpt lon="13.72027" lat="47.37582"><ele><![CDATA[1652.35]]></ele></trkpt>
<trkpt lon="13.72034" lat="47.37583"><ele><![CDATA[1651.76]]></ele></trkpt>
<trkpt lon="13.72044" lat="47.37579"><ele><![CDATA[1650.87]]></ele></trkpt>
<trkpt lon="13.72049" lat="47.37581"><ele><![CDATA[1650.34]]></ele></trkpt>
<trkpt lon="13.7205" lat="47.37584"><ele><![CDATA[1650.34]]></ele></trkpt>
<trkpt lon="13.72034" lat="47.37593"><ele><![CDATA[1648.09]]></ele></trkpt>
<trkpt lon="13.72022" lat="47.37591"><ele><![CDATA[1646.27]]></ele></trkpt>
<trkpt lon="13.72019" lat="47.37595"><ele><![CDATA[1646.27]]></ele></trkpt>
<trkpt lon="13.72022" lat="47.37602"><ele><![CDATA[1643.2]]></ele></trkpt>
<trkpt lon="13.72023" lat="47.37603"><ele><![CDATA[1642.9]]></ele></trkpt>
<trkpt lon="13.72032" lat="47.37607"><ele><![CDATA[1641.53]]></ele></trkpt>
<trkpt lon="13.72037" lat="47.37615"><ele><![CDATA[1640.67]]></ele></trkpt>
<trkpt lon="13.72071" lat="47.37627"><ele><![CDATA[1641.05]]></ele></trkpt>
<trkpt lon="13.72088" lat="47.3763"><ele><![CDATA[1641.02]]></ele></trkpt>
<trkpt lon="13.72093" lat="47.37633"><ele><![CDATA[1640.93]]></ele></trkpt>
<trkpt lon="13.72099" lat="47.37641"><ele><![CDATA[1640.66]]></ele></trkpt>
<trkpt lon="13.7213" lat="47.37657"><ele><![CDATA[1639.62]]></ele></trkpt>
<trkpt lon="13.72143" lat="47.37658"><ele><![CDATA[1638.85]]></ele></trkpt>
<trkpt lon="13.72139" lat="47.37662"><ele><![CDATA[1638.2]]></ele></trkpt>
<trkpt lon="13.72127" lat="47.37664"><ele><![CDATA[1635.83]]></ele></trkpt>
<trkpt lon="13.72097" lat="47.37662"><ele><![CDATA[1640.26]]></ele></trkpt>
<trkpt lon="13.72091" lat="47.37667"><ele><![CDATA[1631.88]]></ele></trkpt>
<trkpt lon="13.72092" lat="47.3767"><ele><![CDATA[1631.17]]></ele></trkpt>
<trkpt lon="13.72118" lat="47.37688"><ele><![CDATA[1628.86]]></ele></trkpt>
<trkpt lon="13.72129" lat="47.3769"><ele><![CDATA[1628.22]]></ele></trkpt>
<trkpt lon="13.72131" lat="47.37692"><ele><![CDATA[1628.22]]></ele></trkpt>
<trkpt lon="13.7213" lat="47.37697"><ele><![CDATA[1627.47]]></ele></trkpt>
<trkpt lon="13.72135" lat="47.37709"><ele><![CDATA[1626.04]]></ele></trkpt>
<trkpt lon="13.72191" lat="47.37743"><ele><![CDATA[1623.32]]></ele></trkpt>
<trkpt lon="13.72158" lat="47.37757"><ele><![CDATA[1615.44]]></ele></trkpt>
<trkpt lon="13.72159" lat="47.37758"><ele><![CDATA[1615.26]]></ele></trkpt>
<trkpt lon="13.72179" lat="47.37769"><ele><![CDATA[1615.39]]></ele></trkpt>
<trkpt lon="13.72162" lat="47.37767"><ele><![CDATA[1612.7]]></ele></trkpt>
<trkpt lon="13.72168" lat="47.37779"><ele><![CDATA[1610.74]]></ele></trkpt>
<trkpt lon="13.72151" lat="47.37775"><ele><![CDATA[1608.73]]></ele></trkpt>
<trkpt lon="13.72136" lat="47.37774"><ele><![CDATA[1608.73]]></ele></trkpt>
<trkpt lon="13.72151" lat="47.37785"><ele><![CDATA[1606.14]]></ele></trkpt>
<trkpt lon="13.72135" lat="47.37791"><ele><![CDATA[1601.77]]></ele></trkpt>
<trkpt lon="13.72121" lat="47.37787"><ele><![CDATA[1600.68]]></ele></trkpt>
<trkpt lon="13.72139" lat="47.3781"><ele><![CDATA[1594.89]]></ele></trkpt>
<trkpt lon="13.72138" lat="47.3781"><ele><![CDATA[1591.26]]></ele></trkpt>
<trkpt lon="13.72135" lat="47.37811"><ele><![CDATA[1591.26]]></ele></trkpt>
<trkpt lon="13.72126" lat="47.37807"><ele><![CDATA[1588.86]]></ele></trkpt>
<trkpt lon="13.72107" lat="47.37804"><ele><![CDATA[1586.05]]></ele></trkpt>
<trkpt lon="13.72095" lat="47.37806"><ele><![CDATA[1584.5]]></ele></trkpt>
<trkpt lon="13.72077" lat="47.37813"><ele><![CDATA[1583.19]]></ele></trkpt>
<trkpt lon="13.72058" lat="47.37817"><ele><![CDATA[1581.21]]></ele></trkpt>
<trkpt lon="13.72035" lat="47.37826"><ele><![CDATA[1579.93]]></ele></trkpt>
<trkpt lon="13.72004" lat="47.37848"><ele><![CDATA[1579.36]]></ele></trkpt>
<trkpt lon="13.72003" lat="47.37849"><ele><![CDATA[1579.36]]></ele></trkpt>
<trkpt lon="13.72007" lat="47.37858"><ele><![CDATA[1578.91]]></ele></trkpt>
<trkpt lon="13.72005" lat="47.37862"><ele><![CDATA[1578.47]]></ele></trkpt>
<trkpt lon="13.71995" lat="47.37862"><ele><![CDATA[1576.94]]></ele></trkpt>
<trkpt lon="13.7199" lat="47.37864"><ele><![CDATA[1576.94]]></ele></trkpt>
<trkpt lon="13.7198" lat="47.37876"><ele><![CDATA[1570.85]]></ele></trkpt>
<trkpt lon="13.71969" lat="47.37881"><ele><![CDATA[1568.76]]></ele></trkpt>
<trkpt lon="13.71962" lat="47.37877"><ele><![CDATA[1568.76]]></ele></trkpt>
<trkpt lon="13.71951" lat="47.37877"><ele><![CDATA[1559.84]]></ele></trkpt>
<trkpt lon="13.7194" lat="47.37884"><ele><![CDATA[1555.55]]></ele></trkpt>
<trkpt lon="13.71909" lat="47.3788"><ele><![CDATA[1549.37]]></ele></trkpt>
<trkpt lon="13.71858" lat="47.3787"><ele><![CDATA[1552.38]]></ele></trkpt>
<trkpt lon="13.71781" lat="47.37877"><ele><![CDATA[1559.86]]></ele></trkpt>
<trkpt lon="13.71704" lat="47.37884"><ele><![CDATA[1563.83]]></ele></trkpt>
<trkpt lon="13.71681" lat="47.37879"><ele><![CDATA[1562.92]]></ele></trkpt>
<trkpt lon="13.71666" lat="47.37867"><ele><![CDATA[1562.28]]></ele></trkpt>
<trkpt lon="13.71645" lat="47.3786"><ele><![CDATA[1561.18]]></ele></trkpt>
<trkpt lon="13.71607" lat="47.37841"><ele><![CDATA[1558.71]]></ele></trkpt>
<trkpt lon="13.71596" lat="47.37838"><ele><![CDATA[1558.47]]></ele></trkpt>
<trkpt lon="13.7159" lat="47.37839"><ele><![CDATA[1558.08]]></ele></trkpt>
<trkpt lon="13.7157" lat="47.37836"><ele><![CDATA[1557.55]]></ele></trkpt>
<trkpt lon="13.71562" lat="47.37845"><ele><![CDATA[1557.08]]></ele></trkpt>
<trkpt lon="13.71537" lat="47.37839"><ele><![CDATA[1549.02]]></ele></trkpt>
<trkpt lon="13.71579" lat="47.37871"><ele><![CDATA[1543.92]]></ele></trkpt>
<trkpt lon="13.7158" lat="47.37875"><ele><![CDATA[1542.89]]></ele></trkpt>
<trkpt lon="13.71577" lat="47.37875"><ele><![CDATA[1547.84]]></ele></trkpt>
<trkpt lon="13.71552" lat="47.37876"><ele><![CDATA[1545.83]]></ele></trkpt>
<trkpt lon="13.71533" lat="47.37873"><ele><![CDATA[1543.41]]></ele></trkpt>
<trkpt lon="13.71517" lat="47.37877"><ele><![CDATA[1540.39]]></ele></trkpt>
<trkpt lon="13.71503" lat="47.37876"><ele><![CDATA[1539.08]]></ele></trkpt>
<trkpt lon="13.71499" lat="47.37879"><ele><![CDATA[1539.08]]></ele></trkpt>
<trkpt lon="13.71515" lat="47.37893"><ele><![CDATA[1535.99]]></ele></trkpt>
<trkpt lon="13.71534" lat="47.37898"><ele><![CDATA[1534.8]]></ele></trkpt>
<trkpt lon="13.7152" lat="47.37898"><ele><![CDATA[1533.13]]></ele></trkpt>
<trkpt lon="13.71518" lat="47.37899"><ele><![CDATA[1533.13]]></ele></trkpt>
<trkpt lon="13.71519" lat="47.37903"><ele><![CDATA[1532.54]]></ele></trkpt>
<trkpt lon="13.71508" lat="47.37907"><ele><![CDATA[1531.2]]></ele></trkpt>
<trkpt lon="13.71492" lat="47.37905"><ele><![CDATA[1530.44]]></ele></trkpt>
<trkpt lon="13.71486" lat="47.37902"><ele><![CDATA[1528.03]]></ele></trkpt>
<trkpt lon="13.71483" lat="47.37903"><ele><![CDATA[1528.03]]></ele></trkpt>
<trkpt lon="13.71484" lat="47.37909"><ele><![CDATA[1528.03]]></ele></trkpt>
<trkpt lon="13.71496" lat="47.37921"><ele><![CDATA[1515.75]]></ele></trkpt>
<trkpt lon="13.71432" lat="47.37926"><ele><![CDATA[1504.39]]></ele></trkpt>
<trkpt lon="13.71419" lat="47.37923"><ele><![CDATA[1504.39]]></ele></trkpt>
<trkpt lon="13.71391" lat="47.37924"><ele><![CDATA[1500.41]]></ele></trkpt>
<trkpt lon="13.71391" lat="47.37927"><ele><![CDATA[1506.55]]></ele></trkpt>
<trkpt lon="13.71396" lat="47.37932"><ele><![CDATA[1505.27]]></ele></trkpt>
<trkpt lon="13.71384" lat="47.37939"><ele><![CDATA[1503.09]]></ele></trkpt>
<trkpt lon="13.71376" lat="47.37949"><ele><![CDATA[1500.61]]></ele></trkpt>
<trkpt lon="13.71368" lat="47.3795"><ele><![CDATA[1500.61]]></ele></trkpt>
<trkpt lon="13.71366" lat="47.37961"><ele><![CDATA[1491.4]]></ele></trkpt>
<trkpt lon="13.71376" lat="47.37964"><ele><![CDATA[1491.4]]></ele></trkpt>
<trkpt lon="13.71377" lat="47.37967"><ele><![CDATA[1491.4]]></ele></trkpt>
<trkpt lon="13.71363" lat="47.37972"><ele><![CDATA[1487.66]]></ele></trkpt>
<trkpt lon="13.71362" lat="47.37974"><ele><![CDATA[1487.66]]></ele></trkpt>
<trkpt lon="13.71379" lat="47.37984"><ele><![CDATA[1482.57]]></ele></trkpt>
<trkpt lon="13.7138" lat="47.37988"><ele><![CDATA[1482.57]]></ele></trkpt>
<trkpt lon="13.71378" lat="47.3799"><ele><![CDATA[1481.42]]></ele></trkpt>
<trkpt lon="13.71369" lat="47.3799"><ele><![CDATA[1480.39]]></ele></trkpt>
<trkpt lon="13.71355" lat="47.37986"><ele><![CDATA[1478.7]]></ele></trkpt>
<trkpt lon="13.71351" lat="47.37987"><ele><![CDATA[1477.21]]></ele></trkpt>
<trkpt lon="13.7135" lat="47.37995"><ele><![CDATA[1476.34]]></ele></trkpt>
<trkpt lon="13.71347" lat="47.37996"><ele><![CDATA[1476.34]]></ele></trkpt>
<trkpt lon="13.71347" lat="47.38002"><ele><![CDATA[1474.15]]></ele></trkpt>
<trkpt lon="13.71326" lat="47.38012"><ele><![CDATA[1469.25]]></ele></trkpt>
<trkpt lon="13.7132" lat="47.38011"><ele><![CDATA[1468.58]]></ele></trkpt>
<trkpt lon="13.71308" lat="47.38003"><ele><![CDATA[1466.07]]></ele></trkpt>
<trkpt lon="13.71294" lat="47.38014"><ele><![CDATA[1463.51]]></ele></trkpt>
<trkpt lon="13.71287" lat="47.38023"><ele><![CDATA[1457.6]]></ele></trkpt>
<trkpt lon="13.71264" lat="47.38026"><ele><![CDATA[1454.22]]></ele></trkpt>
<trkpt lon="13.71242" lat="47.38033"><ele><![CDATA[1451.08]]></ele></trkpt>
<trkpt lon="13.71218" lat="47.38037"><ele><![CDATA[1448.38]]></ele></trkpt>
<trkpt lon="13.71168" lat="47.38034"><ele><![CDATA[1442.45]]></ele></trkpt>
<trkpt lon="13.71163" lat="47.38039"><ele><![CDATA[1440.35]]></ele></trkpt>
<trkpt lon="13.71161" lat="47.38042"><ele><![CDATA[1438.38]]></ele></trkpt>
<trkpt lon="13.71169" lat="47.38054"><ele><![CDATA[1435.1]]></ele></trkpt>
<trkpt lon="13.71185" lat="47.38063"><ele><![CDATA[1427.91]]></ele></trkpt>
<trkpt lon="13.71186" lat="47.38065"><ele><![CDATA[1427.91]]></ele></trkpt>
<trkpt lon="13.71183" lat="47.38067"><ele><![CDATA[1427.91]]></ele></trkpt>
<trkpt lon="13.71179" lat="47.38067"><ele><![CDATA[1424.12]]></ele></trkpt>
<trkpt lon="13.71167" lat="47.38062"><ele><![CDATA[1424.12]]></ele></trkpt>
<trkpt lon="13.71162" lat="47.38073"><ele><![CDATA[1444.03]]></ele></trkpt>
<trkpt lon="13.7115" lat="47.38079"><ele><![CDATA[1438.26]]></ele></trkpt>
<trkpt lon="13.71167" lat="47.3809"><ele><![CDATA[1433.48]]></ele></trkpt>
<trkpt lon="13.71165" lat="47.38093"><ele><![CDATA[1433.48]]></ele></trkpt>
<trkpt lon="13.71144" lat="47.38091"><ele><![CDATA[1403.16]]></ele></trkpt>
<trkpt lon="13.71142" lat="47.38097"><ele><![CDATA[1399.9]]></ele></trkpt>
<trkpt lon="13.71114" lat="47.38104"><ele><![CDATA[1394.4]]></ele></trkpt>
<trkpt lon="13.71066" lat="47.38108"><ele><![CDATA[1389.96]]></ele></trkpt>
<trkpt lon="13.71039" lat="47.38104"><ele><![CDATA[1385.33]]></ele></trkpt>
<trkpt lon="13.71029" lat="47.38113"><ele><![CDATA[1382]]></ele></trkpt>
<trkpt lon="13.71017" lat="47.38112"><ele><![CDATA[1382]]></ele></trkpt>
<trkpt lon="13.7101" lat="47.38114"><ele><![CDATA[1380.28]]></ele></trkpt>
<trkpt lon="13.71011" lat="47.38119"><ele><![CDATA[1379.36]]></ele></trkpt>
<trkpt lon="13.71004" lat="47.38123"><ele><![CDATA[1379.36]]></ele></trkpt>
<trkpt lon="13.70986" lat="47.3812"><ele><![CDATA[1374.51]]></ele></trkpt>
<trkpt lon="13.70982" lat="47.38125"><ele><![CDATA[1374.51]]></ele></trkpt>
<trkpt lon="13.70978" lat="47.38125"><ele><![CDATA[1374.51]]></ele></trkpt>
<trkpt lon="13.70957" lat="47.3812"><ele><![CDATA[1370.86]]></ele></trkpt>
<trkpt lon="13.70951" lat="47.38123"><ele><![CDATA[1369.88]]></ele></trkpt>
<trkpt lon="13.70955" lat="47.38131"><ele><![CDATA[1368.83]]></ele></trkpt>
<trkpt lon="13.70951" lat="47.38133"><ele><![CDATA[1365.4]]></ele></trkpt>
<trkpt lon="13.70942" lat="47.38131"><ele><![CDATA[1365.4]]></ele></trkpt>
<trkpt lon="13.70938" lat="47.38134"><ele><![CDATA[1364.3]]></ele></trkpt>
<trkpt lon="13.70923" lat="47.38136"><ele><![CDATA[1361.56]]></ele></trkpt>
<trkpt lon="13.70898" lat="47.38137"><ele><![CDATA[1359.85]]></ele></trkpt>
<trkpt lon="13.70888" lat="47.38136"><ele><![CDATA[1359.23]]></ele></trkpt>
<trkpt lon="13.70877" lat="47.38139"><ele><![CDATA[1359.03]]></ele></trkpt>
<trkpt lon="13.7086" lat="47.38136"><ele><![CDATA[1358.38]]></ele></trkpt>
<trkpt lon="13.70836" lat="47.3814"><ele><![CDATA[1357.28]]></ele></trkpt>
<trkpt lon="13.70827" lat="47.38148"><ele><![CDATA[1356.75]]></ele></trkpt>
<trkpt lon="13.70776" lat="47.38157"><ele><![CDATA[1351.34]]></ele></trkpt>
<trkpt lon="13.70768" lat="47.38166"><ele><![CDATA[1350.78]]></ele></trkpt>
<trkpt lon="13.7076" lat="47.3819"><ele><![CDATA[1347.73]]></ele></trkpt>
<trkpt lon="13.70756" lat="47.38195"><ele><![CDATA[1347.73]]></ele></trkpt>
<trkpt lon="13.70751" lat="47.382"><ele><![CDATA[1346.44]]></ele></trkpt>
</trkseg>
</trk>
</gpx>
