<?xml version="1.0" encoding="UTF-8"?><gpx xmlns="http://www.topografix.com/GPX/1/1" creator="CONTWISE MAPS" xsi:schemaLocation="http://www.topografix.com/GPX/1/1 http://www.topografix.com/GPX/1/1/gpx.xsd http://www.topografix.com/GPX/gpx_overlay/0/3 http://www.topografix.com/GPX/gpx_overlay/0/3/gpx_overlay.xsd http://www.topografix.com/GPX/gpx_modified/0/1 http://www.topografix.com/GPX/gpx_modified/0/1/gpx_modified.xsd http://www.topografix.com/GPX/Private/TopoGrafix/0/3 http://www.topografix.com/GPX/Private/TopoGrafix/0/3/topografix.xsd" xmlns:xsi="http://www.w3.org/2001/XMLSchema-instance" version="1.1"><trk><name><![CDATA[jump_trail_-_reiteralm__107_148935172]]></name><extensions><label xmlns="http://www.topografix.com/GPX/gpx_overlay/0/3"></label>
</extensions>
<trkseg><trkpt lon="13.601023" lat="47.364933"><ele><![CDATA[1560]]></ele></trkpt>
<trkpt lon="13.601078" lat="47.364932"><ele><![CDATA[1559]]></ele></trkpt>
<trkpt lon="13.601104" lat="47.364958"><ele><![CDATA[1558]]></ele></trkpt>
<trkpt lon="13.601125" lat="47.364986"><ele><![CDATA[1557]]></ele></trkpt>
<trkpt lon="13.601133" lat="47.365013"><ele><![CDATA[1557]]></ele></trkpt>
<trkpt lon="13.601119" lat="47.365036"><ele><![CDATA[1556]]></ele></trkpt>
<trkpt lon="13.601043" lat="47.365111"><ele><![CDATA[1555]]></ele></trkpt>
<trkpt lon="13.601018" lat="47.365129"><ele><![CDATA[1555]]></ele></trkpt>
<trkpt lon="13.600997" lat="47.365169"><ele><![CDATA[1554]]></ele></trkpt>
<trkpt lon="13.600982" lat="47.365222"><ele><![CDATA[1553]]></ele></trkpt>
<trkpt lon="13.600968" lat="47.365289"><ele><![CDATA[1552]]></ele></trkpt>
<trkpt lon="13.600943" lat="47.365355"><ele><![CDATA[1551]]></ele></trkpt>
<trkpt lon="13.600857" lat="47.365377"><ele><![CDATA[1552]]></ele></trkpt>
<trkpt lon="13.600843" lat="47.365405"><ele><![CDATA[1552]]></ele></trkpt>
<trkpt lon="13.600874" lat="47.365482"><ele><![CDATA[1550]]></ele></trkpt>
<trkpt lon="13.60085" lat="47.365524"><ele><![CDATA[1550]]></ele></trkpt>
<trkpt lon="13.600725" lat="47.365654"><ele><![CDATA[1549]]></ele></trkpt>
<trkpt lon="13.600655" lat="47.365712"><ele><![CDATA[1548]]></ele></trkpt>
<trkpt lon="13.600603" lat="47.365784"><ele><![CDATA[1547]]></ele></trkpt>
<trkpt lon="13.600614" lat="47.365838"><ele><![CDATA[1546]]></ele></trkpt>
<trkpt lon="13.600672" lat="47.36584"><ele><![CDATA[1544]]></ele></trkpt>
<trkpt lon="13.600767" lat="47.365775"><ele><![CDATA[1543]]></ele></trkpt>
<trkpt lon="13.600871" lat="47.365695"><ele><![CDATA[1545]]></ele></trkpt>
<trkpt lon="13.600916" lat="47.36571"><ele><![CDATA[1544]]></ele></trkpt>
<trkpt lon="13.6009" lat="47.365849"><ele><![CDATA[1539]]></ele></trkpt>
<trkpt lon="13.600819" lat="47.365966"><ele><![CDATA[1538]]></ele></trkpt>
<trkpt lon="13.600724" lat="47.366091"><ele><![CDATA[1539]]></ele></trkpt>
<trkpt lon="13.600646" lat="47.366205"><ele><![CDATA[1537]]></ele></trkpt>
<trkpt lon="13.600573" lat="47.366302"><ele><![CDATA[1536]]></ele></trkpt>
<trkpt lon="13.600561" lat="47.366439"><ele><![CDATA[1532]]></ele></trkpt>
<trkpt lon="13.600612" lat="47.366501"><ele><![CDATA[1533]]></ele></trkpt>
<trkpt lon="13.60062" lat="47.366557"><ele><![CDATA[1534]]></ele></trkpt>
<trkpt lon="13.600612" lat="47.366642"><ele><![CDATA[1534]]></ele></trkpt>
<trkpt lon="13.600602" lat="47.366937"><ele><![CDATA[1537]]></ele></trkpt>
<trkpt lon="13.600595" lat="47.366972"><ele><![CDATA[1537]]></ele></trkpt>
<trkpt lon="13.600591" lat="47.367031"><ele><![CDATA[1536]]></ele></trkpt>
<trkpt lon="13.60057" lat="47.367145"><ele><![CDATA[1535]]></ele></trkpt>
<trkpt lon="13.60057" lat="47.367185"><ele><![CDATA[1534]]></ele></trkpt>
<trkpt lon="13.600575" lat="47.367249"><ele><![CDATA[1533]]></ele></trkpt>
<trkpt lon="13.600541" lat="47.367348"><ele><![CDATA[1534]]></ele></trkpt>
<trkpt lon="13.600538" lat="47.367439"><ele><![CDATA[1534]]></ele></trkpt>
<trkpt lon="13.600508" lat="47.367564"><ele><![CDATA[1533]]></ele></trkpt>
<trkpt lon="13.600454" lat="47.367674"><ele><![CDATA[1532]]></ele></trkpt>
<trkpt lon="13.600457" lat="47.36782"><ele><![CDATA[1531]]></ele></trkpt>
<trkpt lon="13.600427" lat="47.367926"><ele><![CDATA[1530]]></ele></trkpt>
<trkpt lon="13.600399" lat="47.368003"><ele><![CDATA[1530]]></ele></trkpt>
<trkpt lon="13.600434" lat="47.368127"><ele><![CDATA[1526]]></ele></trkpt>
<trkpt lon="13.600489" lat="47.368219"><ele><![CDATA[1525]]></ele></trkpt>
<trkpt lon="13.600491" lat="47.368295"><ele><![CDATA[1525]]></ele></trkpt>
<trkpt lon="13.600496" lat="47.368356"><ele><![CDATA[1524]]></ele></trkpt>
<trkpt lon="13.600441" lat="47.368434"><ele><![CDATA[1524]]></ele></trkpt>
<trkpt lon="13.600395" lat="47.368467"><ele><![CDATA[1524]]></ele></trkpt>
<trkpt lon="13.600327" lat="47.368505"><ele><![CDATA[1525]]></ele></trkpt>
<trkpt lon="13.600273" lat="47.36854"><ele><![CDATA[1525]]></ele></trkpt>
<trkpt lon="13.600266" lat="47.368582"><ele><![CDATA[1524]]></ele></trkpt>
<trkpt lon="13.600302" lat="47.368599"><ele><![CDATA[1523]]></ele></trkpt>
<trkpt lon="13.600352" lat="47.368595"><ele><![CDATA[1522]]></ele></trkpt>
<trkpt lon="13.600387" lat="47.368583"><ele><![CDATA[1522]]></ele></trkpt>
<trkpt lon="13.600446" lat="47.368558"><ele><![CDATA[1521]]></ele></trkpt>
<trkpt lon="13.60053" lat="47.368515"><ele><![CDATA[1520]]></ele></trkpt>
<trkpt lon="13.600564" lat="47.36844"><ele><![CDATA[1521]]></ele></trkpt>
<trkpt lon="13.600587" lat="47.368382"><ele><![CDATA[1521]]></ele></trkpt>
<trkpt lon="13.600631" lat="47.368366"><ele><![CDATA[1520]]></ele></trkpt>
<trkpt lon="13.600666" lat="47.368393"><ele><![CDATA[1519]]></ele></trkpt>
<trkpt lon="13.600653" lat="47.368475"><ele><![CDATA[1518]]></ele></trkpt>
<trkpt lon="13.60061" lat="47.368545"><ele><![CDATA[1518]]></ele></trkpt>
</trkseg>
</trk>
</gpx>
