<?xml version="1.0" encoding="UTF-8"?><gpx xmlns="http://www.topografix.com/GPX/1/1" creator="CONTWISE MAPS" xsi:schemaLocation="http://www.topografix.com/GPX/1/1 http://www.topografix.com/GPX/1/1/gpx.xsd http://www.topografix.com/GPX/gpx_overlay/0/3 http://www.topografix.com/GPX/gpx_overlay/0/3/gpx_overlay.xsd http://www.topografix.com/GPX/gpx_modified/0/1 http://www.topografix.com/GPX/gpx_modified/0/1/gpx_modified.xsd http://www.topografix.com/GPX/Private/TopoGrafix/0/3 http://www.topografix.com/GPX/Private/TopoGrafix/0/3/topografix.xsd" xmlns:xsi="http://www.w3.org/2001/XMLSchema-instance" version="1.1"><trk><name><![CDATA[holzer_trail__106_148935286]]></name><extensions><label xmlns="http://www.topografix.com/GPX/gpx_overlay/0/3"></label>
</extensions>
<trkseg><trkpt lon="13.595769" lat="47.361131"><ele><![CDATA[1701]]></ele></trkpt>
<trkpt lon="13.595758" lat="47.361129"><ele><![CDATA[1701]]></ele></trkpt>
<trkpt lon="13.595865" lat="47.361215"><ele><![CDATA[1700]]></ele></trkpt>
<trkpt lon="13.595875" lat="47.36124"><ele><![CDATA[1699]]></ele></trkpt>
<trkpt lon="13.595915" lat="47.361268"><ele><![CDATA[1698]]></ele></trkpt>
<trkpt lon="13.595944" lat="47.361275"><ele><![CDATA[1697]]></ele></trkpt>
<trkpt lon="13.595977" lat="47.361278"><ele><![CDATA[1697]]></ele></trkpt>
<trkpt lon="13.596027" lat="47.361269"><ele><![CDATA[1697]]></ele></trkpt>
<trkpt lon="13.596061" lat="47.36127"><ele><![CDATA[1697]]></ele></trkpt>
<trkpt lon="13.596151" lat="47.361298"><ele><![CDATA[1696]]></ele></trkpt>
<trkpt lon="13.596162" lat="47.361307"><ele><![CDATA[1696]]></ele></trkpt>
<trkpt lon="13.59617" lat="47.361325"><ele><![CDATA[1695]]></ele></trkpt>
<trkpt lon="13.596168" lat="47.361338"><ele><![CDATA[1695]]></ele></trkpt>
<trkpt lon="13.596139" lat="47.36136"><ele><![CDATA[1694]]></ele></trkpt>
<trkpt lon="13.596109" lat="47.361369"><ele><![CDATA[1694]]></ele></trkpt>
<trkpt lon="13.596067" lat="47.361376"><ele><![CDATA[1694]]></ele></trkpt>
<trkpt lon="13.596026" lat="47.361398"><ele><![CDATA[1694]]></ele></trkpt>
<trkpt lon="13.595941" lat="47.361451"><ele><![CDATA[1694]]></ele></trkpt>
<trkpt lon="13.595891" lat="47.361494"><ele><![CDATA[1694]]></ele></trkpt>
<trkpt lon="13.595887" lat="47.361504"><ele><![CDATA[1694]]></ele></trkpt>
<trkpt lon="13.595894" lat="47.361529"><ele><![CDATA[1693]]></ele></trkpt>
<trkpt lon="13.595919" lat="47.36155"><ele><![CDATA[1693]]></ele></trkpt>
<trkpt lon="13.595939" lat="47.361556"><ele><![CDATA[1693]]></ele></trkpt>
<trkpt lon="13.595971" lat="47.361558"><ele><![CDATA[1692]]></ele></trkpt>
<trkpt lon="13.596006" lat="47.361553"><ele><![CDATA[1692]]></ele></trkpt>
<trkpt lon="13.596077" lat="47.361533"><ele><![CDATA[1692]]></ele></trkpt>
<trkpt lon="13.596127" lat="47.361535"><ele><![CDATA[1691]]></ele></trkpt>
<trkpt lon="13.596158" lat="47.361534"><ele><![CDATA[1691]]></ele></trkpt>
<trkpt lon="13.596197" lat="47.361527"><ele><![CDATA[1691]]></ele></trkpt>
<trkpt lon="13.596235" lat="47.361529"><ele><![CDATA[1691]]></ele></trkpt>
<trkpt lon="13.596278" lat="47.361543"><ele><![CDATA[1690]]></ele></trkpt>
<trkpt lon="13.596305" lat="47.361561"><ele><![CDATA[1690]]></ele></trkpt>
<trkpt lon="13.596317" lat="47.361574"><ele><![CDATA[1690]]></ele></trkpt>
<trkpt lon="13.59633" lat="47.361617"><ele><![CDATA[1689]]></ele></trkpt>
<trkpt lon="13.596348" lat="47.361628"><ele><![CDATA[1689]]></ele></trkpt>
<trkpt lon="13.59637" lat="47.361627"><ele><![CDATA[1689]]></ele></trkpt>
<trkpt lon="13.596503" lat="47.361597"><ele><![CDATA[1688]]></ele></trkpt>
<trkpt lon="13.596809" lat="47.361569"><ele><![CDATA[1687]]></ele></trkpt>
<trkpt lon="13.596929" lat="47.361579"><ele><![CDATA[1687]]></ele></trkpt>
<trkpt lon="13.597138" lat="47.361534"><ele><![CDATA[1688]]></ele></trkpt>
<trkpt lon="13.597181" lat="47.361528"><ele><![CDATA[1688]]></ele></trkpt>
<trkpt lon="13.597225" lat="47.361536"><ele><![CDATA[1687]]></ele></trkpt>
<trkpt lon="13.597236" lat="47.361542"><ele><![CDATA[1687]]></ele></trkpt>
<trkpt lon="13.597242" lat="47.361554"><ele><![CDATA[1686]]></ele></trkpt>
<trkpt lon="13.597237" lat="47.361566"><ele><![CDATA[1686]]></ele></trkpt>
<trkpt lon="13.597217" lat="47.361577"><ele><![CDATA[1686]]></ele></trkpt>
<trkpt lon="13.597142" lat="47.361582"><ele><![CDATA[1686]]></ele></trkpt>
<trkpt lon="13.597063" lat="47.361598"><ele><![CDATA[1686]]></ele></trkpt>
<trkpt lon="13.596991" lat="47.361626"><ele><![CDATA[1685]]></ele></trkpt>
<trkpt lon="13.596951" lat="47.36163"><ele><![CDATA[1685]]></ele></trkpt>
<trkpt lon="13.596911" lat="47.361644"><ele><![CDATA[1685]]></ele></trkpt>
<trkpt lon="13.596874" lat="47.361667"><ele><![CDATA[1684]]></ele></trkpt>
<trkpt lon="13.596828" lat="47.361682"><ele><![CDATA[1684]]></ele></trkpt>
<trkpt lon="13.59663" lat="47.361707"><ele><![CDATA[1684]]></ele></trkpt>
<trkpt lon="13.59645" lat="47.361716"><ele><![CDATA[1688]]></ele></trkpt>
<trkpt lon="13.596415" lat="47.36174"><ele><![CDATA[1687]]></ele></trkpt>
<trkpt lon="13.596413" lat="47.361765"><ele><![CDATA[1686]]></ele></trkpt>
<trkpt lon="13.596429" lat="47.361802"><ele><![CDATA[1684]]></ele></trkpt>
<trkpt lon="13.596493" lat="47.361834"><ele><![CDATA[1681]]></ele></trkpt>
<trkpt lon="13.59663" lat="47.361856"><ele><![CDATA[1679]]></ele></trkpt>
<trkpt lon="13.596747" lat="47.361836"><ele><![CDATA[1679]]></ele></trkpt>
<trkpt lon="13.596745" lat="47.361844"><ele><![CDATA[1679]]></ele></trkpt>
<trkpt lon="13.59675" lat="47.361853"><ele><![CDATA[1679]]></ele></trkpt>
<trkpt lon="13.596767" lat="47.361866"><ele><![CDATA[1678]]></ele></trkpt>
<trkpt lon="13.596823" lat="47.361881"><ele><![CDATA[1677]]></ele></trkpt>
<trkpt lon="13.596861" lat="47.361883"><ele><![CDATA[1677]]></ele></trkpt>
<trkpt lon="13.597018" lat="47.361876"><ele><![CDATA[1676]]></ele></trkpt>
<trkpt lon="13.59706" lat="47.3619"><ele><![CDATA[1676]]></ele></trkpt>
<trkpt lon="13.597077" lat="47.361921"><ele><![CDATA[1676]]></ele></trkpt>
<trkpt lon="13.597074" lat="47.36194"><ele><![CDATA[1676]]></ele></trkpt>
<trkpt lon="13.59706" lat="47.361949"><ele><![CDATA[1676]]></ele></trkpt>
<trkpt lon="13.597035" lat="47.361955"><ele><![CDATA[1676]]></ele></trkpt>
<trkpt lon="13.596878" lat="47.361965"><ele><![CDATA[1676]]></ele></trkpt>
<trkpt lon="13.596823" lat="47.361978"><ele><![CDATA[1676]]></ele></trkpt>
<trkpt lon="13.596791" lat="47.361994"><ele><![CDATA[1675]]></ele></trkpt>
<trkpt lon="13.596728" lat="47.362104"><ele><![CDATA[1674]]></ele></trkpt>
<trkpt lon="13.596635" lat="47.362294"><ele><![CDATA[1673]]></ele></trkpt>
<trkpt lon="13.596627" lat="47.362326"><ele><![CDATA[1673]]></ele></trkpt>
<trkpt lon="13.596629" lat="47.362344"><ele><![CDATA[1673]]></ele></trkpt>
<trkpt lon="13.59664" lat="47.362358"><ele><![CDATA[1673]]></ele></trkpt>
<trkpt lon="13.596739" lat="47.362414"><ele><![CDATA[1672]]></ele></trkpt>
<trkpt lon="13.59678" lat="47.362446"><ele><![CDATA[1671]]></ele></trkpt>
<trkpt lon="13.596818" lat="47.362484"><ele><![CDATA[1671]]></ele></trkpt>
<trkpt lon="13.59682" lat="47.362502"><ele><![CDATA[1671]]></ele></trkpt>
<trkpt lon="13.596813" lat="47.362539"><ele><![CDATA[1671]]></ele></trkpt>
<trkpt lon="13.596818" lat="47.362551"><ele><![CDATA[1671]]></ele></trkpt>
<trkpt lon="13.596837" lat="47.362562"><ele><![CDATA[1671]]></ele></trkpt>
<trkpt lon="13.596864" lat="47.362567"><ele><![CDATA[1671]]></ele></trkpt>
<trkpt lon="13.596889" lat="47.362564"><ele><![CDATA[1671]]></ele></trkpt>
<trkpt lon="13.596904" lat="47.362557"><ele><![CDATA[1670]]></ele></trkpt>
<trkpt lon="13.59692" lat="47.362543"><ele><![CDATA[1670]]></ele></trkpt>
<trkpt lon="13.596944" lat="47.362499"><ele><![CDATA[1670]]></ele></trkpt>
<trkpt lon="13.596964" lat="47.362494"><ele><![CDATA[1669]]></ele></trkpt>
<trkpt lon="13.596982" lat="47.362496"><ele><![CDATA[1669]]></ele></trkpt>
<trkpt lon="13.597016" lat="47.362512"><ele><![CDATA[1669]]></ele></trkpt>
<trkpt lon="13.597094" lat="47.362566"><ele><![CDATA[1668]]></ele></trkpt>
<trkpt lon="13.597097" lat="47.36259"><ele><![CDATA[1667]]></ele></trkpt>
<trkpt lon="13.597089" lat="47.362616"><ele><![CDATA[1667]]></ele></trkpt>
<trkpt lon="13.597057" lat="47.362631"><ele><![CDATA[1667]]></ele></trkpt>
<trkpt lon="13.597037" lat="47.362636"><ele><![CDATA[1667]]></ele></trkpt>
<trkpt lon="13.597018" lat="47.362648"><ele><![CDATA[1667]]></ele></trkpt>
<trkpt lon="13.597013" lat="47.362666"><ele><![CDATA[1666]]></ele></trkpt>
<trkpt lon="13.597049" lat="47.362738"><ele><![CDATA[1664]]></ele></trkpt>
<trkpt lon="13.597063" lat="47.362787"><ele><![CDATA[1664]]></ele></trkpt>
<trkpt lon="13.597089" lat="47.36282"><ele><![CDATA[1664]]></ele></trkpt>
<trkpt lon="13.597094" lat="47.362832"><ele><![CDATA[1664]]></ele></trkpt>
<trkpt lon="13.597074" lat="47.362878"><ele><![CDATA[1664]]></ele></trkpt>
<trkpt lon="13.597028" lat="47.362922"><ele><![CDATA[1664]]></ele></trkpt>
<trkpt lon="13.597021" lat="47.362935"><ele><![CDATA[1664]]></ele></trkpt>
<trkpt lon="13.597023" lat="47.362961"><ele><![CDATA[1664]]></ele></trkpt>
<trkpt lon="13.597051" lat="47.363002"><ele><![CDATA[1663]]></ele></trkpt>
<trkpt lon="13.597051" lat="47.363019"><ele><![CDATA[1663]]></ele></trkpt>
<trkpt lon="13.597004" lat="47.363081"><ele><![CDATA[1663]]></ele></trkpt>
<trkpt lon="13.596988" lat="47.363156"><ele><![CDATA[1662]]></ele></trkpt>
<trkpt lon="13.596959" lat="47.363229"><ele><![CDATA[1662]]></ele></trkpt>
<trkpt lon="13.596966" lat="47.363242"><ele><![CDATA[1662]]></ele></trkpt>
<trkpt lon="13.597015" lat="47.363284"><ele><![CDATA[1661]]></ele></trkpt>
<trkpt lon="13.59702" lat="47.363315"><ele><![CDATA[1660]]></ele></trkpt>
<trkpt lon="13.596998" lat="47.363369"><ele><![CDATA[1660]]></ele></trkpt>
<trkpt lon="13.596935" lat="47.363443"><ele><![CDATA[1660]]></ele></trkpt>
<trkpt lon="13.596863" lat="47.36354"><ele><![CDATA[1660]]></ele></trkpt>
<trkpt lon="13.596828" lat="47.363704"><ele><![CDATA[1661]]></ele></trkpt>
<trkpt lon="13.596793" lat="47.363766"><ele><![CDATA[1661]]></ele></trkpt>
<trkpt lon="13.596798" lat="47.363789"><ele><![CDATA[1661]]></ele></trkpt>
<trkpt lon="13.59682" lat="47.363818"><ele><![CDATA[1661]]></ele></trkpt>
<trkpt lon="13.596838" lat="47.363836"><ele><![CDATA[1661]]></ele></trkpt>
<trkpt lon="13.596903" lat="47.363883"><ele><![CDATA[1661]]></ele></trkpt>
<trkpt lon="13.596914" lat="47.363903"><ele><![CDATA[1661]]></ele></trkpt>
<trkpt lon="13.596916" lat="47.363927"><ele><![CDATA[1661]]></ele></trkpt>
<trkpt lon="13.596891" lat="47.363991"><ele><![CDATA[1661]]></ele></trkpt>
<trkpt lon="13.596893" lat="47.36403"><ele><![CDATA[1660]]></ele></trkpt>
<trkpt lon="13.596866" lat="47.364109"><ele><![CDATA[1658]]></ele></trkpt>
<trkpt lon="13.596866" lat="47.364131"><ele><![CDATA[1658]]></ele></trkpt>
<trkpt lon="13.59688" lat="47.364179"><ele><![CDATA[1656]]></ele></trkpt>
<trkpt lon="13.59684" lat="47.36427"><ele><![CDATA[1656]]></ele></trkpt>
<trkpt lon="13.596848" lat="47.364328"><ele><![CDATA[1657]]></ele></trkpt>
<trkpt lon="13.596861" lat="47.36437"><ele><![CDATA[1657]]></ele></trkpt>
<trkpt lon="13.596893" lat="47.364412"><ele><![CDATA[1656]]></ele></trkpt>
<trkpt lon="13.596911" lat="47.364446"><ele><![CDATA[1655]]></ele></trkpt>
<trkpt lon="13.59692" lat="47.364477"><ele><![CDATA[1655]]></ele></trkpt>
<trkpt lon="13.596911" lat="47.364523"><ele><![CDATA[1654]]></ele></trkpt>
<trkpt lon="13.59685" lat="47.364659"><ele><![CDATA[1653]]></ele></trkpt>
<trkpt lon="13.596827" lat="47.364698"><ele><![CDATA[1652]]></ele></trkpt>
<trkpt lon="13.596787" lat="47.364732"><ele><![CDATA[1651]]></ele></trkpt>
<trkpt lon="13.596732" lat="47.364759"><ele><![CDATA[1651]]></ele></trkpt>
<trkpt lon="13.596667" lat="47.364776"><ele><![CDATA[1652]]></ele></trkpt>
<trkpt lon="13.596624" lat="47.364794"><ele><![CDATA[1652]]></ele></trkpt>
<trkpt lon="13.596597" lat="47.364823"><ele><![CDATA[1652]]></ele></trkpt>
<trkpt lon="13.59657" lat="47.3649"><ele><![CDATA[1650]]></ele></trkpt>
<trkpt lon="13.59654" lat="47.364946"><ele><![CDATA[1649]]></ele></trkpt>
<trkpt lon="13.596455" lat="47.365036"><ele><![CDATA[1648]]></ele></trkpt>
<trkpt lon="13.596426" lat="47.365061"><ele><![CDATA[1647]]></ele></trkpt>
<trkpt lon="13.596343" lat="47.36509"><ele><![CDATA[1648]]></ele></trkpt>
<trkpt lon="13.596304" lat="47.365119"><ele><![CDATA[1647]]></ele></trkpt>
<trkpt lon="13.596239" lat="47.365151"><ele><![CDATA[1646]]></ele></trkpt>
<trkpt lon="13.596199" lat="47.365186"><ele><![CDATA[1645]]></ele></trkpt>
<trkpt lon="13.596149" lat="47.365211"><ele><![CDATA[1645]]></ele></trkpt>
<trkpt lon="13.596021" lat="47.365244"><ele><![CDATA[1645]]></ele></trkpt>
<trkpt lon="13.595983" lat="47.365269"><ele><![CDATA[1644]]></ele></trkpt>
<trkpt lon="13.595952" lat="47.3653"><ele><![CDATA[1644]]></ele></trkpt>
<trkpt lon="13.59594" lat="47.365335"><ele><![CDATA[1643]]></ele></trkpt>
<trkpt lon="13.59595" lat="47.365365"><ele><![CDATA[1642]]></ele></trkpt>
<trkpt lon="13.595985" lat="47.365399"><ele><![CDATA[1641]]></ele></trkpt>
<trkpt lon="13.596047" lat="47.365419"><ele><![CDATA[1641]]></ele></trkpt>
<trkpt lon="13.596131" lat="47.365437"><ele><![CDATA[1640]]></ele></trkpt>
<trkpt lon="13.596181" lat="47.365456"><ele><![CDATA[1640]]></ele></trkpt>
<trkpt lon="13.596209" lat="47.365477"><ele><![CDATA[1640]]></ele></trkpt>
</trkseg>
</trk>
</gpx>
