<?xml version="1.0" encoding="UTF-8"?><gpx xmlns="http://www.topografix.com/GPX/1/1" creator="CONTWISE MAPS" xsi:schemaLocation="http://www.topografix.com/GPX/1/1 http://www.topografix.com/GPX/1/1/gpx.xsd http://www.topografix.com/GPX/gpx_overlay/0/3 http://www.topografix.com/GPX/gpx_overlay/0/3/gpx_overlay.xsd http://www.topografix.com/GPX/gpx_modified/0/1 http://www.topografix.com/GPX/gpx_modified/0/1/gpx_modified.xsd http://www.topografix.com/GPX/Private/TopoGrafix/0/3 http://www.topografix.com/GPX/Private/TopoGrafix/0/3/topografix.xsd" xmlns:xsi="http://www.w3.org/2001/XMLSchema-instance" version="1.1"><trk><name><![CDATA[enduro_trail_-_reiteralm__108_148935482]]></name><extensions><label xmlns="http://www.topografix.com/GPX/gpx_overlay/0/3"></label>
</extensions>
<trkseg><trkpt lon="13.597095" lat="47.373359"><ele><![CDATA[1407]]></ele></trkpt>
<trkpt lon="13.596994" lat="47.373361"><ele><![CDATA[1406]]></ele></trkpt>
<trkpt lon="13.596911" lat="47.373367"><ele><![CDATA[1405]]></ele></trkpt>
<trkpt lon="13.596869" lat="47.373354"><ele><![CDATA[1406]]></ele></trkpt>
<trkpt lon="13.596762" lat="47.373345"><ele><![CDATA[1405]]></ele></trkpt>
<trkpt lon="13.596736" lat="47.37334"><ele><![CDATA[1405]]></ele></trkpt>
<trkpt lon="13.596637" lat="47.373341"><ele><![CDATA[1405]]></ele></trkpt>
<trkpt lon="13.596449" lat="47.373354"><ele><![CDATA[1403]]></ele></trkpt>
<trkpt lon="13.596412" lat="47.373342"><ele><![CDATA[1403]]></ele></trkpt>
<trkpt lon="13.59639" lat="47.373332"><ele><![CDATA[1403]]></ele></trkpt>
<trkpt lon="13.596336" lat="47.373344"><ele><![CDATA[1401]]></ele></trkpt>
<trkpt lon="13.596276" lat="47.373343"><ele><![CDATA[1400]]></ele></trkpt>
<trkpt lon="13.596237" lat="47.373338"><ele><![CDATA[1400]]></ele></trkpt>
<trkpt lon="13.596149" lat="47.373315"><ele><![CDATA[1398]]></ele></trkpt>
<trkpt lon="13.596099" lat="47.37329"><ele><![CDATA[1397]]></ele></trkpt>
<trkpt lon="13.596076" lat="47.373274"><ele><![CDATA[1397]]></ele></trkpt>
<trkpt lon="13.596072" lat="47.373221"><ele><![CDATA[1398]]></ele></trkpt>
<trkpt lon="13.596059" lat="47.373201"><ele><![CDATA[1398]]></ele></trkpt>
<trkpt lon="13.596027" lat="47.373181"><ele><![CDATA[1398]]></ele></trkpt>
<trkpt lon="13.595995" lat="47.373172"><ele><![CDATA[1397]]></ele></trkpt>
<trkpt lon="13.595934" lat="47.373142"><ele><![CDATA[1397]]></ele></trkpt>
<trkpt lon="13.595936" lat="47.373111"><ele><![CDATA[1398]]></ele></trkpt>
<trkpt lon="13.595862" lat="47.373064"><ele><![CDATA[1398]]></ele></trkpt>
<trkpt lon="13.595832" lat="47.373056"><ele><![CDATA[1397]]></ele></trkpt>
<trkpt lon="13.595774" lat="47.373001"><ele><![CDATA[1396]]></ele></trkpt>
<trkpt lon="13.595747" lat="47.372959"><ele><![CDATA[1395]]></ele></trkpt>
<trkpt lon="13.595756" lat="47.372931"><ele><![CDATA[1395]]></ele></trkpt>
<trkpt lon="13.595798" lat="47.372886"><ele><![CDATA[1394]]></ele></trkpt>
<trkpt lon="13.59586" lat="47.372853"><ele><![CDATA[1394]]></ele></trkpt>
<trkpt lon="13.59588" lat="47.372829"><ele><![CDATA[1393]]></ele></trkpt>
<trkpt lon="13.595897" lat="47.372797"><ele><![CDATA[1392]]></ele></trkpt>
<trkpt lon="13.595969" lat="47.372764"><ele><![CDATA[1393]]></ele></trkpt>
<trkpt lon="13.595992" lat="47.372738"><ele><![CDATA[1393]]></ele></trkpt>
<trkpt lon="13.595993" lat="47.372699"><ele><![CDATA[1393]]></ele></trkpt>
<trkpt lon="13.595973" lat="47.372666"><ele><![CDATA[1393]]></ele></trkpt>
<trkpt lon="13.595955" lat="47.372651"><ele><![CDATA[1394]]></ele></trkpt>
<trkpt lon="13.595891" lat="47.372638"><ele><![CDATA[1393]]></ele></trkpt>
<trkpt lon="13.595859" lat="47.372628"><ele><![CDATA[1392]]></ele></trkpt>
<trkpt lon="13.595835" lat="47.372642"><ele><![CDATA[1391]]></ele></trkpt>
<trkpt lon="13.595813" lat="47.372649"><ele><![CDATA[1391]]></ele></trkpt>
<trkpt lon="13.595801" lat="47.372662"><ele><![CDATA[1390]]></ele></trkpt>
<trkpt lon="13.5958" lat="47.372677"><ele><![CDATA[1389]]></ele></trkpt>
<trkpt lon="13.595793" lat="47.372693"><ele><![CDATA[1389]]></ele></trkpt>
<trkpt lon="13.595778" lat="47.372713"><ele><![CDATA[1388]]></ele></trkpt>
<trkpt lon="13.595736" lat="47.372747"><ele><![CDATA[1387]]></ele></trkpt>
<trkpt lon="13.59571" lat="47.372758"><ele><![CDATA[1387]]></ele></trkpt>
<trkpt lon="13.595696" lat="47.372776"><ele><![CDATA[1387]]></ele></trkpt>
<trkpt lon="13.595635" lat="47.372795"><ele><![CDATA[1385]]></ele></trkpt>
<trkpt lon="13.595596" lat="47.372812"><ele><![CDATA[1385]]></ele></trkpt>
<trkpt lon="13.595567" lat="47.372818"><ele><![CDATA[1384]]></ele></trkpt>
<trkpt lon="13.595541" lat="47.37282"><ele><![CDATA[1384]]></ele></trkpt>
<trkpt lon="13.595495" lat="47.372847"><ele><![CDATA[1384]]></ele></trkpt>
<trkpt lon="13.595465" lat="47.372911"><ele><![CDATA[1386]]></ele></trkpt>
<trkpt lon="13.595456" lat="47.372923"><ele><![CDATA[1386]]></ele></trkpt>
<trkpt lon="13.595405" lat="47.372955"><ele><![CDATA[1386]]></ele></trkpt>
<trkpt lon="13.595377" lat="47.372953"><ele><![CDATA[1386]]></ele></trkpt>
<trkpt lon="13.595339" lat="47.372948"><ele><![CDATA[1385]]></ele></trkpt>
<trkpt lon="13.59531" lat="47.372937"><ele><![CDATA[1384]]></ele></trkpt>
<trkpt lon="13.595306" lat="47.372913"><ele><![CDATA[1384]]></ele></trkpt>
<trkpt lon="13.595323" lat="47.372884"><ele><![CDATA[1383]]></ele></trkpt>
<trkpt lon="13.595424" lat="47.372817"><ele><![CDATA[1381]]></ele></trkpt>
<trkpt lon="13.595445" lat="47.372754"><ele><![CDATA[1380]]></ele></trkpt>
<trkpt lon="13.59544" lat="47.372729"><ele><![CDATA[1380]]></ele></trkpt>
<trkpt lon="13.595422" lat="47.372716"><ele><![CDATA[1379]]></ele></trkpt>
<trkpt lon="13.595419" lat="47.372699"><ele><![CDATA[1379]]></ele></trkpt>
<trkpt lon="13.595422" lat="47.372677"><ele><![CDATA[1380]]></ele></trkpt>
<trkpt lon="13.595391" lat="47.372654"><ele><![CDATA[1380]]></ele></trkpt>
<trkpt lon="13.595311" lat="47.372631"><ele><![CDATA[1379]]></ele></trkpt>
<trkpt lon="13.59528" lat="47.372629"><ele><![CDATA[1379]]></ele></trkpt>
<trkpt lon="13.595213" lat="47.37264"><ele><![CDATA[1377]]></ele></trkpt>
<trkpt lon="13.595172" lat="47.372637"><ele><![CDATA[1377]]></ele></trkpt>
<trkpt lon="13.595093" lat="47.372618"><ele><![CDATA[1377]]></ele></trkpt>
<trkpt lon="13.595073" lat="47.372609"><ele><![CDATA[1377]]></ele></trkpt>
<trkpt lon="13.595043" lat="47.372602"><ele><![CDATA[1377]]></ele></trkpt>
<trkpt lon="13.595002" lat="47.372571"><ele><![CDATA[1377]]></ele></trkpt>
<trkpt lon="13.594948" lat="47.372565"><ele><![CDATA[1377]]></ele></trkpt>
<trkpt lon="13.594927" lat="47.372568"><ele><![CDATA[1376]]></ele></trkpt>
<trkpt lon="13.594879" lat="47.372553"><ele><![CDATA[1376]]></ele></trkpt>
<trkpt lon="13.594855" lat="47.372549"><ele><![CDATA[1376]]></ele></trkpt>
<trkpt lon="13.594795" lat="47.372511"><ele><![CDATA[1375]]></ele></trkpt>
<trkpt lon="13.594801" lat="47.372495"><ele><![CDATA[1376]]></ele></trkpt>
<trkpt lon="13.594794" lat="47.372484"><ele><![CDATA[1376]]></ele></trkpt>
<trkpt lon="13.594751" lat="47.372451"><ele><![CDATA[1376]]></ele></trkpt>
<trkpt lon="13.594705" lat="47.372437"><ele><![CDATA[1375]]></ele></trkpt>
<trkpt lon="13.594691" lat="47.372422"><ele><![CDATA[1375]]></ele></trkpt>
<trkpt lon="13.59466" lat="47.372398"><ele><![CDATA[1375]]></ele></trkpt>
<trkpt lon="13.594626" lat="47.372386"><ele><![CDATA[1375]]></ele></trkpt>
<trkpt lon="13.594614" lat="47.372368"><ele><![CDATA[1374]]></ele></trkpt>
<trkpt lon="13.594611" lat="47.372338"><ele><![CDATA[1374]]></ele></trkpt>
<trkpt lon="13.594573" lat="47.372321"><ele><![CDATA[1373]]></ele></trkpt>
<trkpt lon="13.594551" lat="47.372319"><ele><![CDATA[1372]]></ele></trkpt>
<trkpt lon="13.594529" lat="47.372323"><ele><![CDATA[1371]]></ele></trkpt>
<trkpt lon="13.594511" lat="47.372345"><ele><![CDATA[1371]]></ele></trkpt>
<trkpt lon="13.594512" lat="47.372364"><ele><![CDATA[1372]]></ele></trkpt>
<trkpt lon="13.594531" lat="47.372385"><ele><![CDATA[1372]]></ele></trkpt>
<trkpt lon="13.594556" lat="47.372403"><ele><![CDATA[1373]]></ele></trkpt>
<trkpt lon="13.59456" lat="47.372453"><ele><![CDATA[1371]]></ele></trkpt>
<trkpt lon="13.594577" lat="47.372473"><ele><![CDATA[1371]]></ele></trkpt>
<trkpt lon="13.594604" lat="47.372484"><ele><![CDATA[1371]]></ele></trkpt>
<trkpt lon="13.594623" lat="47.372502"><ele><![CDATA[1371]]></ele></trkpt>
<trkpt lon="13.594623" lat="47.372524"><ele><![CDATA[1370]]></ele></trkpt>
<trkpt lon="13.594632" lat="47.372543"><ele><![CDATA[1369]]></ele></trkpt>
<trkpt lon="13.594651" lat="47.37255"><ele><![CDATA[1370]]></ele></trkpt>
<trkpt lon="13.594668" lat="47.372566"><ele><![CDATA[1369]]></ele></trkpt>
<trkpt lon="13.594698" lat="47.372572"><ele><![CDATA[1370]]></ele></trkpt>
<trkpt lon="13.594717" lat="47.37259"><ele><![CDATA[1370]]></ele></trkpt>
<trkpt lon="13.594751" lat="47.372596"><ele><![CDATA[1371]]></ele></trkpt>
<trkpt lon="13.594779" lat="47.37263"><ele><![CDATA[1370]]></ele></trkpt>
<trkpt lon="13.594925" lat="47.372722"><ele><![CDATA[1369]]></ele></trkpt>
<trkpt lon="13.594997" lat="47.372752"><ele><![CDATA[1370]]></ele></trkpt>
<trkpt lon="13.59501" lat="47.372767"><ele><![CDATA[1371]]></ele></trkpt>
<trkpt lon="13.595007" lat="47.372788"><ele><![CDATA[1372]]></ele></trkpt>
<trkpt lon="13.594978" lat="47.372797"><ele><![CDATA[1372]]></ele></trkpt>
<trkpt lon="13.594922" lat="47.372804"><ele><![CDATA[1370]]></ele></trkpt>
<trkpt lon="13.594893" lat="47.372793"><ele><![CDATA[1369]]></ele></trkpt>
<trkpt lon="13.594876" lat="47.372773"><ele><![CDATA[1367]]></ele></trkpt>
<trkpt lon="13.594871" lat="47.372756"><ele><![CDATA[1367]]></ele></trkpt>
<trkpt lon="13.594826" lat="47.372732"><ele><![CDATA[1366]]></ele></trkpt>
<trkpt lon="13.594794" lat="47.372722"><ele><![CDATA[1365]]></ele></trkpt>
<trkpt lon="13.594781" lat="47.372708"><ele><![CDATA[1366]]></ele></trkpt>
<trkpt lon="13.594751" lat="47.372686"><ele><![CDATA[1366]]></ele></trkpt>
<trkpt lon="13.594693" lat="47.372658"><ele><![CDATA[1365]]></ele></trkpt>
<trkpt lon="13.594693" lat="47.37264"><ele><![CDATA[1366]]></ele></trkpt>
<trkpt lon="13.594609" lat="47.37261"><ele><![CDATA[1365]]></ele></trkpt>
<trkpt lon="13.594588" lat="47.372588"><ele><![CDATA[1366]]></ele></trkpt>
<trkpt lon="13.594567" lat="47.372582"><ele><![CDATA[1365]]></ele></trkpt>
<trkpt lon="13.594532" lat="47.372578"><ele><![CDATA[1364]]></ele></trkpt>
<trkpt lon="13.594498" lat="47.372558"><ele><![CDATA[1364]]></ele></trkpt>
<trkpt lon="13.594464" lat="47.372533"><ele><![CDATA[1364]]></ele></trkpt>
<trkpt lon="13.594445" lat="47.372513"><ele><![CDATA[1364]]></ele></trkpt>
<trkpt lon="13.594414" lat="47.37249"><ele><![CDATA[1364]]></ele></trkpt>
<trkpt lon="13.594386" lat="47.372459"><ele><![CDATA[1364]]></ele></trkpt>
<trkpt lon="13.594343" lat="47.372432"><ele><![CDATA[1364]]></ele></trkpt>
<trkpt lon="13.594333" lat="47.372407"><ele><![CDATA[1364]]></ele></trkpt>
<trkpt lon="13.594306" lat="47.372397"><ele><![CDATA[1364]]></ele></trkpt>
<trkpt lon="13.594268" lat="47.372401"><ele><![CDATA[1363]]></ele></trkpt>
<trkpt lon="13.594235" lat="47.372415"><ele><![CDATA[1362]]></ele></trkpt>
<trkpt lon="13.594212" lat="47.372441"><ele><![CDATA[1362]]></ele></trkpt>
<trkpt lon="13.594192" lat="47.372456"><ele><![CDATA[1362]]></ele></trkpt>
<trkpt lon="13.594167" lat="47.372461"><ele><![CDATA[1362]]></ele></trkpt>
<trkpt lon="13.594119" lat="47.372455"><ele><![CDATA[1362]]></ele></trkpt>
<trkpt lon="13.593976" lat="47.372389"><ele><![CDATA[1362]]></ele></trkpt>
<trkpt lon="13.593863" lat="47.372341"><ele><![CDATA[1360]]></ele></trkpt>
<trkpt lon="13.593712" lat="47.372308"><ele><![CDATA[1359]]></ele></trkpt>
<trkpt lon="13.593632" lat="47.372303"><ele><![CDATA[1358]]></ele></trkpt>
<trkpt lon="13.593585" lat="47.372307"><ele><![CDATA[1357]]></ele></trkpt>
<trkpt lon="13.593661" lat="47.372315"><ele><![CDATA[1357]]></ele></trkpt>
<trkpt lon="13.593696" lat="47.372344"><ele><![CDATA[1357]]></ele></trkpt>
<trkpt lon="13.593698" lat="47.372349"><ele><![CDATA[1357]]></ele></trkpt>
<trkpt lon="13.593783" lat="47.372377"><ele><![CDATA[1358]]></ele></trkpt>
<trkpt lon="13.593804" lat="47.372396"><ele><![CDATA[1358]]></ele></trkpt>
<trkpt lon="13.593815" lat="47.372419"><ele><![CDATA[1357]]></ele></trkpt>
<trkpt lon="13.593861" lat="47.372443"><ele><![CDATA[1357]]></ele></trkpt>
<trkpt lon="13.593983" lat="47.372557"><ele><![CDATA[1354]]></ele></trkpt>
<trkpt lon="13.594012" lat="47.372628"><ele><![CDATA[1351]]></ele></trkpt>
<trkpt lon="13.594122" lat="47.372685"><ele><![CDATA[1352]]></ele></trkpt>
<trkpt lon="13.594203" lat="47.372808"><ele><![CDATA[1350]]></ele></trkpt>
<trkpt lon="13.594193" lat="47.372888"><ele><![CDATA[1349]]></ele></trkpt>
<trkpt lon="13.59416" lat="47.372962"><ele><![CDATA[1349]]></ele></trkpt>
<trkpt lon="13.594145" lat="47.37298"><ele><![CDATA[1349]]></ele></trkpt>
<trkpt lon="13.594125" lat="47.372992"><ele><![CDATA[1349]]></ele></trkpt>
<trkpt lon="13.594111" lat="47.372992"><ele><![CDATA[1348]]></ele></trkpt>
<trkpt lon="13.594102" lat="47.37299"><ele><![CDATA[1348]]></ele></trkpt>
<trkpt lon="13.594082" lat="47.372976"><ele><![CDATA[1347]]></ele></trkpt>
<trkpt lon="13.59406" lat="47.372951"><ele><![CDATA[1347]]></ele></trkpt>
<trkpt lon="13.594051" lat="47.372932"><ele><![CDATA[1346]]></ele></trkpt>
<trkpt lon="13.594068" lat="47.372877"><ele><![CDATA[1346]]></ele></trkpt>
<trkpt lon="13.59407" lat="47.37286"><ele><![CDATA[1346]]></ele></trkpt>
<trkpt lon="13.594064" lat="47.372844"><ele><![CDATA[1346]]></ele></trkpt>
<trkpt lon="13.594038" lat="47.372829"><ele><![CDATA[1345]]></ele></trkpt>
<trkpt lon="13.594006" lat="47.372829"><ele><![CDATA[1345]]></ele></trkpt>
<trkpt lon="13.59397" lat="47.372841"><ele><![CDATA[1344]]></ele></trkpt>
<trkpt lon="13.593959" lat="47.372848"><ele><![CDATA[1343]]></ele></trkpt>
<trkpt lon="13.59395" lat="47.372858"><ele><![CDATA[1343]]></ele></trkpt>
<trkpt lon="13.593877" lat="47.372996"><ele><![CDATA[1343]]></ele></trkpt>
<trkpt lon="13.593882" lat="47.373031"><ele><![CDATA[1342]]></ele></trkpt>
<trkpt lon="13.594032" lat="47.37315"><ele><![CDATA[1343]]></ele></trkpt>
<trkpt lon="13.594048" lat="47.373223"><ele><![CDATA[1341]]></ele></trkpt>
<trkpt lon="13.594197" lat="47.373376"><ele><![CDATA[1338]]></ele></trkpt>
<trkpt lon="13.59437" lat="47.37363"><ele><![CDATA[1335]]></ele></trkpt>
<trkpt lon="13.594694" lat="47.373879"><ele><![CDATA[1334]]></ele></trkpt>
<trkpt lon="13.594778" lat="47.374008"><ele><![CDATA[1331]]></ele></trkpt>
<trkpt lon="13.594791" lat="47.374223"><ele><![CDATA[1329]]></ele></trkpt>
<trkpt lon="13.594887" lat="47.374295"><ele><![CDATA[1330]]></ele></trkpt>
<trkpt lon="13.594945" lat="47.374368"><ele><![CDATA[1328]]></ele></trkpt>
<trkpt lon="13.595085" lat="47.374385"><ele><![CDATA[1327]]></ele></trkpt>
<trkpt lon="13.59523" lat="47.374369"><ele><![CDATA[1327]]></ele></trkpt>
<trkpt lon="13.595368" lat="47.374408"><ele><![CDATA[1325]]></ele></trkpt>
<trkpt lon="13.595477" lat="47.374419"><ele><![CDATA[1326]]></ele></trkpt>
</trkseg>
</trk>
</gpx>
