<?xml version="1.0" encoding="UTF-8"?><gpx xmlns="http://www.topografix.com/GPX/1/1" creator="CONTWISE MAPS" xsi:schemaLocation="http://www.topografix.com/GPX/1/1 http://www.topografix.com/GPX/1/1/gpx.xsd http://www.topografix.com/GPX/gpx_overlay/0/3 http://www.topografix.com/GPX/gpx_overlay/0/3/gpx_overlay.xsd http://www.topografix.com/GPX/gpx_modified/0/1 http://www.topografix.com/GPX/gpx_modified/0/1/gpx_modified.xsd http://www.topografix.com/GPX/Private/TopoGrafix/0/3 http://www.topografix.com/GPX/Private/TopoGrafix/0/3/topografix.xsd" xmlns:xsi="http://www.w3.org/2001/XMLSchema-instance" version="1.1"><trk><name><![CDATA[reiteralm_junior_trails__105_148935319]]></name><extensions><label xmlns="http://www.topografix.com/GPX/gpx_overlay/0/3"></label>
</extensions>
<trkseg><trkpt lon="13.594801" lat="47.361166"><ele><![CDATA[1707]]></ele></trkpt>
<trkpt lon="13.594337" lat="47.360606"><ele><![CDATA[1722]]></ele></trkpt>
<trkpt lon="13.594366" lat="47.36057"><ele><![CDATA[1721]]></ele></trkpt>
<trkpt lon="13.594629" lat="47.360472"><ele><![CDATA[1717]]></ele></trkpt>
<trkpt lon="13.59454" lat="47.360552"><ele><![CDATA[1718]]></ele></trkpt>
<trkpt lon="13.594471" lat="47.360592"><ele><![CDATA[1719]]></ele></trkpt>
<trkpt lon="13.59443" lat="47.360632"><ele><![CDATA[1720]]></ele></trkpt>
<trkpt lon="13.594492" lat="47.360633"><ele><![CDATA[1719]]></ele></trkpt>
<trkpt lon="13.59457" lat="47.36059"><ele><![CDATA[1718]]></ele></trkpt>
<trkpt lon="13.594645" lat="47.360544"><ele><![CDATA[1717]]></ele></trkpt>
<trkpt lon="13.594701" lat="47.360555"><ele><![CDATA[1717]]></ele></trkpt>
<trkpt lon="13.594701" lat="47.360592"><ele><![CDATA[1717]]></ele></trkpt>
<trkpt lon="13.59465" lat="47.360621"><ele><![CDATA[1717]]></ele></trkpt>
<trkpt lon="13.594562" lat="47.36065"><ele><![CDATA[1718]]></ele></trkpt>
<trkpt lon="13.5945" lat="47.360675"><ele><![CDATA[1718]]></ele></trkpt>
<trkpt lon="13.594492" lat="47.360719"><ele><![CDATA[1718]]></ele></trkpt>
<trkpt lon="13.594573" lat="47.360701"><ele><![CDATA[1717]]></ele></trkpt>
<trkpt lon="13.594661" lat="47.360673"><ele><![CDATA[1716]]></ele></trkpt>
<trkpt lon="13.594739" lat="47.360646"><ele><![CDATA[1716]]></ele></trkpt>
<trkpt lon="13.594787" lat="47.360677"><ele><![CDATA[1715]]></ele></trkpt>
<trkpt lon="13.594723" lat="47.360712"><ele><![CDATA[1715]]></ele></trkpt>
<trkpt lon="13.594624" lat="47.360733"><ele><![CDATA[1716]]></ele></trkpt>
<trkpt lon="13.594538" lat="47.360762"><ele><![CDATA[1717]]></ele></trkpt>
<trkpt lon="13.594559" lat="47.360799"><ele><![CDATA[1716]]></ele></trkpt>
<trkpt lon="13.594642" lat="47.360771"><ele><![CDATA[1715]]></ele></trkpt>
<trkpt lon="13.594725" lat="47.360741"><ele><![CDATA[1714]]></ele></trkpt>
<trkpt lon="13.594809" lat="47.360722"><ele><![CDATA[1714]]></ele></trkpt>
<trkpt lon="13.594854" lat="47.360773"><ele><![CDATA[1712]]></ele></trkpt>
<trkpt lon="13.594648" lat="47.360848"><ele><![CDATA[1713]]></ele></trkpt>
<trkpt lon="13.594672" lat="47.360915"><ele><![CDATA[1712]]></ele></trkpt>
<trkpt lon="13.594846" lat="47.360873"><ele><![CDATA[1710]]></ele></trkpt>
<trkpt lon="13.59494" lat="47.360871"><ele><![CDATA[1709]]></ele></trkpt>
<trkpt lon="13.594913" lat="47.36093"><ele><![CDATA[1709]]></ele></trkpt>
<trkpt lon="13.594733" lat="47.36097"><ele><![CDATA[1711]]></ele></trkpt>
<trkpt lon="13.594784" lat="47.361009"><ele><![CDATA[1710]]></ele></trkpt>
<trkpt lon="13.59497" lat="47.360971"><ele><![CDATA[1708]]></ele></trkpt>
<trkpt lon="13.595007" lat="47.361009"><ele><![CDATA[1707]]></ele></trkpt>
<trkpt lon="13.594827" lat="47.361131"><ele><![CDATA[1708]]></ele></trkpt>
</trkseg>
</trk>
</gpx>
