<?xml version="1.0" encoding="UTF-8"?><gpx xmlns="http://www.topografix.com/GPX/1/1" creator="CONTWISE MAPS" xsi:schemaLocation="http://www.topografix.com/GPX/1/1 http://www.topografix.com/GPX/1/1/gpx.xsd http://www.topografix.com/GPX/gpx_overlay/0/3 http://www.topografix.com/GPX/gpx_overlay/0/3/gpx_overlay.xsd http://www.topografix.com/GPX/gpx_modified/0/1 http://www.topografix.com/GPX/gpx_modified/0/1/gpx_modified.xsd http://www.topografix.com/GPX/Private/TopoGrafix/0/3 http://www.topografix.com/GPX/Private/TopoGrafix/0/3/topografix.xsd" xmlns:xsi="http://www.w3.org/2001/XMLSchema-instance" version="1.1"><trk><name><![CDATA[upload_0_182612716]]></name><extensions><label xmlns="http://www.topografix.com/GPX/gpx_overlay/0/3"></label>
</extensions>
<trkseg><trkpt lon="13.595891" lat="47.359915"><ele><![CDATA[1739]]></ele></trkpt>
<trkpt lon="13.595917" lat="47.359949"><ele><![CDATA[1738]]></ele></trkpt>
<trkpt lon="13.595968" lat="47.359955"><ele><![CDATA[1738]]></ele></trkpt>
<trkpt lon="13.596026" lat="47.359952"><ele><![CDATA[1738]]></ele></trkpt>
<trkpt lon="13.596164" lat="47.359905"><ele><![CDATA[1738]]></ele></trkpt>
<trkpt lon="13.596246" lat="47.359907"><ele><![CDATA[1737]]></ele></trkpt>
<trkpt lon="13.596281" lat="47.359983"><ele><![CDATA[1735]]></ele></trkpt>
<trkpt lon="13.596407" lat="47.360089"><ele><![CDATA[1734]]></ele></trkpt>
<trkpt lon="13.596442" lat="47.36007"><ele><![CDATA[1733]]></ele></trkpt>
<trkpt lon="13.596446" lat="47.360008"><ele><![CDATA[1732]]></ele></trkpt>
<trkpt lon="13.596411" lat="47.359902"><ele><![CDATA[1733]]></ele></trkpt>
<trkpt lon="13.596449" lat="47.359892"><ele><![CDATA[1731]]></ele></trkpt>
<trkpt lon="13.596509" lat="47.359908"><ele><![CDATA[1730]]></ele></trkpt>
<trkpt lon="13.596742" lat="47.360078"><ele><![CDATA[1726]]></ele></trkpt>
<trkpt lon="13.596783" lat="47.360194"><ele><![CDATA[1726]]></ele></trkpt>
<trkpt lon="13.596831" lat="47.360218"><ele><![CDATA[1725]]></ele></trkpt>
<trkpt lon="13.596849" lat="47.360254"><ele><![CDATA[1724]]></ele></trkpt>
<trkpt lon="13.596834" lat="47.360314"><ele><![CDATA[1724]]></ele></trkpt>
<trkpt lon="13.596781" lat="47.360385"><ele><![CDATA[1723]]></ele></trkpt>
<trkpt lon="13.596669" lat="47.360452"><ele><![CDATA[1721]]></ele></trkpt>
<trkpt lon="13.596519" lat="47.360506"><ele><![CDATA[1720]]></ele></trkpt>
<trkpt lon="13.596203" lat="47.360585"><ele><![CDATA[1720]]></ele></trkpt>
<trkpt lon="13.596165" lat="47.360647"><ele><![CDATA[1719]]></ele></trkpt>
<trkpt lon="13.595958" lat="47.360809"><ele><![CDATA[1715]]></ele></trkpt>
<trkpt lon="13.595904" lat="47.360806"><ele><![CDATA[1715]]></ele></trkpt>
<trkpt lon="13.595705" lat="47.360747"><ele><![CDATA[1716]]></ele></trkpt>
<trkpt lon="13.595513" lat="47.360748"><ele><![CDATA[1714]]></ele></trkpt>
<trkpt lon="13.595357" lat="47.360767"><ele><![CDATA[1711]]></ele></trkpt>
<trkpt lon="13.595276" lat="47.360755"><ele><![CDATA[1711]]></ele></trkpt>
<trkpt lon="13.595152" lat="47.360797"><ele><![CDATA[1710]]></ele></trkpt>
<trkpt lon="13.59509" lat="47.360848"><ele><![CDATA[1709]]></ele></trkpt>
<trkpt lon="13.595153" lat="47.360949"><ele><![CDATA[1706]]></ele></trkpt>
<trkpt lon="13.595271" lat="47.36101"><ele><![CDATA[1705]]></ele></trkpt>
<trkpt lon="13.5955" lat="47.361014"><ele><![CDATA[1704]]></ele></trkpt>
<trkpt lon="13.595605" lat="47.361049"><ele><![CDATA[1703]]></ele></trkpt>
<trkpt lon="13.595635" lat="47.361126"><ele><![CDATA[1702]]></ele></trkpt>
<trkpt lon="13.595617" lat="47.361159"><ele><![CDATA[1702]]></ele></trkpt>
<trkpt lon="13.595529" lat="47.361204"><ele><![CDATA[1702]]></ele></trkpt>
<trkpt lon="13.595202" lat="47.361451"><ele><![CDATA[1705]]></ele></trkpt>
<trkpt lon="13.594876" lat="47.361839"><ele><![CDATA[1703]]></ele></trkpt>
<trkpt lon="13.594802" lat="47.361866"><ele><![CDATA[1703]]></ele></trkpt>
<trkpt lon="13.594598" lat="47.362025"><ele><![CDATA[1702]]></ele></trkpt>
<trkpt lon="13.594552" lat="47.362081"><ele><![CDATA[1701]]></ele></trkpt>
<trkpt lon="13.594514" lat="47.362278"><ele><![CDATA[1698]]></ele></trkpt>
<trkpt lon="13.594533" lat="47.362353"><ele><![CDATA[1698]]></ele></trkpt>
<trkpt lon="13.594664" lat="47.362442"><ele><![CDATA[1696]]></ele></trkpt>
<trkpt lon="13.594909" lat="47.362491"><ele><![CDATA[1696]]></ele></trkpt>
<trkpt lon="13.594952" lat="47.362539"><ele><![CDATA[1697]]></ele></trkpt>
<trkpt lon="13.595094" lat="47.362585"><ele><![CDATA[1695]]></ele></trkpt>
<trkpt lon="13.595169" lat="47.362674"><ele><![CDATA[1696]]></ele></trkpt>
<trkpt lon="13.595447" lat="47.362856"><ele><![CDATA[1693]]></ele></trkpt>
<trkpt lon="13.595422" lat="47.362882"><ele><![CDATA[1693]]></ele></trkpt>
<trkpt lon="13.595352" lat="47.362907"><ele><![CDATA[1692]]></ele></trkpt>
<trkpt lon="13.59527" lat="47.362905"><ele><![CDATA[1692]]></ele></trkpt>
<trkpt lon="13.595221" lat="47.362929"><ele><![CDATA[1693]]></ele></trkpt>
<trkpt lon="13.595166" lat="47.36316"><ele><![CDATA[1691]]></ele></trkpt>
<trkpt lon="13.595426" lat="47.363442"><ele><![CDATA[1686]]></ele></trkpt>
<trkpt lon="13.595387" lat="47.363573"><ele><![CDATA[1686]]></ele></trkpt>
<trkpt lon="13.595421" lat="47.363615"><ele><![CDATA[1685]]></ele></trkpt>
<trkpt lon="13.59527" lat="47.363712"><ele><![CDATA[1685]]></ele></trkpt>
<trkpt lon="13.595265" lat="47.363729"><ele><![CDATA[1685]]></ele></trkpt>
<trkpt lon="13.595277" lat="47.363743"><ele><![CDATA[1684]]></ele></trkpt>
<trkpt lon="13.595476" lat="47.363769"><ele><![CDATA[1683]]></ele></trkpt>
<trkpt lon="13.595493" lat="47.363815"><ele><![CDATA[1682]]></ele></trkpt>
<trkpt lon="13.595351" lat="47.36398"><ele><![CDATA[1681]]></ele></trkpt>
<trkpt lon="13.595285" lat="47.364025"><ele><![CDATA[1680]]></ele></trkpt>
<trkpt lon="13.5951" lat="47.36408"><ele><![CDATA[1679]]></ele></trkpt>
<trkpt lon="13.595032" lat="47.364125"><ele><![CDATA[1678]]></ele></trkpt>
<trkpt lon="13.594962" lat="47.364217"><ele><![CDATA[1677]]></ele></trkpt>
<trkpt lon="13.59487" lat="47.364255"><ele><![CDATA[1677]]></ele></trkpt>
<trkpt lon="13.594727" lat="47.364274"><ele><![CDATA[1675]]></ele></trkpt>
<trkpt lon="13.59465" lat="47.364263"><ele><![CDATA[1674]]></ele></trkpt>
<trkpt lon="13.594504" lat="47.364188"><ele><![CDATA[1674]]></ele></trkpt>
<trkpt lon="13.594399" lat="47.364184"><ele><![CDATA[1673]]></ele></trkpt>
<trkpt lon="13.594208" lat="47.364093"><ele><![CDATA[1675]]></ele></trkpt>
<trkpt lon="13.594165" lat="47.364106"><ele><![CDATA[1674]]></ele></trkpt>
<trkpt lon="13.594179" lat="47.364132"><ele><![CDATA[1673]]></ele></trkpt>
<trkpt lon="13.594414" lat="47.364295"><ele><![CDATA[1672]]></ele></trkpt>
<trkpt lon="13.594428" lat="47.364316"><ele><![CDATA[1672]]></ele></trkpt>
<trkpt lon="13.594366" lat="47.364327"><ele><![CDATA[1671]]></ele></trkpt>
<trkpt lon="13.594102" lat="47.364214"><ele><![CDATA[1670]]></ele></trkpt>
<trkpt lon="13.593877" lat="47.364144"><ele><![CDATA[1670]]></ele></trkpt>
<trkpt lon="13.593827" lat="47.364147"><ele><![CDATA[1669]]></ele></trkpt>
<trkpt lon="13.593805" lat="47.364166"><ele><![CDATA[1668]]></ele></trkpt>
<trkpt lon="13.593921" lat="47.364255"><ele><![CDATA[1667]]></ele></trkpt>
<trkpt lon="13.594327" lat="47.364502"><ele><![CDATA[1664]]></ele></trkpt>
<trkpt lon="13.59452" lat="47.364555"><ele><![CDATA[1666]]></ele></trkpt>
<trkpt lon="13.594563" lat="47.364598"><ele><![CDATA[1664]]></ele></trkpt>
<trkpt lon="13.594775" lat="47.364707"><ele><![CDATA[1661]]></ele></trkpt>
<trkpt lon="13.594846" lat="47.364725"><ele><![CDATA[1661]]></ele></trkpt>
<trkpt lon="13.594959" lat="47.364794"><ele><![CDATA[1660]]></ele></trkpt>
<trkpt lon="13.595059" lat="47.36482"><ele><![CDATA[1660]]></ele></trkpt>
<trkpt lon="13.595046" lat="47.364838"><ele><![CDATA[1660]]></ele></trkpt>
<trkpt lon="13.59491" lat="47.364847"><ele><![CDATA[1659]]></ele></trkpt>
<trkpt lon="13.594739" lat="47.364804"><ele><![CDATA[1658]]></ele></trkpt>
<trkpt lon="13.594682" lat="47.364747"><ele><![CDATA[1659]]></ele></trkpt>
<trkpt lon="13.594587" lat="47.364764"><ele><![CDATA[1657]]></ele></trkpt>
<trkpt lon="13.594396" lat="47.364726"><ele><![CDATA[1656]]></ele></trkpt>
<trkpt lon="13.594373" lat="47.364694"><ele><![CDATA[1657]]></ele></trkpt>
<trkpt lon="13.594189" lat="47.36465"><ele><![CDATA[1655]]></ele></trkpt>
<trkpt lon="13.594171" lat="47.364665"><ele><![CDATA[1655]]></ele></trkpt>
<trkpt lon="13.594183" lat="47.364695"><ele><![CDATA[1654]]></ele></trkpt>
<trkpt lon="13.59434" lat="47.364808"><ele><![CDATA[1653]]></ele></trkpt>
<trkpt lon="13.594415" lat="47.364827"><ele><![CDATA[1653]]></ele></trkpt>
<trkpt lon="13.594545" lat="47.364922"><ele><![CDATA[1652]]></ele></trkpt>
<trkpt lon="13.594475" lat="47.364968"><ele><![CDATA[1651]]></ele></trkpt>
<trkpt lon="13.594482" lat="47.364985"><ele><![CDATA[1651]]></ele></trkpt>
<trkpt lon="13.594605" lat="47.365002"><ele><![CDATA[1652]]></ele></trkpt>
<trkpt lon="13.594716" lat="47.365037"><ele><![CDATA[1651]]></ele></trkpt>
<trkpt lon="13.594943" lat="47.365048"><ele><![CDATA[1651]]></ele></trkpt>
<trkpt lon="13.595235" lat="47.365234"><ele><![CDATA[1647]]></ele></trkpt>
<trkpt lon="13.595323" lat="47.365258"><ele><![CDATA[1647]]></ele></trkpt>
<trkpt lon="13.595437" lat="47.365263"><ele><![CDATA[1647]]></ele></trkpt>
<trkpt lon="13.595692" lat="47.365348"><ele><![CDATA[1643]]></ele></trkpt>
<trkpt lon="13.595807" lat="47.365365"><ele><![CDATA[1642]]></ele></trkpt>
<trkpt lon="13.595971" lat="47.365449"><ele><![CDATA[1640]]></ele></trkpt>
<trkpt lon="13.596055" lat="47.365473"><ele><![CDATA[1640]]></ele></trkpt>
<trkpt lon="13.596217" lat="47.365482"><ele><![CDATA[1640]]></ele></trkpt>
<trkpt lon="13.596392" lat="47.365534"><ele><![CDATA[1639]]></ele></trkpt>
<trkpt lon="13.596555" lat="47.365486"><ele><![CDATA[1639]]></ele></trkpt>
<trkpt lon="13.596702" lat="47.365505"><ele><![CDATA[1638]]></ele></trkpt>
<trkpt lon="13.596863" lat="47.365475"><ele><![CDATA[1637]]></ele></trkpt>
<trkpt lon="13.597224" lat="47.365466"><ele><![CDATA[1635]]></ele></trkpt>
<trkpt lon="13.597332" lat="47.365412"><ele><![CDATA[1634]]></ele></trkpt>
<trkpt lon="13.597361" lat="47.365366"><ele><![CDATA[1634]]></ele></trkpt>
<trkpt lon="13.597343" lat="47.365321"><ele><![CDATA[1634]]></ele></trkpt>
<trkpt lon="13.597375" lat="47.365295"><ele><![CDATA[1634]]></ele></trkpt>
<trkpt lon="13.597418" lat="47.365293"><ele><![CDATA[1633]]></ele></trkpt>
<trkpt lon="13.597504" lat="47.365351"><ele><![CDATA[1632]]></ele></trkpt>
<trkpt lon="13.597531" lat="47.365341"><ele><![CDATA[1631]]></ele></trkpt>
<trkpt lon="13.597547" lat="47.36531"><ele><![CDATA[1631]]></ele></trkpt>
<trkpt lon="13.597485" lat="47.365231"><ele><![CDATA[1630]]></ele></trkpt>
<trkpt lon="13.597462" lat="47.365167"><ele><![CDATA[1630]]></ele></trkpt>
<trkpt lon="13.597482" lat="47.365111"><ele><![CDATA[1631]]></ele></trkpt>
<trkpt lon="13.597555" lat="47.365075"><ele><![CDATA[1630]]></ele></trkpt>
<trkpt lon="13.597704" lat="47.365053"><ele><![CDATA[1628]]></ele></trkpt>
<trkpt lon="13.597813" lat="47.365017"><ele><![CDATA[1627]]></ele></trkpt>
<trkpt lon="13.598277" lat="47.36496"><ele><![CDATA[1625]]></ele></trkpt>
<trkpt lon="13.598486" lat="47.364968"><ele><![CDATA[1624]]></ele></trkpt>
<trkpt lon="13.59855" lat="47.364947"><ele><![CDATA[1624]]></ele></trkpt>
<trkpt lon="13.598625" lat="47.365046"><ele><![CDATA[1621]]></ele></trkpt>
<trkpt lon="13.59863" lat="47.365087"><ele><![CDATA[1621]]></ele></trkpt>
<trkpt lon="13.598551" lat="47.365138"><ele><![CDATA[1622]]></ele></trkpt>
<trkpt lon="13.598569" lat="47.36516"><ele><![CDATA[1622]]></ele></trkpt>
<trkpt lon="13.598633" lat="47.365161"><ele><![CDATA[1621]]></ele></trkpt>
<trkpt lon="13.598639" lat="47.365133"><ele><![CDATA[1621]]></ele></trkpt>
<trkpt lon="13.598777" lat="47.365005"><ele><![CDATA[1618]]></ele></trkpt>
<trkpt lon="13.598781" lat="47.364917"><ele><![CDATA[1618]]></ele></trkpt>
<trkpt lon="13.598844" lat="47.364825"><ele><![CDATA[1619]]></ele></trkpt>
<trkpt lon="13.598869" lat="47.364817"><ele><![CDATA[1618]]></ele></trkpt>
<trkpt lon="13.598898" lat="47.364831"><ele><![CDATA[1617]]></ele></trkpt>
<trkpt lon="13.598901" lat="47.364866"><ele><![CDATA[1616]]></ele></trkpt>
<trkpt lon="13.598946" lat="47.364923"><ele><![CDATA[1614]]></ele></trkpt>
<trkpt lon="13.598947" lat="47.365012"><ele><![CDATA[1615]]></ele></trkpt>
<trkpt lon="13.598982" lat="47.365102"><ele><![CDATA[1614]]></ele></trkpt>
<trkpt lon="13.598919" lat="47.365202"><ele><![CDATA[1613]]></ele></trkpt>
<trkpt lon="13.598858" lat="47.365233"><ele><![CDATA[1614]]></ele></trkpt>
<trkpt lon="13.598739" lat="47.365384"><ele><![CDATA[1611]]></ele></trkpt>
<trkpt lon="13.598524" lat="47.365505"><ele><![CDATA[1607]]></ele></trkpt>
<trkpt lon="13.598338" lat="47.3655"><ele><![CDATA[1607]]></ele></trkpt>
<trkpt lon="13.598259" lat="47.36552"><ele><![CDATA[1607]]></ele></trkpt>
<trkpt lon="13.598103" lat="47.365636"><ele><![CDATA[1605]]></ele></trkpt>
<trkpt lon="13.598072" lat="47.365686"><ele><![CDATA[1604]]></ele></trkpt>
<trkpt lon="13.597968" lat="47.365741"><ele><![CDATA[1605]]></ele></trkpt>
<trkpt lon="13.597864" lat="47.36589"><ele><![CDATA[1602]]></ele></trkpt>
<trkpt lon="13.597862" lat="47.365922"><ele><![CDATA[1601]]></ele></trkpt>
<trkpt lon="13.597678" lat="47.366122"><ele><![CDATA[1601]]></ele></trkpt>
<trkpt lon="13.59779" lat="47.366258"><ele><![CDATA[1599]]></ele></trkpt>
<trkpt lon="13.597808" lat="47.366342"><ele><![CDATA[1600]]></ele></trkpt>
<trkpt lon="13.597726" lat="47.366514"><ele><![CDATA[1600]]></ele></trkpt>
<trkpt lon="13.597785" lat="47.366534"><ele><![CDATA[1599]]></ele></trkpt>
<trkpt lon="13.597841" lat="47.366511"><ele><![CDATA[1599]]></ele></trkpt>
<trkpt lon="13.597979" lat="47.366356"><ele><![CDATA[1598]]></ele></trkpt>
<trkpt lon="13.598239" lat="47.366258"><ele><![CDATA[1595]]></ele></trkpt>
<trkpt lon="13.598289" lat="47.366221"><ele><![CDATA[1594]]></ele></trkpt>
<trkpt lon="13.598828" lat="47.366189"><ele><![CDATA[1592]]></ele></trkpt>
<trkpt lon="13.598914" lat="47.366111"><ele><![CDATA[1591]]></ele></trkpt>
<trkpt lon="13.598934" lat="47.366037"><ele><![CDATA[1590]]></ele></trkpt>
<trkpt lon="13.598908" lat="47.365905"><ele><![CDATA[1591]]></ele></trkpt>
<trkpt lon="13.598946" lat="47.365894"><ele><![CDATA[1591]]></ele></trkpt>
<trkpt lon="13.59903" lat="47.365886"><ele><![CDATA[1589]]></ele></trkpt>
<trkpt lon="13.599217" lat="47.366048"><ele><![CDATA[1587]]></ele></trkpt>
<trkpt lon="13.599188" lat="47.36616"><ele><![CDATA[1587]]></ele></trkpt>
<trkpt lon="13.599104" lat="47.366195"><ele><![CDATA[1588]]></ele></trkpt>
<trkpt lon="13.599076" lat="47.366245"><ele><![CDATA[1588]]></ele></trkpt>
<trkpt lon="13.599104" lat="47.366257"><ele><![CDATA[1587]]></ele></trkpt>
<trkpt lon="13.599231" lat="47.366202"><ele><![CDATA[1585]]></ele></trkpt>
<trkpt lon="13.599386" lat="47.366107"><ele><![CDATA[1584]]></ele></trkpt>
<trkpt lon="13.599419" lat="47.366066"><ele><![CDATA[1583]]></ele></trkpt>
<trkpt lon="13.599409" lat="47.366013"><ele><![CDATA[1582]]></ele></trkpt>
<trkpt lon="13.599343" lat="47.365933"><ele><![CDATA[1580]]></ele></trkpt>
<trkpt lon="13.599326" lat="47.365864"><ele><![CDATA[1580]]></ele></trkpt>
<trkpt lon="13.599354" lat="47.365812"><ele><![CDATA[1580]]></ele></trkpt>
<trkpt lon="13.600033" lat="47.365324"><ele><![CDATA[1572]]></ele></trkpt>
<trkpt lon="13.600316" lat="47.365181"><ele><![CDATA[1569]]></ele></trkpt>
<trkpt lon="13.600454" lat="47.36508"><ele><![CDATA[1567]]></ele></trkpt>
<trkpt lon="13.600533" lat="47.365058"><ele><![CDATA[1567]]></ele></trkpt>
<trkpt lon="13.600592" lat="47.36507"><ele><![CDATA[1566]]></ele></trkpt>
<trkpt lon="13.600679" lat="47.365138"><ele><![CDATA[1564]]></ele></trkpt>
<trkpt lon="13.600853" lat="47.365011"><ele><![CDATA[1562]]></ele></trkpt>
<trkpt lon="13.601278" lat="47.364786"><ele><![CDATA[1557]]></ele></trkpt>
<trkpt lon="13.601314" lat="47.364784"><ele><![CDATA[1556]]></ele></trkpt>
<trkpt lon="13.601325" lat="47.364804"><ele><![CDATA[1556]]></ele></trkpt>
<trkpt lon="13.601283" lat="47.364867"><ele><![CDATA[1556]]></ele></trkpt>
<trkpt lon="13.601275" lat="47.365008"><ele><![CDATA[1554]]></ele></trkpt>
<trkpt lon="13.601185" lat="47.365139"><ele><![CDATA[1552]]></ele></trkpt>
<trkpt lon="13.601174" lat="47.365238"><ele><![CDATA[1550]]></ele></trkpt>
<trkpt lon="13.601066" lat="47.3654"><ele><![CDATA[1548]]></ele></trkpt>
<trkpt lon="13.600933" lat="47.36547"><ele><![CDATA[1549]]></ele></trkpt>
<trkpt lon="13.600938" lat="47.365516"><ele><![CDATA[1548]]></ele></trkpt>
<trkpt lon="13.600995" lat="47.365561"><ele><![CDATA[1547]]></ele></trkpt>
<trkpt lon="13.60114" lat="47.36554"><ele><![CDATA[1545]]></ele></trkpt>
<trkpt lon="13.601203" lat="47.365497"><ele><![CDATA[1545]]></ele></trkpt>
<trkpt lon="13.601246" lat="47.365421"><ele><![CDATA[1546]]></ele></trkpt>
<trkpt lon="13.6013" lat="47.36539"><ele><![CDATA[1546]]></ele></trkpt>
<trkpt lon="13.601359" lat="47.365424"><ele><![CDATA[1544]]></ele></trkpt>
<trkpt lon="13.601337" lat="47.365488"><ele><![CDATA[1544]]></ele></trkpt>
<trkpt lon="13.601285" lat="47.365526"><ele><![CDATA[1544]]></ele></trkpt>
<trkpt lon="13.601288" lat="47.365598"><ele><![CDATA[1542]]></ele></trkpt>
<trkpt lon="13.601245" lat="47.36568"><ele><![CDATA[1540]]></ele></trkpt>
<trkpt lon="13.601015" lat="47.365805"><ele><![CDATA[1539]]></ele></trkpt>
<trkpt lon="13.600948" lat="47.365824"><ele><![CDATA[1539]]></ele></trkpt>
<trkpt lon="13.600923" lat="47.365851"><ele><![CDATA[1539]]></ele></trkpt>
<trkpt lon="13.600952" lat="47.365887"><ele><![CDATA[1538]]></ele></trkpt>
<trkpt lon="13.601034" lat="47.365892"><ele><![CDATA[1537]]></ele></trkpt>
<trkpt lon="13.601331" lat="47.365833"><ele><![CDATA[1536]]></ele></trkpt>
<trkpt lon="13.601398" lat="47.365845"><ele><![CDATA[1534]]></ele></trkpt>
<trkpt lon="13.601409" lat="47.365898"><ele><![CDATA[1532]]></ele></trkpt>
<trkpt lon="13.601339" lat="47.365951"><ele><![CDATA[1532]]></ele></trkpt>
<trkpt lon="13.601244" lat="47.366072"><ele><![CDATA[1529]]></ele></trkpt>
<trkpt lon="13.601177" lat="47.366096"><ele><![CDATA[1529]]></ele></trkpt>
<trkpt lon="13.601113" lat="47.366094"><ele><![CDATA[1530]]></ele></trkpt>
<trkpt lon="13.601061" lat="47.366195"><ele><![CDATA[1527]]></ele></trkpt>
<trkpt lon="13.601066" lat="47.366477"><ele><![CDATA[1527]]></ele></trkpt>
<trkpt lon="13.600971" lat="47.366619"><ele><![CDATA[1526]]></ele></trkpt>
<trkpt lon="13.600927" lat="47.366812"><ele><![CDATA[1525]]></ele></trkpt>
<trkpt lon="13.600959" lat="47.366896"><ele><![CDATA[1525]]></ele></trkpt>
<trkpt lon="13.600946" lat="47.366976"><ele><![CDATA[1524]]></ele></trkpt>
<trkpt lon="13.600886" lat="47.367116"><ele><![CDATA[1523]]></ele></trkpt>
<trkpt lon="13.600947" lat="47.367214"><ele><![CDATA[1522]]></ele></trkpt>
<trkpt lon="13.600666" lat="47.367613"><ele><![CDATA[1524]]></ele></trkpt>
<trkpt lon="13.60065" lat="47.367684"><ele><![CDATA[1524]]></ele></trkpt>
<trkpt lon="13.600668" lat="47.367872"><ele><![CDATA[1522]]></ele></trkpt>
<trkpt lon="13.600608" lat="47.367993"><ele><![CDATA[1522]]></ele></trkpt>
<trkpt lon="13.600744" lat="47.368391"><ele><![CDATA[1517]]></ele></trkpt>
<trkpt lon="13.600722" lat="47.36847"><ele><![CDATA[1516]]></ele></trkpt>
<trkpt lon="13.600629" lat="47.368531"><ele><![CDATA[1517]]></ele></trkpt>
<trkpt lon="13.600543" lat="47.368692"><ele><![CDATA[1516]]></ele></trkpt>
<trkpt lon="13.60049" lat="47.368714"><ele><![CDATA[1517]]></ele></trkpt>
<trkpt lon="13.600423" lat="47.368815"><ele><![CDATA[1515]]></ele></trkpt>
<trkpt lon="13.60042" lat="47.368868"><ele><![CDATA[1514]]></ele></trkpt>
<trkpt lon="13.600353" lat="47.368943"><ele><![CDATA[1513]]></ele></trkpt>
<trkpt lon="13.600326" lat="47.369051"><ele><![CDATA[1517]]></ele></trkpt>
<trkpt lon="13.600269" lat="47.369085"><ele><![CDATA[1517]]></ele></trkpt>
<trkpt lon="13.600245" lat="47.369175"><ele><![CDATA[1516]]></ele></trkpt>
<trkpt lon="13.600146" lat="47.369257"><ele><![CDATA[1513]]></ele></trkpt>
<trkpt lon="13.600129" lat="47.369319"><ele><![CDATA[1510]]></ele></trkpt>
<trkpt lon="13.600045" lat="47.369409"><ele><![CDATA[1509]]></ele></trkpt>
<trkpt lon="13.599674" lat="47.36962"><ele><![CDATA[1509]]></ele></trkpt>
<trkpt lon="13.599561" lat="47.369738"><ele><![CDATA[1507]]></ele></trkpt>
<trkpt lon="13.599583" lat="47.369839"><ele><![CDATA[1505]]></ele></trkpt>
<trkpt lon="13.599566" lat="47.369892"><ele><![CDATA[1504]]></ele></trkpt>
<trkpt lon="13.599734" lat="47.370046"><ele><![CDATA[1502]]></ele></trkpt>
<trkpt lon="13.599632" lat="47.370111"><ele><![CDATA[1501]]></ele></trkpt>
<trkpt lon="13.599653" lat="47.370144"><ele><![CDATA[1501]]></ele></trkpt>
<trkpt lon="13.599721" lat="47.370186"><ele><![CDATA[1501]]></ele></trkpt>
<trkpt lon="13.59983" lat="47.370149"><ele><![CDATA[1502]]></ele></trkpt>
<trkpt lon="13.599859" lat="47.370121"><ele><![CDATA[1502]]></ele></trkpt>
<trkpt lon="13.600018" lat="47.370136"><ele><![CDATA[1501]]></ele></trkpt>
<trkpt lon="13.60015" lat="47.370188"><ele><![CDATA[1499]]></ele></trkpt>
<trkpt lon="13.60015" lat="47.370217"><ele><![CDATA[1499]]></ele></trkpt>
<trkpt lon="13.600136" lat="47.370238"><ele><![CDATA[1498]]></ele></trkpt>
<trkpt lon="13.600044" lat="47.370257"><ele><![CDATA[1497]]></ele></trkpt>
<trkpt lon="13.59993" lat="47.370247"><ele><![CDATA[1498]]></ele></trkpt>
<trkpt lon="13.599785" lat="47.370272"><ele><![CDATA[1497]]></ele></trkpt>
<trkpt lon="13.599661" lat="47.370368"><ele><![CDATA[1495]]></ele></trkpt>
<trkpt lon="13.599677" lat="47.370423"><ele><![CDATA[1494]]></ele></trkpt>
<trkpt lon="13.599725" lat="47.370448"><ele><![CDATA[1495]]></ele></trkpt>
<trkpt lon="13.599727" lat="47.370474"><ele><![CDATA[1494]]></ele></trkpt>
<trkpt lon="13.599644" lat="47.370514"><ele><![CDATA[1493]]></ele></trkpt>
<trkpt lon="13.599535" lat="47.370493"><ele><![CDATA[1492]]></ele></trkpt>
<trkpt lon="13.599489" lat="47.370466"><ele><![CDATA[1492]]></ele></trkpt>
<trkpt lon="13.599428" lat="47.370511"><ele><![CDATA[1490]]></ele></trkpt>
<trkpt lon="13.599497" lat="47.37056"><ele><![CDATA[1491]]></ele></trkpt>
<trkpt lon="13.599495" lat="47.37059"><ele><![CDATA[1490]]></ele></trkpt>
<trkpt lon="13.599467" lat="47.3706"><ele><![CDATA[1490]]></ele></trkpt>
<trkpt lon="13.599372" lat="47.370599"><ele><![CDATA[1489]]></ele></trkpt>
<trkpt lon="13.599214" lat="47.37067"><ele><![CDATA[1488]]></ele></trkpt>
<trkpt lon="13.599016" lat="47.370675"><ele><![CDATA[1487]]></ele></trkpt>
<trkpt lon="13.598828" lat="47.370657"><ele><![CDATA[1485]]></ele></trkpt>
<trkpt lon="13.598753" lat="47.370667"><ele><![CDATA[1484]]></ele></trkpt>
<trkpt lon="13.598702" lat="47.37074"><ele><![CDATA[1484]]></ele></trkpt>
<trkpt lon="13.598569" lat="47.370782"><ele><![CDATA[1484]]></ele></trkpt>
<trkpt lon="13.598427" lat="47.370788"><ele><![CDATA[1485]]></ele></trkpt>
<trkpt lon="13.598335" lat="47.370759"><ele><![CDATA[1484]]></ele></trkpt>
<trkpt lon="13.598164" lat="47.370789"><ele><![CDATA[1483]]></ele></trkpt>
<trkpt lon="13.59815" lat="47.370807"><ele><![CDATA[1483]]></ele></trkpt>
<trkpt lon="13.598216" lat="47.370843"><ele><![CDATA[1483]]></ele></trkpt>
<trkpt lon="13.598757" lat="47.370938"><ele><![CDATA[1478]]></ele></trkpt>
<trkpt lon="13.598947" lat="47.370938"><ele><![CDATA[1478]]></ele></trkpt>
<trkpt lon="13.598967" lat="47.370949"><ele><![CDATA[1478]]></ele></trkpt>
<trkpt lon="13.598941" lat="47.370971"><ele><![CDATA[1477]]></ele></trkpt>
<trkpt lon="13.598656" lat="47.371048"><ele><![CDATA[1474]]></ele></trkpt>
<trkpt lon="13.598497" lat="47.371029"><ele><![CDATA[1474]]></ele></trkpt>
<trkpt lon="13.598437" lat="47.371058"><ele><![CDATA[1473]]></ele></trkpt>
<trkpt lon="13.598094" lat="47.371072"><ele><![CDATA[1472]]></ele></trkpt>
<trkpt lon="13.597853" lat="47.371049"><ele><![CDATA[1472]]></ele></trkpt>
<trkpt lon="13.597777" lat="47.371061"><ele><![CDATA[1470]]></ele></trkpt>
<trkpt lon="13.597855" lat="47.371125"><ele><![CDATA[1469]]></ele></trkpt>
<trkpt lon="13.597961" lat="47.37113"><ele><![CDATA[1470]]></ele></trkpt>
<trkpt lon="13.598197" lat="47.37122"><ele><![CDATA[1466]]></ele></trkpt>
<trkpt lon="13.598354" lat="47.371196"><ele><![CDATA[1467]]></ele></trkpt>
<trkpt lon="13.598606" lat="47.371229"><ele><![CDATA[1464]]></ele></trkpt>
<trkpt lon="13.598879" lat="47.371239"><ele><![CDATA[1462]]></ele></trkpt>
<trkpt lon="13.599705" lat="47.371211"><ele><![CDATA[1459]]></ele></trkpt>
<trkpt lon="13.59989" lat="47.371267"><ele><![CDATA[1456]]></ele></trkpt>
<trkpt lon="13.600066" lat="47.371171"><ele><![CDATA[1456]]></ele></trkpt>
<trkpt lon="13.600388" lat="47.371186"><ele><![CDATA[1452]]></ele></trkpt>
<trkpt lon="13.600599" lat="47.371154"><ele><![CDATA[1452]]></ele></trkpt>
<trkpt lon="13.600633" lat="47.371174"><ele><![CDATA[1451]]></ele></trkpt>
<trkpt lon="13.600627" lat="47.371199"><ele><![CDATA[1451]]></ele></trkpt>
<trkpt lon="13.600515" lat="47.371211"><ele><![CDATA[1451]]></ele></trkpt>
<trkpt lon="13.600074" lat="47.371359"><ele><![CDATA[1449]]></ele></trkpt>
<trkpt lon="13.600024" lat="47.371349"><ele><![CDATA[1450]]></ele></trkpt>
<trkpt lon="13.600072" lat="47.371395"><ele><![CDATA[1448]]></ele></trkpt>
<trkpt lon="13.600138" lat="47.371415"><ele><![CDATA[1447]]></ele></trkpt>
<trkpt lon="13.600202" lat="47.371428"><ele><![CDATA[1446]]></ele></trkpt>
<trkpt lon="13.600308" lat="47.371425"><ele><![CDATA[1447]]></ele></trkpt>
<trkpt lon="13.600435" lat="47.371397"><ele><![CDATA[1448]]></ele></trkpt>
<trkpt lon="13.600574" lat="47.371398"><ele><![CDATA[1447]]></ele></trkpt>
<trkpt lon="13.600977" lat="47.371324"><ele><![CDATA[1444]]></ele></trkpt>
<trkpt lon="13.601074" lat="47.371327"><ele><![CDATA[1443]]></ele></trkpt>
<trkpt lon="13.601256" lat="47.371303"><ele><![CDATA[1441]]></ele></trkpt>
<trkpt lon="13.601308" lat="47.371331"><ele><![CDATA[1440]]></ele></trkpt>
<trkpt lon="13.601327" lat="47.371406"><ele><![CDATA[1439]]></ele></trkpt>
<trkpt lon="13.601318" lat="47.37144"><ele><![CDATA[1439]]></ele></trkpt>
<trkpt lon="13.601126" lat="47.371542"><ele><![CDATA[1438]]></ele></trkpt>
<trkpt lon="13.601086" lat="47.371618"><ele><![CDATA[1437]]></ele></trkpt>
<trkpt lon="13.601036" lat="47.371629"><ele><![CDATA[1437]]></ele></trkpt>
<trkpt lon="13.600888" lat="47.371622"><ele><![CDATA[1436]]></ele></trkpt>
<trkpt lon="13.600757" lat="47.371664"><ele><![CDATA[1435]]></ele></trkpt>
<trkpt lon="13.60067" lat="47.37163"><ele><![CDATA[1437]]></ele></trkpt>
<trkpt lon="13.600625" lat="47.371635"><ele><![CDATA[1437]]></ele></trkpt>
<trkpt lon="13.600427" lat="47.371805"><ele><![CDATA[1433]]></ele></trkpt>
<trkpt lon="13.600288" lat="47.371802"><ele><![CDATA[1434]]></ele></trkpt>
<trkpt lon="13.600289" lat="47.371841"><ele><![CDATA[1434]]></ele></trkpt>
<trkpt lon="13.600354" lat="47.371855"><ele><![CDATA[1433]]></ele></trkpt>
<trkpt lon="13.600656" lat="47.371897"><ele><![CDATA[1430]]></ele></trkpt>
<trkpt lon="13.600743" lat="47.371895"><ele><![CDATA[1430]]></ele></trkpt>
<trkpt lon="13.60077" lat="47.371915"><ele><![CDATA[1430]]></ele></trkpt>
<trkpt lon="13.600702" lat="47.37196"><ele><![CDATA[1428]]></ele></trkpt>
<trkpt lon="13.60041" lat="47.371965"><ele><![CDATA[1427]]></ele></trkpt>
<trkpt lon="13.600276" lat="47.371984"><ele><![CDATA[1426]]></ele></trkpt>
<trkpt lon="13.600001" lat="47.371968"><ele><![CDATA[1422]]></ele></trkpt>
<trkpt lon="13.599956" lat="47.371927"><ele><![CDATA[1424]]></ele></trkpt>
<trkpt lon="13.599724" lat="47.371861"><ele><![CDATA[1422]]></ele></trkpt>
<trkpt lon="13.599519" lat="47.371824"><ele><![CDATA[1422]]></ele></trkpt>
<trkpt lon="13.59941" lat="47.371832"><ele><![CDATA[1423]]></ele></trkpt>
<trkpt lon="13.599259" lat="47.371891"><ele><![CDATA[1420]]></ele></trkpt>
<trkpt lon="13.59893" lat="47.371927"><ele><![CDATA[1420]]></ele></trkpt>
<trkpt lon="13.598749" lat="47.371931"><ele><![CDATA[1420]]></ele></trkpt>
<trkpt lon="13.598627" lat="47.372018"><ele><![CDATA[1419]]></ele></trkpt>
<trkpt lon="13.598584" lat="47.37211"><ele><![CDATA[1417]]></ele></trkpt>
<trkpt lon="13.598596" lat="47.372155"><ele><![CDATA[1416]]></ele></trkpt>
<trkpt lon="13.598549" lat="47.37224"><ele><![CDATA[1415]]></ele></trkpt>
<trkpt lon="13.598583" lat="47.372281"><ele><![CDATA[1414]]></ele></trkpt>
<trkpt lon="13.598593" lat="47.372348"><ele><![CDATA[1414]]></ele></trkpt>
<trkpt lon="13.598546" lat="47.372432"><ele><![CDATA[1415]]></ele></trkpt>
<trkpt lon="13.598466" lat="47.372471"><ele><![CDATA[1415]]></ele></trkpt>
<trkpt lon="13.598294" lat="47.372506"><ele><![CDATA[1415]]></ele></trkpt>
<trkpt lon="13.597772" lat="47.372658"><ele><![CDATA[1411.973301]]></ele></trkpt>
<trkpt lon="13.597761" lat="47.372669"><ele><![CDATA[1411.973301]]></ele></trkpt>
<trkpt lon="13.597742" lat="47.372687"><ele><![CDATA[1408.334993]]></ele></trkpt>
<trkpt lon="13.597745" lat="47.372765"><ele><![CDATA[1408.131882]]></ele></trkpt>
<trkpt lon="13.597797" lat="47.372795"><ele><![CDATA[1408.793402]]></ele></trkpt>
<trkpt lon="13.5979" lat="47.372823"><ele><![CDATA[1408.892344]]></ele></trkpt>
<trkpt lon="13.597967" lat="47.372834"><ele><![CDATA[1407.956169]]></ele></trkpt>
<trkpt lon="13.598099" lat="47.372888"><ele><![CDATA[1408.130409]]></ele></trkpt>
<trkpt lon="13.598254" lat="47.372924"><ele><![CDATA[1406.874874]]></ele></trkpt>
<trkpt lon="13.598418" lat="47.372997"><ele><![CDATA[1407.122157]]></ele></trkpt>
<trkpt lon="13.598505" lat="47.373059"><ele><![CDATA[1405.888527]]></ele></trkpt>
<trkpt lon="13.598613" lat="47.373116"><ele><![CDATA[1407.27982]]></ele></trkpt>
<trkpt lon="13.598752" lat="47.373142"><ele><![CDATA[1406.591611]]></ele></trkpt>
<trkpt lon="13.598929" lat="47.373152"><ele><![CDATA[1404.938122]]></ele></trkpt>
<trkpt lon="13.598992" lat="47.373176"><ele><![CDATA[1404.759077]]></ele></trkpt>
<trkpt lon="13.5991" lat="47.373228"><ele><![CDATA[1404.194435]]></ele></trkpt>
<trkpt lon="13.599093" lat="47.3733"><ele><![CDATA[1403.480989]]></ele></trkpt>
<trkpt lon="13.598997" lat="47.373394"><ele><![CDATA[1402.263835]]></ele></trkpt>
<trkpt lon="13.598817" lat="47.373462"><ele><![CDATA[1402.370636]]></ele></trkpt>
<trkpt lon="13.598732" lat="47.373493"><ele><![CDATA[1401.687199]]></ele></trkpt>
<trkpt lon="13.598549" lat="47.373533"><ele><![CDATA[1402.401343]]></ele></trkpt>
<trkpt lon="13.598268" lat="47.373529"><ele><![CDATA[1403.400191]]></ele></trkpt>
<trkpt lon="13.598246" lat="47.373533"><ele><![CDATA[1401.931346]]></ele></trkpt>
<trkpt lon="13.598265" lat="47.373554"><ele><![CDATA[1401.343422]]></ele></trkpt>
<trkpt lon="13.598513" lat="47.373583"><ele><![CDATA[1398.269431]]></ele></trkpt>
<trkpt lon="13.598668" lat="47.373584"><ele><![CDATA[1397.354185]]></ele></trkpt>
<trkpt lon="13.598753" lat="47.37359"><ele><![CDATA[1396.480551]]></ele></trkpt>
<trkpt lon="13.598849" lat="47.373613"><ele><![CDATA[1395.492064]]></ele></trkpt>
<trkpt lon="13.59891" lat="47.37362"><ele><![CDATA[1394.693063]]></ele></trkpt>
<trkpt lon="13.598969" lat="47.373595"><ele><![CDATA[1395.079084]]></ele></trkpt>
<trkpt lon="13.599019" lat="47.373588"><ele><![CDATA[1394.403471]]></ele></trkpt>
<trkpt lon="13.599111" lat="47.373605"><ele><![CDATA[1393.630529]]></ele></trkpt>
<trkpt lon="13.599171" lat="47.37359"><ele><![CDATA[1393.651332]]></ele></trkpt>
<trkpt lon="13.599246" lat="47.373588"><ele><![CDATA[1392.997838]]></ele></trkpt>
<trkpt lon="13.599337" lat="47.373614"><ele><![CDATA[1391.608787]]></ele></trkpt>
<trkpt lon="13.599406" lat="47.373617"><ele><![CDATA[1391.302738]]></ele></trkpt>
<trkpt lon="13.599497" lat="47.373611"><ele><![CDATA[1391.652298]]></ele></trkpt>
<trkpt lon="13.59954" lat="47.373611"><ele><![CDATA[1391.536455]]></ele></trkpt>
<trkpt lon="13.59964" lat="47.373611"><ele><![CDATA[1390.29165]]></ele></trkpt>
<trkpt lon="13.599684" lat="47.373629"><ele><![CDATA[1389.722669]]></ele></trkpt>
<trkpt lon="13.599725" lat="47.373638"><ele><![CDATA[1389.579013]]></ele></trkpt>
<trkpt lon="13.599781" lat="47.373628"><ele><![CDATA[1389.297768]]></ele></trkpt>
<trkpt lon="13.599817" lat="47.373645"><ele><![CDATA[1388.385688]]></ele></trkpt>
<trkpt lon="13.599818" lat="47.373667"><ele><![CDATA[1388.009784]]></ele></trkpt>
<trkpt lon="13.599771" lat="47.373686"><ele><![CDATA[1387.619008]]></ele></trkpt>
<trkpt lon="13.59964" lat="47.373687"><ele><![CDATA[1387.649345]]></ele></trkpt>
<trkpt lon="13.599561" lat="47.373687"><ele><![CDATA[1387.574325]]></ele></trkpt>
<trkpt lon="13.599477" lat="47.373694"><ele><![CDATA[1386.983866]]></ele></trkpt>
<trkpt lon="13.599395" lat="47.373693"><ele><![CDATA[1386.911041]]></ele></trkpt>
<trkpt lon="13.599325" lat="47.37372"><ele><![CDATA[1386.642052]]></ele></trkpt>
<trkpt lon="13.599246" lat="47.373756"><ele><![CDATA[1385.453258]]></ele></trkpt>
<trkpt lon="13.599183" lat="47.373797"><ele><![CDATA[1384.384994]]></ele></trkpt>
<trkpt lon="13.599119" lat="47.373809"><ele><![CDATA[1383.839767]]></ele></trkpt>
<trkpt lon="13.599048" lat="47.373826"><ele><![CDATA[1384.933091]]></ele></trkpt>
<trkpt lon="13.599011" lat="47.373836"><ele><![CDATA[1385.038312]]></ele></trkpt>
<trkpt lon="13.598904" lat="47.373864"><ele><![CDATA[1384.486173]]></ele></trkpt>
<trkpt lon="13.598652" lat="47.373915"><ele><![CDATA[1383.756179]]></ele></trkpt>
<trkpt lon="13.598502" lat="47.37395"><ele><![CDATA[1382.375045]]></ele></trkpt>
<trkpt lon="13.598345" lat="47.37396"><ele><![CDATA[1381.860788]]></ele></trkpt>
<trkpt lon="13.598225" lat="47.373962"><ele><![CDATA[1380.967823]]></ele></trkpt>
<trkpt lon="13.598098" lat="47.373965"><ele><![CDATA[1379.831173]]></ele></trkpt>
<trkpt lon="13.597948" lat="47.373931"><ele><![CDATA[1380.365216]]></ele></trkpt>
<trkpt lon="13.597286" lat="47.373957"><ele><![CDATA[1377.521499]]></ele></trkpt>
<trkpt lon="13.597144" lat="47.373955"><ele><![CDATA[1377.161012]]></ele></trkpt>
<trkpt lon="13.597009" lat="47.373955"><ele><![CDATA[1376.76595]]></ele></trkpt>
<trkpt lon="13.596823" lat="47.373975"><ele><![CDATA[1373.721004]]></ele></trkpt>
<trkpt lon="13.596713" lat="47.373973"><ele><![CDATA[1374.620193]]></ele></trkpt>
<trkpt lon="13.59652" lat="47.373943"><ele><![CDATA[1374.398419]]></ele></trkpt>
<trkpt lon="13.596479" lat="47.373944"><ele><![CDATA[1375.55857]]></ele></trkpt>
<trkpt lon="13.596405" lat="47.37395"><ele><![CDATA[1373.701497]]></ele></trkpt>
<trkpt lon="13.596323" lat="47.373926"><ele><![CDATA[1374.265258]]></ele></trkpt>
<trkpt lon="13.596226" lat="47.37389"><ele><![CDATA[1374.205238]]></ele></trkpt>
<trkpt lon="13.596128" lat="47.373883"><ele><![CDATA[1372.786578]]></ele></trkpt>
<trkpt lon="13.596054" lat="47.373857"><ele><![CDATA[1373.318021]]></ele></trkpt>
<trkpt lon="13.595969" lat="47.373817"><ele><![CDATA[1372.531148]]></ele></trkpt>
<trkpt lon="13.595843" lat="47.373783"><ele><![CDATA[1370.655769]]></ele></trkpt>
<trkpt lon="13.595762" lat="47.37374"><ele><![CDATA[1371.104974]]></ele></trkpt>
<trkpt lon="13.595735" lat="47.37372"><ele><![CDATA[1371.139124]]></ele></trkpt>
<trkpt lon="13.595614" lat="47.373642"><ele><![CDATA[1372.173863]]></ele></trkpt>
<trkpt lon="13.595549" lat="47.373608"><ele><![CDATA[1372.008927]]></ele></trkpt>
<trkpt lon="13.595501" lat="47.373563"><ele><![CDATA[1371.071578]]></ele></trkpt>
<trkpt lon="13.59546" lat="47.373527"><ele><![CDATA[1371.660609]]></ele></trkpt>
<trkpt lon="13.595411" lat="47.373527"><ele><![CDATA[1370.969151]]></ele></trkpt>
<trkpt lon="13.595355" lat="47.373538"><ele><![CDATA[1370.054003]]></ele></trkpt>
<trkpt lon="13.595293" lat="47.373537"><ele><![CDATA[1369.738657]]></ele></trkpt>
<trkpt lon="13.595229" lat="47.373507"><ele><![CDATA[1369.615958]]></ele></trkpt>
<trkpt lon="13.595137" lat="47.373463"><ele><![CDATA[1367.209667]]></ele></trkpt>
<trkpt lon="13.595018" lat="47.373399"><ele><![CDATA[1366.417428]]></ele></trkpt>
<trkpt lon="13.594914" lat="47.373356"><ele><![CDATA[1363.618863]]></ele></trkpt>
<trkpt lon="13.59488" lat="47.373321"><ele><![CDATA[1363.277792]]></ele></trkpt>
<trkpt lon="13.594833" lat="47.373251"><ele><![CDATA[1362.627626]]></ele></trkpt>
<trkpt lon="13.594733" lat="47.37317"><ele><![CDATA[1361.574324]]></ele></trkpt>
<trkpt lon="13.594646" lat="47.373102"><ele><![CDATA[1361.048421]]></ele></trkpt>
<trkpt lon="13.594541" lat="47.372977"><ele><![CDATA[1358.54044]]></ele></trkpt>
<trkpt lon="13.59454" lat="47.372879"><ele><![CDATA[1358.654788]]></ele></trkpt>
<trkpt lon="13.59457" lat="47.372793"><ele><![CDATA[1358.903404]]></ele></trkpt>
<trkpt lon="13.594566" lat="47.372746"><ele><![CDATA[1359.071305]]></ele></trkpt>
</trkseg>
</trk>
</gpx>
