<?xml version="1.0" encoding="UTF-8"?><gpx xmlns="http://www.topografix.com/GPX/1/1" creator="CONTWISE MAPS" xsi:schemaLocation="http://www.topografix.com/GPX/1/1 http://www.topografix.com/GPX/1/1/gpx.xsd http://www.topografix.com/GPX/gpx_overlay/0/3 http://www.topografix.com/GPX/gpx_overlay/0/3/gpx_overlay.xsd http://www.topografix.com/GPX/gpx_modified/0/1 http://www.topografix.com/GPX/gpx_modified/0/1/gpx_modified.xsd http://www.topografix.com/GPX/Private/TopoGrafix/0/3 http://www.topografix.com/GPX/Private/TopoGrafix/0/3/topografix.xsd" xmlns:xsi="http://www.w3.org/2001/XMLSchema-instance" version="1.1"><trk><name><![CDATA[hochalm-enduro-trail_182607132]]></name><extensions><label xmlns="http://www.topografix.com/GPX/gpx_overlay/0/3"></label>
</extensions>
<trkseg><trkpt lon="13.5977" lat="47.36718"><ele><![CDATA[1586]]></ele></trkpt>
<trkpt lon="13.59775" lat="47.36725"><ele><![CDATA[1586]]></ele></trkpt>
<trkpt lon="13.59774" lat="47.36727"><ele><![CDATA[1586]]></ele></trkpt>
<trkpt lon="13.59771" lat="47.36729"><ele><![CDATA[1586]]></ele></trkpt>
<trkpt lon="13.59768" lat="47.36732"><ele><![CDATA[1586]]></ele></trkpt>
<trkpt lon="13.59768" lat="47.36735"><ele><![CDATA[1586]]></ele></trkpt>
<trkpt lon="13.59772" lat="47.36737"><ele><![CDATA[1580]]></ele></trkpt>
<trkpt lon="13.59786" lat="47.36743"><ele><![CDATA[1580]]></ele></trkpt>
<trkpt lon="13.59789" lat="47.36745"><ele><![CDATA[1580]]></ele></trkpt>
<trkpt lon="13.59788" lat="47.36752"><ele><![CDATA[1580]]></ele></trkpt>
<trkpt lon="13.59784" lat="47.36759"><ele><![CDATA[1580]]></ele></trkpt>
<trkpt lon="13.59781" lat="47.36766"><ele><![CDATA[1575]]></ele></trkpt>
<trkpt lon="13.59783" lat="47.36771"><ele><![CDATA[1575]]></ele></trkpt>
<trkpt lon="13.59785" lat="47.36777"><ele><![CDATA[1575]]></ele></trkpt>
<trkpt lon="13.59785" lat="47.36784"><ele><![CDATA[1575]]></ele></trkpt>
<trkpt lon="13.59788" lat="47.36787"><ele><![CDATA[1575]]></ele></trkpt>
<trkpt lon="13.59793" lat="47.36789"><ele><![CDATA[1571]]></ele></trkpt>
<trkpt lon="13.59793" lat="47.36793"><ele><![CDATA[1567]]></ele></trkpt>
<trkpt lon="13.59791" lat="47.36798"><ele><![CDATA[1572]]></ele></trkpt>
<trkpt lon="13.59795" lat="47.36801"><ele><![CDATA[1567]]></ele></trkpt>
<trkpt lon="13.59798" lat="47.36802"><ele><![CDATA[1567]]></ele></trkpt>
<trkpt lon="13.59804" lat="47.36803"><ele><![CDATA[1567]]></ele></trkpt>
<trkpt lon="13.59809" lat="47.36805"><ele><![CDATA[1567]]></ele></trkpt>
<trkpt lon="13.59813" lat="47.36808"><ele><![CDATA[1567]]></ele></trkpt>
<trkpt lon="13.59813" lat="47.36811"><ele><![CDATA[1567]]></ele></trkpt>
<trkpt lon="13.59812" lat="47.36815"><ele><![CDATA[1567]]></ele></trkpt>
<trkpt lon="13.59807" lat="47.36817"><ele><![CDATA[1567]]></ele></trkpt>
<trkpt lon="13.59801" lat="47.36815"><ele><![CDATA[1567]]></ele></trkpt>
<trkpt lon="13.59796" lat="47.36816"><ele><![CDATA[1567]]></ele></trkpt>
<trkpt lon="13.59793" lat="47.36822"><ele><![CDATA[1558]]></ele></trkpt>
<trkpt lon="13.5979" lat="47.36824"><ele><![CDATA[1560]]></ele></trkpt>
<trkpt lon="13.59783" lat="47.36822"><ele><![CDATA[1560]]></ele></trkpt>
<trkpt lon="13.59779" lat="47.36825"><ele><![CDATA[1560]]></ele></trkpt>
<trkpt lon="13.59778" lat="47.36829"><ele><![CDATA[1560]]></ele></trkpt>
<trkpt lon="13.59784" lat="47.36833"><ele><![CDATA[1560]]></ele></trkpt>
<trkpt lon="13.5979" lat="47.36835"><ele><![CDATA[1560]]></ele></trkpt>
<trkpt lon="13.59796" lat="47.36838"><ele><![CDATA[1558]]></ele></trkpt>
<trkpt lon="13.59807" lat="47.36842"><ele><![CDATA[1558]]></ele></trkpt>
<trkpt lon="13.5981" lat="47.36845"><ele><![CDATA[1558]]></ele></trkpt>
<trkpt lon="13.59814" lat="47.36846"><ele><![CDATA[1558]]></ele></trkpt>
<trkpt lon="13.59822" lat="47.36845"><ele><![CDATA[1555]]></ele></trkpt>
<trkpt lon="13.59829" lat="47.36846"><ele><![CDATA[1555]]></ele></trkpt>
<trkpt lon="13.59832" lat="47.36848"><ele><![CDATA[1547]]></ele></trkpt>
<trkpt lon="13.59833" lat="47.36852"><ele><![CDATA[1547]]></ele></trkpt>
<trkpt lon="13.59831" lat="47.36855"><ele><![CDATA[1547]]></ele></trkpt>
<trkpt lon="13.59828" lat="47.36857"><ele><![CDATA[1547]]></ele></trkpt>
<trkpt lon="13.59828" lat="47.36862"><ele><![CDATA[1547]]></ele></trkpt>
<trkpt lon="13.59829" lat="47.36867"><ele><![CDATA[1547]]></ele></trkpt>
<trkpt lon="13.59827" lat="47.36868"><ele><![CDATA[1547]]></ele></trkpt>
<trkpt lon="13.59823" lat="47.36867"><ele><![CDATA[1547]]></ele></trkpt>
<trkpt lon="13.59818" lat="47.36865"><ele><![CDATA[1547]]></ele></trkpt>
<trkpt lon="13.59814" lat="47.36867"><ele><![CDATA[1547]]></ele></trkpt>
<trkpt lon="13.59813" lat="47.36874"><ele><![CDATA[1547]]></ele></trkpt>
<trkpt lon="13.59809" lat="47.36875"><ele><![CDATA[1539]]></ele></trkpt>
<trkpt lon="13.59803" lat="47.36876"><ele><![CDATA[1539]]></ele></trkpt>
<trkpt lon="13.59802" lat="47.36882"><ele><![CDATA[1539]]></ele></trkpt>
<trkpt lon="13.59805" lat="47.36886"><ele><![CDATA[1539]]></ele></trkpt>
<trkpt lon="13.59806" lat="47.36891"><ele><![CDATA[1539]]></ele></trkpt>
<trkpt lon="13.59801" lat="47.36894"><ele><![CDATA[1539]]></ele></trkpt>
<trkpt lon="13.59795" lat="47.36892"><ele><![CDATA[1539]]></ele></trkpt>
<trkpt lon="13.59786" lat="47.36894"><ele><![CDATA[1539]]></ele></trkpt>
<trkpt lon="13.59781" lat="47.369"><ele><![CDATA[1539]]></ele></trkpt>
<trkpt lon="13.59779" lat="47.36903"><ele><![CDATA[1534]]></ele></trkpt>
<trkpt lon="13.5978" lat="47.36906"><ele><![CDATA[1534]]></ele></trkpt>
<trkpt lon="13.59784" lat="47.36906"><ele><![CDATA[1534]]></ele></trkpt>
<trkpt lon="13.59789" lat="47.36908"><ele><![CDATA[1534]]></ele></trkpt>
<trkpt lon="13.59793" lat="47.36908"><ele><![CDATA[1533]]></ele></trkpt>
<trkpt lon="13.59796" lat="47.36911"><ele><![CDATA[1533]]></ele></trkpt>
<trkpt lon="13.59797" lat="47.36916"><ele><![CDATA[1533]]></ele></trkpt>
<trkpt lon="13.59792" lat="47.36918"><ele><![CDATA[1533]]></ele></trkpt>
<trkpt lon="13.59782" lat="47.36921"><ele><![CDATA[1534]]></ele></trkpt>
<trkpt lon="13.59754" lat="47.36918"><ele><![CDATA[1534]]></ele></trkpt>
<trkpt lon="13.5972" lat="47.36921"><ele><![CDATA[1532]]></ele></trkpt>
<trkpt lon="13.59709" lat="47.36924"><ele><![CDATA[1532]]></ele></trkpt>
<trkpt lon="13.59707" lat="47.36926"><ele><![CDATA[1529]]></ele></trkpt>
<trkpt lon="13.59707" lat="47.3693"><ele><![CDATA[1529]]></ele></trkpt>
<trkpt lon="13.59732" lat="47.36939"><ele><![CDATA[1524]]></ele></trkpt>
<trkpt lon="13.59741" lat="47.36943"><ele><![CDATA[1527]]></ele></trkpt>
<trkpt lon="13.5975" lat="47.36949"><ele><![CDATA[1527]]></ele></trkpt>
<trkpt lon="13.59761" lat="47.3695"><ele><![CDATA[1527]]></ele></trkpt>
<trkpt lon="13.59764" lat="47.36951"><ele><![CDATA[1528]]></ele></trkpt>
<trkpt lon="13.59766" lat="47.36951"><ele><![CDATA[1528]]></ele></trkpt>
<trkpt lon="13.59764" lat="47.36955"><ele><![CDATA[1528]]></ele></trkpt>
<trkpt lon="13.59762" lat="47.36957"><ele><![CDATA[1527]]></ele></trkpt>
<trkpt lon="13.59753" lat="47.36956"><ele><![CDATA[1527]]></ele></trkpt>
<trkpt lon="13.59745" lat="47.36955"><ele><![CDATA[1527]]></ele></trkpt>
<trkpt lon="13.59737" lat="47.36957"><ele><![CDATA[1527]]></ele></trkpt>
<trkpt lon="13.59728" lat="47.36959"><ele><![CDATA[1514]]></ele></trkpt>
<trkpt lon="13.59723" lat="47.3696"><ele><![CDATA[1514]]></ele></trkpt>
<trkpt lon="13.59717" lat="47.36958"><ele><![CDATA[1524]]></ele></trkpt>
<trkpt lon="13.59705" lat="47.36957"><ele><![CDATA[1520]]></ele></trkpt>
<trkpt lon="13.59697" lat="47.36959"><ele><![CDATA[1508]]></ele></trkpt>
<trkpt lon="13.59694" lat="47.36962"><ele><![CDATA[1508]]></ele></trkpt>
<trkpt lon="13.59691" lat="47.36966"><ele><![CDATA[1508]]></ele></trkpt>
<trkpt lon="13.59693" lat="47.36969"><ele><![CDATA[1508]]></ele></trkpt>
<trkpt lon="13.59697" lat="47.36971"><ele><![CDATA[1508]]></ele></trkpt>
<trkpt lon="13.59703" lat="47.36974"><ele><![CDATA[1508]]></ele></trkpt>
<trkpt lon="13.59706" lat="47.36977"><ele><![CDATA[1508]]></ele></trkpt>
<trkpt lon="13.59714" lat="47.36983"><ele><![CDATA[1514]]></ele></trkpt>
<trkpt lon="13.59717" lat="47.36984"><ele><![CDATA[1514]]></ele></trkpt>
<trkpt lon="13.59721" lat="47.36987"><ele><![CDATA[1502]]></ele></trkpt>
<trkpt lon="13.59724" lat="47.36987"><ele><![CDATA[1502]]></ele></trkpt>
<trkpt lon="13.59728" lat="47.3699"><ele><![CDATA[1502]]></ele></trkpt>
<trkpt lon="13.59732" lat="47.36992"><ele><![CDATA[1502]]></ele></trkpt>
<trkpt lon="13.59733" lat="47.36995"><ele><![CDATA[1502]]></ele></trkpt>
<trkpt lon="13.5973" lat="47.36998"><ele><![CDATA[1502]]></ele></trkpt>
<trkpt lon="13.59731" lat="47.37002"><ele><![CDATA[1502]]></ele></trkpt>
<trkpt lon="13.59734" lat="47.37005"><ele><![CDATA[1502]]></ele></trkpt>
<trkpt lon="13.59735" lat="47.37008"><ele><![CDATA[1502]]></ele></trkpt>
<trkpt lon="13.59731" lat="47.3701"><ele><![CDATA[1502]]></ele></trkpt>
<trkpt lon="13.59725" lat="47.3701"><ele><![CDATA[1502]]></ele></trkpt>
<trkpt lon="13.59717" lat="47.37009"><ele><![CDATA[1502]]></ele></trkpt>
<trkpt lon="13.59713" lat="47.3701"><ele><![CDATA[1502]]></ele></trkpt>
<trkpt lon="13.59708" lat="47.37012"><ele><![CDATA[1500]]></ele></trkpt>
<trkpt lon="13.59699" lat="47.37011"><ele><![CDATA[1500]]></ele></trkpt>
<trkpt lon="13.59692" lat="47.37013"><ele><![CDATA[1500]]></ele></trkpt>
<trkpt lon="13.59689" lat="47.37011"><ele><![CDATA[1500]]></ele></trkpt>
<trkpt lon="13.59683" lat="47.3701"><ele><![CDATA[1500]]></ele></trkpt>
<trkpt lon="13.59677" lat="47.37012"><ele><![CDATA[1496]]></ele></trkpt>
<trkpt lon="13.59678" lat="47.37015"><ele><![CDATA[1486]]></ele></trkpt>
<trkpt lon="13.59681" lat="47.37017"><ele><![CDATA[1488]]></ele></trkpt>
<trkpt lon="13.59685" lat="47.37018"><ele><![CDATA[1488]]></ele></trkpt>
<trkpt lon="13.59688" lat="47.37021"><ele><![CDATA[1488]]></ele></trkpt>
<trkpt lon="13.59691" lat="47.37023"><ele><![CDATA[1488]]></ele></trkpt>
<trkpt lon="13.59695" lat="47.37024"><ele><![CDATA[1488]]></ele></trkpt>
<trkpt lon="13.59701" lat="47.37025"><ele><![CDATA[1488]]></ele></trkpt>
<trkpt lon="13.59703" lat="47.37028"><ele><![CDATA[1488]]></ele></trkpt>
<trkpt lon="13.59698" lat="47.37032"><ele><![CDATA[1488]]></ele></trkpt>
<trkpt lon="13.59691" lat="47.37034"><ele><![CDATA[1488]]></ele></trkpt>
<trkpt lon="13.59689" lat="47.37037"><ele><![CDATA[1488]]></ele></trkpt>
<trkpt lon="13.5969" lat="47.37041"><ele><![CDATA[1488]]></ele></trkpt>
<trkpt lon="13.59693" lat="47.37043"><ele><![CDATA[1475]]></ele></trkpt>
<trkpt lon="13.59697" lat="47.37047"><ele><![CDATA[1475]]></ele></trkpt>
<trkpt lon="13.59702" lat="47.37051"><ele><![CDATA[1475]]></ele></trkpt>
<trkpt lon="13.59706" lat="47.37054"><ele><![CDATA[1475]]></ele></trkpt>
<trkpt lon="13.59706" lat="47.37056"><ele><![CDATA[1475]]></ele></trkpt>
<trkpt lon="13.59704" lat="47.37057"><ele><![CDATA[1475]]></ele></trkpt>
<trkpt lon="13.59702" lat="47.37057"><ele><![CDATA[1475]]></ele></trkpt>
<trkpt lon="13.59699" lat="47.37056"><ele><![CDATA[1475]]></ele></trkpt>
<trkpt lon="13.59692" lat="47.37054"><ele><![CDATA[1475]]></ele></trkpt>
<trkpt lon="13.59688" lat="47.37052"><ele><![CDATA[1475]]></ele></trkpt>
<trkpt lon="13.59678" lat="47.37051"><ele><![CDATA[1471]]></ele></trkpt>
<trkpt lon="13.5967" lat="47.37052"><ele><![CDATA[1471]]></ele></trkpt>
<trkpt lon="13.59666" lat="47.37051"><ele><![CDATA[1471]]></ele></trkpt>
<trkpt lon="13.59664" lat="47.3705"><ele><![CDATA[1471]]></ele></trkpt>
<trkpt lon="13.59661" lat="47.3705"><ele><![CDATA[1471]]></ele></trkpt>
<trkpt lon="13.59658" lat="47.37052"><ele><![CDATA[1471]]></ele></trkpt>
<trkpt lon="13.59658" lat="47.37055"><ele><![CDATA[1471]]></ele></trkpt>
<trkpt lon="13.59658" lat="47.37057"><ele><![CDATA[1471]]></ele></trkpt>
<trkpt lon="13.59659" lat="47.3706"><ele><![CDATA[1471]]></ele></trkpt>
<trkpt lon="13.59661" lat="47.37064"><ele><![CDATA[1471]]></ele></trkpt>
<trkpt lon="13.59664" lat="47.37071"><ele><![CDATA[1460]]></ele></trkpt>
<trkpt lon="13.59661" lat="47.37076"><ele><![CDATA[1460]]></ele></trkpt>
<trkpt lon="13.59659" lat="47.37081"><ele><![CDATA[1460]]></ele></trkpt>
<trkpt lon="13.59658" lat="47.37086"><ele><![CDATA[1460]]></ele></trkpt>
<trkpt lon="13.59656" lat="47.37095"><ele><![CDATA[1460]]></ele></trkpt>
<trkpt lon="13.59651" lat="47.371"><ele><![CDATA[1454]]></ele></trkpt>
<trkpt lon="13.59652" lat="47.37107"><ele><![CDATA[1454]]></ele></trkpt>
<trkpt lon="13.59645" lat="47.37109"><ele><![CDATA[1454]]></ele></trkpt>
<trkpt lon="13.5964" lat="47.3711"><ele><![CDATA[1454]]></ele></trkpt>
<trkpt lon="13.59635" lat="47.37111"><ele><![CDATA[1454]]></ele></trkpt>
<trkpt lon="13.59631" lat="47.37109"><ele><![CDATA[1454]]></ele></trkpt>
<trkpt lon="13.59627" lat="47.37108"><ele><![CDATA[1454]]></ele></trkpt>
<trkpt lon="13.59624" lat="47.37112"><ele><![CDATA[1449]]></ele></trkpt>
<trkpt lon="13.59626" lat="47.37114"><ele><![CDATA[1454]]></ele></trkpt>
<trkpt lon="13.59631" lat="47.37116"><ele><![CDATA[1454]]></ele></trkpt>
<trkpt lon="13.59636" lat="47.37118"><ele><![CDATA[1454]]></ele></trkpt>
<trkpt lon="13.59641" lat="47.37123"><ele><![CDATA[1454]]></ele></trkpt>
<trkpt lon="13.59641" lat="47.37126"><ele><![CDATA[1445]]></ele></trkpt>
<trkpt lon="13.59637" lat="47.37129"><ele><![CDATA[1445]]></ele></trkpt>
<trkpt lon="13.59628" lat="47.37131"><ele><![CDATA[1445]]></ele></trkpt>
<trkpt lon="13.5962" lat="47.37131"><ele><![CDATA[1441]]></ele></trkpt>
<trkpt lon="13.59614" lat="47.3713"><ele><![CDATA[1441]]></ele></trkpt>
<trkpt lon="13.59609" lat="47.37129"><ele><![CDATA[1441]]></ele></trkpt>
<trkpt lon="13.59604" lat="47.37126"><ele><![CDATA[1441]]></ele></trkpt>
<trkpt lon="13.59594" lat="47.37125"><ele><![CDATA[1434]]></ele></trkpt>
<trkpt lon="13.59589" lat="47.37125"><ele><![CDATA[1434]]></ele></trkpt>
<trkpt lon="13.59581" lat="47.37124"><ele><![CDATA[1443]]></ele></trkpt>
<trkpt lon="13.59573" lat="47.37123"><ele><![CDATA[1443]]></ele></trkpt>
<trkpt lon="13.59572" lat="47.37119"><ele><![CDATA[1443]]></ele></trkpt>
<trkpt lon="13.59567" lat="47.37118"><ele><![CDATA[1436]]></ele></trkpt>
<trkpt lon="13.59566" lat="47.37116"><ele><![CDATA[1436]]></ele></trkpt>
<trkpt lon="13.59569" lat="47.37112"><ele><![CDATA[1436]]></ele></trkpt>
<trkpt lon="13.59571" lat="47.37109"><ele><![CDATA[1443]]></ele></trkpt>
<trkpt lon="13.59569" lat="47.37106"><ele><![CDATA[1436]]></ele></trkpt>
<trkpt lon="13.59561" lat="47.37106"><ele><![CDATA[1436]]></ele></trkpt>
<trkpt lon="13.59558" lat="47.37107"><ele><![CDATA[1436]]></ele></trkpt>
<trkpt lon="13.59552" lat="47.37107"><ele><![CDATA[1436]]></ele></trkpt>
<trkpt lon="13.59547" lat="47.37104"><ele><![CDATA[1436]]></ele></trkpt>
<trkpt lon="13.59547" lat="47.37101"><ele><![CDATA[1436]]></ele></trkpt>
<trkpt lon="13.59543" lat="47.37098"><ele><![CDATA[1436]]></ele></trkpt>
<trkpt lon="13.59539" lat="47.37099"><ele><![CDATA[1428]]></ele></trkpt>
<trkpt lon="13.59533" lat="47.37102"><ele><![CDATA[1428]]></ele></trkpt>
<trkpt lon="13.5953" lat="47.37104"><ele><![CDATA[1428]]></ele></trkpt>
<trkpt lon="13.59527" lat="47.37104"><ele><![CDATA[1428]]></ele></trkpt>
<trkpt lon="13.59524" lat="47.37103"><ele><![CDATA[1428]]></ele></trkpt>
<trkpt lon="13.59523" lat="47.37099"><ele><![CDATA[1428]]></ele></trkpt>
<trkpt lon="13.59522" lat="47.37092"><ele><![CDATA[1431]]></ele></trkpt>
<trkpt lon="13.5952" lat="47.37086"><ele><![CDATA[1431]]></ele></trkpt>
<trkpt lon="13.5952" lat="47.37083"><ele><![CDATA[1431]]></ele></trkpt>
<trkpt lon="13.59518" lat="47.37077"><ele><![CDATA[1431]]></ele></trkpt>
<trkpt lon="13.59516" lat="47.37076"><ele><![CDATA[1431]]></ele></trkpt>
<trkpt lon="13.59509" lat="47.37075"><ele><![CDATA[1424]]></ele></trkpt>
<trkpt lon="13.59505" lat="47.37076"><ele><![CDATA[1424]]></ele></trkpt>
<trkpt lon="13.59502" lat="47.37079"><ele><![CDATA[1424]]></ele></trkpt>
<trkpt lon="13.59501" lat="47.37082"><ele><![CDATA[1424]]></ele></trkpt>
<trkpt lon="13.59499" lat="47.37086"><ele><![CDATA[1424]]></ele></trkpt>
<trkpt lon="13.59496" lat="47.37088"><ele><![CDATA[1424]]></ele></trkpt>
<trkpt lon="13.59493" lat="47.37087"><ele><![CDATA[1424]]></ele></trkpt>
<trkpt lon="13.59488" lat="47.37084"><ele><![CDATA[1424]]></ele></trkpt>
<trkpt lon="13.59482" lat="47.37082"><ele><![CDATA[1418]]></ele></trkpt>
<trkpt lon="13.59479" lat="47.37081"><ele><![CDATA[1418]]></ele></trkpt>
<trkpt lon="13.59473" lat="47.37081"><ele><![CDATA[1418]]></ele></trkpt>
<trkpt lon="13.5947" lat="47.37084"><ele><![CDATA[1418]]></ele></trkpt>
<trkpt lon="13.59471" lat="47.37086"><ele><![CDATA[1418]]></ele></trkpt>
<trkpt lon="13.59473" lat="47.3709"><ele><![CDATA[1418]]></ele></trkpt>
<trkpt lon="13.59474" lat="47.37096"><ele><![CDATA[1418]]></ele></trkpt>
<trkpt lon="13.59475" lat="47.371"><ele><![CDATA[1410]]></ele></trkpt>
<trkpt lon="13.5948" lat="47.37105"><ele><![CDATA[1410]]></ele></trkpt>
<trkpt lon="13.59483" lat="47.37108"><ele><![CDATA[1410]]></ele></trkpt>
<trkpt lon="13.59484" lat="47.37111"><ele><![CDATA[1410]]></ele></trkpt>
<trkpt lon="13.5948" lat="47.37112"><ele><![CDATA[1410]]></ele></trkpt>
<trkpt lon="13.59475" lat="47.37113"><ele><![CDATA[1410]]></ele></trkpt>
<trkpt lon="13.59472" lat="47.37115"><ele><![CDATA[1410]]></ele></trkpt>
<trkpt lon="13.59472" lat="47.37119"><ele><![CDATA[1410]]></ele></trkpt>
<trkpt lon="13.59476" lat="47.37126"><ele><![CDATA[1402]]></ele></trkpt>
<trkpt lon="13.59478" lat="47.3713"><ele><![CDATA[1402]]></ele></trkpt>
<trkpt lon="13.59482" lat="47.37134"><ele><![CDATA[1402]]></ele></trkpt>
<trkpt lon="13.59487" lat="47.37138"><ele><![CDATA[1411]]></ele></trkpt>
<trkpt lon="13.59493" lat="47.37143"><ele><![CDATA[1411]]></ele></trkpt>
<trkpt lon="13.59496" lat="47.37148"><ele><![CDATA[1411]]></ele></trkpt>
<trkpt lon="13.595" lat="47.37151"><ele><![CDATA[1411]]></ele></trkpt>
<trkpt lon="13.59505" lat="47.37153"><ele><![CDATA[1400]]></ele></trkpt>
<trkpt lon="13.59505" lat="47.37156"><ele><![CDATA[1400]]></ele></trkpt>
<trkpt lon="13.59503" lat="47.37161"><ele><![CDATA[1400]]></ele></trkpt>
<trkpt lon="13.59495" lat="47.37166"><ele><![CDATA[1400]]></ele></trkpt>
<trkpt lon="13.5949" lat="47.37168"><ele><![CDATA[1400]]></ele></trkpt>
<trkpt lon="13.59477" lat="47.37167"><ele><![CDATA[1394]]></ele></trkpt>
<trkpt lon="13.59472" lat="47.37165"><ele><![CDATA[1394]]></ele></trkpt>
<trkpt lon="13.59466" lat="47.37161"><ele><![CDATA[1394]]></ele></trkpt>
<trkpt lon="13.59464" lat="47.37156"><ele><![CDATA[1394]]></ele></trkpt>
<trkpt lon="13.59457" lat="47.37151"><ele><![CDATA[1395]]></ele></trkpt>
<trkpt lon="13.5945" lat="47.37152"><ele><![CDATA[1395]]></ele></trkpt>
<trkpt lon="13.59441" lat="47.37152"><ele><![CDATA[1395]]></ele></trkpt>
<trkpt lon="13.59434" lat="47.37148"><ele><![CDATA[1395]]></ele></trkpt>
<trkpt lon="13.59429" lat="47.37142"><ele><![CDATA[1389]]></ele></trkpt>
<trkpt lon="13.59419" lat="47.37137"><ele><![CDATA[1389]]></ele></trkpt>
<trkpt lon="13.59404" lat="47.37135"><ele><![CDATA[1389]]></ele></trkpt>
<trkpt lon="13.59396" lat="47.37139"><ele><![CDATA[1381]]></ele></trkpt>
<trkpt lon="13.59398" lat="47.37148"><ele><![CDATA[1381]]></ele></trkpt>
<trkpt lon="13.59412" lat="47.37161"><ele><![CDATA[1381]]></ele></trkpt>
<trkpt lon="13.59417" lat="47.37175"><ele><![CDATA[1381]]></ele></trkpt>
<trkpt lon="13.59418" lat="47.37185"><ele><![CDATA[1374]]></ele></trkpt>
<trkpt lon="13.5942" lat="47.37193"><ele><![CDATA[1374]]></ele></trkpt>
<trkpt lon="13.5942" lat="47.37203"><ele><![CDATA[1374]]></ele></trkpt>
<trkpt lon="13.5942" lat="47.37215"><ele><![CDATA[1371]]></ele></trkpt>
<trkpt lon="13.59421" lat="47.37222"><ele><![CDATA[1371]]></ele></trkpt>
<trkpt lon="13.5942" lat="47.37237"><ele><![CDATA[1368]]></ele></trkpt>
</trkseg>
</trk>
</gpx>
