<?xml version="1.0" encoding="UTF-8"?><gpx xmlns="http://www.topografix.com/GPX/1/1" creator="CONTWISE MAPS" xsi:schemaLocation="http://www.topografix.com/GPX/1/1 http://www.topografix.com/GPX/1/1/gpx.xsd http://www.topografix.com/GPX/gpx_overlay/0/3 http://www.topografix.com/GPX/gpx_overlay/0/3/gpx_overlay.xsd http://www.topografix.com/GPX/gpx_modified/0/1 http://www.topografix.com/GPX/gpx_modified/0/1/gpx_modified.xsd http://www.topografix.com/GPX/Private/TopoGrafix/0/3 http://www.topografix.com/GPX/Private/TopoGrafix/0/3/topografix.xsd" xmlns:xsi="http://www.w3.org/2001/XMLSchema-instance" version="1.1"><trk><name><![CDATA[gassl_trail__103_148935292]]></name><extensions><label xmlns="http://www.topografix.com/GPX/gpx_overlay/0/3"></label>
</extensions>
<trkseg><trkpt lon="13.590357" lat="47.359283"><ele><![CDATA[1846]]></ele></trkpt>
<trkpt lon="13.590224" lat="47.359196"><ele><![CDATA[1849]]></ele></trkpt>
<trkpt lon="13.59017" lat="47.359189"><ele><![CDATA[1849]]></ele></trkpt>
<trkpt lon="13.590111" lat="47.359209"><ele><![CDATA[1849]]></ele></trkpt>
<trkpt lon="13.590018" lat="47.359305"><ele><![CDATA[1848]]></ele></trkpt>
<trkpt lon="13.58995" lat="47.359354"><ele><![CDATA[1846]]></ele></trkpt>
<trkpt lon="13.589814" lat="47.359423"><ele><![CDATA[1844]]></ele></trkpt>
<trkpt lon="13.589739" lat="47.359476"><ele><![CDATA[1844]]></ele></trkpt>
<trkpt lon="13.589648" lat="47.359513"><ele><![CDATA[1844]]></ele></trkpt>
<trkpt lon="13.589589" lat="47.359559"><ele><![CDATA[1843]]></ele></trkpt>
<trkpt lon="13.589594" lat="47.359598"><ele><![CDATA[1842]]></ele></trkpt>
<trkpt lon="13.589673" lat="47.359633"><ele><![CDATA[1841]]></ele></trkpt>
<trkpt lon="13.589785" lat="47.359641"><ele><![CDATA[1841]]></ele></trkpt>
<trkpt lon="13.589831" lat="47.359659"><ele><![CDATA[1841]]></ele></trkpt>
<trkpt lon="13.589828" lat="47.359681"><ele><![CDATA[1840]]></ele></trkpt>
<trkpt lon="13.58976" lat="47.359732"><ele><![CDATA[1839]]></ele></trkpt>
<trkpt lon="13.589589" lat="47.359742"><ele><![CDATA[1837]]></ele></trkpt>
<trkpt lon="13.589502" lat="47.359768"><ele><![CDATA[1836]]></ele></trkpt>
<trkpt lon="13.58914" lat="47.359773"><ele><![CDATA[1834]]></ele></trkpt>
<trkpt lon="13.589078" lat="47.359801"><ele><![CDATA[1834]]></ele></trkpt>
<trkpt lon="13.589061" lat="47.359835"><ele><![CDATA[1833]]></ele></trkpt>
<trkpt lon="13.589069" lat="47.359863"><ele><![CDATA[1833]]></ele></trkpt>
<trkpt lon="13.589249" lat="47.359945"><ele><![CDATA[1832]]></ele></trkpt>
<trkpt lon="13.589253" lat="47.359964"><ele><![CDATA[1831]]></ele></trkpt>
<trkpt lon="13.589238" lat="47.35998"><ele><![CDATA[1831]]></ele></trkpt>
<trkpt lon="13.588935" lat="47.359993"><ele><![CDATA[1828]]></ele></trkpt>
<trkpt lon="13.588802" lat="47.359989"><ele><![CDATA[1827]]></ele></trkpt>
<trkpt lon="13.588727" lat="47.359971"><ele><![CDATA[1826]]></ele></trkpt>
<trkpt lon="13.588652" lat="47.359967"><ele><![CDATA[1825]]></ele></trkpt>
<trkpt lon="13.588607" lat="47.359997"><ele><![CDATA[1824]]></ele></trkpt>
<trkpt lon="13.588783" lat="47.360109"><ele><![CDATA[1823]]></ele></trkpt>
<trkpt lon="13.588805" lat="47.360139"><ele><![CDATA[1822]]></ele></trkpt>
<trkpt lon="13.588792" lat="47.360148"><ele><![CDATA[1822]]></ele></trkpt>
<trkpt lon="13.588626" lat="47.36014"><ele><![CDATA[1819]]></ele></trkpt>
<trkpt lon="13.588519" lat="47.360098"><ele><![CDATA[1819]]></ele></trkpt>
<trkpt lon="13.58825" lat="47.360031"><ele><![CDATA[1817]]></ele></trkpt>
<trkpt lon="13.58822" lat="47.360052"><ele><![CDATA[1815]]></ele></trkpt>
<trkpt lon="13.58828" lat="47.360095"><ele><![CDATA[1815]]></ele></trkpt>
<trkpt lon="13.588445" lat="47.360159"><ele><![CDATA[1814]]></ele></trkpt>
<trkpt lon="13.588494" lat="47.360189"><ele><![CDATA[1814]]></ele></trkpt>
<trkpt lon="13.588492" lat="47.360211"><ele><![CDATA[1813]]></ele></trkpt>
<trkpt lon="13.588464" lat="47.360221"><ele><![CDATA[1812]]></ele></trkpt>
<trkpt lon="13.588387" lat="47.360221"><ele><![CDATA[1811]]></ele></trkpt>
<trkpt lon="13.588316" lat="47.360204"><ele><![CDATA[1811]]></ele></trkpt>
<trkpt lon="13.588288" lat="47.360215"><ele><![CDATA[1810]]></ele></trkpt>
<trkpt lon="13.588208" lat="47.360216"><ele><![CDATA[1808]]></ele></trkpt>
<trkpt lon="13.588039" lat="47.360176"><ele><![CDATA[1806]]></ele></trkpt>
<trkpt lon="13.587923" lat="47.360165"><ele><![CDATA[1805]]></ele></trkpt>
<trkpt lon="13.587906" lat="47.360176"><ele><![CDATA[1804]]></ele></trkpt>
<trkpt lon="13.587908" lat="47.360191"><ele><![CDATA[1804]]></ele></trkpt>
<trkpt lon="13.587941" lat="47.36022"><ele><![CDATA[1803]]></ele></trkpt>
<trkpt lon="13.587946" lat="47.36024"><ele><![CDATA[1802]]></ele></trkpt>
<trkpt lon="13.587927" lat="47.360255"><ele><![CDATA[1801]]></ele></trkpt>
<trkpt lon="13.587832" lat="47.360282"><ele><![CDATA[1800]]></ele></trkpt>
<trkpt lon="13.58775" lat="47.36032"><ele><![CDATA[1799]]></ele></trkpt>
<trkpt lon="13.587577" lat="47.360424"><ele><![CDATA[1798]]></ele></trkpt>
<trkpt lon="13.587576" lat="47.360456"><ele><![CDATA[1797]]></ele></trkpt>
<trkpt lon="13.587735" lat="47.360486"><ele><![CDATA[1795]]></ele></trkpt>
<trkpt lon="13.587858" lat="47.360454"><ele><![CDATA[1795]]></ele></trkpt>
<trkpt lon="13.587911" lat="47.360418"><ele><![CDATA[1795]]></ele></trkpt>
<trkpt lon="13.587957" lat="47.360417"><ele><![CDATA[1795]]></ele></trkpt>
<trkpt lon="13.588018" lat="47.360436"><ele><![CDATA[1792]]></ele></trkpt>
<trkpt lon="13.588126" lat="47.360453"><ele><![CDATA[1789]]></ele></trkpt>
<trkpt lon="13.588199" lat="47.36045"><ele><![CDATA[1789]]></ele></trkpt>
<trkpt lon="13.588777" lat="47.360609"><ele><![CDATA[1782]]></ele></trkpt>
<trkpt lon="13.589022" lat="47.360779"><ele><![CDATA[1776]]></ele></trkpt>
<trkpt lon="13.589311" lat="47.360866"><ele><![CDATA[1775]]></ele></trkpt>
<trkpt lon="13.589724" lat="47.36106"><ele><![CDATA[1774]]></ele></trkpt>
<trkpt lon="13.590379" lat="47.361303"><ele><![CDATA[1773]]></ele></trkpt>
<trkpt lon="13.590655" lat="47.361432"><ele><![CDATA[1774]]></ele></trkpt>
<trkpt lon="13.590804" lat="47.36153"><ele><![CDATA[1773]]></ele></trkpt>
<trkpt lon="13.590928" lat="47.361589"><ele><![CDATA[1773]]></ele></trkpt>
<trkpt lon="13.591015" lat="47.361594"><ele><![CDATA[1772]]></ele></trkpt>
<trkpt lon="13.591106" lat="47.361617"><ele><![CDATA[1772]]></ele></trkpt>
<trkpt lon="13.591127" lat="47.361732"><ele><![CDATA[1770]]></ele></trkpt>
<trkpt lon="13.591118" lat="47.361759"><ele><![CDATA[1769]]></ele></trkpt>
<trkpt lon="13.591093" lat="47.361764"><ele><![CDATA[1768]]></ele></trkpt>
<trkpt lon="13.591036" lat="47.361756"><ele><![CDATA[1768]]></ele></trkpt>
<trkpt lon="13.59103" lat="47.361768"><ele><![CDATA[1767]]></ele></trkpt>
<trkpt lon="13.591073" lat="47.36182"><ele><![CDATA[1766]]></ele></trkpt>
<trkpt lon="13.591114" lat="47.361846"><ele><![CDATA[1766]]></ele></trkpt>
<trkpt lon="13.591097" lat="47.361868"><ele><![CDATA[1764]]></ele></trkpt>
<trkpt lon="13.591026" lat="47.361863"><ele><![CDATA[1764]]></ele></trkpt>
<trkpt lon="13.590993" lat="47.361871"><ele><![CDATA[1763]]></ele></trkpt>
<trkpt lon="13.590992" lat="47.361885"><ele><![CDATA[1762]]></ele></trkpt>
<trkpt lon="13.591052" lat="47.36193"><ele><![CDATA[1760]]></ele></trkpt>
<trkpt lon="13.591127" lat="47.361951"><ele><![CDATA[1760]]></ele></trkpt>
<trkpt lon="13.591314" lat="47.362091"><ele><![CDATA[1757]]></ele></trkpt>
<trkpt lon="13.5914" lat="47.36212"><ele><![CDATA[1757]]></ele></trkpt>
<trkpt lon="13.59142" lat="47.362154"><ele><![CDATA[1755]]></ele></trkpt>
<trkpt lon="13.59149" lat="47.362205"><ele><![CDATA[1753]]></ele></trkpt>
<trkpt lon="13.591617" lat="47.362203"><ele><![CDATA[1754]]></ele></trkpt>
<trkpt lon="13.591706" lat="47.362257"><ele><![CDATA[1750]]></ele></trkpt>
<trkpt lon="13.59188" lat="47.362293"><ele><![CDATA[1747]]></ele></trkpt>
<trkpt lon="13.592115" lat="47.362284"><ele><![CDATA[1750]]></ele></trkpt>
<trkpt lon="13.592329" lat="47.362198"><ele><![CDATA[1753]]></ele></trkpt>
<trkpt lon="13.592547" lat="47.362064"><ele><![CDATA[1748]]></ele></trkpt>
<trkpt lon="13.592711" lat="47.362049"><ele><![CDATA[1744]]></ele></trkpt>
<trkpt lon="13.593061" lat="47.362043"><ele><![CDATA[1737]]></ele></trkpt>
<trkpt lon="13.593207" lat="47.362075"><ele><![CDATA[1733]]></ele></trkpt>
<trkpt lon="13.593433" lat="47.362157"><ele><![CDATA[1727]]></ele></trkpt>
<trkpt lon="13.593519" lat="47.362221"><ele><![CDATA[1724]]></ele></trkpt>
<trkpt lon="13.593725" lat="47.362449"><ele><![CDATA[1716]]></ele></trkpt>
<trkpt lon="13.593877" lat="47.362756"><ele><![CDATA[1713]]></ele></trkpt>
<trkpt lon="13.593834" lat="47.362827"><ele><![CDATA[1713]]></ele></trkpt>
<trkpt lon="13.593765" lat="47.362871"><ele><![CDATA[1713]]></ele></trkpt>
<trkpt lon="13.593674" lat="47.362882"><ele><![CDATA[1713]]></ele></trkpt>
<trkpt lon="13.593574" lat="47.362859"><ele><![CDATA[1712]]></ele></trkpt>
<trkpt lon="13.59341" lat="47.362768"><ele><![CDATA[1711]]></ele></trkpt>
<trkpt lon="13.593342" lat="47.362807"><ele><![CDATA[1710]]></ele></trkpt>
<trkpt lon="13.593366" lat="47.36288"><ele><![CDATA[1709]]></ele></trkpt>
<trkpt lon="13.593516" lat="47.363069"><ele><![CDATA[1709]]></ele></trkpt>
<trkpt lon="13.593457" lat="47.363118"><ele><![CDATA[1709]]></ele></trkpt>
<trkpt lon="13.593362" lat="47.363104"><ele><![CDATA[1709]]></ele></trkpt>
<trkpt lon="13.593294" lat="47.363017"><ele><![CDATA[1709]]></ele></trkpt>
<trkpt lon="13.593093" lat="47.363002"><ele><![CDATA[1703]]></ele></trkpt>
<trkpt lon="13.592978" lat="47.362933"><ele><![CDATA[1701]]></ele></trkpt>
<trkpt lon="13.592766" lat="47.362781"><ele><![CDATA[1700]]></ele></trkpt>
<trkpt lon="13.5926" lat="47.362748"><ele><![CDATA[1698]]></ele></trkpt>
<trkpt lon="13.592556" lat="47.362784"><ele><![CDATA[1695]]></ele></trkpt>
<trkpt lon="13.592595" lat="47.362853"><ele><![CDATA[1692]]></ele></trkpt>
<trkpt lon="13.592792" lat="47.362994"><ele><![CDATA[1693]]></ele></trkpt>
<trkpt lon="13.592899" lat="47.363056"><ele><![CDATA[1694]]></ele></trkpt>
<trkpt lon="13.592921" lat="47.363109"><ele><![CDATA[1694]]></ele></trkpt>
<trkpt lon="13.59307" lat="47.363179"><ele><![CDATA[1696]]></ele></trkpt>
<trkpt lon="13.593174" lat="47.363211"><ele><![CDATA[1697]]></ele></trkpt>
<trkpt lon="13.593283" lat="47.363271"><ele><![CDATA[1696]]></ele></trkpt>
<trkpt lon="13.593267" lat="47.363313"><ele><![CDATA[1694]]></ele></trkpt>
<trkpt lon="13.59316" lat="47.363319"><ele><![CDATA[1692]]></ele></trkpt>
<trkpt lon="13.593077" lat="47.36331"><ele><![CDATA[1690]]></ele></trkpt>
<trkpt lon="13.592884" lat="47.363243"><ele><![CDATA[1687]]></ele></trkpt>
<trkpt lon="13.592821" lat="47.36325"><ele><![CDATA[1686]]></ele></trkpt>
<trkpt lon="13.592747" lat="47.363293"><ele><![CDATA[1683]]></ele></trkpt>
<trkpt lon="13.592795" lat="47.363453"><ele><![CDATA[1679]]></ele></trkpt>
<trkpt lon="13.592895" lat="47.363514"><ele><![CDATA[1678]]></ele></trkpt>
<trkpt lon="13.593295" lat="47.363677"><ele><![CDATA[1681]]></ele></trkpt>
<trkpt lon="13.593441" lat="47.363721"><ele><![CDATA[1684]]></ele></trkpt>
<trkpt lon="13.593646" lat="47.363768"><ele><![CDATA[1688]]></ele></trkpt>
<trkpt lon="13.594293" lat="47.363845"><ele><![CDATA[1691]]></ele></trkpt>
<trkpt lon="13.594439" lat="47.363879"><ele><![CDATA[1689]]></ele></trkpt>
<trkpt lon="13.594789" lat="47.363805"><ele><![CDATA[1687]]></ele></trkpt>
<trkpt lon="13.594921" lat="47.36379"><ele><![CDATA[1687]]></ele></trkpt>
<trkpt lon="13.594964" lat="47.363798"><ele><![CDATA[1686]]></ele></trkpt>
<trkpt lon="13.595118" lat="47.363899"><ele><![CDATA[1683]]></ele></trkpt>
<trkpt lon="13.595214" lat="47.363905"><ele><![CDATA[1683]]></ele></trkpt>
<trkpt lon="13.595248" lat="47.363887"><ele><![CDATA[1683]]></ele></trkpt>
<trkpt lon="13.595249" lat="47.36373"><ele><![CDATA[1685]]></ele></trkpt>
<trkpt lon="13.59531" lat="47.363682"><ele><![CDATA[1686]]></ele></trkpt>
<trkpt lon="13.595411" lat="47.363682"><ele><![CDATA[1684]]></ele></trkpt>
<trkpt lon="13.595481" lat="47.363748"><ele><![CDATA[1683]]></ele></trkpt>
<trkpt lon="13.595559" lat="47.363781"><ele><![CDATA[1681]]></ele></trkpt>
<trkpt lon="13.595682" lat="47.363801"><ele><![CDATA[1679]]></ele></trkpt>
<trkpt lon="13.595792" lat="47.363721"><ele><![CDATA[1678]]></ele></trkpt>
<trkpt lon="13.595835" lat="47.36359"><ele><![CDATA[1677]]></ele></trkpt>
<trkpt lon="13.595897" lat="47.363563"><ele><![CDATA[1676]]></ele></trkpt>
<trkpt lon="13.59598" lat="47.363545"><ele><![CDATA[1675]]></ele></trkpt>
<trkpt lon="13.596063" lat="47.363557"><ele><![CDATA[1674]]></ele></trkpt>
<trkpt lon="13.596107" lat="47.363595"><ele><![CDATA[1674]]></ele></trkpt>
<trkpt lon="13.596151" lat="47.363694"><ele><![CDATA[1674]]></ele></trkpt>
<trkpt lon="13.596186" lat="47.363738"><ele><![CDATA[1673]]></ele></trkpt>
<trkpt lon="13.596226" lat="47.363747"><ele><![CDATA[1673]]></ele></trkpt>
<trkpt lon="13.596313" lat="47.363732"><ele><![CDATA[1670]]></ele></trkpt>
<trkpt lon="13.596348" lat="47.363679"><ele><![CDATA[1669]]></ele></trkpt>
<trkpt lon="13.596361" lat="47.363542"><ele><![CDATA[1668]]></ele></trkpt>
<trkpt lon="13.59633" lat="47.363378"><ele><![CDATA[1669]]></ele></trkpt>
<trkpt lon="13.596335" lat="47.363253"><ele><![CDATA[1671]]></ele></trkpt>
<trkpt lon="13.596394" lat="47.363198"><ele><![CDATA[1671]]></ele></trkpt>
<trkpt lon="13.596484" lat="47.363203"><ele><![CDATA[1667]]></ele></trkpt>
<trkpt lon="13.596568" lat="47.363233"><ele><![CDATA[1665]]></ele></trkpt>
<trkpt lon="13.596595" lat="47.3633"><ele><![CDATA[1664]]></ele></trkpt>
<trkpt lon="13.596607" lat="47.36351"><ele><![CDATA[1662]]></ele></trkpt>
<trkpt lon="13.596693" lat="47.363626"><ele><![CDATA[1661]]></ele></trkpt>
<trkpt lon="13.596791" lat="47.363693"><ele><![CDATA[1661]]></ele></trkpt>
</trkseg>
</trk>
</gpx>
