<?xml version="1.0" encoding="UTF-8"?><gpx xmlns="http://www.topografix.com/GPX/1/1" creator="CONTWISE MAPS" xsi:schemaLocation="http://www.topografix.com/GPX/1/1 http://www.topografix.com/GPX/1/1/gpx.xsd http://www.topografix.com/GPX/gpx_overlay/0/3 http://www.topografix.com/GPX/gpx_overlay/0/3/gpx_overlay.xsd http://www.topografix.com/GPX/gpx_modified/0/1 http://www.topografix.com/GPX/gpx_modified/0/1/gpx_modified.xsd http://www.topografix.com/GPX/Private/TopoGrafix/0/3 http://www.topografix.com/GPX/Private/TopoGrafix/0/3/topografix.xsd" xmlns:xsi="http://www.w3.org/2001/XMLSchema-instance" version="1.1"><trk><name><![CDATA[hochalm_trail__104_148935316]]></name><extensions><label xmlns="http://www.topografix.com/GPX/gpx_overlay/0/3"></label>
</extensions>
<trkseg><trkpt lon="13.598305" lat="47.366214"><ele><![CDATA[1594]]></ele></trkpt>
<trkpt lon="13.598377" lat="47.366311"><ele><![CDATA[1593]]></ele></trkpt>
<trkpt lon="13.598424" lat="47.366422"><ele><![CDATA[1592]]></ele></trkpt>
<trkpt lon="13.598415" lat="47.366438"><ele><![CDATA[1592]]></ele></trkpt>
<trkpt lon="13.598324" lat="47.366492"><ele><![CDATA[1593]]></ele></trkpt>
<trkpt lon="13.598284" lat="47.366525"><ele><![CDATA[1592]]></ele></trkpt>
<trkpt lon="13.598239" lat="47.366581"><ele><![CDATA[1592]]></ele></trkpt>
<trkpt lon="13.598191" lat="47.366612"><ele><![CDATA[1592]]></ele></trkpt>
<trkpt lon="13.598152" lat="47.366667"><ele><![CDATA[1591]]></ele></trkpt>
<trkpt lon="13.597994" lat="47.366821"><ele><![CDATA[1590]]></ele></trkpt>
<trkpt lon="13.597971" lat="47.366858"><ele><![CDATA[1590]]></ele></trkpt>
<trkpt lon="13.597903" lat="47.366931"><ele><![CDATA[1590]]></ele></trkpt>
<trkpt lon="13.597867" lat="47.366966"><ele><![CDATA[1589]]></ele></trkpt>
<trkpt lon="13.5978" lat="47.367003"><ele><![CDATA[1590]]></ele></trkpt>
<trkpt lon="13.597743" lat="47.36707"><ele><![CDATA[1591]]></ele></trkpt>
<trkpt lon="13.597668" lat="47.367192"><ele><![CDATA[1588]]></ele></trkpt>
<trkpt lon="13.597662" lat="47.367231"><ele><![CDATA[1587]]></ele></trkpt>
<trkpt lon="13.597626" lat="47.367266"><ele><![CDATA[1586]]></ele></trkpt>
<trkpt lon="13.597561" lat="47.367294"><ele><![CDATA[1585]]></ele></trkpt>
<trkpt lon="13.597256" lat="47.367399"><ele><![CDATA[1584]]></ele></trkpt>
<trkpt lon="13.597194" lat="47.367437"><ele><![CDATA[1584]]></ele></trkpt>
<trkpt lon="13.597112" lat="47.367452"><ele><![CDATA[1584]]></ele></trkpt>
<trkpt lon="13.597082" lat="47.367485"><ele><![CDATA[1584]]></ele></trkpt>
<trkpt lon="13.5971" lat="47.367506"><ele><![CDATA[1583]]></ele></trkpt>
<trkpt lon="13.597187" lat="47.367503"><ele><![CDATA[1583]]></ele></trkpt>
<trkpt lon="13.597295" lat="47.367512"><ele><![CDATA[1581]]></ele></trkpt>
<trkpt lon="13.597329" lat="47.367525"><ele><![CDATA[1581]]></ele></trkpt>
<trkpt lon="13.597338" lat="47.367557"><ele><![CDATA[1580]]></ele></trkpt>
<trkpt lon="13.597224" lat="47.367616"><ele><![CDATA[1580]]></ele></trkpt>
<trkpt lon="13.597137" lat="47.367648"><ele><![CDATA[1579]]></ele></trkpt>
<trkpt lon="13.596925" lat="47.36771"><ele><![CDATA[1576]]></ele></trkpt>
<trkpt lon="13.59687" lat="47.367708"><ele><![CDATA[1576]]></ele></trkpt>
<trkpt lon="13.59682" lat="47.367747"><ele><![CDATA[1574]]></ele></trkpt>
<trkpt lon="13.596749" lat="47.367733"><ele><![CDATA[1574]]></ele></trkpt>
<trkpt lon="13.596693" lat="47.367706"><ele><![CDATA[1574]]></ele></trkpt>
<trkpt lon="13.596637" lat="47.367715"><ele><![CDATA[1573]]></ele></trkpt>
<trkpt lon="13.596577" lat="47.367714"><ele><![CDATA[1572]]></ele></trkpt>
<trkpt lon="13.596351" lat="47.367697"><ele><![CDATA[1569]]></ele></trkpt>
<trkpt lon="13.596297" lat="47.367712"><ele><![CDATA[1568]]></ele></trkpt>
<trkpt lon="13.596238" lat="47.367783"><ele><![CDATA[1567]]></ele></trkpt>
<trkpt lon="13.596248" lat="47.367821"><ele><![CDATA[1566]]></ele></trkpt>
<trkpt lon="13.596496" lat="47.367824"><ele><![CDATA[1566]]></ele></trkpt>
<trkpt lon="13.596579" lat="47.367841"><ele><![CDATA[1566]]></ele></trkpt>
<trkpt lon="13.596645" lat="47.367924"><ele><![CDATA[1563]]></ele></trkpt>
<trkpt lon="13.596738" lat="47.367963"><ele><![CDATA[1564]]></ele></trkpt>
<trkpt lon="13.596801" lat="47.368008"><ele><![CDATA[1563]]></ele></trkpt>
<trkpt lon="13.596888" lat="47.368033"><ele><![CDATA[1563]]></ele></trkpt>
<trkpt lon="13.596899" lat="47.368074"><ele><![CDATA[1562]]></ele></trkpt>
<trkpt lon="13.596859" lat="47.368116"><ele><![CDATA[1561]]></ele></trkpt>
<trkpt lon="13.596803" lat="47.368109"><ele><![CDATA[1560]]></ele></trkpt>
<trkpt lon="13.596705" lat="47.368119"><ele><![CDATA[1559]]></ele></trkpt>
<trkpt lon="13.596607" lat="47.368077"><ele><![CDATA[1559]]></ele></trkpt>
<trkpt lon="13.596506" lat="47.368099"><ele><![CDATA[1558]]></ele></trkpt>
<trkpt lon="13.596439" lat="47.368098"><ele><![CDATA[1558]]></ele></trkpt>
<trkpt lon="13.596347" lat="47.368081"><ele><![CDATA[1557]]></ele></trkpt>
<trkpt lon="13.596354" lat="47.368161"><ele><![CDATA[1555]]></ele></trkpt>
<trkpt lon="13.596391" lat="47.36822"><ele><![CDATA[1553]]></ele></trkpt>
<trkpt lon="13.596446" lat="47.368256"><ele><![CDATA[1553]]></ele></trkpt>
<trkpt lon="13.596484" lat="47.368322"><ele><![CDATA[1552]]></ele></trkpt>
<trkpt lon="13.596608" lat="47.368414"><ele><![CDATA[1551]]></ele></trkpt>
<trkpt lon="13.596686" lat="47.368411"><ele><![CDATA[1552]]></ele></trkpt>
<trkpt lon="13.59677" lat="47.368462"><ele><![CDATA[1550]]></ele></trkpt>
<trkpt lon="13.596921" lat="47.368478"><ele><![CDATA[1549]]></ele></trkpt>
<trkpt lon="13.596988" lat="47.368507"><ele><![CDATA[1548]]></ele></trkpt>
<trkpt lon="13.597011" lat="47.368532"><ele><![CDATA[1547]]></ele></trkpt>
<trkpt lon="13.596981" lat="47.368572"><ele><![CDATA[1546]]></ele></trkpt>
<trkpt lon="13.596989" lat="47.368582"><ele><![CDATA[1546]]></ele></trkpt>
<trkpt lon="13.597042" lat="47.368632"><ele><![CDATA[1544]]></ele></trkpt>
<trkpt lon="13.597118" lat="47.368649"><ele><![CDATA[1544]]></ele></trkpt>
<trkpt lon="13.597145" lat="47.368663"><ele><![CDATA[1543]]></ele></trkpt>
<trkpt lon="13.597233" lat="47.368743"><ele><![CDATA[1540]]></ele></trkpt>
<trkpt lon="13.597298" lat="47.368744"><ele><![CDATA[1540]]></ele></trkpt>
<trkpt lon="13.597423" lat="47.368815"><ele><![CDATA[1537]]></ele></trkpt>
<trkpt lon="13.597511" lat="47.368799"><ele><![CDATA[1539]]></ele></trkpt>
<trkpt lon="13.597557" lat="47.36883"><ele><![CDATA[1537]]></ele></trkpt>
<trkpt lon="13.597615" lat="47.368883"><ele><![CDATA[1535]]></ele></trkpt>
<trkpt lon="13.597563" lat="47.368945"><ele><![CDATA[1534]]></ele></trkpt>
<trkpt lon="13.597475" lat="47.369007"><ele><![CDATA[1532]]></ele></trkpt>
<trkpt lon="13.597477" lat="47.369116"><ele><![CDATA[1532]]></ele></trkpt>
<trkpt lon="13.59764" lat="47.369141"><ele><![CDATA[1533]]></ele></trkpt>
<trkpt lon="13.597982" lat="47.369161"><ele><![CDATA[1531]]></ele></trkpt>
<trkpt lon="13.597822" lat="47.369224"><ele><![CDATA[1530]]></ele></trkpt>
<trkpt lon="13.597702" lat="47.369254"><ele><![CDATA[1528]]></ele></trkpt>
<trkpt lon="13.59765" lat="47.369235"><ele><![CDATA[1528]]></ele></trkpt>
<trkpt lon="13.59755" lat="47.369222"><ele><![CDATA[1528]]></ele></trkpt>
<trkpt lon="13.597489" lat="47.369279"><ele><![CDATA[1526]]></ele></trkpt>
<trkpt lon="13.597401" lat="47.369271"><ele><![CDATA[1526]]></ele></trkpt>
<trkpt lon="13.597283" lat="47.369228"><ele><![CDATA[1526]]></ele></trkpt>
<trkpt lon="13.597155" lat="47.369205"><ele><![CDATA[1525]]></ele></trkpt>
<trkpt lon="13.596994" lat="47.369272"><ele><![CDATA[1524]]></ele></trkpt>
<trkpt lon="13.59703" lat="47.369323"><ele><![CDATA[1524]]></ele></trkpt>
<trkpt lon="13.5972" lat="47.369342"><ele><![CDATA[1522]]></ele></trkpt>
<trkpt lon="13.597296" lat="47.369372"><ele><![CDATA[1521]]></ele></trkpt>
<trkpt lon="13.597404" lat="47.369364"><ele><![CDATA[1522]]></ele></trkpt>
<trkpt lon="13.597409" lat="47.369369"><ele><![CDATA[1522]]></ele></trkpt>
<trkpt lon="13.597363" lat="47.369411"><ele><![CDATA[1519]]></ele></trkpt>
<trkpt lon="13.59741" lat="47.369477"><ele><![CDATA[1517]]></ele></trkpt>
<trkpt lon="13.597507" lat="47.36948"><ele><![CDATA[1518]]></ele></trkpt>
<trkpt lon="13.597614" lat="47.369471"><ele><![CDATA[1518]]></ele></trkpt>
<trkpt lon="13.597675" lat="47.36948"><ele><![CDATA[1518]]></ele></trkpt>
<trkpt lon="13.597753" lat="47.369477"><ele><![CDATA[1518]]></ele></trkpt>
<trkpt lon="13.597852" lat="47.369494"><ele><![CDATA[1518]]></ele></trkpt>
<trkpt lon="13.597937" lat="47.369496"><ele><![CDATA[1517]]></ele></trkpt>
<trkpt lon="13.597959" lat="47.36953"><ele><![CDATA[1516]]></ele></trkpt>
<trkpt lon="13.597909" lat="47.369561"><ele><![CDATA[1515]]></ele></trkpt>
<trkpt lon="13.59775" lat="47.369577"><ele><![CDATA[1514]]></ele></trkpt>
<trkpt lon="13.597663" lat="47.369628"><ele><![CDATA[1512]]></ele></trkpt>
<trkpt lon="13.597562" lat="47.369638"><ele><![CDATA[1511]]></ele></trkpt>
<trkpt lon="13.597459" lat="47.369614"><ele><![CDATA[1511]]></ele></trkpt>
<trkpt lon="13.59738" lat="47.369613"><ele><![CDATA[1511]]></ele></trkpt>
<trkpt lon="13.597396" lat="47.369654"><ele><![CDATA[1510]]></ele></trkpt>
<trkpt lon="13.597375" lat="47.369673"><ele><![CDATA[1510]]></ele></trkpt>
<trkpt lon="13.597498" lat="47.369704"><ele><![CDATA[1510]]></ele></trkpt>
<trkpt lon="13.597536" lat="47.369766"><ele><![CDATA[1509]]></ele></trkpt>
<trkpt lon="13.597782" lat="47.369775"><ele><![CDATA[1508]]></ele></trkpt>
<trkpt lon="13.597871" lat="47.3698"><ele><![CDATA[1506]]></ele></trkpt>
<trkpt lon="13.597973" lat="47.369809"><ele><![CDATA[1506]]></ele></trkpt>
<trkpt lon="13.5981" lat="47.369868"><ele><![CDATA[1503]]></ele></trkpt>
<trkpt lon="13.59813" lat="47.369899"><ele><![CDATA[1501]]></ele></trkpt>
<trkpt lon="13.59831" lat="47.369959"><ele><![CDATA[1499]]></ele></trkpt>
<trkpt lon="13.598453" lat="47.370031"><ele><![CDATA[1497]]></ele></trkpt>
<trkpt lon="13.598555" lat="47.370062"><ele><![CDATA[1498]]></ele></trkpt>
<trkpt lon="13.59869" lat="47.370157"><ele><![CDATA[1496]]></ele></trkpt>
<trkpt lon="13.598759" lat="47.37018"><ele><![CDATA[1496]]></ele></trkpt>
<trkpt lon="13.598832" lat="47.370218"><ele><![CDATA[1495]]></ele></trkpt>
<trkpt lon="13.598911" lat="47.370269"><ele><![CDATA[1493]]></ele></trkpt>
<trkpt lon="13.598974" lat="47.370322"><ele><![CDATA[1492]]></ele></trkpt>
<trkpt lon="13.599087" lat="47.370384"><ele><![CDATA[1492]]></ele></trkpt>
<trkpt lon="13.59915" lat="47.37039"><ele><![CDATA[1492]]></ele></trkpt>
<trkpt lon="13.599227" lat="47.370434"><ele><![CDATA[1492]]></ele></trkpt>
<trkpt lon="13.599299" lat="47.370453"><ele><![CDATA[1491]]></ele></trkpt>
<trkpt lon="13.599315" lat="47.370476"><ele><![CDATA[1490]]></ele></trkpt>
<trkpt lon="13.599308" lat="47.370543"><ele><![CDATA[1489]]></ele></trkpt>
<trkpt lon="13.599218" lat="47.370619"><ele><![CDATA[1488]]></ele></trkpt>
<trkpt lon="13.599112" lat="47.370637"><ele><![CDATA[1487]]></ele></trkpt>
<trkpt lon="13.599013" lat="47.370673"><ele><![CDATA[1487]]></ele></trkpt>
<trkpt lon="13.598848" lat="47.370657"><ele><![CDATA[1485]]></ele></trkpt>
<trkpt lon="13.598764" lat="47.370659"><ele><![CDATA[1484]]></ele></trkpt>
<trkpt lon="13.598706" lat="47.370732"><ele><![CDATA[1484]]></ele></trkpt>
<trkpt lon="13.598629" lat="47.370765"><ele><![CDATA[1484]]></ele></trkpt>
<trkpt lon="13.598563" lat="47.370783"><ele><![CDATA[1484]]></ele></trkpt>
<trkpt lon="13.59843" lat="47.370787"><ele><![CDATA[1485]]></ele></trkpt>
<trkpt lon="13.598334" lat="47.370758"><ele><![CDATA[1484]]></ele></trkpt>
<trkpt lon="13.598012" lat="47.370824"><ele><![CDATA[1482]]></ele></trkpt>
<trkpt lon="13.597906" lat="47.370833"><ele><![CDATA[1482]]></ele></trkpt>
<trkpt lon="13.597861" lat="47.370799"><ele><![CDATA[1480]]></ele></trkpt>
<trkpt lon="13.597863" lat="47.370775"><ele><![CDATA[1479]]></ele></trkpt>
<trkpt lon="13.597905" lat="47.370741"><ele><![CDATA[1478]]></ele></trkpt>
<trkpt lon="13.598049" lat="47.370734"><ele><![CDATA[1480]]></ele></trkpt>
<trkpt lon="13.598127" lat="47.37071"><ele><![CDATA[1480]]></ele></trkpt>
<trkpt lon="13.598183" lat="47.370676"><ele><![CDATA[1479]]></ele></trkpt>
<trkpt lon="13.598203" lat="47.370642"><ele><![CDATA[1480]]></ele></trkpt>
<trkpt lon="13.597938" lat="47.37063"><ele><![CDATA[1477]]></ele></trkpt>
<trkpt lon="13.597776" lat="47.370613"><ele><![CDATA[1475]]></ele></trkpt>
<trkpt lon="13.597565" lat="47.370573"><ele><![CDATA[1473]]></ele></trkpt>
<trkpt lon="13.59725" lat="47.370544"><ele><![CDATA[1469]]></ele></trkpt>
<trkpt lon="13.597173" lat="47.37055"><ele><![CDATA[1468]]></ele></trkpt>
<trkpt lon="13.597114" lat="47.370568"><ele><![CDATA[1468]]></ele></trkpt>
<trkpt lon="13.597013" lat="47.370633"><ele><![CDATA[1466]]></ele></trkpt>
<trkpt lon="13.596913" lat="47.370736"><ele><![CDATA[1464]]></ele></trkpt>
<trkpt lon="13.596869" lat="47.370809"><ele><![CDATA[1463]]></ele></trkpt>
<trkpt lon="13.596834" lat="47.370895"><ele><![CDATA[1461]]></ele></trkpt>
<trkpt lon="13.596833" lat="47.370989"><ele><![CDATA[1460]]></ele></trkpt>
<trkpt lon="13.596858" lat="47.371067"><ele><![CDATA[1458]]></ele></trkpt>
<trkpt lon="13.596999" lat="47.371287"><ele><![CDATA[1453]]></ele></trkpt>
<trkpt lon="13.596996" lat="47.371348"><ele><![CDATA[1452]]></ele></trkpt>
<trkpt lon="13.596898" lat="47.371339"><ele><![CDATA[1453]]></ele></trkpt>
<trkpt lon="13.596764" lat="47.371285"><ele><![CDATA[1453]]></ele></trkpt>
<trkpt lon="13.596694" lat="47.37123"><ele><![CDATA[1452]]></ele></trkpt>
<trkpt lon="13.596607" lat="47.371138"><ele><![CDATA[1452]]></ele></trkpt>
<trkpt lon="13.596548" lat="47.371058"><ele><![CDATA[1452]]></ele></trkpt>
<trkpt lon="13.59652" lat="47.370983"><ele><![CDATA[1451]]></ele></trkpt>
<trkpt lon="13.59652" lat="47.370953"><ele><![CDATA[1451]]></ele></trkpt>
<trkpt lon="13.596481" lat="47.370981"><ele><![CDATA[1450]]></ele></trkpt>
<trkpt lon="13.59646" lat="47.371033"><ele><![CDATA[1450]]></ele></trkpt>
<trkpt lon="13.596445" lat="47.371048"><ele><![CDATA[1450]]></ele></trkpt>
<trkpt lon="13.596331" lat="47.371049"><ele><![CDATA[1449]]></ele></trkpt>
<trkpt lon="13.596317" lat="47.371024"><ele><![CDATA[1449]]></ele></trkpt>
<trkpt lon="13.596261" lat="47.370991"><ele><![CDATA[1448]]></ele></trkpt>
<trkpt lon="13.596305" lat="47.370917"><ele><![CDATA[1447]]></ele></trkpt>
<trkpt lon="13.596281" lat="47.370865"><ele><![CDATA[1446]]></ele></trkpt>
<trkpt lon="13.596357" lat="47.370796"><ele><![CDATA[1445]]></ele></trkpt>
<trkpt lon="13.596403" lat="47.370739"><ele><![CDATA[1447]]></ele></trkpt>
<trkpt lon="13.596373" lat="47.370708"><ele><![CDATA[1447]]></ele></trkpt>
<trkpt lon="13.596324" lat="47.370712"><ele><![CDATA[1446]]></ele></trkpt>
<trkpt lon="13.596253" lat="47.370682"><ele><![CDATA[1444]]></ele></trkpt>
<trkpt lon="13.596151" lat="47.370759"><ele><![CDATA[1445]]></ele></trkpt>
<trkpt lon="13.596117" lat="47.370762"><ele><![CDATA[1445]]></ele></trkpt>
<trkpt lon="13.596113" lat="47.370701"><ele><![CDATA[1444]]></ele></trkpt>
<trkpt lon="13.596038" lat="47.370591"><ele><![CDATA[1442]]></ele></trkpt>
<trkpt lon="13.595971" lat="47.370536"><ele><![CDATA[1442]]></ele></trkpt>
<trkpt lon="13.595903" lat="47.370513"><ele><![CDATA[1442]]></ele></trkpt>
<trkpt lon="13.595862" lat="47.370514"><ele><![CDATA[1441]]></ele></trkpt>
<trkpt lon="13.595481" lat="47.370436"><ele><![CDATA[1437]]></ele></trkpt>
<trkpt lon="13.595325" lat="47.370367"><ele><![CDATA[1437]]></ele></trkpt>
<trkpt lon="13.595236" lat="47.370353"><ele><![CDATA[1435]]></ele></trkpt>
<trkpt lon="13.595114" lat="47.370283"><ele><![CDATA[1436]]></ele></trkpt>
<trkpt lon="13.595047" lat="47.370289"><ele><![CDATA[1434]]></ele></trkpt>
<trkpt lon="13.594958" lat="47.370259"><ele><![CDATA[1434]]></ele></trkpt>
<trkpt lon="13.59456" lat="47.370166"><ele><![CDATA[1430]]></ele></trkpt>
<trkpt lon="13.59436" lat="47.37016"><ele><![CDATA[1425]]></ele></trkpt>
<trkpt lon="13.59418" lat="47.370054"><ele><![CDATA[1427]]></ele></trkpt>
<trkpt lon="13.593363" lat="47.370038"><ele><![CDATA[1423]]></ele></trkpt>
<trkpt lon="13.593244" lat="47.369998"><ele><![CDATA[1425]]></ele></trkpt>
<trkpt lon="13.592876" lat="47.370031"><ele><![CDATA[1424]]></ele></trkpt>
<trkpt lon="13.592791" lat="47.370028"><ele><![CDATA[1424]]></ele></trkpt>
<trkpt lon="13.592743" lat="47.370014"><ele><![CDATA[1424]]></ele></trkpt>
<trkpt lon="13.592697" lat="47.37002"><ele><![CDATA[1424]]></ele></trkpt>
<trkpt lon="13.592701" lat="47.370052"><ele><![CDATA[1422]]></ele></trkpt>
<trkpt lon="13.592772" lat="47.370062"><ele><![CDATA[1422]]></ele></trkpt>
<trkpt lon="13.592829" lat="47.370088"><ele><![CDATA[1421]]></ele></trkpt>
<trkpt lon="13.592975" lat="47.370121"><ele><![CDATA[1419]]></ele></trkpt>
<trkpt lon="13.593035" lat="47.370142"><ele><![CDATA[1418]]></ele></trkpt>
<trkpt lon="13.593105" lat="47.370132"><ele><![CDATA[1418]]></ele></trkpt>
<trkpt lon="13.59325" lat="47.37021"><ele><![CDATA[1415]]></ele></trkpt>
<trkpt lon="13.593414" lat="47.3702"><ele><![CDATA[1416]]></ele></trkpt>
<trkpt lon="13.59361" lat="47.370238"><ele><![CDATA[1414]]></ele></trkpt>
<trkpt lon="13.593671" lat="47.370269"><ele><![CDATA[1413]]></ele></trkpt>
<trkpt lon="13.59378" lat="47.370286"><ele><![CDATA[1413]]></ele></trkpt>
<trkpt lon="13.59387" lat="47.370344"><ele><![CDATA[1410]]></ele></trkpt>
<trkpt lon="13.593973" lat="47.370387"><ele><![CDATA[1409]]></ele></trkpt>
<trkpt lon="13.594107" lat="47.370385"><ele><![CDATA[1410]]></ele></trkpt>
<trkpt lon="13.594232" lat="47.370355"><ele><![CDATA[1409]]></ele></trkpt>
<trkpt lon="13.594385" lat="47.37044"><ele><![CDATA[1407]]></ele></trkpt>
<trkpt lon="13.594447" lat="47.370482"><ele><![CDATA[1407]]></ele></trkpt>
<trkpt lon="13.594542" lat="47.370609"><ele><![CDATA[1405]]></ele></trkpt>
<trkpt lon="13.594486" lat="47.370683"><ele><![CDATA[1405]]></ele></trkpt>
<trkpt lon="13.594492" lat="47.370716"><ele><![CDATA[1405]]></ele></trkpt>
<trkpt lon="13.594588" lat="47.370785"><ele><![CDATA[1405]]></ele></trkpt>
<trkpt lon="13.594551" lat="47.370817"><ele><![CDATA[1403]]></ele></trkpt>
<trkpt lon="13.594475" lat="47.370817"><ele><![CDATA[1401]]></ele></trkpt>
<trkpt lon="13.594401" lat="47.37073"><ele><![CDATA[1403]]></ele></trkpt>
<trkpt lon="13.594296" lat="47.370726"><ele><![CDATA[1401]]></ele></trkpt>
<trkpt lon="13.594188" lat="47.370693"><ele><![CDATA[1400]]></ele></trkpt>
<trkpt lon="13.594114" lat="47.370657"><ele><![CDATA[1399]]></ele></trkpt>
<trkpt lon="13.594035" lat="47.370649"><ele><![CDATA[1398]]></ele></trkpt>
<trkpt lon="13.593933" lat="47.37062"><ele><![CDATA[1397]]></ele></trkpt>
<trkpt lon="13.593853" lat="47.370647"><ele><![CDATA[1396]]></ele></trkpt>
<trkpt lon="13.593853" lat="47.370674"><ele><![CDATA[1396]]></ele></trkpt>
<trkpt lon="13.593869" lat="47.370694"><ele><![CDATA[1395]]></ele></trkpt>
<trkpt lon="13.593945" lat="47.370706"><ele><![CDATA[1396]]></ele></trkpt>
<trkpt lon="13.594003" lat="47.370738"><ele><![CDATA[1395]]></ele></trkpt>
<trkpt lon="13.594105" lat="47.370839"><ele><![CDATA[1392]]></ele></trkpt>
<trkpt lon="13.594127" lat="47.370915"><ele><![CDATA[1390]]></ele></trkpt>
<trkpt lon="13.594221" lat="47.370926"><ele><![CDATA[1392]]></ele></trkpt>
<trkpt lon="13.594217" lat="47.370997"><ele><![CDATA[1390]]></ele></trkpt>
<trkpt lon="13.594203" lat="47.371012"><ele><![CDATA[1390]]></ele></trkpt>
<trkpt lon="13.594307" lat="47.371053"><ele><![CDATA[1391]]></ele></trkpt>
<trkpt lon="13.594366" lat="47.371086"><ele><![CDATA[1391]]></ele></trkpt>
<trkpt lon="13.594404" lat="47.371137"><ele><![CDATA[1390]]></ele></trkpt>
<trkpt lon="13.594469" lat="47.371153"><ele><![CDATA[1391]]></ele></trkpt>
<trkpt lon="13.594507" lat="47.371174"><ele><![CDATA[1391]]></ele></trkpt>
<trkpt lon="13.594512" lat="47.371197"><ele><![CDATA[1391]]></ele></trkpt>
<trkpt lon="13.594476" lat="47.371216"><ele><![CDATA[1389]]></ele></trkpt>
<trkpt lon="13.594217" lat="47.371155"><ele><![CDATA[1386]]></ele></trkpt>
<trkpt lon="13.594134" lat="47.371149"><ele><![CDATA[1385]]></ele></trkpt>
<trkpt lon="13.594026" lat="47.371098"><ele><![CDATA[1385]]></ele></trkpt>
<trkpt lon="13.593885" lat="47.371092"><ele><![CDATA[1382]]></ele></trkpt>
<trkpt lon="13.593765" lat="47.371055"><ele><![CDATA[1381]]></ele></trkpt>
<trkpt lon="13.593731" lat="47.371022"><ele><![CDATA[1382]]></ele></trkpt>
<trkpt lon="13.593707" lat="47.37102"><ele><![CDATA[1381]]></ele></trkpt>
<trkpt lon="13.593711" lat="47.371054"><ele><![CDATA[1380]]></ele></trkpt>
<trkpt lon="13.593739" lat="47.371084"><ele><![CDATA[1380]]></ele></trkpt>
<trkpt lon="13.59376" lat="47.371153"><ele><![CDATA[1379]]></ele></trkpt>
<trkpt lon="13.593768" lat="47.371159"><ele><![CDATA[1379]]></ele></trkpt>
</trkseg>
</trk>
</gpx>
