<?xml version="1.0" encoding="UTF-8"?><gpx xmlns:xsi="http://www.w3.org/2001/XMLSchema-instance" xsi:schemaLocation="http://www.topografix.com/GPX/1/1 http://www.topografix.com/GPX/1/1/gpx.xsd http://www.garmin.com/xmlschemas/GpxExtensions/v3 http://www.garmin.com/xmlschemas/GpxExtensionsv3.xsd http://www.garmin.com/xmlschemas/TrackPointExtension/v1 http://www.garmin.com/xmlschemas/TrackPointExtensionv1.xsd" creator="StravaGPX" version="1.1" xmlns="http://www.topografix.com/GPX/1/1" xmlns:gpxtpx="http://www.garmin.com/xmlschemas/TrackPointExtension/v1" xmlns:gpxx="http://www.garmin.com/xmlschemas/GpxExtensions/v3"> <metadata>  <time>2025-10-16T12:33:02Z</time> </metadata> <trk>  <name>Jolli Jumper</name>  <type>cycling</type>  <trkseg>   <trkpt lat="51.1815930" lon="8.5050730">    <ele>759.2</ele>    <time>2025-10-16T12:33:02Z</time>    <extensions>     <gpxtpx:TrackPointExtension>      <gpxtpx:atemp>12</gpxtpx:atemp>     </gpxtpx:TrackPointExtension>    </extensions>   </trkpt>   <trkpt lat="51.1815930" lon="8.5050730">    <ele>759.2</ele>    <time>2025-10-16T12:33:03Z</time>    <extensions>     <gpxtpx:TrackPointExtension>      <gpxtpx:atemp>12</gpxtpx:atemp>     </gpxtpx:TrackPointExtension>    </extensions>   </trkpt>   <trkpt lat="51.1815930" lon="8.5050830">    <ele>759.2</ele>    <time>2025-10-16T12:33:04Z</time>    <extensions>     <gpxtpx:TrackPointExtension>      <gpxtpx:atemp>12</gpxtpx:atemp>     </gpxtpx:TrackPointExtension>    </extensions>   </trkpt>   <trkpt lat="51.1815930" lon="8.5050830">    <ele>759.2</ele>    <time>2025-10-16T12:33:05Z</time>    <extensions>     <gpxtpx:TrackPointExtension>      <gpxtpx:atemp>12</gpxtpx:atemp>     </gpxtpx:TrackPointExtension>    </extensions>   </trkpt>   <trkpt lat="51.1815970" lon="8.5050800">    <ele>759.2</ele>    <time>2025-10-16T12:33:06Z</time>    <extensions>     <gpxtpx:TrackPointExtension>      <gpxtpx:atemp>12</gpxtpx:atemp>     </gpxtpx:TrackPointExtension>    </extensions>   </trkpt>   <trkpt lat="51.1815970" lon="8.5050990">    <ele>759.2</ele>    <time>2025-10-16T12:33:07Z</time>    <extensions>     <gpxtpx:TrackPointExtension>      <gpxtpx:atemp>12</gpxtpx:atemp>     </gpxtpx:TrackPointExtension>    </extensions>   </trkpt>   <trkpt lat="51.1815800" lon="8.5051280">    <ele>759.2</ele>    <time>2025-10-16T12:33:08Z</time>    <extensions>     <gpxtpx:TrackPointExtension>      <gpxtpx:atemp>12</gpxtpx:atemp>     </gpxtpx:TrackPointExtension>    </extensions>   </trkpt>   <trkpt lat="51.1815310" lon="8.5051470">    <ele>759.0</ele>    <time>2025-10-16T12:33:09Z</time>    <extensions>     <gpxtpx:TrackPointExtension>      <gpxtpx:atemp>12</gpxtpx:atemp>     </gpxtpx:TrackPointExtension>    </extensions>   </trkpt>   <trkpt lat="51.1814650" lon="8.5051500">    <ele>759.0</ele>    <time>2025-10-16T12:33:10Z</time>    <extensions>     <gpxtpx:TrackPointExtension>      <gpxtpx:atemp>12</gpxtpx:atemp>     </gpxtpx:TrackPointExtension>    </extensions>   </trkpt>   <trkpt lat="51.1813980" lon="8.5051710">    <ele>759.0</ele>    <time>2025-10-16T12:33:11Z</time>    <extensions>     <gpxtpx:TrackPointExtension>      <gpxtpx:atemp>12</gpxtpx:atemp>     </gpxtpx:TrackPointExtension>    </extensions>   </trkpt>   <trkpt lat="51.1813150" lon="8.5052250">    <ele>758.6</ele>    <time>2025-10-16T12:33:12Z</time>    <extensions>     <gpxtpx:TrackPointExtension>      <gpxtpx:atemp>12</gpxtpx:atemp>     </gpxtpx:TrackPointExtension>    </extensions>   </trkpt>   <trkpt lat="51.1812390" lon="8.5052900">    <ele>758.0</ele>    <time>2025-10-16T12:33:13Z</time>    <extensions>     <gpxtpx:TrackPointExtension>      <gpxtpx:atemp>12</gpxtpx:atemp>     </gpxtpx:TrackPointExtension>    </extensions>   </trkpt>   <trkpt lat="51.1811640" lon="8.5053870">    <ele>757.2</ele>    <time>2025-10-16T12:33:14Z</time>    <extensions>     <gpxtpx:TrackPointExtension>      <gpxtpx:atemp>12</gpxtpx:atemp>     </gpxtpx:TrackPointExtension>    </extensions>   </trkpt>   <trkpt lat="51.1811500" lon="8.5054110">    <ele>756.6</ele>    <time>2025-10-16T12:33:15Z</time>    <extensions>     <gpxtpx:TrackPointExtension>      <gpxtpx:atemp>12</gpxtpx:atemp>     </gpxtpx:TrackPointExtension>    </extensions>   </trkpt>   <trkpt lat="51.1810730" lon="8.5054980">    <ele>755.8</ele>    <time>2025-10-16T12:33:16Z</time>    <extensions>     <gpxtpx:TrackPointExtension>      <gpxtpx:atemp>12</gpxtpx:atemp>     </gpxtpx:TrackPointExtension>    </extensions>   </trkpt>   <trkpt lat="51.1809750" lon="8.5056970">    <ele>755.0</ele>    <time>2025-10-16T12:33:17Z</time>    <extensions>     <gpxtpx:TrackPointExtension>      <gpxtpx:atemp>12</gpxtpx:atemp>     </gpxtpx:TrackPointExtension>    </extensions>   </trkpt>   <trkpt lat="51.1809360" lon="8.5058040">    <ele>754.2</ele>    <time>2025-10-16T12:33:18Z</time>    <extensions>     <gpxtpx:TrackPointExtension>      <gpxtpx:atemp>12</gpxtpx:atemp>     </gpxtpx:TrackPointExtension>    </extensions>   </trkpt>   <trkpt lat="51.1808770" lon="8.5059120">    <ele>753.6</ele>    <time>2025-10-16T12:33:19Z</time>    <extensions>     <gpxtpx:TrackPointExtension>      <gpxtpx:atemp>12</gpxtpx:atemp>     </gpxtpx:TrackPointExtension>    </extensions>   </trkpt>   <trkpt lat="51.1808240" lon="8.5060500">    <ele>752.8</ele>    <time>2025-10-16T12:33:20Z</time>    <extensions>     <gpxtpx:TrackPointExtension>      <gpxtpx:atemp>12</gpxtpx:atemp>     </gpxtpx:TrackPointExtension>    </extensions>   </trkpt>   <trkpt lat="51.1807930" lon="8.5061680">    <ele>752.0</ele>    <time>2025-10-16T12:33:21Z</time>    <extensions>     <gpxtpx:TrackPointExtension>      <gpxtpx:atemp>12</gpxtpx:atemp>     </gpxtpx:TrackPointExtension>    </extensions>   </trkpt>   <trkpt lat="51.1807550" lon="8.5062980">    <ele>751.2</ele>    <time>2025-10-16T12:33:22Z</time>    <extensions>     <gpxtpx:TrackPointExtension>      <gpxtpx:atemp>12</gpxtpx:atemp>     </gpxtpx:TrackPointExtension>    </extensions>   </trkpt>   <trkpt lat="51.1807270" lon="8.5064300">    <ele>750.6</ele>    <time>2025-10-16T12:33:23Z</time>    <extensions>     <gpxtpx:TrackPointExtension>      <gpxtpx:atemp>12</gpxtpx:atemp>     </gpxtpx:TrackPointExtension>    </extensions>   </trkpt>   <trkpt lat="51.1807040" lon="8.5065410">    <ele>749.6</ele>    <time>2025-10-16T12:33:24Z</time>    <extensions>     <gpxtpx:TrackPointExtension>      <gpxtpx:atemp>12</gpxtpx:atemp>     </gpxtpx:TrackPointExtension>    </extensions>   </trkpt>   <trkpt lat="51.1806380" lon="8.5065880">    <ele>748.8</ele>    <time>2025-10-16T12:33:25Z</time>    <extensions>     <gpxtpx:TrackPointExtension>      <gpxtpx:atemp>12</gpxtpx:atemp>     </gpxtpx:TrackPointExtension>    </extensions>   </trkpt>   <trkpt lat="51.1805600" lon="8.5066240">    <ele>747.8</ele>    <time>2025-10-16T12:33:26Z</time>    <extensions>     <gpxtpx:TrackPointExtension>      <gpxtpx:atemp>12</gpxtpx:atemp>     </gpxtpx:TrackPointExtension>    </extensions>   </trkpt>   <trkpt lat="51.1805150" lon="8.5067590">    <ele>746.8</ele>    <time>2025-10-16T12:33:27Z</time>    <extensions>     <gpxtpx:TrackPointExtension>      <gpxtpx:atemp>12</gpxtpx:atemp>     </gpxtpx:TrackPointExtension>    </extensions>   </trkpt>   <trkpt lat="51.1804690" lon="8.5069110">    <ele>745.8</ele>    <time>2025-10-16T12:33:28Z</time>    <extensions>     <gpxtpx:TrackPointExtension>      <gpxtpx:atemp>12</gpxtpx:atemp>     </gpxtpx:TrackPointExtension>    </extensions>   </trkpt>   <trkpt lat="51.1804240" lon="8.5070670">    <ele>744.8</ele>    <time>2025-10-16T12:33:29Z</time>    <extensions>     <gpxtpx:TrackPointExtension>      <gpxtpx:atemp>12</gpxtpx:atemp>     </gpxtpx:TrackPointExtension>    </extensions>   </trkpt>   <trkpt lat="51.1804010" lon="8.5071670">    <ele>743.8</ele>    <time>2025-10-16T12:33:30Z</time>    <extensions>     <gpxtpx:TrackPointExtension>      <gpxtpx:atemp>12</gpxtpx:atemp>     </gpxtpx:TrackPointExtension>    </extensions>   </trkpt>   <trkpt lat="51.1803540" lon="8.5072720">    <ele>742.8</ele>    <time>2025-10-16T12:33:31Z</time>    <extensions>     <gpxtpx:TrackPointExtension>      <gpxtpx:atemp>12</gpxtpx:atemp>     </gpxtpx:TrackPointExtension>    </extensions>   </trkpt>   <trkpt lat="51.1802990" lon="8.5073950">    <ele>741.8</ele>    <time>2025-10-16T12:33:32Z</time>    <extensions>     <gpxtpx:TrackPointExtension>      <gpxtpx:atemp>12</gpxtpx:atemp>     </gpxtpx:TrackPointExtension>    </extensions>   </trkpt>   <trkpt lat="51.1802530" lon="8.5075280">    <ele>740.8</ele>    <time>2025-10-16T12:33:33Z</time>    <extensions>     <gpxtpx:TrackPointExtension>      <gpxtpx:atemp>12</gpxtpx:atemp>     </gpxtpx:TrackPointExtension>    </extensions>   </trkpt>   <trkpt lat="51.1802100" lon="8.5076560">    <ele>740.0</ele>    <time>2025-10-16T12:33:34Z</time>    <extensions>     <gpxtpx:TrackPointExtension>      <gpxtpx:atemp>12</gpxtpx:atemp>     </gpxtpx:TrackPointExtension>    </extensions>   </trkpt>   <trkpt lat="51.1801640" lon="8.5077690">    <ele>739.0</ele>    <time>2025-10-16T12:33:35Z</time>    <extensions>     <gpxtpx:TrackPointExtension>      <gpxtpx:atemp>12</gpxtpx:atemp>     </gpxtpx:TrackPointExtension>    </extensions>   </trkpt>   <trkpt lat="51.1801160" lon="8.5079170">    <ele>738.0</ele>    <time>2025-10-16T12:33:36Z</time>    <extensions>     <gpxtpx:TrackPointExtension>      <gpxtpx:atemp>12</gpxtpx:atemp>     </gpxtpx:TrackPointExtension>    </extensions>   </trkpt>   <trkpt lat="51.1800760" lon="8.5080640">    <ele>737.2</ele>    <time>2025-10-16T12:33:37Z</time>    <extensions>     <gpxtpx:TrackPointExtension>      <gpxtpx:atemp>12</gpxtpx:atemp>     </gpxtpx:TrackPointExtension>    </extensions>   </trkpt>   <trkpt lat="51.1800540" lon="8.5082230">    <ele>736.2</ele>    <time>2025-10-16T12:33:38Z</time>    <extensions>     <gpxtpx:TrackPointExtension>      <gpxtpx:atemp>12</gpxtpx:atemp>     </gpxtpx:TrackPointExtension>    </extensions>   </trkpt>   <trkpt lat="51.1800320" lon="8.5083540">    <ele>735.2</ele>    <time>2025-10-16T12:33:39Z</time>    <extensions>     <gpxtpx:TrackPointExtension>      <gpxtpx:atemp>12</gpxtpx:atemp>     </gpxtpx:TrackPointExtension>    </extensions>   </trkpt>   <trkpt lat="51.1800070" lon="8.5084920">    <ele>734.4</ele>    <time>2025-10-16T12:33:40Z</time>    <extensions>     <gpxtpx:TrackPointExtension>      <gpxtpx:atemp>12</gpxtpx:atemp>     </gpxtpx:TrackPointExtension>    </extensions>   </trkpt>   <trkpt lat="51.1799830" lon="8.5086140">    <ele>734.0</ele>    <time>2025-10-16T12:33:41Z</time>    <extensions>     <gpxtpx:TrackPointExtension>      <gpxtpx:atemp>12</gpxtpx:atemp>     </gpxtpx:TrackPointExtension>    </extensions>   </trkpt>   <trkpt lat="51.1799330" lon="8.5087190">    <ele>733.4</ele>    <time>2025-10-16T12:33:42Z</time>    <extensions>     <gpxtpx:TrackPointExtension>      <gpxtpx:atemp>12</gpxtpx:atemp>     </gpxtpx:TrackPointExtension>    </extensions>   </trkpt>   <trkpt lat="51.1798820" lon="8.5088620">    <ele>732.8</ele>    <time>2025-10-16T12:33:43Z</time>    <extensions>     <gpxtpx:TrackPointExtension>      <gpxtpx:atemp>12</gpxtpx:atemp>     </gpxtpx:TrackPointExtension>    </extensions>   </trkpt>   <trkpt lat="51.1798610" lon="8.5090350">    <ele>731.6</ele>    <time>2025-10-16T12:33:44Z</time>    <extensions>     <gpxtpx:TrackPointExtension>      <gpxtpx:atemp>12</gpxtpx:atemp>     </gpxtpx:TrackPointExtension>    </extensions>   </trkpt>   <trkpt lat="51.1798600" lon="8.5092020">    <ele>730.4</ele>    <time>2025-10-16T12:33:45Z</time>    <extensions>     <gpxtpx:TrackPointExtension>      <gpxtpx:atemp>12</gpxtpx:atemp>     </gpxtpx:TrackPointExtension>    </extensions>   </trkpt>   <trkpt lat="51.1798520" lon="8.5093430">    <ele>729.2</ele>    <time>2025-10-16T12:33:46Z</time>    <extensions>     <gpxtpx:TrackPointExtension>      <gpxtpx:atemp>12</gpxtpx:atemp>     </gpxtpx:TrackPointExtension>    </extensions>   </trkpt>   <trkpt lat="51.1798330" lon="8.5094990">    <ele>727.6</ele>    <time>2025-10-16T12:33:47Z</time>    <extensions>     <gpxtpx:TrackPointExtension>      <gpxtpx:atemp>12</gpxtpx:atemp>     </gpxtpx:TrackPointExtension>    </extensions>   </trkpt>   <trkpt lat="51.1798500" lon="8.5096320">    <ele>726.2</ele>    <time>2025-10-16T12:33:48Z</time>    <extensions>     <gpxtpx:TrackPointExtension>      <gpxtpx:atemp>12</gpxtpx:atemp>     </gpxtpx:TrackPointExtension>    </extensions>   </trkpt>   <trkpt lat="51.1798740" lon="8.5097610">    <ele>725.4</ele>    <time>2025-10-16T12:33:49Z</time>    <extensions>     <gpxtpx:TrackPointExtension>      <gpxtpx:atemp>12</gpxtpx:atemp>     </gpxtpx:TrackPointExtension>    </extensions>   </trkpt>   <trkpt lat="51.1798580" lon="8.5098930">    <ele>724.6</ele>    <time>2025-10-16T12:33:50Z</time>    <extensions>     <gpxtpx:TrackPointExtension>      <gpxtpx:atemp>12</gpxtpx:atemp>     </gpxtpx:TrackPointExtension>    </extensions>   </trkpt>   <trkpt lat="51.1798470" lon="8.5100250">    <ele>723.8</ele>    <time>2025-10-16T12:33:51Z</time>    <extensions>     <gpxtpx:TrackPointExtension>      <gpxtpx:atemp>12</gpxtpx:atemp>     </gpxtpx:TrackPointExtension>    </extensions>   </trkpt>   <trkpt lat="51.1798550" lon="8.5101680">    <ele>723.4</ele>    <time>2025-10-16T12:33:52Z</time>    <extensions>     <gpxtpx:TrackPointExtension>      <gpxtpx:atemp>12</gpxtpx:atemp>     </gpxtpx:TrackPointExtension>    </extensions>   </trkpt>   <trkpt lat="51.1798750" lon="8.5103020">    <ele>722.8</ele>    <time>2025-10-16T12:33:53Z</time>    <extensions>     <gpxtpx:TrackPointExtension>      <gpxtpx:atemp>12</gpxtpx:atemp>     </gpxtpx:TrackPointExtension>    </extensions>   </trkpt>   <trkpt lat="51.1798720" lon="8.5104430">    <ele>721.8</ele>    <time>2025-10-16T12:33:54Z</time>    <extensions>     <gpxtpx:TrackPointExtension>      <gpxtpx:atemp>12</gpxtpx:atemp>     </gpxtpx:TrackPointExtension>    </extensions>   </trkpt>   <trkpt lat="51.1798460" lon="8.5105730">    <ele>720.8</ele>    <time>2025-10-16T12:33:55Z</time>    <extensions>     <gpxtpx:TrackPointExtension>      <gpxtpx:atemp>12</gpxtpx:atemp>     </gpxtpx:TrackPointExtension>    </extensions>   </trkpt>   <trkpt lat="51.1798220" lon="8.5107260">    <ele>719.8</ele>    <time>2025-10-16T12:33:56Z</time>    <extensions>     <gpxtpx:TrackPointExtension>      <gpxtpx:atemp>12</gpxtpx:atemp>     </gpxtpx:TrackPointExtension>    </extensions>   </trkpt>   <trkpt lat="51.1798330" lon="8.5108870">    <ele>718.6</ele>    <time>2025-10-16T12:33:57Z</time>    <extensions>     <gpxtpx:TrackPointExtension>      <gpxtpx:atemp>12</gpxtpx:atemp>     </gpxtpx:TrackPointExtension>    </extensions>   </trkpt>   <trkpt lat="51.1798590" lon="8.5110380">    <ele>717.4</ele>    <time>2025-10-16T12:33:58Z</time>    <extensions>     <gpxtpx:TrackPointExtension>      <gpxtpx:atemp>12</gpxtpx:atemp>     </gpxtpx:TrackPointExtension>    </extensions>   </trkpt>   <trkpt lat="51.1798950" lon="8.5111800">    <ele>716.4</ele>    <time>2025-10-16T12:33:59Z</time>    <extensions>     <gpxtpx:TrackPointExtension>      <gpxtpx:atemp>12</gpxtpx:atemp>     </gpxtpx:TrackPointExtension>    </extensions>   </trkpt>   <trkpt lat="51.1799340" lon="8.5113020">    <ele>715.4</ele>    <time>2025-10-16T12:34:00Z</time>    <extensions>     <gpxtpx:TrackPointExtension>      <gpxtpx:atemp>12</gpxtpx:atemp>     </gpxtpx:TrackPointExtension>    </extensions>   </trkpt>   <trkpt lat="51.1799790" lon="8.5114150">    <ele>714.4</ele>    <time>2025-10-16T12:34:01Z</time>    <extensions>     <gpxtpx:TrackPointExtension>      <gpxtpx:atemp>12</gpxtpx:atemp>     </gpxtpx:TrackPointExtension>    </extensions>   </trkpt>   <trkpt lat="51.1800320" lon="8.5115180">    <ele>713.8</ele>    <time>2025-10-16T12:34:02Z</time>    <extensions>     <gpxtpx:TrackPointExtension>      <gpxtpx:atemp>12</gpxtpx:atemp>     </gpxtpx:TrackPointExtension>    </extensions>   </trkpt>   <trkpt lat="51.1800830" lon="8.5115970">    <ele>713.2</ele>    <time>2025-10-16T12:34:03Z</time>    <extensions>     <gpxtpx:TrackPointExtension>      <gpxtpx:atemp>12</gpxtpx:atemp>     </gpxtpx:TrackPointExtension>    </extensions>   </trkpt>   <trkpt lat="51.1801190" lon="8.5116650">    <ele>712.6</ele>    <time>2025-10-16T12:34:04Z</time>    <extensions>     <gpxtpx:TrackPointExtension>      <gpxtpx:atemp>12</gpxtpx:atemp>     </gpxtpx:TrackPointExtension>    </extensions>   </trkpt>   <trkpt lat="51.1801130" lon="8.5117280">    <ele>712.0</ele>    <time>2025-10-16T12:34:05Z</time>    <extensions>     <gpxtpx:TrackPointExtension>      <gpxtpx:atemp>12</gpxtpx:atemp>     </gpxtpx:TrackPointExtension>    </extensions>   </trkpt>   <trkpt lat="51.1800960" lon="8.5117640">    <ele>711.2</ele>    <time>2025-10-16T12:34:06Z</time>    <extensions>     <gpxtpx:TrackPointExtension>      <gpxtpx:atemp>12</gpxtpx:atemp>     </gpxtpx:TrackPointExtension>    </extensions>   </trkpt>   <trkpt lat="51.1800860" lon="8.5117740">    <ele>710.2</ele>    <time>2025-10-16T12:34:07Z</time>    <extensions>     <gpxtpx:TrackPointExtension>      <gpxtpx:atemp>12</gpxtpx:atemp>     </gpxtpx:TrackPointExtension>    </extensions>   </trkpt>   <trkpt lat="51.1800840" lon="8.5117730">    <ele>709.2</ele>    <time>2025-10-16T12:34:08Z</time>    <extensions>     <gpxtpx:TrackPointExtension>      <gpxtpx:atemp>12</gpxtpx:atemp>     </gpxtpx:TrackPointExtension>    </extensions>   </trkpt>   <trkpt lat="51.1800840" lon="8.5117730">    <ele>708.4</ele>    <time>2025-10-16T12:34:09Z</time>    <extensions>     <gpxtpx:TrackPointExtension>      <gpxtpx:atemp>12</gpxtpx:atemp>     </gpxtpx:TrackPointExtension>    </extensions>   </trkpt>   <trkpt lat="51.1800840" lon="8.5117730">    <ele>707.8</ele>    <time>2025-10-16T12:34:10Z</time>    <extensions>     <gpxtpx:TrackPointExtension>      <gpxtpx:atemp>12</gpxtpx:atemp>     </gpxtpx:TrackPointExtension>    </extensions>   </trkpt>   <trkpt lat="51.1800840" lon="8.5117730">    <ele>707.4</ele>    <time>2025-10-16T12:34:11Z</time>    <extensions>     <gpxtpx:TrackPointExtension>      <gpxtpx:atemp>12</gpxtpx:atemp>     </gpxtpx:TrackPointExtension>    </extensions>   </trkpt>   <trkpt lat="51.1800840" lon="8.5117730">    <ele>707.2</ele>    <time>2025-10-16T12:34:12Z</time>    <extensions>     <gpxtpx:TrackPointExtension>      <gpxtpx:atemp>12</gpxtpx:atemp>     </gpxtpx:TrackPointExtension>    </extensions>   </trkpt>   <trkpt lat="51.1800840" lon="8.5117730">    <ele>707.2</ele>    <time>2025-10-16T12:34:13Z</time>    <extensions>     <gpxtpx:TrackPointExtension>      <gpxtpx:atemp>12</gpxtpx:atemp>     </gpxtpx:TrackPointExtension>    </extensions>   </trkpt>   <trkpt lat="51.1800840" lon="8.5117730">    <ele>707.2</ele>    <time>2025-10-16T12:34:14Z</time>    <extensions>     <gpxtpx:TrackPointExtension>      <gpxtpx:atemp>12</gpxtpx:atemp>     </gpxtpx:TrackPointExtension>    </extensions>   </trkpt>  </trkseg> </trk></gpx>