<?xml version="1.0" encoding="UTF-8"?><gpx xmlns:xsi="http://www.w3.org/2001/XMLSchema-instance" xsi:schemaLocation="http://www.topografix.com/GPX/1/1 http://www.topografix.com/GPX/1/1/gpx.xsd http://www.garmin.com/xmlschemas/GpxExtensions/v3 http://www.garmin.com/xmlschemas/GpxExtensionsv3.xsd http://www.garmin.com/xmlschemas/TrackPointExtension/v1 http://www.garmin.com/xmlschemas/TrackPointExtensionv1.xsd" creator="StravaGPX" version="1.1" xmlns="http://www.topografix.com/GPX/1/1" xmlns:gpxtpx="http://www.garmin.com/xmlschemas/TrackPointExtension/v1" xmlns:gpxx="http://www.garmin.com/xmlschemas/GpxExtensions/v3"> <metadata>  <time>2025-10-16T11:51:21Z</time> </metadata> <trk>  <name>Schneewittchen</name>  <type>cycling</type>  <trkseg>   <trkpt lat="51.1900620" lon="8.4956870">    <ele>809.2</ele>    <time>2025-10-16T11:51:21Z</time>    <extensions>     <gpxtpx:TrackPointExtension>      <gpxtpx:atemp>19</gpxtpx:atemp>     </gpxtpx:TrackPointExtension>    </extensions>   </trkpt>   <trkpt lat="51.1900620" lon="8.4956870">    <ele>809.2</ele>    <time>2025-10-16T11:51:22Z</time>    <extensions>     <gpxtpx:TrackPointExtension>      <gpxtpx:atemp>19</gpxtpx:atemp>     </gpxtpx:TrackPointExtension>    </extensions>   </trkpt>   <trkpt lat="51.1900540" lon="8.4956880">    <ele>809.2</ele>    <time>2025-10-16T11:51:23Z</time>    <extensions>     <gpxtpx:TrackPointExtension>      <gpxtpx:atemp>19</gpxtpx:atemp>     </gpxtpx:TrackPointExtension>    </extensions>   </trkpt>   <trkpt lat="51.1900540" lon="8.4956880">    <ele>809.2</ele>    <time>2025-10-16T11:51:24Z</time>    <extensions>     <gpxtpx:TrackPointExtension>      <gpxtpx:atemp>19</gpxtpx:atemp>     </gpxtpx:TrackPointExtension>    </extensions>   </trkpt>   <trkpt lat="51.1900540" lon="8.4956880">    <ele>809.2</ele>    <time>2025-10-16T11:51:25Z</time>    <extensions>     <gpxtpx:TrackPointExtension>      <gpxtpx:atemp>19</gpxtpx:atemp>     </gpxtpx:TrackPointExtension>    </extensions>   </trkpt>   <trkpt lat="51.1900490" lon="8.4956850">    <ele>809.2</ele>    <time>2025-10-16T11:51:26Z</time>    <extensions>     <gpxtpx:TrackPointExtension>      <gpxtpx:atemp>19</gpxtpx:atemp>     </gpxtpx:TrackPointExtension>    </extensions>   </trkpt>   <trkpt lat="51.1900320" lon="8.4956740">    <ele>809.2</ele>    <time>2025-10-16T11:51:27Z</time>    <extensions>     <gpxtpx:TrackPointExtension>      <gpxtpx:atemp>19</gpxtpx:atemp>     </gpxtpx:TrackPointExtension>    </extensions>   </trkpt>   <trkpt lat="51.1900140" lon="8.4956500">    <ele>809.4</ele>    <time>2025-10-16T11:51:28Z</time>    <extensions>     <gpxtpx:TrackPointExtension>      <gpxtpx:atemp>19</gpxtpx:atemp>     </gpxtpx:TrackPointExtension>    </extensions>   </trkpt>   <trkpt lat="51.1899840" lon="8.4956200">    <ele>809.4</ele>    <time>2025-10-16T11:51:29Z</time>    <extensions>     <gpxtpx:TrackPointExtension>      <gpxtpx:atemp>19</gpxtpx:atemp>     </gpxtpx:TrackPointExtension>    </extensions>   </trkpt>   <trkpt lat="51.1899390" lon="8.4956260">    <ele>809.2</ele>    <time>2025-10-16T11:51:30Z</time>    <extensions>     <gpxtpx:TrackPointExtension>      <gpxtpx:atemp>19</gpxtpx:atemp>     </gpxtpx:TrackPointExtension>    </extensions>   </trkpt>   <trkpt lat="51.1898960" lon="8.4956730">    <ele>809.0</ele>    <time>2025-10-16T11:51:31Z</time>    <extensions>     <gpxtpx:TrackPointExtension>      <gpxtpx:atemp>19</gpxtpx:atemp>     </gpxtpx:TrackPointExtension>    </extensions>   </trkpt>   <trkpt lat="51.1898450" lon="8.4957180">    <ele>808.6</ele>    <time>2025-10-16T11:51:32Z</time>    <extensions>     <gpxtpx:TrackPointExtension>      <gpxtpx:atemp>19</gpxtpx:atemp>     </gpxtpx:TrackPointExtension>    </extensions>   </trkpt>   <trkpt lat="51.1897950" lon="8.4957170">    <ele>808.2</ele>    <time>2025-10-16T11:51:33Z</time>    <extensions>     <gpxtpx:TrackPointExtension>      <gpxtpx:atemp>19</gpxtpx:atemp>     </gpxtpx:TrackPointExtension>    </extensions>   </trkpt>   <trkpt lat="51.1897580" lon="8.4957140">    <ele>807.8</ele>    <time>2025-10-16T11:51:34Z</time>    <extensions>     <gpxtpx:TrackPointExtension>      <gpxtpx:atemp>19</gpxtpx:atemp>     </gpxtpx:TrackPointExtension>    </extensions>   </trkpt>   <trkpt lat="51.1897140" lon="8.4957690">    <ele>807.4</ele>    <time>2025-10-16T11:51:35Z</time>    <extensions>     <gpxtpx:TrackPointExtension>      <gpxtpx:atemp>19</gpxtpx:atemp>     </gpxtpx:TrackPointExtension>    </extensions>   </trkpt>   <trkpt lat="51.1896880" lon="8.4958570">    <ele>807.0</ele>    <time>2025-10-16T11:51:36Z</time>    <extensions>     <gpxtpx:TrackPointExtension>      <gpxtpx:atemp>19</gpxtpx:atemp>     </gpxtpx:TrackPointExtension>    </extensions>   </trkpt>   <trkpt lat="51.1896410" lon="8.4959260">    <ele>806.6</ele>    <time>2025-10-16T11:51:37Z</time>    <extensions>     <gpxtpx:TrackPointExtension>      <gpxtpx:atemp>19</gpxtpx:atemp>     </gpxtpx:TrackPointExtension>    </extensions>   </trkpt>   <trkpt lat="51.1895820" lon="8.4959590">    <ele>806.2</ele>    <time>2025-10-16T11:51:38Z</time>    <extensions>     <gpxtpx:TrackPointExtension>      <gpxtpx:atemp>19</gpxtpx:atemp>     </gpxtpx:TrackPointExtension>    </extensions>   </trkpt>   <trkpt lat="51.1895520" lon="8.4960800">    <ele>805.6</ele>    <time>2025-10-16T11:51:39Z</time>    <extensions>     <gpxtpx:TrackPointExtension>      <gpxtpx:atemp>19</gpxtpx:atemp>     </gpxtpx:TrackPointExtension>    </extensions>   </trkpt>   <trkpt lat="51.1895290" lon="8.4961710">    <ele>805.2</ele>    <time>2025-10-16T11:51:40Z</time>    <extensions>     <gpxtpx:TrackPointExtension>      <gpxtpx:atemp>19</gpxtpx:atemp>     </gpxtpx:TrackPointExtension>    </extensions>   </trkpt>   <trkpt lat="51.1894720" lon="8.4961730">    <ele>804.4</ele>    <time>2025-10-16T11:51:41Z</time>    <extensions>     <gpxtpx:TrackPointExtension>      <gpxtpx:atemp>19</gpxtpx:atemp>     </gpxtpx:TrackPointExtension>    </extensions>   </trkpt>   <trkpt lat="51.1894110" lon="8.4961440">    <ele>804.0</ele>    <time>2025-10-16T11:51:42Z</time>    <extensions>     <gpxtpx:TrackPointExtension>      <gpxtpx:atemp>19</gpxtpx:atemp>     </gpxtpx:TrackPointExtension>    </extensions>   </trkpt>   <trkpt lat="51.1893420" lon="8.4961380">    <ele>803.4</ele>    <time>2025-10-16T11:51:43Z</time>    <extensions>     <gpxtpx:TrackPointExtension>      <gpxtpx:atemp>19</gpxtpx:atemp>     </gpxtpx:TrackPointExtension>    </extensions>   </trkpt>   <trkpt lat="51.1892750" lon="8.4961440">    <ele>802.8</ele>    <time>2025-10-16T11:51:44Z</time>    <extensions>     <gpxtpx:TrackPointExtension>      <gpxtpx:atemp>19</gpxtpx:atemp>     </gpxtpx:TrackPointExtension>    </extensions>   </trkpt>   <trkpt lat="51.1892110" lon="8.4961550">    <ele>802.4</ele>    <time>2025-10-16T11:51:45Z</time>    <extensions>     <gpxtpx:TrackPointExtension>      <gpxtpx:atemp>19</gpxtpx:atemp>     </gpxtpx:TrackPointExtension>    </extensions>   </trkpt>   <trkpt lat="51.1891610" lon="8.4962170">    <ele>802.0</ele>    <time>2025-10-16T11:51:46Z</time>    <extensions>     <gpxtpx:TrackPointExtension>      <gpxtpx:atemp>19</gpxtpx:atemp>     </gpxtpx:TrackPointExtension>    </extensions>   </trkpt>   <trkpt lat="51.1891550" lon="8.4963250">    <ele>801.4</ele>    <time>2025-10-16T11:51:47Z</time>    <extensions>     <gpxtpx:TrackPointExtension>      <gpxtpx:atemp>19</gpxtpx:atemp>     </gpxtpx:TrackPointExtension>    </extensions>   </trkpt>   <trkpt lat="51.1891370" lon="8.4964190">    <ele>800.8</ele>    <time>2025-10-16T11:51:48Z</time>    <extensions>     <gpxtpx:TrackPointExtension>      <gpxtpx:atemp>19</gpxtpx:atemp>     </gpxtpx:TrackPointExtension>    </extensions>   </trkpt>   <trkpt lat="51.1890890" lon="8.4964730">    <ele>800.2</ele>    <time>2025-10-16T11:51:49Z</time>    <extensions>     <gpxtpx:TrackPointExtension>      <gpxtpx:atemp>19</gpxtpx:atemp>     </gpxtpx:TrackPointExtension>    </extensions>   </trkpt>   <trkpt lat="51.1890370" lon="8.4965260">    <ele>799.8</ele>    <time>2025-10-16T11:51:50Z</time>    <extensions>     <gpxtpx:TrackPointExtension>      <gpxtpx:atemp>19</gpxtpx:atemp>     </gpxtpx:TrackPointExtension>    </extensions>   </trkpt>   <trkpt lat="51.1889870" lon="8.4965960">    <ele>799.2</ele>    <time>2025-10-16T11:51:51Z</time>    <extensions>     <gpxtpx:TrackPointExtension>      <gpxtpx:atemp>19</gpxtpx:atemp>     </gpxtpx:TrackPointExtension>    </extensions>   </trkpt>   <trkpt lat="51.1889340" lon="8.4966520">    <ele>798.6</ele>    <time>2025-10-16T11:51:52Z</time>    <extensions>     <gpxtpx:TrackPointExtension>      <gpxtpx:atemp>19</gpxtpx:atemp>     </gpxtpx:TrackPointExtension>    </extensions>   </trkpt>   <trkpt lat="51.1888730" lon="8.4967140">    <ele>798.2</ele>    <time>2025-10-16T11:51:53Z</time>    <extensions>     <gpxtpx:TrackPointExtension>      <gpxtpx:atemp>19</gpxtpx:atemp>     </gpxtpx:TrackPointExtension>    </extensions>   </trkpt>   <trkpt lat="51.1888070" lon="8.4967790">    <ele>797.6</ele>    <time>2025-10-16T11:51:54Z</time>    <extensions>     <gpxtpx:TrackPointExtension>      <gpxtpx:atemp>19</gpxtpx:atemp>     </gpxtpx:TrackPointExtension>    </extensions>   </trkpt>   <trkpt lat="51.1887280" lon="8.4968160">    <ele>797.0</ele>    <time>2025-10-16T11:51:55Z</time>    <extensions>     <gpxtpx:TrackPointExtension>      <gpxtpx:atemp>19</gpxtpx:atemp>     </gpxtpx:TrackPointExtension>    </extensions>   </trkpt>   <trkpt lat="51.1886740" lon="8.4967550">    <ele>796.4</ele>    <time>2025-10-16T11:51:56Z</time>    <extensions>     <gpxtpx:TrackPointExtension>      <gpxtpx:atemp>19</gpxtpx:atemp>     </gpxtpx:TrackPointExtension>    </extensions>   </trkpt>   <trkpt lat="51.1886360" lon="8.4966740">    <ele>795.8</ele>    <time>2025-10-16T11:51:57Z</time>    <extensions>     <gpxtpx:TrackPointExtension>      <gpxtpx:atemp>19</gpxtpx:atemp>     </gpxtpx:TrackPointExtension>    </extensions>   </trkpt>   <trkpt lat="51.1885900" lon="8.4966250">    <ele>795.4</ele>    <time>2025-10-16T11:51:58Z</time>    <extensions>     <gpxtpx:TrackPointExtension>      <gpxtpx:atemp>19</gpxtpx:atemp>     </gpxtpx:TrackPointExtension>    </extensions>   </trkpt>   <trkpt lat="51.1885570" lon="8.4966650">    <ele>795.0</ele>    <time>2025-10-16T11:51:59Z</time>    <extensions>     <gpxtpx:TrackPointExtension>      <gpxtpx:atemp>19</gpxtpx:atemp>     </gpxtpx:TrackPointExtension>    </extensions>   </trkpt>   <trkpt lat="51.1885460" lon="8.4967690">    <ele>794.6</ele>    <time>2025-10-16T11:52:00Z</time>    <extensions>     <gpxtpx:TrackPointExtension>      <gpxtpx:atemp>19</gpxtpx:atemp>     </gpxtpx:TrackPointExtension>    </extensions>   </trkpt>   <trkpt lat="51.1885710" lon="8.4968770">    <ele>794.2</ele>    <time>2025-10-16T11:52:01Z</time>    <extensions>     <gpxtpx:TrackPointExtension>      <gpxtpx:atemp>19</gpxtpx:atemp>     </gpxtpx:TrackPointExtension>    </extensions>   </trkpt>   <trkpt lat="51.1885560" lon="8.4969830">    <ele>793.6</ele>    <time>2025-10-16T11:52:02Z</time>    <extensions>     <gpxtpx:TrackPointExtension>      <gpxtpx:atemp>19</gpxtpx:atemp>     </gpxtpx:TrackPointExtension>    </extensions>   </trkpt>   <trkpt lat="51.1884980" lon="8.4970460">    <ele>792.8</ele>    <time>2025-10-16T11:52:03Z</time>    <extensions>     <gpxtpx:TrackPointExtension>      <gpxtpx:atemp>19</gpxtpx:atemp>     </gpxtpx:TrackPointExtension>    </extensions>   </trkpt>   <trkpt lat="51.1884200" lon="8.4970920">    <ele>792.0</ele>    <time>2025-10-16T11:52:04Z</time>    <extensions>     <gpxtpx:TrackPointExtension>      <gpxtpx:atemp>19</gpxtpx:atemp>     </gpxtpx:TrackPointExtension>    </extensions>   </trkpt>   <trkpt lat="51.1883470" lon="8.4970720">    <ele>791.4</ele>    <time>2025-10-16T11:52:05Z</time>    <extensions>     <gpxtpx:TrackPointExtension>      <gpxtpx:atemp>19</gpxtpx:atemp>     </gpxtpx:TrackPointExtension>    </extensions>   </trkpt>   <trkpt lat="51.1882810" lon="8.4970310">    <ele>790.8</ele>    <time>2025-10-16T11:52:06Z</time>    <extensions>     <gpxtpx:TrackPointExtension>      <gpxtpx:atemp>19</gpxtpx:atemp>     </gpxtpx:TrackPointExtension>    </extensions>   </trkpt>   <trkpt lat="51.1882220" lon="8.4969820">    <ele>790.4</ele>    <time>2025-10-16T11:52:07Z</time>    <extensions>     <gpxtpx:TrackPointExtension>      <gpxtpx:atemp>19</gpxtpx:atemp>     </gpxtpx:TrackPointExtension>    </extensions>   </trkpt>   <trkpt lat="51.1881730" lon="8.4969360">    <ele>790.0</ele>    <time>2025-10-16T11:52:08Z</time>    <extensions>     <gpxtpx:TrackPointExtension>      <gpxtpx:atemp>19</gpxtpx:atemp>     </gpxtpx:TrackPointExtension>    </extensions>   </trkpt>   <trkpt lat="51.1881290" lon="8.4969390">    <ele>789.6</ele>    <time>2025-10-16T11:52:09Z</time>    <extensions>     <gpxtpx:TrackPointExtension>      <gpxtpx:atemp>19</gpxtpx:atemp>     </gpxtpx:TrackPointExtension>    </extensions>   </trkpt>   <trkpt lat="51.1881180" lon="8.4970150">    <ele>789.2</ele>    <time>2025-10-16T11:52:10Z</time>    <extensions>     <gpxtpx:TrackPointExtension>      <gpxtpx:atemp>19</gpxtpx:atemp>     </gpxtpx:TrackPointExtension>    </extensions>   </trkpt>   <trkpt lat="51.1881640" lon="8.4971200">    <ele>788.6</ele>    <time>2025-10-16T11:52:11Z</time>    <extensions>     <gpxtpx:TrackPointExtension>      <gpxtpx:atemp>19</gpxtpx:atemp>     </gpxtpx:TrackPointExtension>    </extensions>   </trkpt>   <trkpt lat="51.1882050" lon="8.4972210">    <ele>788.0</ele>    <time>2025-10-16T11:52:12Z</time>    <extensions>     <gpxtpx:TrackPointExtension>      <gpxtpx:atemp>19</gpxtpx:atemp>     </gpxtpx:TrackPointExtension>    </extensions>   </trkpt>   <trkpt lat="51.1881920" lon="8.4973050">    <ele>787.2</ele>    <time>2025-10-16T11:52:13Z</time>    <extensions>     <gpxtpx:TrackPointExtension>      <gpxtpx:atemp>19</gpxtpx:atemp>     </gpxtpx:TrackPointExtension>    </extensions>   </trkpt>   <trkpt lat="51.1881520" lon="8.4972630">    <ele>786.6</ele>    <time>2025-10-16T11:52:14Z</time>    <extensions>     <gpxtpx:TrackPointExtension>      <gpxtpx:atemp>19</gpxtpx:atemp>     </gpxtpx:TrackPointExtension>    </extensions>   </trkpt>   <trkpt lat="51.1881110" lon="8.4971930">    <ele>786.0</ele>    <time>2025-10-16T11:52:15Z</time>    <extensions>     <gpxtpx:TrackPointExtension>      <gpxtpx:atemp>19</gpxtpx:atemp>     </gpxtpx:TrackPointExtension>    </extensions>   </trkpt>   <trkpt lat="51.1880570" lon="8.4971520">    <ele>785.6</ele>    <time>2025-10-16T11:52:16Z</time>    <extensions>     <gpxtpx:TrackPointExtension>      <gpxtpx:atemp>19</gpxtpx:atemp>     </gpxtpx:TrackPointExtension>    </extensions>   </trkpt>   <trkpt lat="51.1880030" lon="8.4971060">    <ele>785.2</ele>    <time>2025-10-16T11:52:17Z</time>    <extensions>     <gpxtpx:TrackPointExtension>      <gpxtpx:atemp>19</gpxtpx:atemp>     </gpxtpx:TrackPointExtension>    </extensions>   </trkpt>   <trkpt lat="51.1879540" lon="8.4970980">    <ele>784.8</ele>    <time>2025-10-16T11:52:18Z</time>    <extensions>     <gpxtpx:TrackPointExtension>      <gpxtpx:atemp>18</gpxtpx:atemp>     </gpxtpx:TrackPointExtension>    </extensions>   </trkpt>   <trkpt lat="51.1879220" lon="8.4971920">    <ele>784.6</ele>    <time>2025-10-16T11:52:19Z</time>    <extensions>     <gpxtpx:TrackPointExtension>      <gpxtpx:atemp>19</gpxtpx:atemp>     </gpxtpx:TrackPointExtension>    </extensions>   </trkpt>   <trkpt lat="51.1879090" lon="8.4973060">    <ele>784.2</ele>    <time>2025-10-16T11:52:20Z</time>    <extensions>     <gpxtpx:TrackPointExtension>      <gpxtpx:atemp>18</gpxtpx:atemp>     </gpxtpx:TrackPointExtension>    </extensions>   </trkpt>   <trkpt lat="51.1879370" lon="8.4974200">    <ele>783.8</ele>    <time>2025-10-16T11:52:21Z</time>    <extensions>     <gpxtpx:TrackPointExtension>      <gpxtpx:atemp>18</gpxtpx:atemp>     </gpxtpx:TrackPointExtension>    </extensions>   </trkpt>   <trkpt lat="51.1879200" lon="8.4975090">    <ele>783.2</ele>    <time>2025-10-16T11:52:22Z</time>    <extensions>     <gpxtpx:TrackPointExtension>      <gpxtpx:atemp>18</gpxtpx:atemp>     </gpxtpx:TrackPointExtension>    </extensions>   </trkpt>   <trkpt lat="51.1878620" lon="8.4975020">    <ele>782.6</ele>    <time>2025-10-16T11:52:23Z</time>    <extensions>     <gpxtpx:TrackPointExtension>      <gpxtpx:atemp>18</gpxtpx:atemp>     </gpxtpx:TrackPointExtension>    </extensions>   </trkpt>   <trkpt lat="51.1878130" lon="8.4974570">    <ele>782.0</ele>    <time>2025-10-16T11:52:24Z</time>    <extensions>     <gpxtpx:TrackPointExtension>      <gpxtpx:atemp>18</gpxtpx:atemp>     </gpxtpx:TrackPointExtension>    </extensions>   </trkpt>   <trkpt lat="51.1877610" lon="8.4974130">    <ele>781.6</ele>    <time>2025-10-16T11:52:25Z</time>    <extensions>     <gpxtpx:TrackPointExtension>      <gpxtpx:atemp>18</gpxtpx:atemp>     </gpxtpx:TrackPointExtension>    </extensions>   </trkpt>   <trkpt lat="51.1876980" lon="8.4974210">    <ele>781.0</ele>    <time>2025-10-16T11:52:26Z</time>    <extensions>     <gpxtpx:TrackPointExtension>      <gpxtpx:atemp>18</gpxtpx:atemp>     </gpxtpx:TrackPointExtension>    </extensions>   </trkpt>   <trkpt lat="51.1876590" lon="8.4974920">    <ele>780.8</ele>    <time>2025-10-16T11:52:27Z</time>    <extensions>     <gpxtpx:TrackPointExtension>      <gpxtpx:atemp>18</gpxtpx:atemp>     </gpxtpx:TrackPointExtension>    </extensions>   </trkpt>   <trkpt lat="51.1876470" lon="8.4976040">    <ele>780.4</ele>    <time>2025-10-16T11:52:28Z</time>    <extensions>     <gpxtpx:TrackPointExtension>      <gpxtpx:atemp>18</gpxtpx:atemp>     </gpxtpx:TrackPointExtension>    </extensions>   </trkpt>   <trkpt lat="51.1875960" lon="8.4976390">    <ele>779.6</ele>    <time>2025-10-16T11:52:29Z</time>    <extensions>     <gpxtpx:TrackPointExtension>      <gpxtpx:atemp>18</gpxtpx:atemp>     </gpxtpx:TrackPointExtension>    </extensions>   </trkpt>   <trkpt lat="51.1875470" lon="8.4976010">    <ele>779.0</ele>    <time>2025-10-16T11:52:30Z</time>    <extensions>     <gpxtpx:TrackPointExtension>      <gpxtpx:atemp>18</gpxtpx:atemp>     </gpxtpx:TrackPointExtension>    </extensions>   </trkpt>   <trkpt lat="51.1874970" lon="8.4975430">    <ele>778.2</ele>    <time>2025-10-16T11:52:31Z</time>    <extensions>     <gpxtpx:TrackPointExtension>      <gpxtpx:atemp>18</gpxtpx:atemp>     </gpxtpx:TrackPointExtension>    </extensions>   </trkpt>   <trkpt lat="51.1874390" lon="8.4975080">    <ele>777.4</ele>    <time>2025-10-16T11:52:32Z</time>    <extensions>     <gpxtpx:TrackPointExtension>      <gpxtpx:atemp>18</gpxtpx:atemp>     </gpxtpx:TrackPointExtension>    </extensions>   </trkpt>   <trkpt lat="51.1873790" lon="8.4975410">    <ele>776.8</ele>    <time>2025-10-16T11:52:33Z</time>    <extensions>     <gpxtpx:TrackPointExtension>      <gpxtpx:atemp>18</gpxtpx:atemp>     </gpxtpx:TrackPointExtension>    </extensions>   </trkpt>   <trkpt lat="51.1873710" lon="8.4976550">    <ele>776.4</ele>    <time>2025-10-16T11:52:34Z</time>    <extensions>     <gpxtpx:TrackPointExtension>      <gpxtpx:atemp>18</gpxtpx:atemp>     </gpxtpx:TrackPointExtension>    </extensions>   </trkpt>   <trkpt lat="51.1874010" lon="8.4977530">    <ele>776.0</ele>    <time>2025-10-16T11:52:35Z</time>    <extensions>     <gpxtpx:TrackPointExtension>      <gpxtpx:atemp>18</gpxtpx:atemp>     </gpxtpx:TrackPointExtension>    </extensions>   </trkpt>   <trkpt lat="51.1874200" lon="8.4978510">    <ele>775.6</ele>    <time>2025-10-16T11:52:36Z</time>    <extensions>     <gpxtpx:TrackPointExtension>      <gpxtpx:atemp>18</gpxtpx:atemp>     </gpxtpx:TrackPointExtension>    </extensions>   </trkpt>   <trkpt lat="51.1873800" lon="8.4979190">    <ele>775.0</ele>    <time>2025-10-16T11:52:37Z</time>    <extensions>     <gpxtpx:TrackPointExtension>      <gpxtpx:atemp>18</gpxtpx:atemp>     </gpxtpx:TrackPointExtension>    </extensions>   </trkpt>   <trkpt lat="51.1873220" lon="8.4979550">    <ele>774.6</ele>    <time>2025-10-16T11:52:38Z</time>    <extensions>     <gpxtpx:TrackPointExtension>      <gpxtpx:atemp>18</gpxtpx:atemp>     </gpxtpx:TrackPointExtension>    </extensions>   </trkpt>   <trkpt lat="51.1872640" lon="8.4979840">    <ele>774.0</ele>    <time>2025-10-16T11:52:39Z</time>    <extensions>     <gpxtpx:TrackPointExtension>      <gpxtpx:atemp>18</gpxtpx:atemp>     </gpxtpx:TrackPointExtension>    </extensions>   </trkpt>   <trkpt lat="51.1872300" lon="8.4980660">    <ele>773.4</ele>    <time>2025-10-16T11:52:40Z</time>    <extensions>     <gpxtpx:TrackPointExtension>      <gpxtpx:atemp>18</gpxtpx:atemp>     </gpxtpx:TrackPointExtension>    </extensions>   </trkpt>   <trkpt lat="51.1871860" lon="8.4981290">    <ele>772.8</ele>    <time>2025-10-16T11:52:41Z</time>    <extensions>     <gpxtpx:TrackPointExtension>      <gpxtpx:atemp>18</gpxtpx:atemp>     </gpxtpx:TrackPointExtension>    </extensions>   </trkpt>   <trkpt lat="51.1871420" lon="8.4981590">    <ele>772.0</ele>    <time>2025-10-16T11:52:42Z</time>    <extensions>     <gpxtpx:TrackPointExtension>      <gpxtpx:atemp>18</gpxtpx:atemp>     </gpxtpx:TrackPointExtension>    </extensions>   </trkpt>   <trkpt lat="51.1871020" lon="8.4981560">    <ele>771.0</ele>    <time>2025-10-16T11:52:43Z</time>    <extensions>     <gpxtpx:TrackPointExtension>      <gpxtpx:atemp>18</gpxtpx:atemp>     </gpxtpx:TrackPointExtension>    </extensions>   </trkpt>   <trkpt lat="51.1870870" lon="8.4981150">    <ele>770.0</ele>    <time>2025-10-16T11:52:44Z</time>    <extensions>     <gpxtpx:TrackPointExtension>      <gpxtpx:atemp>18</gpxtpx:atemp>     </gpxtpx:TrackPointExtension>    </extensions>   </trkpt>   <trkpt lat="51.1870760" lon="8.4980680">    <ele>769.2</ele>    <time>2025-10-16T11:52:45Z</time>    <extensions>     <gpxtpx:TrackPointExtension>      <gpxtpx:atemp>18</gpxtpx:atemp>     </gpxtpx:TrackPointExtension>    </extensions>   </trkpt>   <trkpt lat="51.1870500" lon="8.4980420">    <ele>768.8</ele>    <time>2025-10-16T11:52:46Z</time>    <extensions>     <gpxtpx:TrackPointExtension>      <gpxtpx:atemp>18</gpxtpx:atemp>     </gpxtpx:TrackPointExtension>    </extensions>   </trkpt>   <trkpt lat="51.1870180" lon="8.4980310">    <ele>768.4</ele>    <time>2025-10-16T11:52:47Z</time>    <extensions>     <gpxtpx:TrackPointExtension>      <gpxtpx:atemp>18</gpxtpx:atemp>     </gpxtpx:TrackPointExtension>    </extensions>   </trkpt>   <trkpt lat="51.1869850" lon="8.4980360">    <ele>768.2</ele>    <time>2025-10-16T11:52:48Z</time>    <extensions>     <gpxtpx:TrackPointExtension>      <gpxtpx:atemp>18</gpxtpx:atemp>     </gpxtpx:TrackPointExtension>    </extensions>   </trkpt>   <trkpt lat="51.1869460" lon="8.4980250">    <ele>768.2</ele>    <time>2025-10-16T11:52:49Z</time>    <extensions>     <gpxtpx:TrackPointExtension>      <gpxtpx:atemp>18</gpxtpx:atemp>     </gpxtpx:TrackPointExtension>    </extensions>   </trkpt>   <trkpt lat="51.1869120" lon="8.4979880">    <ele>768.0</ele>    <time>2025-10-16T11:52:50Z</time>    <extensions>     <gpxtpx:TrackPointExtension>      <gpxtpx:atemp>18</gpxtpx:atemp>     </gpxtpx:TrackPointExtension>    </extensions>   </trkpt>   <trkpt lat="51.1868760" lon="8.4979740">    <ele>767.8</ele>    <time>2025-10-16T11:52:51Z</time>    <extensions>     <gpxtpx:TrackPointExtension>      <gpxtpx:atemp>18</gpxtpx:atemp>     </gpxtpx:TrackPointExtension>    </extensions>   </trkpt>   <trkpt lat="51.1868600" lon="8.4980320">    <ele>767.4</ele>    <time>2025-10-16T11:52:52Z</time>    <extensions>     <gpxtpx:TrackPointExtension>      <gpxtpx:atemp>18</gpxtpx:atemp>     </gpxtpx:TrackPointExtension>    </extensions>   </trkpt>   <trkpt lat="51.1868520" lon="8.4981210">    <ele>767.0</ele>    <time>2025-10-16T11:52:53Z</time>    <extensions>     <gpxtpx:TrackPointExtension>      <gpxtpx:atemp>18</gpxtpx:atemp>     </gpxtpx:TrackPointExtension>    </extensions>   </trkpt>   <trkpt lat="51.1868160" lon="8.4981910">    <ele>766.4</ele>    <time>2025-10-16T11:52:54Z</time>    <extensions>     <gpxtpx:TrackPointExtension>      <gpxtpx:atemp>18</gpxtpx:atemp>     </gpxtpx:TrackPointExtension>    </extensions>   </trkpt>   <trkpt lat="51.1867810" lon="8.4981620">    <ele>766.0</ele>    <time>2025-10-16T11:52:55Z</time>    <extensions>     <gpxtpx:TrackPointExtension>      <gpxtpx:atemp>18</gpxtpx:atemp>     </gpxtpx:TrackPointExtension>    </extensions>   </trkpt>   <trkpt lat="51.1867640" lon="8.4980860">    <ele>765.6</ele>    <time>2025-10-16T11:52:56Z</time>    <extensions>     <gpxtpx:TrackPointExtension>      <gpxtpx:atemp>18</gpxtpx:atemp>     </gpxtpx:TrackPointExtension>    </extensions>   </trkpt>   <trkpt lat="51.1867390" lon="8.4980190">    <ele>765.4</ele>    <time>2025-10-16T11:52:57Z</time>    <extensions>     <gpxtpx:TrackPointExtension>      <gpxtpx:atemp>18</gpxtpx:atemp>     </gpxtpx:TrackPointExtension>    </extensions>   </trkpt>   <trkpt lat="51.1867070" lon="8.4980200">    <ele>765.0</ele>    <time>2025-10-16T11:52:58Z</time>    <extensions>     <gpxtpx:TrackPointExtension>      <gpxtpx:atemp>18</gpxtpx:atemp>     </gpxtpx:TrackPointExtension>    </extensions>   </trkpt>   <trkpt lat="51.1867050" lon="8.4981020">    <ele>764.8</ele>    <time>2025-10-16T11:52:59Z</time>    <extensions>     <gpxtpx:TrackPointExtension>      <gpxtpx:atemp>18</gpxtpx:atemp>     </gpxtpx:TrackPointExtension>    </extensions>   </trkpt>   <trkpt lat="51.1866980" lon="8.4982080">    <ele>764.4</ele>    <time>2025-10-16T11:53:00Z</time>    <extensions>     <gpxtpx:TrackPointExtension>      <gpxtpx:atemp>18</gpxtpx:atemp>     </gpxtpx:TrackPointExtension>    </extensions>   </trkpt>   <trkpt lat="51.1866520" lon="8.4982900">    <ele>764.0</ele>    <time>2025-10-16T11:53:01Z</time>    <extensions>     <gpxtpx:TrackPointExtension>      <gpxtpx:atemp>18</gpxtpx:atemp>     </gpxtpx:TrackPointExtension>    </extensions>   </trkpt>   <trkpt lat="51.1866130" lon="8.4983980">    <ele>763.4</ele>    <time>2025-10-16T11:53:02Z</time>    <extensions>     <gpxtpx:TrackPointExtension>      <gpxtpx:atemp>18</gpxtpx:atemp>     </gpxtpx:TrackPointExtension>    </extensions>   </trkpt>   <trkpt lat="51.1865810" lon="8.4985240">    <ele>763.0</ele>    <time>2025-10-16T11:53:03Z</time>    <extensions>     <gpxtpx:TrackPointExtension>      <gpxtpx:atemp>18</gpxtpx:atemp>     </gpxtpx:TrackPointExtension>    </extensions>   </trkpt>   <trkpt lat="51.1865290" lon="8.4986280">    <ele>762.4</ele>    <time>2025-10-16T11:53:04Z</time>    <extensions>     <gpxtpx:TrackPointExtension>      <gpxtpx:atemp>18</gpxtpx:atemp>     </gpxtpx:TrackPointExtension>    </extensions>   </trkpt>   <trkpt lat="51.1864550" lon="8.4986760">    <ele>762.0</ele>    <time>2025-10-16T11:53:05Z</time>    <extensions>     <gpxtpx:TrackPointExtension>      <gpxtpx:atemp>18</gpxtpx:atemp>     </gpxtpx:TrackPointExtension>    </extensions>   </trkpt>   <trkpt lat="51.1863670" lon="8.4987060">    <ele>761.6</ele>    <time>2025-10-16T11:53:06Z</time>    <extensions>     <gpxtpx:TrackPointExtension>      <gpxtpx:atemp>18</gpxtpx:atemp>     </gpxtpx:TrackPointExtension>    </extensions>   </trkpt>   <trkpt lat="51.1863070" lon="8.4987920">    <ele>761.0</ele>    <time>2025-10-16T11:53:07Z</time>    <extensions>     <gpxtpx:TrackPointExtension>      <gpxtpx:atemp>18</gpxtpx:atemp>     </gpxtpx:TrackPointExtension>    </extensions>   </trkpt>   <trkpt lat="51.1862700" lon="8.4989260">    <ele>760.2</ele>    <time>2025-10-16T11:53:08Z</time>    <extensions>     <gpxtpx:TrackPointExtension>      <gpxtpx:atemp>18</gpxtpx:atemp>     </gpxtpx:TrackPointExtension>    </extensions>   </trkpt>   <trkpt lat="51.1862420" lon="8.4990440">    <ele>759.4</ele>    <time>2025-10-16T11:53:09Z</time>    <extensions>     <gpxtpx:TrackPointExtension>      <gpxtpx:atemp>18</gpxtpx:atemp>     </gpxtpx:TrackPointExtension>    </extensions>   </trkpt>   <trkpt lat="51.1862240" lon="8.4991550">    <ele>758.6</ele>    <time>2025-10-16T11:53:10Z</time>    <extensions>     <gpxtpx:TrackPointExtension>      <gpxtpx:atemp>18</gpxtpx:atemp>     </gpxtpx:TrackPointExtension>    </extensions>   </trkpt>   <trkpt lat="51.1862110" lon="8.4992580">    <ele>758.0</ele>    <time>2025-10-16T11:53:11Z</time>    <extensions>     <gpxtpx:TrackPointExtension>      <gpxtpx:atemp>18</gpxtpx:atemp>     </gpxtpx:TrackPointExtension>    </extensions>   </trkpt>   <trkpt lat="51.1862040" lon="8.4993410">    <ele>757.4</ele>    <time>2025-10-16T11:53:12Z</time>    <extensions>     <gpxtpx:TrackPointExtension>      <gpxtpx:atemp>18</gpxtpx:atemp>     </gpxtpx:TrackPointExtension>    </extensions>   </trkpt>   <trkpt lat="51.1861970" lon="8.4994130">    <ele>757.2</ele>    <time>2025-10-16T11:53:13Z</time>    <extensions>     <gpxtpx:TrackPointExtension>      <gpxtpx:atemp>18</gpxtpx:atemp>     </gpxtpx:TrackPointExtension>    </extensions>   </trkpt>   <trkpt lat="51.1861850" lon="8.4994880">    <ele>757.0</ele>    <time>2025-10-16T11:53:14Z</time>    <extensions>     <gpxtpx:TrackPointExtension>      <gpxtpx:atemp>18</gpxtpx:atemp>     </gpxtpx:TrackPointExtension>    </extensions>   </trkpt>   <trkpt lat="51.1861680" lon="8.4995730">    <ele>757.0</ele>    <time>2025-10-16T11:53:15Z</time>    <extensions>     <gpxtpx:TrackPointExtension>      <gpxtpx:atemp>18</gpxtpx:atemp>     </gpxtpx:TrackPointExtension>    </extensions>   </trkpt>   <trkpt lat="51.1861460" lon="8.4996600">    <ele>756.8</ele>    <time>2025-10-16T11:53:16Z</time>    <extensions>     <gpxtpx:TrackPointExtension>      <gpxtpx:atemp>18</gpxtpx:atemp>     </gpxtpx:TrackPointExtension>    </extensions>   </trkpt>   <trkpt lat="51.1861220" lon="8.4997420">    <ele>756.8</ele>    <time>2025-10-16T11:53:17Z</time>    <extensions>     <gpxtpx:TrackPointExtension>      <gpxtpx:atemp>18</gpxtpx:atemp>     </gpxtpx:TrackPointExtension>    </extensions>   </trkpt>   <trkpt lat="51.1860980" lon="8.4998240">    <ele>756.6</ele>    <time>2025-10-16T11:53:18Z</time>    <extensions>     <gpxtpx:TrackPointExtension>      <gpxtpx:atemp>18</gpxtpx:atemp>     </gpxtpx:TrackPointExtension>    </extensions>   </trkpt>   <trkpt lat="51.1860660" lon="8.4999100">    <ele>756.4</ele>    <time>2025-10-16T11:53:19Z</time>    <extensions>     <gpxtpx:TrackPointExtension>      <gpxtpx:atemp>18</gpxtpx:atemp>     </gpxtpx:TrackPointExtension>    </extensions>   </trkpt>   <trkpt lat="51.1860290" lon="8.4999990">    <ele>756.0</ele>    <time>2025-10-16T11:53:20Z</time>    <extensions>     <gpxtpx:TrackPointExtension>      <gpxtpx:atemp>18</gpxtpx:atemp>     </gpxtpx:TrackPointExtension>    </extensions>   </trkpt>   <trkpt lat="51.1859900" lon="8.5000850">    <ele>755.8</ele>    <time>2025-10-16T11:53:21Z</time>    <extensions>     <gpxtpx:TrackPointExtension>      <gpxtpx:atemp>18</gpxtpx:atemp>     </gpxtpx:TrackPointExtension>    </extensions>   </trkpt>   <trkpt lat="51.1859510" lon="8.5001690">    <ele>755.4</ele>    <time>2025-10-16T11:53:22Z</time>    <extensions>     <gpxtpx:TrackPointExtension>      <gpxtpx:atemp>18</gpxtpx:atemp>     </gpxtpx:TrackPointExtension>    </extensions>   </trkpt>   <trkpt lat="51.1859000" lon="8.5002390">    <ele>755.2</ele>    <time>2025-10-16T11:53:23Z</time>    <extensions>     <gpxtpx:TrackPointExtension>      <gpxtpx:atemp>18</gpxtpx:atemp>     </gpxtpx:TrackPointExtension>    </extensions>   </trkpt>   <trkpt lat="51.1858400" lon="8.5002840">    <ele>755.0</ele>    <time>2025-10-16T11:53:24Z</time>    <extensions>     <gpxtpx:TrackPointExtension>      <gpxtpx:atemp>18</gpxtpx:atemp>     </gpxtpx:TrackPointExtension>    </extensions>   </trkpt>   <trkpt lat="51.1857770" lon="8.5003180">    <ele>754.8</ele>    <time>2025-10-16T11:53:25Z</time>    <extensions>     <gpxtpx:TrackPointExtension>      <gpxtpx:atemp>18</gpxtpx:atemp>     </gpxtpx:TrackPointExtension>    </extensions>   </trkpt>   <trkpt lat="51.1857090" lon="8.5003420">    <ele>754.4</ele>    <time>2025-10-16T11:53:26Z</time>    <extensions>     <gpxtpx:TrackPointExtension>      <gpxtpx:atemp>18</gpxtpx:atemp>     </gpxtpx:TrackPointExtension>    </extensions>   </trkpt>   <trkpt lat="51.1856370" lon="8.5003610">    <ele>754.0</ele>    <time>2025-10-16T11:53:27Z</time>    <extensions>     <gpxtpx:TrackPointExtension>      <gpxtpx:atemp>18</gpxtpx:atemp>     </gpxtpx:TrackPointExtension>    </extensions>   </trkpt>   <trkpt lat="51.1855600" lon="8.5003810">    <ele>753.6</ele>    <time>2025-10-16T11:53:28Z</time>    <extensions>     <gpxtpx:TrackPointExtension>      <gpxtpx:atemp>18</gpxtpx:atemp>     </gpxtpx:TrackPointExtension>    </extensions>   </trkpt>   <trkpt lat="51.1854890" lon="8.5004080">    <ele>753.0</ele>    <time>2025-10-16T11:53:29Z</time>    <extensions>     <gpxtpx:TrackPointExtension>      <gpxtpx:atemp>18</gpxtpx:atemp>     </gpxtpx:TrackPointExtension>    </extensions>   </trkpt>   <trkpt lat="51.1854390" lon="8.5004980">    <ele>752.6</ele>    <time>2025-10-16T11:53:30Z</time>    <extensions>     <gpxtpx:TrackPointExtension>      <gpxtpx:atemp>18</gpxtpx:atemp>     </gpxtpx:TrackPointExtension>    </extensions>   </trkpt>   <trkpt lat="51.1854160" lon="8.5006330">    <ele>752.0</ele>    <time>2025-10-16T11:53:31Z</time>    <extensions>     <gpxtpx:TrackPointExtension>      <gpxtpx:atemp>18</gpxtpx:atemp>     </gpxtpx:TrackPointExtension>    </extensions>   </trkpt>   <trkpt lat="51.1854270" lon="8.5007880">    <ele>751.6</ele>    <time>2025-10-16T11:53:32Z</time>    <extensions>     <gpxtpx:TrackPointExtension>      <gpxtpx:atemp>18</gpxtpx:atemp>     </gpxtpx:TrackPointExtension>    </extensions>   </trkpt>   <trkpt lat="51.1854500" lon="8.5009060">    <ele>750.8</ele>    <time>2025-10-16T11:53:33Z</time>    <extensions>     <gpxtpx:TrackPointExtension>      <gpxtpx:atemp>18</gpxtpx:atemp>     </gpxtpx:TrackPointExtension>    </extensions>   </trkpt>   <trkpt lat="51.1854510" lon="8.5010000">    <ele>749.8</ele>    <time>2025-10-16T11:53:34Z</time>    <extensions>     <gpxtpx:TrackPointExtension>      <gpxtpx:atemp>18</gpxtpx:atemp>     </gpxtpx:TrackPointExtension>    </extensions>   </trkpt>   <trkpt lat="51.1854130" lon="8.5010250">    <ele>748.8</ele>    <time>2025-10-16T11:53:35Z</time>    <extensions>     <gpxtpx:TrackPointExtension>      <gpxtpx:atemp>18</gpxtpx:atemp>     </gpxtpx:TrackPointExtension>    </extensions>   </trkpt>   <trkpt lat="51.1853680" lon="8.5009880">    <ele>747.8</ele>    <time>2025-10-16T11:53:36Z</time>    <extensions>     <gpxtpx:TrackPointExtension>      <gpxtpx:atemp>18</gpxtpx:atemp>     </gpxtpx:TrackPointExtension>    </extensions>   </trkpt>   <trkpt lat="51.1853470" lon="8.5008970">    <ele>746.8</ele>    <time>2025-10-16T11:53:37Z</time>    <extensions>     <gpxtpx:TrackPointExtension>      <gpxtpx:atemp>18</gpxtpx:atemp>     </gpxtpx:TrackPointExtension>    </extensions>   </trkpt>   <trkpt lat="51.1853250" lon="8.5008000">    <ele>746.2</ele>    <time>2025-10-16T11:53:38Z</time>    <extensions>     <gpxtpx:TrackPointExtension>      <gpxtpx:atemp>18</gpxtpx:atemp>     </gpxtpx:TrackPointExtension>    </extensions>   </trkpt>   <trkpt lat="51.1853090" lon="8.5007040">    <ele>745.8</ele>    <time>2025-10-16T11:53:39Z</time>    <extensions>     <gpxtpx:TrackPointExtension>      <gpxtpx:atemp>18</gpxtpx:atemp>     </gpxtpx:TrackPointExtension>    </extensions>   </trkpt>   <trkpt lat="51.1852890" lon="8.5006100">    <ele>745.4</ele>    <time>2025-10-16T11:53:40Z</time>    <extensions>     <gpxtpx:TrackPointExtension>      <gpxtpx:atemp>18</gpxtpx:atemp>     </gpxtpx:TrackPointExtension>    </extensions>   </trkpt>   <trkpt lat="51.1852640" lon="8.5005250">    <ele>745.4</ele>    <time>2025-10-16T11:53:41Z</time>    <extensions>     <gpxtpx:TrackPointExtension>      <gpxtpx:atemp>18</gpxtpx:atemp>     </gpxtpx:TrackPointExtension>    </extensions>   </trkpt>   <trkpt lat="51.1852290" lon="8.5004380">    <ele>745.2</ele>    <time>2025-10-16T11:53:42Z</time>    <extensions>     <gpxtpx:TrackPointExtension>      <gpxtpx:atemp>18</gpxtpx:atemp>     </gpxtpx:TrackPointExtension>    </extensions>   </trkpt>   <trkpt lat="51.1852020" lon="8.5003370">    <ele>744.8</ele>    <time>2025-10-16T11:53:43Z</time>    <extensions>     <gpxtpx:TrackPointExtension>      <gpxtpx:atemp>18</gpxtpx:atemp>     </gpxtpx:TrackPointExtension>    </extensions>   </trkpt>   <trkpt lat="51.1851900" lon="8.5002300">    <ele>744.6</ele>    <time>2025-10-16T11:53:44Z</time>    <extensions>     <gpxtpx:TrackPointExtension>      <gpxtpx:atemp>18</gpxtpx:atemp>     </gpxtpx:TrackPointExtension>    </extensions>   </trkpt>   <trkpt lat="51.1851850" lon="8.5001230">    <ele>744.2</ele>    <time>2025-10-16T11:53:45Z</time>    <extensions>     <gpxtpx:TrackPointExtension>      <gpxtpx:atemp>18</gpxtpx:atemp>     </gpxtpx:TrackPointExtension>    </extensions>   </trkpt>   <trkpt lat="51.1852200" lon="8.5000520">    <ele>743.6</ele>    <time>2025-10-16T11:53:46Z</time>    <extensions>     <gpxtpx:TrackPointExtension>      <gpxtpx:atemp>18</gpxtpx:atemp>     </gpxtpx:TrackPointExtension>    </extensions>   </trkpt>   <trkpt lat="51.1852670" lon="8.5000060">    <ele>743.2</ele>    <time>2025-10-16T11:53:47Z</time>    <extensions>     <gpxtpx:TrackPointExtension>      <gpxtpx:atemp>18</gpxtpx:atemp>     </gpxtpx:TrackPointExtension>    </extensions>   </trkpt>   <trkpt lat="51.1853080" lon="8.4999650">    <ele>743.0</ele>    <time>2025-10-16T11:53:48Z</time>    <extensions>     <gpxtpx:TrackPointExtension>      <gpxtpx:atemp>18</gpxtpx:atemp>     </gpxtpx:TrackPointExtension>    </extensions>   </trkpt>   <trkpt lat="51.1853460" lon="8.4999130">    <ele>742.8</ele>    <time>2025-10-16T11:53:49Z</time>    <extensions>     <gpxtpx:TrackPointExtension>      <gpxtpx:atemp>18</gpxtpx:atemp>     </gpxtpx:TrackPointExtension>    </extensions>   </trkpt>   <trkpt lat="51.1853760" lon="8.4998420">    <ele>742.6</ele>    <time>2025-10-16T11:53:50Z</time>    <extensions>     <gpxtpx:TrackPointExtension>      <gpxtpx:atemp>18</gpxtpx:atemp>     </gpxtpx:TrackPointExtension>    </extensions>   </trkpt>   <trkpt lat="51.1853940" lon="8.4997470">    <ele>742.4</ele>    <time>2025-10-16T11:53:51Z</time>    <extensions>     <gpxtpx:TrackPointExtension>      <gpxtpx:atemp>18</gpxtpx:atemp>     </gpxtpx:TrackPointExtension>    </extensions>   </trkpt>   <trkpt lat="51.1853990" lon="8.4996310">    <ele>742.0</ele>    <time>2025-10-16T11:53:52Z</time>    <extensions>     <gpxtpx:TrackPointExtension>      <gpxtpx:atemp>18</gpxtpx:atemp>     </gpxtpx:TrackPointExtension>    </extensions>   </trkpt>   <trkpt lat="51.1853990" lon="8.4995030">    <ele>741.2</ele>    <time>2025-10-16T11:53:53Z</time>    <extensions>     <gpxtpx:TrackPointExtension>      <gpxtpx:atemp>18</gpxtpx:atemp>     </gpxtpx:TrackPointExtension>    </extensions>   </trkpt>   <trkpt lat="51.1853970" lon="8.4993750">    <ele>740.4</ele>    <time>2025-10-16T11:53:54Z</time>    <extensions>     <gpxtpx:TrackPointExtension>      <gpxtpx:atemp>18</gpxtpx:atemp>     </gpxtpx:TrackPointExtension>    </extensions>   </trkpt>   <trkpt lat="51.1853930" lon="8.4992560">    <ele>739.6</ele>    <time>2025-10-16T11:53:55Z</time>    <extensions>     <gpxtpx:TrackPointExtension>      <gpxtpx:atemp>17</gpxtpx:atemp>     </gpxtpx:TrackPointExtension>    </extensions>   </trkpt>   <trkpt lat="51.1853750" lon="8.4991790">    <ele>738.8</ele>    <time>2025-10-16T11:53:56Z</time>    <extensions>     <gpxtpx:TrackPointExtension>      <gpxtpx:atemp>18</gpxtpx:atemp>     </gpxtpx:TrackPointExtension>    </extensions>   </trkpt>   <trkpt lat="51.1853480" lon="8.4991810">    <ele>738.0</ele>    <time>2025-10-16T11:53:57Z</time>    <extensions>     <gpxtpx:TrackPointExtension>      <gpxtpx:atemp>17</gpxtpx:atemp>     </gpxtpx:TrackPointExtension>    </extensions>   </trkpt>   <trkpt lat="51.1853400" lon="8.4992480">    <ele>737.6</ele>    <time>2025-10-16T11:53:58Z</time>    <extensions>     <gpxtpx:TrackPointExtension>      <gpxtpx:atemp>17</gpxtpx:atemp>     </gpxtpx:TrackPointExtension>    </extensions>   </trkpt>   <trkpt lat="51.1853110" lon="8.4993260">    <ele>737.0</ele>    <time>2025-10-16T11:53:59Z</time>    <extensions>     <gpxtpx:TrackPointExtension>      <gpxtpx:atemp>17</gpxtpx:atemp>     </gpxtpx:TrackPointExtension>    </extensions>   </trkpt>   <trkpt lat="51.1852510" lon="8.4993350">    <ele>736.4</ele>    <time>2025-10-16T11:54:00Z</time>    <extensions>     <gpxtpx:TrackPointExtension>      <gpxtpx:atemp>17</gpxtpx:atemp>     </gpxtpx:TrackPointExtension>    </extensions>   </trkpt>   <trkpt lat="51.1852190" lon="8.4992530">    <ele>736.0</ele>    <time>2025-10-16T11:54:01Z</time>    <extensions>     <gpxtpx:TrackPointExtension>      <gpxtpx:atemp>17</gpxtpx:atemp>     </gpxtpx:TrackPointExtension>    </extensions>   </trkpt>   <trkpt lat="51.1852260" lon="8.4991250">    <ele>735.4</ele>    <time>2025-10-16T11:54:02Z</time>    <extensions>     <gpxtpx:TrackPointExtension>      <gpxtpx:atemp>17</gpxtpx:atemp>     </gpxtpx:TrackPointExtension>    </extensions>   </trkpt>   <trkpt lat="51.1852240" lon="8.4990060">    <ele>735.0</ele>    <time>2025-10-16T11:54:03Z</time>    <extensions>     <gpxtpx:TrackPointExtension>      <gpxtpx:atemp>17</gpxtpx:atemp>     </gpxtpx:TrackPointExtension>    </extensions>   </trkpt>   <trkpt lat="51.1852050" lon="8.4988940">    <ele>734.6</ele>    <time>2025-10-16T11:54:04Z</time>    <extensions>     <gpxtpx:TrackPointExtension>      <gpxtpx:atemp>17</gpxtpx:atemp>     </gpxtpx:TrackPointExtension>    </extensions>   </trkpt>   <trkpt lat="51.1851440" lon="8.4988390">    <ele>734.2</ele>    <time>2025-10-16T11:54:05Z</time>    <extensions>     <gpxtpx:TrackPointExtension>      <gpxtpx:atemp>17</gpxtpx:atemp>     </gpxtpx:TrackPointExtension>    </extensions>   </trkpt>   <trkpt lat="51.1850640" lon="8.4988790">    <ele>733.8</ele>    <time>2025-10-16T11:54:06Z</time>    <extensions>     <gpxtpx:TrackPointExtension>      <gpxtpx:atemp>17</gpxtpx:atemp>     </gpxtpx:TrackPointExtension>    </extensions>   </trkpt>   <trkpt lat="51.1849960" lon="8.4989690">    <ele>733.2</ele>    <time>2025-10-16T11:54:07Z</time>    <extensions>     <gpxtpx:TrackPointExtension>      <gpxtpx:atemp>17</gpxtpx:atemp>     </gpxtpx:TrackPointExtension>    </extensions>   </trkpt>   <trkpt lat="51.1849440" lon="8.4990940">    <ele>732.6</ele>    <time>2025-10-16T11:54:08Z</time>    <extensions>     <gpxtpx:TrackPointExtension>      <gpxtpx:atemp>17</gpxtpx:atemp>     </gpxtpx:TrackPointExtension>    </extensions>   </trkpt>   <trkpt lat="51.1848970" lon="8.4992040">    <ele>731.8</ele>    <time>2025-10-16T11:54:09Z</time>    <extensions>     <gpxtpx:TrackPointExtension>      <gpxtpx:atemp>17</gpxtpx:atemp>     </gpxtpx:TrackPointExtension>    </extensions>   </trkpt>   <trkpt lat="51.1848570" lon="8.4993020">    <ele>731.0</ele>    <time>2025-10-16T11:54:10Z</time>    <extensions>     <gpxtpx:TrackPointExtension>      <gpxtpx:atemp>17</gpxtpx:atemp>     </gpxtpx:TrackPointExtension>    </extensions>   </trkpt>   <trkpt lat="51.1848140" lon="8.4993980">    <ele>730.2</ele>    <time>2025-10-16T11:54:11Z</time>    <extensions>     <gpxtpx:TrackPointExtension>      <gpxtpx:atemp>17</gpxtpx:atemp>     </gpxtpx:TrackPointExtension>    </extensions>   </trkpt>   <trkpt lat="51.1847810" lon="8.4994660">    <ele>729.4</ele>    <time>2025-10-16T11:54:12Z</time>    <extensions>     <gpxtpx:TrackPointExtension>      <gpxtpx:atemp>17</gpxtpx:atemp>     </gpxtpx:TrackPointExtension>    </extensions>   </trkpt>   <trkpt lat="51.1847450" lon="8.4995570">    <ele>728.6</ele>    <time>2025-10-16T11:54:13Z</time>    <extensions>     <gpxtpx:TrackPointExtension>      <gpxtpx:atemp>17</gpxtpx:atemp>     </gpxtpx:TrackPointExtension>    </extensions>   </trkpt>   <trkpt lat="51.1847220" lon="8.4996300">    <ele>728.2</ele>    <time>2025-10-16T11:54:14Z</time>    <extensions>     <gpxtpx:TrackPointExtension>      <gpxtpx:atemp>17</gpxtpx:atemp>     </gpxtpx:TrackPointExtension>    </extensions>   </trkpt>   <trkpt lat="51.1846880" lon="8.4997080">    <ele>727.8</ele>    <time>2025-10-16T11:54:15Z</time>    <extensions>     <gpxtpx:TrackPointExtension>      <gpxtpx:atemp>17</gpxtpx:atemp>     </gpxtpx:TrackPointExtension>    </extensions>   </trkpt>   <trkpt lat="51.1846410" lon="8.4997450">    <ele>727.4</ele>    <time>2025-10-16T11:54:16Z</time>    <extensions>     <gpxtpx:TrackPointExtension>      <gpxtpx:atemp>17</gpxtpx:atemp>     </gpxtpx:TrackPointExtension>    </extensions>   </trkpt>   <trkpt lat="51.1845840" lon="8.4997370">    <ele>727.2</ele>    <time>2025-10-16T11:54:17Z</time>    <extensions>     <gpxtpx:TrackPointExtension>      <gpxtpx:atemp>17</gpxtpx:atemp>     </gpxtpx:TrackPointExtension>    </extensions>   </trkpt>   <trkpt lat="51.1845330" lon="8.4997760">    <ele>726.8</ele>    <time>2025-10-16T11:54:18Z</time>    <extensions>     <gpxtpx:TrackPointExtension>      <gpxtpx:atemp>17</gpxtpx:atemp>     </gpxtpx:TrackPointExtension>    </extensions>   </trkpt>   <trkpt lat="51.1845030" lon="8.4998690">    <ele>726.2</ele>    <time>2025-10-16T11:54:19Z</time>    <extensions>     <gpxtpx:TrackPointExtension>      <gpxtpx:atemp>17</gpxtpx:atemp>     </gpxtpx:TrackPointExtension>    </extensions>   </trkpt>   <trkpt lat="51.1844800" lon="8.4999650">    <ele>725.6</ele>    <time>2025-10-16T11:54:20Z</time>    <extensions>     <gpxtpx:TrackPointExtension>      <gpxtpx:atemp>17</gpxtpx:atemp>     </gpxtpx:TrackPointExtension>    </extensions>   </trkpt>   <trkpt lat="51.1844540" lon="8.5000580">    <ele>725.0</ele>    <time>2025-10-16T11:54:21Z</time>    <extensions>     <gpxtpx:TrackPointExtension>      <gpxtpx:atemp>17</gpxtpx:atemp>     </gpxtpx:TrackPointExtension>    </extensions>   </trkpt>   <trkpt lat="51.1844290" lon="8.5001520">    <ele>724.4</ele>    <time>2025-10-16T11:54:22Z</time>    <extensions>     <gpxtpx:TrackPointExtension>      <gpxtpx:atemp>17</gpxtpx:atemp>     </gpxtpx:TrackPointExtension>    </extensions>   </trkpt>   <trkpt lat="51.1843920" lon="8.5002290">    <ele>723.8</ele>    <time>2025-10-16T11:54:23Z</time>    <extensions>     <gpxtpx:TrackPointExtension>      <gpxtpx:atemp>17</gpxtpx:atemp>     </gpxtpx:TrackPointExtension>    </extensions>   </trkpt>   <trkpt lat="51.1843490" lon="8.5002280">    <ele>723.2</ele>    <time>2025-10-16T11:54:24Z</time>    <extensions>     <gpxtpx:TrackPointExtension>      <gpxtpx:atemp>17</gpxtpx:atemp>     </gpxtpx:TrackPointExtension>    </extensions>   </trkpt>   <trkpt lat="51.1843520" lon="8.5001540">    <ele>722.4</ele>    <time>2025-10-16T11:54:25Z</time>    <extensions>     <gpxtpx:TrackPointExtension>      <gpxtpx:atemp>17</gpxtpx:atemp>     </gpxtpx:TrackPointExtension>    </extensions>   </trkpt>   <trkpt lat="51.1843610" lon="8.5000760">    <ele>721.8</ele>    <time>2025-10-16T11:54:26Z</time>    <extensions>     <gpxtpx:TrackPointExtension>      <gpxtpx:atemp>17</gpxtpx:atemp>     </gpxtpx:TrackPointExtension>    </extensions>   </trkpt>   <trkpt lat="51.1843630" lon="8.5000130">    <ele>721.2</ele>    <time>2025-10-16T11:54:27Z</time>    <extensions>     <gpxtpx:TrackPointExtension>      <gpxtpx:atemp>17</gpxtpx:atemp>     </gpxtpx:TrackPointExtension>    </extensions>   </trkpt>   <trkpt lat="51.1843540" lon="8.4999330">    <ele>720.8</ele>    <time>2025-10-16T11:54:28Z</time>    <extensions>     <gpxtpx:TrackPointExtension>      <gpxtpx:atemp>17</gpxtpx:atemp>     </gpxtpx:TrackPointExtension>    </extensions>   </trkpt>   <trkpt lat="51.1843560" lon="8.4998410">    <ele>720.6</ele>    <time>2025-10-16T11:54:29Z</time>    <extensions>     <gpxtpx:TrackPointExtension>      <gpxtpx:atemp>17</gpxtpx:atemp>     </gpxtpx:TrackPointExtension>    </extensions>   </trkpt>   <trkpt lat="51.1843650" lon="8.4997550">    <ele>720.4</ele>    <time>2025-10-16T11:54:30Z</time>    <extensions>     <gpxtpx:TrackPointExtension>      <gpxtpx:atemp>17</gpxtpx:atemp>     </gpxtpx:TrackPointExtension>    </extensions>   </trkpt>   <trkpt lat="51.1843710" lon="8.4996790">    <ele>720.0</ele>    <time>2025-10-16T11:54:31Z</time>    <extensions>     <gpxtpx:TrackPointExtension>      <gpxtpx:atemp>17</gpxtpx:atemp>     </gpxtpx:TrackPointExtension>    </extensions>   </trkpt>   <trkpt lat="51.1843740" lon="8.4996020">    <ele>719.8</ele>    <time>2025-10-16T11:54:32Z</time>    <extensions>     <gpxtpx:TrackPointExtension>      <gpxtpx:atemp>17</gpxtpx:atemp>     </gpxtpx:TrackPointExtension>    </extensions>   </trkpt>   <trkpt lat="51.1843780" lon="8.4995120">    <ele>719.6</ele>    <time>2025-10-16T11:54:33Z</time>    <extensions>     <gpxtpx:TrackPointExtension>      <gpxtpx:atemp>17</gpxtpx:atemp>     </gpxtpx:TrackPointExtension>    </extensions>   </trkpt>   <trkpt lat="51.1843360" lon="8.4994620">    <ele>719.4</ele>    <time>2025-10-16T11:54:34Z</time>    <extensions>     <gpxtpx:TrackPointExtension>      <gpxtpx:atemp>17</gpxtpx:atemp>     </gpxtpx:TrackPointExtension>    </extensions>   </trkpt>   <trkpt lat="51.1842900" lon="8.4995150">    <ele>719.0</ele>    <time>2025-10-16T11:54:35Z</time>    <extensions>     <gpxtpx:TrackPointExtension>      <gpxtpx:atemp>17</gpxtpx:atemp>     </gpxtpx:TrackPointExtension>    </extensions>   </trkpt>   <trkpt lat="51.1842440" lon="8.4996030">    <ele>718.6</ele>    <time>2025-10-16T11:54:36Z</time>    <extensions>     <gpxtpx:TrackPointExtension>      <gpxtpx:atemp>17</gpxtpx:atemp>     </gpxtpx:TrackPointExtension>    </extensions>   </trkpt>   <trkpt lat="51.1842010" lon="8.4997030">    <ele>718.2</ele>    <time>2025-10-16T11:54:37Z</time>    <extensions>     <gpxtpx:TrackPointExtension>      <gpxtpx:atemp>17</gpxtpx:atemp>     </gpxtpx:TrackPointExtension>    </extensions>   </trkpt>   <trkpt lat="51.1841680" lon="8.4998180">    <ele>717.6</ele>    <time>2025-10-16T11:54:38Z</time>    <extensions>     <gpxtpx:TrackPointExtension>      <gpxtpx:atemp>17</gpxtpx:atemp>     </gpxtpx:TrackPointExtension>    </extensions>   </trkpt>   <trkpt lat="51.1841450" lon="8.4999240">    <ele>717.0</ele>    <time>2025-10-16T11:54:39Z</time>    <extensions>     <gpxtpx:TrackPointExtension>      <gpxtpx:atemp>17</gpxtpx:atemp>     </gpxtpx:TrackPointExtension>    </extensions>   </trkpt>   <trkpt lat="51.1841130" lon="8.5000330">    <ele>716.4</ele>    <time>2025-10-16T11:54:40Z</time>    <extensions>     <gpxtpx:TrackPointExtension>      <gpxtpx:atemp>17</gpxtpx:atemp>     </gpxtpx:TrackPointExtension>    </extensions>   </trkpt>   <trkpt lat="51.1840530" lon="8.5001050">    <ele>715.8</ele>    <time>2025-10-16T11:54:41Z</time>    <extensions>     <gpxtpx:TrackPointExtension>      <gpxtpx:atemp>17</gpxtpx:atemp>     </gpxtpx:TrackPointExtension>    </extensions>   </trkpt>   <trkpt lat="51.1840040" lon="8.5002070">    <ele>715.2</ele>    <time>2025-10-16T11:54:42Z</time>    <extensions>     <gpxtpx:TrackPointExtension>      <gpxtpx:atemp>17</gpxtpx:atemp>     </gpxtpx:TrackPointExtension>    </extensions>   </trkpt>   <trkpt lat="51.1839930" lon="8.5003470">    <ele>714.6</ele>    <time>2025-10-16T11:54:43Z</time>    <extensions>     <gpxtpx:TrackPointExtension>      <gpxtpx:atemp>17</gpxtpx:atemp>     </gpxtpx:TrackPointExtension>    </extensions>   </trkpt>   <trkpt lat="51.1839550" lon="8.5004520">    <ele>714.2</ele>    <time>2025-10-16T11:54:44Z</time>    <extensions>     <gpxtpx:TrackPointExtension>      <gpxtpx:atemp>17</gpxtpx:atemp>     </gpxtpx:TrackPointExtension>    </extensions>   </trkpt>   <trkpt lat="51.1838900" lon="8.5005230">    <ele>713.6</ele>    <time>2025-10-16T11:54:45Z</time>    <extensions>     <gpxtpx:TrackPointExtension>      <gpxtpx:atemp>17</gpxtpx:atemp>     </gpxtpx:TrackPointExtension>    </extensions>   </trkpt>   <trkpt lat="51.1838660" lon="8.5006480">    <ele>713.0</ele>    <time>2025-10-16T11:54:46Z</time>    <extensions>     <gpxtpx:TrackPointExtension>      <gpxtpx:atemp>17</gpxtpx:atemp>     </gpxtpx:TrackPointExtension>    </extensions>   </trkpt>   <trkpt lat="51.1838710" lon="8.5007750">    <ele>712.2</ele>    <time>2025-10-16T11:54:47Z</time>    <extensions>     <gpxtpx:TrackPointExtension>      <gpxtpx:atemp>17</gpxtpx:atemp>     </gpxtpx:TrackPointExtension>    </extensions>   </trkpt>   <trkpt lat="51.1838650" lon="8.5008940">    <ele>711.4</ele>    <time>2025-10-16T11:54:48Z</time>    <extensions>     <gpxtpx:TrackPointExtension>      <gpxtpx:atemp>17</gpxtpx:atemp>     </gpxtpx:TrackPointExtension>    </extensions>   </trkpt>   <trkpt lat="51.1838470" lon="8.5010060">    <ele>710.6</ele>    <time>2025-10-16T11:54:49Z</time>    <extensions>     <gpxtpx:TrackPointExtension>      <gpxtpx:atemp>17</gpxtpx:atemp>     </gpxtpx:TrackPointExtension>    </extensions>   </trkpt>   <trkpt lat="51.1838390" lon="8.5011270">    <ele>710.0</ele>    <time>2025-10-16T11:54:50Z</time>    <extensions>     <gpxtpx:TrackPointExtension>      <gpxtpx:atemp>17</gpxtpx:atemp>     </gpxtpx:TrackPointExtension>    </extensions>   </trkpt>   <trkpt lat="51.1838450" lon="8.5012410">    <ele>709.4</ele>    <time>2025-10-16T11:54:51Z</time>    <extensions>     <gpxtpx:TrackPointExtension>      <gpxtpx:atemp>17</gpxtpx:atemp>     </gpxtpx:TrackPointExtension>    </extensions>   </trkpt>   <trkpt lat="51.1838450" lon="8.5013500">    <ele>709.0</ele>    <time>2025-10-16T11:54:52Z</time>    <extensions>     <gpxtpx:TrackPointExtension>      <gpxtpx:atemp>17</gpxtpx:atemp>     </gpxtpx:TrackPointExtension>    </extensions>   </trkpt>   <trkpt lat="51.1838410" lon="8.5014590">    <ele>708.6</ele>    <time>2025-10-16T11:54:53Z</time>    <extensions>     <gpxtpx:TrackPointExtension>      <gpxtpx:atemp>17</gpxtpx:atemp>     </gpxtpx:TrackPointExtension>    </extensions>   </trkpt>   <trkpt lat="51.1838260" lon="8.5015640">    <ele>708.2</ele>    <time>2025-10-16T11:54:54Z</time>    <extensions>     <gpxtpx:TrackPointExtension>      <gpxtpx:atemp>17</gpxtpx:atemp>     </gpxtpx:TrackPointExtension>    </extensions>   </trkpt>   <trkpt lat="51.1838030" lon="8.5016830">    <ele>707.8</ele>    <time>2025-10-16T11:54:55Z</time>    <extensions>     <gpxtpx:TrackPointExtension>      <gpxtpx:atemp>17</gpxtpx:atemp>     </gpxtpx:TrackPointExtension>    </extensions>   </trkpt>   <trkpt lat="51.1837580" lon="8.5017720">    <ele>707.6</ele>    <time>2025-10-16T11:54:56Z</time>    <extensions>     <gpxtpx:TrackPointExtension>      <gpxtpx:atemp>17</gpxtpx:atemp>     </gpxtpx:TrackPointExtension>    </extensions>   </trkpt>   <trkpt lat="51.1837020" lon="8.5018250">    <ele>707.2</ele>    <time>2025-10-16T11:54:57Z</time>    <extensions>     <gpxtpx:TrackPointExtension>      <gpxtpx:atemp>17</gpxtpx:atemp>     </gpxtpx:TrackPointExtension>    </extensions>   </trkpt>   <trkpt lat="51.1836350" lon="8.5018630">    <ele>707.0</ele>    <time>2025-10-16T11:54:58Z</time>    <extensions>     <gpxtpx:TrackPointExtension>      <gpxtpx:atemp>17</gpxtpx:atemp>     </gpxtpx:TrackPointExtension>    </extensions>   </trkpt>   <trkpt lat="51.1835690" lon="8.5018950">    <ele>706.8</ele>    <time>2025-10-16T11:54:59Z</time>    <extensions>     <gpxtpx:TrackPointExtension>      <gpxtpx:atemp>17</gpxtpx:atemp>     </gpxtpx:TrackPointExtension>    </extensions>   </trkpt>   <trkpt lat="51.1835080" lon="8.5019110">    <ele>706.6</ele>    <time>2025-10-16T11:55:00Z</time>    <extensions>     <gpxtpx:TrackPointExtension>      <gpxtpx:atemp>17</gpxtpx:atemp>     </gpxtpx:TrackPointExtension>    </extensions>   </trkpt>   <trkpt lat="51.1834540" lon="8.5019270">    <ele>706.2</ele>    <time>2025-10-16T11:55:01Z</time>    <extensions>     <gpxtpx:TrackPointExtension>      <gpxtpx:atemp>17</gpxtpx:atemp>     </gpxtpx:TrackPointExtension>    </extensions>   </trkpt>   <trkpt lat="51.1834040" lon="8.5019520">    <ele>706.0</ele>    <time>2025-10-16T11:55:02Z</time>    <extensions>     <gpxtpx:TrackPointExtension>      <gpxtpx:atemp>17</gpxtpx:atemp>     </gpxtpx:TrackPointExtension>    </extensions>   </trkpt>   <trkpt lat="51.1833580" lon="8.5019800">    <ele>705.6</ele>    <time>2025-10-16T11:55:03Z</time>    <extensions>     <gpxtpx:TrackPointExtension>      <gpxtpx:atemp>17</gpxtpx:atemp>     </gpxtpx:TrackPointExtension>    </extensions>   </trkpt>   <trkpt lat="51.1833190" lon="8.5020050">    <ele>705.2</ele>    <time>2025-10-16T11:55:04Z</time>    <extensions>     <gpxtpx:TrackPointExtension>      <gpxtpx:atemp>17</gpxtpx:atemp>     </gpxtpx:TrackPointExtension>    </extensions>   </trkpt>   <trkpt lat="51.1832830" lon="8.5020330">    <ele>704.8</ele>    <time>2025-10-16T11:55:05Z</time>    <extensions>     <gpxtpx:TrackPointExtension>      <gpxtpx:atemp>17</gpxtpx:atemp>     </gpxtpx:TrackPointExtension>    </extensions>   </trkpt>   <trkpt lat="51.1832510" lon="8.5020840">    <ele>704.4</ele>    <time>2025-10-16T11:55:06Z</time>    <extensions>     <gpxtpx:TrackPointExtension>      <gpxtpx:atemp>17</gpxtpx:atemp>     </gpxtpx:TrackPointExtension>    </extensions>   </trkpt>   <trkpt lat="51.1832230" lon="8.5021510">    <ele>704.0</ele>    <time>2025-10-16T11:55:07Z</time>    <extensions>     <gpxtpx:TrackPointExtension>      <gpxtpx:atemp>17</gpxtpx:atemp>     </gpxtpx:TrackPointExtension>    </extensions>   </trkpt>   <trkpt lat="51.1831810" lon="8.5022030">    <ele>703.8</ele>    <time>2025-10-16T11:55:08Z</time>    <extensions>     <gpxtpx:TrackPointExtension>      <gpxtpx:atemp>17</gpxtpx:atemp>     </gpxtpx:TrackPointExtension>    </extensions>   </trkpt>   <trkpt lat="51.1831320" lon="8.5022090">    <ele>703.4</ele>    <time>2025-10-16T11:55:09Z</time>    <extensions>     <gpxtpx:TrackPointExtension>      <gpxtpx:atemp>17</gpxtpx:atemp>     </gpxtpx:TrackPointExtension>    </extensions>   </trkpt>   <trkpt lat="51.1831020" lon="8.5021900">    <ele>702.8</ele>    <time>2025-10-16T11:55:10Z</time>    <extensions>     <gpxtpx:TrackPointExtension>      <gpxtpx:atemp>17</gpxtpx:atemp>     </gpxtpx:TrackPointExtension>    </extensions>   </trkpt>   <trkpt lat="51.1830880" lon="8.5021650">    <ele>702.2</ele>    <time>2025-10-16T11:55:11Z</time>    <extensions>     <gpxtpx:TrackPointExtension>      <gpxtpx:atemp>17</gpxtpx:atemp>     </gpxtpx:TrackPointExtension>    </extensions>   </trkpt>   <trkpt lat="51.1830770" lon="8.5021360">    <ele>701.4</ele>    <time>2025-10-16T11:55:12Z</time>    <extensions>     <gpxtpx:TrackPointExtension>      <gpxtpx:atemp>17</gpxtpx:atemp>     </gpxtpx:TrackPointExtension>    </extensions>   </trkpt>   <trkpt lat="51.1830720" lon="8.5021190">    <ele>700.8</ele>    <time>2025-10-16T11:55:13Z</time>    <extensions>     <gpxtpx:TrackPointExtension>      <gpxtpx:atemp>17</gpxtpx:atemp>     </gpxtpx:TrackPointExtension>    </extensions>   </trkpt>   <trkpt lat="51.1830660" lon="8.5021050">    <ele>700.0</ele>    <time>2025-10-16T11:55:14Z</time>    <extensions>     <gpxtpx:TrackPointExtension>      <gpxtpx:atemp>17</gpxtpx:atemp>     </gpxtpx:TrackPointExtension>    </extensions>   </trkpt>   <trkpt lat="51.1830530" lon="8.5020880">    <ele>699.6</ele>    <time>2025-10-16T11:55:15Z</time>    <extensions>     <gpxtpx:TrackPointExtension>      <gpxtpx:atemp>17</gpxtpx:atemp>     </gpxtpx:TrackPointExtension>    </extensions>   </trkpt>   <trkpt lat="51.1830470" lon="8.5020640">    <ele>699.2</ele>    <time>2025-10-16T11:55:16Z</time>    <extensions>     <gpxtpx:TrackPointExtension>      <gpxtpx:atemp>17</gpxtpx:atemp>     </gpxtpx:TrackPointExtension>    </extensions>   </trkpt>   <trkpt lat="51.1830480" lon="8.5020340">    <ele>698.8</ele>    <time>2025-10-16T11:55:17Z</time>    <extensions>     <gpxtpx:TrackPointExtension>      <gpxtpx:atemp>17</gpxtpx:atemp>     </gpxtpx:TrackPointExtension>    </extensions>   </trkpt>   <trkpt lat="51.1830500" lon="8.5020060">    <ele>698.6</ele>    <time>2025-10-16T11:55:18Z</time>    <extensions>     <gpxtpx:TrackPointExtension>      <gpxtpx:atemp>17</gpxtpx:atemp>     </gpxtpx:TrackPointExtension>    </extensions>   </trkpt>   <trkpt lat="51.1830550" lon="8.5019890">    <ele>698.6</ele>    <time>2025-10-16T11:55:19Z</time>    <extensions>     <gpxtpx:TrackPointExtension>      <gpxtpx:atemp>17</gpxtpx:atemp>     </gpxtpx:TrackPointExtension>    </extensions>   </trkpt>   <trkpt lat="51.1830630" lon="8.5019820">    <ele>698.4</ele>    <time>2025-10-16T11:55:20Z</time>    <extensions>     <gpxtpx:TrackPointExtension>      <gpxtpx:atemp>17</gpxtpx:atemp>     </gpxtpx:TrackPointExtension>    </extensions>   </trkpt>   <trkpt lat="51.1830640" lon="8.5019800">    <ele>698.4</ele>    <time>2025-10-16T11:55:21Z</time>    <extensions>     <gpxtpx:TrackPointExtension>      <gpxtpx:atemp>17</gpxtpx:atemp>     </gpxtpx:TrackPointExtension>    </extensions>   </trkpt>   <trkpt lat="51.1830640" lon="8.5019800">    <ele>698.4</ele>    <time>2025-10-16T11:55:22Z</time>    <extensions>     <gpxtpx:TrackPointExtension>      <gpxtpx:atemp>17</gpxtpx:atemp>     </gpxtpx:TrackPointExtension>    </extensions>   </trkpt>   <trkpt lat="51.1830640" lon="8.5019800">    <ele>698.4</ele>    <time>2025-10-16T11:55:23Z</time>    <extensions>     <gpxtpx:TrackPointExtension>      <gpxtpx:atemp>17</gpxtpx:atemp>     </gpxtpx:TrackPointExtension>    </extensions>   </trkpt>  </trkseg> </trk></gpx>