<?xml version="1.0" encoding="UTF-8"?>
<!-- track-length = 696 filtered ascend = 0 plain-ascend = -85 cost=7629 energy=0.0kwh time=1m 4s -->
<gpx 
 xmlns="http://www.topografix.com/GPX/1/1" 
 xmlns:xsi="http://www.w3.org/2001/XMLSchema-instance" 
 xsi:schemaLocation="http://www.topografix.com/GPX/1/1 http://www.topografix.com/GPX/1/1/gpx.xsd" 
 version="1.1" 
 creator="BRouter-Web 0.18.1">
 <trk>
  <name>NLT-Popey-33</name>
  <trkseg>
   <trkpt lat="49.803006" lon="7.848241"><ele>221.75</ele></trkpt>
   <trkpt lat="49.803072" lon="7.848305"><ele>220.25</ele></trkpt>
   <trkpt lat="49.803099" lon="7.848344"><ele>219.25</ele></trkpt>
   <trkpt lat="49.803168" lon="7.848379"><ele>217.5</ele></trkpt>
   <trkpt lat="49.803248" lon="7.848392"><ele>216</ele></trkpt>
   <trkpt lat="49.803331" lon="7.848366"><ele>215.25</ele></trkpt>
   <trkpt lat="49.803424" lon="7.848352"><ele>215</ele></trkpt>
   <trkpt lat="49.803499" lon="7.848175"><ele>216</ele></trkpt>
   <trkpt lat="49.80352" lon="7.848003"><ele>216.75</ele></trkpt>
   <trkpt lat="49.803568" lon="7.847954"><ele>216.75</ele></trkpt>
   <trkpt lat="49.803641" lon="7.848048"><ele>215.75</ele></trkpt>
   <trkpt lat="49.803723" lon="7.848209"><ele>214.5</ele></trkpt>
   <trkpt lat="49.803758" lon="7.848242"><ele>214.25</ele></trkpt>
   <trkpt lat="49.803801" lon="7.848258"><ele>214</ele></trkpt>
   <trkpt lat="49.80382" lon="7.84825"><ele>214</ele></trkpt>
   <trkpt lat="49.803961" lon="7.848096"><ele>213.75</ele></trkpt>
   <trkpt lat="49.804046" lon="7.847909"><ele>214.25</ele></trkpt>
   <trkpt lat="49.804105" lon="7.847708"><ele>214.5</ele></trkpt>
   <trkpt lat="49.804224" lon="7.847493"><ele>214.5</ele></trkpt>
   <trkpt lat="49.804298" lon="7.8474"><ele>213</ele></trkpt>
   <trkpt lat="49.804393" lon="7.847321"><ele>211.75</ele></trkpt>
   <trkpt lat="49.804491" lon="7.847116"><ele>207</ele></trkpt>
   <trkpt lat="49.804569" lon="7.846956"><ele>207</ele></trkpt>
   <trkpt lat="49.804585" lon="7.846904"><ele>206.5</ele></trkpt>
   <trkpt lat="49.804622" lon="7.846657"><ele>203.75</ele></trkpt>
   <trkpt lat="49.804655" lon="7.84653"><ele>201.75</ele></trkpt>
   <trkpt lat="49.804759" lon="7.8463"><ele>198.75</ele></trkpt>
   <trkpt lat="49.804825" lon="7.846032"><ele>195.25</ele></trkpt>
   <trkpt lat="49.804859" lon="7.845858"><ele>193</ele></trkpt>
   <trkpt lat="49.804894" lon="7.845745"><ele>191.75</ele></trkpt>
   <trkpt lat="49.804995" lon="7.845477"><ele>188.5</ele></trkpt>
   <trkpt lat="49.805151" lon="7.845176"><ele>181</ele></trkpt>
   <trkpt lat="49.805218" lon="7.845078"><ele>178.25</ele></trkpt>
   <trkpt lat="49.805333" lon="7.844972"><ele>174.5</ele></trkpt>
   <trkpt lat="49.805452" lon="7.844914"><ele>171</ele></trkpt>
   <trkpt lat="49.805528" lon="7.844867"><ele>169</ele></trkpt>
   <trkpt lat="49.805423" lon="7.844777"><ele>170.25</ele></trkpt>
   <trkpt lat="49.805327" lon="7.844783"><ele>172.25</ele></trkpt>
   <trkpt lat="49.805229" lon="7.844815"><ele>174.75</ele></trkpt>
   <trkpt lat="49.805146" lon="7.844857"><ele>177.25</ele></trkpt>
   <trkpt lat="49.8052" lon="7.84468"><ele>173.5</ele></trkpt>
   <trkpt lat="49.805265" lon="7.844555"><ele>170.5</ele></trkpt>
   <trkpt lat="49.805362" lon="7.844429"><ele>167.25</ele></trkpt>
   <trkpt lat="49.805484" lon="7.844234"><ele>163.25</ele></trkpt>
   <trkpt lat="49.805724" lon="7.844017"><ele>157.5</ele></trkpt>
   <trkpt lat="49.805632" lon="7.843995"><ele>158.25</ele></trkpt>
   <trkpt lat="49.805486" lon="7.843987"><ele>160</ele></trkpt>
   <trkpt lat="49.805475" lon="7.84394"><ele>159.25</ele></trkpt>
   <trkpt lat="49.805505" lon="7.843892"><ele>158.25</ele></trkpt>
   <trkpt lat="49.805667" lon="7.843746"><ele>154.75</ele></trkpt>
   <trkpt lat="49.805894" lon="7.843521"><ele>148.5</ele></trkpt>
   <trkpt lat="49.805952" lon="7.843512"><ele>146.25</ele></trkpt>
   <trkpt lat="49.806049" lon="7.843392"><ele>141.75</ele></trkpt>
   <trkpt lat="49.806115" lon="7.843375"><ele>139.25</ele></trkpt>
   <trkpt lat="49.806174" lon="7.843375"><ele>137.25</ele></trkpt>
  </trkseg>
 </trk>
</gpx>