<?xml version="1.0" encoding="UTF-8"?>
<!-- track-length = 612 filtered ascend = 6 plain-ascend = -22 cost=3927 energy=0.0kwh time=1m 30s -->
<gpx 
 xmlns="http://www.topografix.com/GPX/1/1" 
 xmlns:xsi="http://www.w3.org/2001/XMLSchema-instance" 
 xsi:schemaLocation="http://www.topografix.com/GPX/1/1 http://www.topografix.com/GPX/1/1/gpx.xsd" 
 version="1.1" 
 creator="BRouter-Web 0.18.1">
 <trk>
  <name>NLT-Grenzstein-22</name>
  <trkseg>
   <trkpt lat="49.809806" lon="7.857253"><ele>285.5</ele></trkpt>
   <trkpt lat="49.809621" lon="7.856747"><ele>282.75</ele></trkpt>
   <trkpt lat="49.809348" lon="7.856145"><ele>283.5</ele></trkpt>
   <trkpt lat="49.809212" lon="7.855684"><ele>284.75</ele></trkpt>
   <trkpt lat="49.809173" lon="7.855378"><ele>284.75</ele></trkpt>
   <trkpt lat="49.809213" lon="7.855166"><ele>283.25</ele></trkpt>
   <trkpt lat="49.809292" lon="7.854861"><ele>279.5</ele></trkpt>
   <trkpt lat="49.809335" lon="7.854499"><ele>275.75</ele></trkpt>
   <trkpt lat="49.809309" lon="7.854247"><ele>274.75</ele></trkpt>
   <trkpt lat="49.809288" lon="7.853913"><ele>271</ele></trkpt>
   <trkpt lat="49.809306" lon="7.853661"><ele>266.75</ele></trkpt>
   <trkpt lat="49.809257" lon="7.853457"><ele>265.5</ele></trkpt>
   <trkpt lat="49.809238" lon="7.853376"><ele>265.5</ele></trkpt>
   <trkpt lat="49.809188" lon="7.853223"><ele>265.25</ele></trkpt>
   <trkpt lat="49.809151" lon="7.852995"><ele>262.75</ele></trkpt>
   <trkpt lat="49.809013" lon="7.852683"><ele>260</ele></trkpt>
   <trkpt lat="49.808899" lon="7.852466"><ele>257.75</ele></trkpt>
   <trkpt lat="49.808689" lon="7.85224"><ele>253.25</ele></trkpt>
   <trkpt lat="49.808579" lon="7.852237"><ele>254.75</ele></trkpt>
   <trkpt lat="49.808538" lon="7.852216"><ele>254.75</ele></trkpt>
   <trkpt lat="49.808507" lon="7.852345"><ele>259.75</ele></trkpt>
   <trkpt lat="49.808397" lon="7.852456"><ele>265.25</ele></trkpt>
   <trkpt lat="49.808327" lon="7.852624"><ele>269.25</ele></trkpt>
   <trkpt lat="49.808169" lon="7.852726"><ele>267</ele></trkpt>
   <trkpt lat="49.807857" lon="7.852803"><ele>260.75</ele></trkpt>
   <trkpt lat="49.807769" lon="7.852916"><ele>260.25</ele></trkpt>
   <trkpt lat="49.807679" lon="7.853125"><ele>261</ele></trkpt>
   <trkpt lat="49.807618" lon="7.853364"><ele>262.75</ele></trkpt>
   <trkpt lat="49.807583" lon="7.853664"><ele>264</ele></trkpt>
   <trkpt lat="49.807575" lon="7.854002"><ele>266.25</ele></trkpt>
   <trkpt lat="49.807564" lon="7.853972"><ele>261.5</ele></trkpt>
  </trkseg>
 </trk>
</gpx>