<?xml version="1.0" encoding="UTF-8"?>
<!-- track-length = 317 filtered ascend = 0 plain-ascend = -26 cost=2363 energy=0.0kwh time=28s -->
<gpx 
 xmlns="http://www.topografix.com/GPX/1/1" 
 xmlns:xsi="http://www.w3.org/2001/XMLSchema-instance" 
 xsi:schemaLocation="http://www.topografix.com/GPX/1/1 http://www.topografix.com/GPX/1/1/gpx.xsd" 
 version="1.1" 
 creator="BRouter-Web 0.18.1">
 <trk>
  <name>Dachskopf</name>
  <trkseg>
   <trkpt lat="49.830363" lon="7.832725"><ele>307</ele></trkpt>
   <trkpt lat="49.830372" lon="7.832736"><ele>307.25</ele></trkpt>
   <trkpt lat="49.830464" lon="7.832596"><ele>306</ele></trkpt>
   <trkpt lat="49.830479" lon="7.832395"><ele>305</ele></trkpt>
   <trkpt lat="49.830549" lon="7.832169"><ele>303.75</ele></trkpt>
   <trkpt lat="49.830712" lon="7.831901"><ele>301.5</ele></trkpt>
   <trkpt lat="49.830777" lon="7.831594"><ele>299.75</ele></trkpt>
   <trkpt lat="49.830794" lon="7.831255"><ele>297.5</ele></trkpt>
   <trkpt lat="49.831029" lon="7.830846"><ele>293.5</ele></trkpt>
   <trkpt lat="49.831049" lon="7.830388"><ele>291.75</ele></trkpt>
   <trkpt lat="49.830996" lon="7.829602"><ele>288.5</ele></trkpt>
   <trkpt lat="49.831064" lon="7.829432"><ele>287.25</ele></trkpt>
   <trkpt lat="49.831243" lon="7.829104"><ele>284.5</ele></trkpt>
   <trkpt lat="49.831379" lon="7.828906"><ele>283</ele></trkpt>
   <trkpt lat="49.831387" lon="7.828895"><ele>280.25</ele></trkpt>
  </trkseg>
 </trk>
</gpx>