<?xml version="1.0" encoding="UTF-8" standalone="yes"?>
<gpx version="1.1" creator="outdooractive - http://www.outdooractive.com" xmlns="http://www.topografix.com/GPX/1/1" xmlns:oa="http://www.outdooractive.com/GPX/Extensions/1" xmlns:xsi="http://www.w3.org/2001/XMLSchema-instance" xsi:schemaLocation="http://www.topografix.com/GPX/1/1 http://www.topografix.com/GPX/1/1/gpx.xsd http://www.outdooractive.com/GPX/Extensions/1 https://www.outdooractive.com/schema/gpx_extensions.xsd">
  <metadata>
    <name>Crap Masegn Trail</name>
    <author>
      <name>Florian Frey - Flims Laax</name>
    </author>
    <link href="https://www.outdooractive.com/r/64989881"/>
    <time>2026-05-15T05:12:51.344Z</time>
    <extensions>
      <oa:oaCategory>mountainbiking</oa:oaCategory>
    </extensions>
  </metadata>
  <trk>
    <name>Crap Masegn Trail</name>
    <desc>Der Crap Masegn Trail ist der Auftakt für ein episches Bike Erlebnis in Flims Laax. Nach einem knackigen, aber nicht allzu langen Aufstieg, startet ein wahres Trail-Feuerwerk in alpiner Landschaft. Ein klarer Fall für deine &quot;Bike it&quot;-Liste.</desc>
    <type>mountainbiking</type>
    <trkseg>
      <trkpt lat="46.843217" lon="9.179417">
        <ele>2454.05268</ele>
        <name>ODA Forcula da Sagogn</name>
        <extensions>
          <oa:Extension>
            <oa:mapZoom>14</oa:mapZoom>
          </oa:Extension>
        </extensions>
      </trkpt>
      <trkpt lat="46.843151" lon="9.179451">
        <ele>2455.64458</ele>
      </trkpt>
      <trkpt lat="46.84323" lon="9.179241">
        <ele>2455.80298</ele>
      </trkpt>
      <trkpt lat="46.843341" lon="9.17908">
        <ele>2455.43671</ele>
      </trkpt>
      <trkpt lat="46.84342" lon="9.179">
        <ele>2454.37449</ele>
      </trkpt>
      <trkpt lat="46.843471" lon="9.178871">
        <ele>2454.32429</ele>
      </trkpt>
      <trkpt lat="46.843591" lon="9.17872">
        <ele>2453.33897</ele>
      </trkpt>
      <trkpt lat="46.84372" lon="9.17866">
        <ele>2453.16386</ele>
      </trkpt>
      <trkpt lat="46.84386" lon="9.17863">
        <ele>2455.00491</ele>
      </trkpt>
      <trkpt lat="46.843901" lon="9.178581">
        <ele>2454.01356</ele>
      </trkpt>
      <trkpt lat="46.84391" lon="9.17859">
        <ele>2453.93599</ele>
      </trkpt>
      <trkpt lat="46.84395" lon="9.17856">
        <ele>2453.20332</ele>
      </trkpt>
      <trkpt lat="46.844001" lon="9.17856">
        <ele>2451.52215</ele>
      </trkpt>
      <trkpt lat="46.84406" lon="9.178451">
        <ele>2449.6376</ele>
      </trkpt>
      <trkpt lat="46.84411" lon="9.178451">
        <ele>2448.8247</ele>
      </trkpt>
      <trkpt lat="46.84421" lon="9.178411">
        <ele>2445.9677</ele>
      </trkpt>
      <trkpt lat="46.84426" lon="9.178371">
        <ele>2444.13756</ele>
      </trkpt>
      <trkpt lat="46.844271" lon="9.178391">
        <ele>2443.26139</ele>
      </trkpt>
      <trkpt lat="46.844341" lon="9.17833">
        <ele>2440.8054</ele>
      </trkpt>
      <trkpt lat="46.84438" lon="9.178271">
        <ele>2439.41194</ele>
      </trkpt>
      <trkpt lat="46.844461" lon="9.178271">
        <ele>2437.88265</ele>
      </trkpt>
      <trkpt lat="46.844491" lon="9.17824">
        <ele>2437.24525</ele>
      </trkpt>
      <trkpt lat="46.84463" lon="9.178051">
        <ele>2433.99218</ele>
      </trkpt>
      <trkpt lat="46.844701" lon="9.177921">
        <ele>2432.87719</ele>
      </trkpt>
      <trkpt lat="46.844721" lon="9.177801">
        <ele>2431.5337</ele>
      </trkpt>
      <trkpt lat="46.84475" lon="9.17774">
        <ele>2430.75157</ele>
      </trkpt>
      <trkpt lat="46.844771" lon="9.17759">
        <ele>2426.19671</ele>
      </trkpt>
      <trkpt lat="46.84476" lon="9.177541">
        <ele>2424.89143</ele>
      </trkpt>
      <trkpt lat="46.84489" lon="9.177451">
        <ele>2421.74491</ele>
      </trkpt>
      <trkpt lat="46.84493" lon="9.17739">
        <ele>2420.61971</ele>
      </trkpt>
      <trkpt lat="46.844991" lon="9.17724">
        <ele>2417.82232</ele>
      </trkpt>
      <trkpt lat="46.84507" lon="9.177231">
        <ele>2416.08597</ele>
      </trkpt>
      <trkpt lat="46.84515" lon="9.17711">
        <ele>2413.71646</ele>
      </trkpt>
      <trkpt lat="46.8453" lon="9.17701">
        <ele>2411.9477</ele>
      </trkpt>
      <trkpt lat="46.845351" lon="9.177">
        <ele>2411.66011</ele>
      </trkpt>
      <trkpt lat="46.845411" lon="9.17696">
        <ele>2411.38975</ele>
      </trkpt>
      <trkpt lat="46.84557" lon="9.1767">
        <ele>2413.96081</ele>
      </trkpt>
      <trkpt lat="46.84572" lon="9.17662">
        <ele>2418.98275</ele>
      </trkpt>
      <trkpt lat="46.845711" lon="9.17653">
        <ele>2421.03861</ele>
      </trkpt>
      <trkpt lat="46.84573" lon="9.17648">
        <ele>2422.74861</ele>
      </trkpt>
      <trkpt lat="46.84578" lon="9.17645">
        <ele>2424.36156</ele>
      </trkpt>
      <trkpt lat="46.84591" lon="9.176251">
        <ele>2427.96014</ele>
      </trkpt>
      <trkpt lat="46.84595" lon="9.176221">
        <ele>2427.73564</ele>
      </trkpt>
      <trkpt lat="46.846001" lon="9.17614">
        <ele>2427.34024</ele>
      </trkpt>
      <trkpt lat="46.84607" lon="9.17608">
        <ele>2426.91362</ele>
      </trkpt>
      <trkpt lat="46.846101" lon="9.17603">
        <ele>2426.64082</ele>
      </trkpt>
      <trkpt lat="46.846191" lon="9.175961">
        <ele>2426.59417</ele>
      </trkpt>
      <trkpt lat="46.84626" lon="9.175941">
        <ele>2426.48731</ele>
      </trkpt>
      <trkpt lat="46.846331" lon="9.175861">
        <ele>2427.22965</ele>
      </trkpt>
      <trkpt lat="46.846381" lon="9.17584">
        <ele>2427.23756</ele>
      </trkpt>
      <trkpt lat="46.84644" lon="9.17577">
        <ele>2428.78514</ele>
      </trkpt>
      <trkpt lat="46.846491" lon="9.175761">
        <ele>2428.74349</ele>
      </trkpt>
      <trkpt lat="46.846561" lon="9.17572">
        <ele>2428.56784</ele>
      </trkpt>
      <trkpt lat="46.84668" lon="9.17572">
        <ele>2426.70212</ele>
      </trkpt>
      <trkpt lat="46.84684" lon="9.1756">
        <ele>2428.3298</ele>
      </trkpt>
      <trkpt lat="46.847021" lon="9.175571">
        <ele>2427.15435</ele>
      </trkpt>
      <trkpt lat="46.84711" lon="9.1755">
        <ele>2426.82662</ele>
      </trkpt>
      <trkpt lat="46.847161" lon="9.175421">
        <ele>2426.40737</ele>
      </trkpt>
      <trkpt lat="46.847311" lon="9.17534">
        <ele>2426.72702</ele>
      </trkpt>
      <trkpt lat="46.84745" lon="9.17533">
        <ele>2428.59252</ele>
      </trkpt>
      <trkpt lat="46.847541" lon="9.17524">
        <ele>2431.44694</ele>
      </trkpt>
      <trkpt lat="46.84761" lon="9.17527">
        <ele>2432.13279</ele>
      </trkpt>
      <trkpt lat="46.847711" lon="9.175221">
        <ele>2434.54848</ele>
      </trkpt>
      <trkpt lat="46.84776" lon="9.175221">
        <ele>2436.30655</ele>
      </trkpt>
      <trkpt lat="46.84783" lon="9.17518">
        <ele>2439.20436</ele>
      </trkpt>
      <trkpt lat="46.84787" lon="9.17521">
        <ele>2441.41642</ele>
      </trkpt>
      <trkpt lat="46.847941" lon="9.175071">
        <ele>2446.31971</ele>
      </trkpt>
      <trkpt lat="46.847991" lon="9.17516">
        <ele>2448.03164</ele>
      </trkpt>
      <trkpt lat="46.848011" lon="9.175161">
        <ele>2448.52452</ele>
      </trkpt>
      <trkpt lat="46.848031" lon="9.17513">
        <ele>2449.49827</ele>
      </trkpt>
      <trkpt lat="46.84804" lon="9.17505">
        <ele>2450.33044</ele>
      </trkpt>
      <trkpt lat="46.848081" lon="9.17491">
        <ele>2451.00682</ele>
      </trkpt>
      <trkpt lat="46.84811" lon="9.17487">
        <ele>2451.92083</ele>
      </trkpt>
      <trkpt lat="46.84812" lon="9.1748">
        <ele>2452.16657</ele>
      </trkpt>
      <trkpt lat="46.848161" lon="9.1747">
        <ele>2454.52388</ele>
      </trkpt>
      <trkpt lat="46.8483" lon="9.174441">
        <ele>2457.9587</ele>
      </trkpt>
      <trkpt lat="46.848391" lon="9.174301">
        <ele>2458.33241</ele>
      </trkpt>
      <trkpt lat="46.8484" lon="9.174261">
        <ele>2457.33307</ele>
      </trkpt>
      <trkpt lat="46.84845" lon="9.17424">
        <ele>2458.6172</ele>
      </trkpt>
      <trkpt lat="46.848531" lon="9.17416">
        <ele>2458.31899</ele>
      </trkpt>
      <trkpt lat="46.84871" lon="9.173931">
        <ele>2460.42456</ele>
      </trkpt>
      <trkpt lat="46.848741" lon="9.173881">
        <ele>2460.67235</ele>
      </trkpt>
      <trkpt lat="46.848761" lon="9.173811">
        <ele>2461.27024</ele>
      </trkpt>
      <trkpt lat="46.848851" lon="9.17369">
        <ele>2462.09711</ele>
      </trkpt>
      <trkpt lat="46.84887" lon="9.17365">
        <ele>2462.4639</ele>
      </trkpt>
      <trkpt lat="46.84887" lon="9.1736">
        <ele>2461.54501</ele>
      </trkpt>
      <trkpt lat="46.84894" lon="9.17347">
        <ele>2462.221</ele>
      </trkpt>
      <trkpt lat="46.848981" lon="9.173431">
        <ele>2462.96744</ele>
      </trkpt>
      <trkpt lat="46.849001" lon="9.17335">
        <ele>2461.69385</ele>
      </trkpt>
      <trkpt lat="46.849031" lon="9.17333">
        <ele>2463.19363</ele>
      </trkpt>
      <trkpt lat="46.849101" lon="9.17317">
        <ele>2462.7483</ele>
      </trkpt>
      <trkpt lat="46.849201" lon="9.173101">
        <ele>2465.11428</ele>
      </trkpt>
      <trkpt lat="46.84933" lon="9.173041">
        <ele>2466.13372</ele>
      </trkpt>
      <trkpt lat="46.849401" lon="9.17309">
        <ele>2464.79134</ele>
      </trkpt>
      <trkpt lat="46.84944" lon="9.17309">
        <ele>2464.36968</ele>
        <name>46.849440,9.173090</name>
        <extensions>
          <oa:Extension>
            <oa:mapZoom>14</oa:mapZoom>
          </oa:Extension>
        </extensions>
      </trkpt>
      <trkpt lat="46.84954" lon="9.173141">
        <ele>2463.308</ele>
      </trkpt>
      <trkpt lat="46.84956" lon="9.17319">
        <ele>2463.56267</ele>
      </trkpt>
      <trkpt lat="46.849611" lon="9.17319">
        <ele>2462.52583</ele>
      </trkpt>
      <trkpt lat="46.849641" lon="9.173161">
        <ele>2462.35421</ele>
      </trkpt>
      <trkpt lat="46.84973" lon="9.17313">
        <ele>2461.48153</ele>
      </trkpt>
      <trkpt lat="46.84981" lon="9.173131">
        <ele>2460.32658</ele>
      </trkpt>
      <trkpt lat="46.84987" lon="9.1731">
        <ele>2460.65936</ele>
      </trkpt>
      <trkpt lat="46.849961" lon="9.17312">
        <ele>2460.71491</ele>
      </trkpt>
      <trkpt lat="46.85006" lon="9.173201">
        <ele>2458.19536</ele>
      </trkpt>
      <trkpt lat="46.8502" lon="9.17328">
        <ele>2455.38392</ele>
      </trkpt>
      <trkpt lat="46.85028" lon="9.173291">
        <ele>2453.64631</ele>
      </trkpt>
      <trkpt lat="46.85028" lon="9.17341">
        <ele>2451.08931</ele>
      </trkpt>
      <trkpt lat="46.8503" lon="9.173441">
        <ele>2449.84391</ele>
      </trkpt>
      <trkpt lat="46.85033" lon="9.17367">
        <ele>2443.64197</ele>
      </trkpt>
      <trkpt lat="46.850491" lon="9.174231">
        <ele>2434.59391</ele>
      </trkpt>
      <trkpt lat="46.8505" lon="9.17431">
        <ele>2434.10556</ele>
        <name>46.850500,9.174310</name>
        <extensions>
          <oa:Extension>
            <oa:mapZoom>14</oa:mapZoom>
          </oa:Extension>
        </extensions>
      </trkpt>
      <trkpt lat="46.85054" lon="9.174171">
        <ele>2431.90112</ele>
      </trkpt>
      <trkpt lat="46.850561" lon="9.174021">
        <ele>2428.79975</ele>
      </trkpt>
      <trkpt lat="46.85055" lon="9.17398">
        <ele>2429.13942</ele>
      </trkpt>
      <trkpt lat="46.850621" lon="9.173741">
        <ele>2423.19003</ele>
      </trkpt>
      <trkpt lat="46.850711" lon="9.17356">
        <ele>2418.70487</ele>
      </trkpt>
      <trkpt lat="46.850781" lon="9.17351">
        <ele>2416.05923</ele>
      </trkpt>
      <trkpt lat="46.85084" lon="9.17337">
        <ele>2415.89607</ele>
      </trkpt>
      <trkpt lat="46.850911" lon="9.1733">
        <ele>2414.7429</ele>
      </trkpt>
      <trkpt lat="46.851" lon="9.173281">
        <ele>2412.00824</ele>
      </trkpt>
      <trkpt lat="46.851071" lon="9.173211">
        <ele>2410.08382</ele>
      </trkpt>
      <trkpt lat="46.851091" lon="9.173111">
        <ele>2411.11473</ele>
      </trkpt>
      <trkpt lat="46.851161" lon="9.173011">
        <ele>2410.1156</ele>
      </trkpt>
      <trkpt lat="46.851221" lon="9.17298">
        <ele>2407.54898</ele>
      </trkpt>
      <trkpt lat="46.85125" lon="9.17294">
        <ele>2406.92578</ele>
      </trkpt>
      <trkpt lat="46.851271" lon="9.17287">
        <ele>2406.44192</ele>
      </trkpt>
      <trkpt lat="46.851341" lon="9.17277">
        <ele>2403.59433</ele>
      </trkpt>
      <trkpt lat="46.851351" lon="9.17272">
        <ele>2403.65112</ele>
      </trkpt>
      <trkpt lat="46.851451" lon="9.17265">
        <ele>2401.18084</ele>
      </trkpt>
      <trkpt lat="46.851451" lon="9.172581">
        <ele>2401.74822</ele>
      </trkpt>
      <trkpt lat="46.851471" lon="9.172521">
        <ele>2401.65279</ele>
      </trkpt>
      <trkpt lat="46.851501" lon="9.172501">
        <ele>2400.48571</ele>
      </trkpt>
      <trkpt lat="46.851511" lon="9.17247">
        <ele>2400.63995</ele>
      </trkpt>
      <trkpt lat="46.851501" lon="9.17243">
        <ele>2402.00257</ele>
      </trkpt>
      <trkpt lat="46.85152" lon="9.172381">
        <ele>2401.23533</ele>
      </trkpt>
      <trkpt lat="46.85156" lon="9.172351">
        <ele>2399.61165</ele>
      </trkpt>
      <trkpt lat="46.85157" lon="9.17228">
        <ele>2399.94034</ele>
      </trkpt>
      <trkpt lat="46.851591" lon="9.17224">
        <ele>2400.1132</ele>
      </trkpt>
      <trkpt lat="46.851631" lon="9.172221">
        <ele>2398.95216</ele>
      </trkpt>
      <trkpt lat="46.85167" lon="9.172231">
        <ele>2396.53315</ele>
      </trkpt>
      <trkpt lat="46.851721" lon="9.172111">
        <ele>2395.66405</ele>
      </trkpt>
      <trkpt lat="46.851761" lon="9.172091">
        <ele>2394.32853</ele>
      </trkpt>
      <trkpt lat="46.851821" lon="9.17209">
        <ele>2391.64848</ele>
      </trkpt>
      <trkpt lat="46.85184" lon="9.171981">
        <ele>2392.02832</ele>
      </trkpt>
      <trkpt lat="46.851861" lon="9.17196">
        <ele>2391.18669</ele>
      </trkpt>
      <trkpt lat="46.85186" lon="9.171911">
        <ele>2391.77342</ele>
      </trkpt>
      <trkpt lat="46.85189" lon="9.171891">
        <ele>2390.39228</ele>
      </trkpt>
      <trkpt lat="46.851921" lon="9.171791">
        <ele>2391.80923</ele>
      </trkpt>
      <trkpt lat="46.851961" lon="9.171771">
        <ele>2390.01523</ele>
      </trkpt>
      <trkpt lat="46.85203" lon="9.171641">
        <ele>2388.70141</ele>
      </trkpt>
      <trkpt lat="46.85207" lon="9.1716">
        <ele>2387.24392</ele>
      </trkpt>
      <trkpt lat="46.8521" lon="9.171461">
        <ele>2388.31069</ele>
      </trkpt>
      <trkpt lat="46.85221" lon="9.171441">
        <ele>2382.99141</ele>
      </trkpt>
      <trkpt lat="46.85221" lon="9.171341">
        <ele>2384.63204</ele>
      </trkpt>
      <trkpt lat="46.85228" lon="9.171291">
        <ele>2382.62593</ele>
      </trkpt>
      <trkpt lat="46.852311" lon="9.171221">
        <ele>2380.64445</ele>
      </trkpt>
      <trkpt lat="46.85233" lon="9.171131">
        <ele>2381.29793</ele>
      </trkpt>
      <trkpt lat="46.852411" lon="9.17098">
        <ele>2379.6499</ele>
      </trkpt>
      <trkpt lat="46.852431" lon="9.170901">
        <ele>2381.48826</ele>
      </trkpt>
      <trkpt lat="46.852471" lon="9.170821">
        <ele>2380.26274</ele>
      </trkpt>
      <trkpt lat="46.852471" lon="9.17076">
        <ele>2382.13186</ele>
      </trkpt>
      <trkpt lat="46.852521" lon="9.17067">
        <ele>2381.92828</ele>
      </trkpt>
      <trkpt lat="46.852571" lon="9.17045">
        <ele>2382.73421</ele>
      </trkpt>
      <trkpt lat="46.85266" lon="9.170241">
        <ele>2380.63818</ele>
      </trkpt>
      <trkpt lat="46.852721" lon="9.17017">
        <ele>2377.96401</ele>
      </trkpt>
      <trkpt lat="46.85276" lon="9.170071">
        <ele>2378.03403</ele>
      </trkpt>
      <trkpt lat="46.852771" lon="9.16997">
        <ele>2379.22962</ele>
      </trkpt>
      <trkpt lat="46.852851" lon="9.16984">
        <ele>2378.23015</ele>
      </trkpt>
      <trkpt lat="46.852901" lon="9.169581">
        <ele>2380.04522</ele>
      </trkpt>
      <trkpt lat="46.852961" lon="9.16955">
        <ele>2377.30329</ele>
      </trkpt>
      <trkpt lat="46.85304" lon="9.16911">
        <ele>2380.45948</ele>
      </trkpt>
      <trkpt lat="46.853071" lon="9.169041">
        <ele>2380.65985</ele>
      </trkpt>
      <trkpt lat="46.853081" lon="9.168931">
        <ele>2382.40854</ele>
      </trkpt>
      <trkpt lat="46.85314" lon="9.168781">
        <ele>2383.13217</ele>
      </trkpt>
      <trkpt lat="46.853171" lon="9.168611">
        <ele>2383.7701</ele>
      </trkpt>
      <trkpt lat="46.85326" lon="9.16854">
        <ele>2383.11024</ele>
        <name>46.853260,9.168540</name>
        <extensions>
          <oa:Extension>
            <oa:mapZoom>14</oa:mapZoom>
          </oa:Extension>
        </extensions>
      </trkpt>
      <trkpt lat="46.853321" lon="9.16852">
        <ele>2382.81988</ele>
      </trkpt>
      <trkpt lat="46.853381" lon="9.16854">
        <ele>2383.03306</ele>
      </trkpt>
      <trkpt lat="46.853491" lon="9.168481">
        <ele>2383.75002</ele>
      </trkpt>
      <trkpt lat="46.853581" lon="9.16848">
        <ele>2384.28468</ele>
      </trkpt>
      <trkpt lat="46.85363" lon="9.16851">
        <ele>2383.23728</ele>
      </trkpt>
      <trkpt lat="46.8537" lon="9.16852">
        <ele>2382.77213</ele>
      </trkpt>
      <trkpt lat="46.85374" lon="9.168561">
        <ele>2380.79354</ele>
      </trkpt>
      <trkpt lat="46.853891" lon="9.16855">
        <ele>2381.71465</ele>
      </trkpt>
      <trkpt lat="46.8541" lon="9.168671">
        <ele>2381.93662</ele>
      </trkpt>
      <trkpt lat="46.85414" lon="9.16871">
        <ele>2381.93576</ele>
      </trkpt>
      <trkpt lat="46.854381" lon="9.16882">
        <ele>2381.73103</ele>
      </trkpt>
      <trkpt lat="46.85444" lon="9.16881">
        <ele>2381.31691</ele>
      </trkpt>
      <trkpt lat="46.854611" lon="9.16885">
        <ele>2381.28606</ele>
      </trkpt>
      <trkpt lat="46.854681" lon="9.168841">
        <ele>2379.21829</ele>
      </trkpt>
      <trkpt lat="46.8547" lon="9.1688">
        <ele>2379.60011</ele>
      </trkpt>
      <trkpt lat="46.854741" lon="9.16882">
        <ele>2380.09823</ele>
      </trkpt>
      <trkpt lat="46.85478" lon="9.168921">
        <ele>2381.13666</ele>
      </trkpt>
      <trkpt lat="46.85481" lon="9.16896">
        <ele>2382.38973</ele>
      </trkpt>
      <trkpt lat="46.85484" lon="9.169121">
        <ele>2384.11723</ele>
      </trkpt>
      <trkpt lat="46.854871" lon="9.169181">
        <ele>2385.57243</ele>
      </trkpt>
      <trkpt lat="46.8549" lon="9.169501">
        <ele>2386.58457</ele>
      </trkpt>
      <trkpt lat="46.85495" lon="9.169651">
        <ele>2386.42821</ele>
      </trkpt>
      <trkpt lat="46.855021" lon="9.169741">
        <ele>2386.12343</ele>
      </trkpt>
      <trkpt lat="46.85516" lon="9.17009">
        <ele>2386.56112</ele>
      </trkpt>
      <trkpt lat="46.855201" lon="9.17015">
        <ele>2387.16776</ele>
      </trkpt>
      <trkpt lat="46.855251" lon="9.17019">
        <ele>2388.62272</ele>
      </trkpt>
      <trkpt lat="46.8553" lon="9.17019">
        <ele>2389.74511</ele>
      </trkpt>
      <trkpt lat="46.85538" lon="9.170071">
        <ele>2395.72362</ele>
      </trkpt>
      <trkpt lat="46.85539" lon="9.170011">
        <ele>2398.6137</ele>
        <name>46.855390,9.170011</name>
        <extensions>
          <oa:Extension>
            <oa:mapZoom>14</oa:mapZoom>
          </oa:Extension>
        </extensions>
      </trkpt>
      <trkpt lat="46.85541" lon="9.17">
        <ele>2398.81214</ele>
      </trkpt>
      <trkpt lat="46.85544" lon="9.169921">
        <ele>2400.89311</ele>
      </trkpt>
      <trkpt lat="46.855461" lon="9.169911">
        <ele>2401.60347</ele>
      </trkpt>
      <trkpt lat="46.855491" lon="9.169841">
        <ele>2404.5705</ele>
      </trkpt>
      <trkpt lat="46.855591" lon="9.16983">
        <ele>2404.843</ele>
      </trkpt>
      <trkpt lat="46.85562" lon="9.16989">
        <ele>2403.50586</ele>
      </trkpt>
      <trkpt lat="46.855651" lon="9.169911">
        <ele>2402.72379</ele>
      </trkpt>
      <trkpt lat="46.855671" lon="9.16989">
        <ele>2402.5786</ele>
      </trkpt>
      <trkpt lat="46.85571" lon="9.169901">
        <ele>2401.03339</ele>
      </trkpt>
      <trkpt lat="46.855731" lon="9.16993">
        <ele>2399.43791</ele>
      </trkpt>
      <trkpt lat="46.85575" lon="9.16989">
        <ele>2400.75028</ele>
      </trkpt>
      <trkpt lat="46.855761" lon="9.17007">
        <ele>2399.7846</ele>
      </trkpt>
      <trkpt lat="46.85582" lon="9.170181">
        <ele>2399.82701</ele>
      </trkpt>
      <trkpt lat="46.85583" lon="9.17029">
        <ele>2398.70896</ele>
      </trkpt>
      <trkpt lat="46.855891" lon="9.17046">
        <ele>2399.48776</ele>
      </trkpt>
      <trkpt lat="46.855921" lon="9.170511">
        <ele>2399.83327</ele>
      </trkpt>
      <trkpt lat="46.85601" lon="9.170531">
        <ele>2401.62142</ele>
      </trkpt>
      <trkpt lat="46.856051" lon="9.17058">
        <ele>2401.67391</ele>
      </trkpt>
      <trkpt lat="46.856091" lon="9.170671">
        <ele>2401.24378</ele>
      </trkpt>
      <trkpt lat="46.856111" lon="9.17086">
        <ele>2401.76933</ele>
      </trkpt>
      <trkpt lat="46.856221" lon="9.17113">
        <ele>2401.87725</ele>
      </trkpt>
      <trkpt lat="46.85625" lon="9.17113">
        <ele>2402.45515</ele>
      </trkpt>
      <trkpt lat="46.8563" lon="9.171281">
        <ele>2402.69111</ele>
      </trkpt>
      <trkpt lat="46.85632" lon="9.171391">
        <ele>2403.00285</ele>
      </trkpt>
      <trkpt lat="46.85631" lon="9.17152">
        <ele>2401.38529</ele>
      </trkpt>
      <trkpt lat="46.856331" lon="9.171601">
        <ele>2400.36602</ele>
      </trkpt>
      <trkpt lat="46.856391" lon="9.17168">
        <ele>2400.06071</ele>
      </trkpt>
      <trkpt lat="46.85641" lon="9.171731">
        <ele>2400.18695</ele>
      </trkpt>
      <trkpt lat="46.856421" lon="9.171891">
        <ele>2398.85503</ele>
        <name>46.856421,9.171891</name>
        <extensions>
          <oa:Extension>
            <oa:mapZoom>14</oa:mapZoom>
          </oa:Extension>
        </extensions>
      </trkpt>
      <trkpt lat="46.85643" lon="9.17198">
        <ele>2397.6759</ele>
      </trkpt>
      <trkpt lat="46.856451" lon="9.17204">
        <ele>2397.1291</ele>
      </trkpt>
      <trkpt lat="46.856451" lon="9.17215">
        <ele>2395.28154</ele>
      </trkpt>
      <trkpt lat="46.85648" lon="9.17218">
        <ele>2394.39155</ele>
      </trkpt>
      <trkpt lat="46.856531" lon="9.17234">
        <ele>2388.97655</ele>
      </trkpt>
      <trkpt lat="46.85653" lon="9.172381">
        <ele>2388.08455</ele>
      </trkpt>
      <trkpt lat="46.856571" lon="9.172371">
        <ele>2388.17381</ele>
      </trkpt>
      <trkpt lat="46.856541" lon="9.17251">
        <ele>2386.92455</ele>
      </trkpt>
      <trkpt lat="46.856551" lon="9.172581">
        <ele>2387.04765</ele>
      </trkpt>
      <trkpt lat="46.856451" lon="9.17282">
        <ele>2384.10566</ele>
      </trkpt>
      <trkpt lat="46.85638" lon="9.173301">
        <ele>2381.38297</ele>
      </trkpt>
      <trkpt lat="46.856421" lon="9.17355">
        <ele>2381.27835</ele>
      </trkpt>
      <trkpt lat="46.85643" lon="9.173881">
        <ele>2378.23696</ele>
      </trkpt>
      <trkpt lat="46.856461" lon="9.17398">
        <ele>2377.01068</ele>
        <name>46.856461,9.173980</name>
        <extensions>
          <oa:Extension>
            <oa:mapZoom>14</oa:mapZoom>
          </oa:Extension>
        </extensions>
      </trkpt>
      <trkpt lat="46.856531" lon="9.174001">
        <ele>2376.35296</ele>
      </trkpt>
      <trkpt lat="46.856651" lon="9.17417">
        <ele>2376.85054</ele>
      </trkpt>
      <trkpt lat="46.856721" lon="9.174241">
        <ele>2376.5554</ele>
      </trkpt>
      <trkpt lat="46.85675" lon="9.174311">
        <ele>2376.57865</ele>
      </trkpt>
      <trkpt lat="46.85681" lon="9.17439">
        <ele>2376.79156</ele>
      </trkpt>
      <trkpt lat="46.85688" lon="9.174461">
        <ele>2377.2765</ele>
      </trkpt>
      <trkpt lat="46.85695" lon="9.174581">
        <ele>2376.82556</ele>
      </trkpt>
      <trkpt lat="46.85699" lon="9.17461">
        <ele>2376.08431</ele>
      </trkpt>
      <trkpt lat="46.85706" lon="9.174611">
        <ele>2375.81112</ele>
      </trkpt>
      <trkpt lat="46.85709" lon="9.174591">
        <ele>2375.52364</ele>
      </trkpt>
      <trkpt lat="46.85718" lon="9.1746">
        <ele>2373.97165</ele>
      </trkpt>
      <trkpt lat="46.85721" lon="9.17463">
        <ele>2373.64043</ele>
      </trkpt>
      <trkpt lat="46.85728" lon="9.174781">
        <ele>2374.82332</ele>
      </trkpt>
      <trkpt lat="46.85731" lon="9.17481">
        <ele>2375.18791</ele>
      </trkpt>
      <trkpt lat="46.8574" lon="9.17488">
        <ele>2375.27714</ele>
      </trkpt>
      <trkpt lat="46.8575" lon="9.174911">
        <ele>2373.99423</ele>
      </trkpt>
      <trkpt lat="46.857511" lon="9.174951">
        <ele>2372.727</ele>
      </trkpt>
      <trkpt lat="46.857471" lon="9.1751">
        <ele>2368.82636</ele>
      </trkpt>
      <trkpt lat="46.857481" lon="9.175131">
        <ele>2367.58849</ele>
      </trkpt>
      <trkpt lat="46.857511" lon="9.17512">
        <ele>2367.34761</ele>
      </trkpt>
      <trkpt lat="46.857551" lon="9.17515">
        <ele>2365.23426</ele>
      </trkpt>
      <trkpt lat="46.857581" lon="9.17514">
        <ele>2364.02154</ele>
      </trkpt>
      <trkpt lat="46.8576" lon="9.1751">
        <ele>2363.36435</ele>
      </trkpt>
      <trkpt lat="46.85762" lon="9.17508">
        <ele>2362.36125</ele>
      </trkpt>
      <trkpt lat="46.857631" lon="9.175091">
        <ele>2361.47172</ele>
      </trkpt>
      <trkpt lat="46.857691" lon="9.17501">
        <ele>2359.28096</ele>
      </trkpt>
      <trkpt lat="46.857761" lon="9.17496">
        <ele>2357.24353</ele>
      </trkpt>
      <trkpt lat="46.8578" lon="9.174951">
        <ele>2356.02991</ele>
      </trkpt>
      <trkpt lat="46.857821" lon="9.17497">
        <ele>2355.38795</ele>
      </trkpt>
      <trkpt lat="46.857831" lon="9.175011">
        <ele>2354.67889</ele>
      </trkpt>
      <trkpt lat="46.85784" lon="9.175001">
        <ele>2354.786</ele>
      </trkpt>
      <trkpt lat="46.85802" lon="9.175101">
        <ele>2355.40445</ele>
      </trkpt>
      <trkpt lat="46.85807" lon="9.175231">
        <ele>2354.44221</ele>
      </trkpt>
      <trkpt lat="46.858151" lon="9.175331">
        <ele>2355.32163</ele>
      </trkpt>
      <trkpt lat="46.85816" lon="9.17542">
        <ele>2354.85297</ele>
      </trkpt>
      <trkpt lat="46.858211" lon="9.17549">
        <ele>2354.67431</ele>
      </trkpt>
      <trkpt lat="46.858221" lon="9.17554">
        <ele>2353.83431</ele>
      </trkpt>
      <trkpt lat="46.85826" lon="9.175581">
        <ele>2353.94261</ele>
      </trkpt>
      <trkpt lat="46.85833" lon="9.17597">
        <ele>2352.82985</ele>
      </trkpt>
      <trkpt lat="46.85842" lon="9.176091">
        <ele>2352.60942</ele>
      </trkpt>
      <trkpt lat="46.858551" lon="9.176371">
        <ele>2352.81148</ele>
      </trkpt>
      <trkpt lat="46.85864" lon="9.176471">
        <ele>2354.00451</ele>
      </trkpt>
      <trkpt lat="46.858751" lon="9.17652">
        <ele>2354.25518</ele>
      </trkpt>
      <trkpt lat="46.8588" lon="9.17652">
        <ele>2354.44923</ele>
      </trkpt>
      <trkpt lat="46.858851" lon="9.176581">
        <ele>2353.72442</ele>
      </trkpt>
      <trkpt lat="46.858981" lon="9.17661">
        <ele>2353.41491</ele>
      </trkpt>
      <trkpt lat="46.859011" lon="9.176661">
        <ele>2352.80597</ele>
      </trkpt>
      <trkpt lat="46.859121" lon="9.176751">
        <ele>2352.33272</ele>
      </trkpt>
      <trkpt lat="46.859151" lon="9.176861">
        <ele>2351.01697</ele>
      </trkpt>
      <trkpt lat="46.859181" lon="9.176891">
        <ele>2350.6396</ele>
      </trkpt>
      <trkpt lat="46.859201" lon="9.17689">
        <ele>2350.87145</ele>
        <name>46.859201,9.176890</name>
        <extensions>
          <oa:Extension>
            <oa:mapZoom>14</oa:mapZoom>
          </oa:Extension>
        </extensions>
      </trkpt>
      <trkpt lat="46.859211" lon="9.17688">
        <ele>2351.1085</ele>
      </trkpt>
      <trkpt lat="46.859251" lon="9.176951">
        <ele>2350.63638</ele>
      </trkpt>
      <trkpt lat="46.859301" lon="9.1773">
        <ele>2348.46704</ele>
      </trkpt>
      <trkpt lat="46.859321" lon="9.177331">
        <ele>2348.33338</ele>
      </trkpt>
      <trkpt lat="46.859321" lon="9.1774">
        <ele>2347.6216</ele>
      </trkpt>
      <trkpt lat="46.859361" lon="9.17753">
        <ele>2347.0124</ele>
      </trkpt>
      <trkpt lat="46.85936" lon="9.17758">
        <ele>2346.67114</ele>
      </trkpt>
      <trkpt lat="46.859311" lon="9.1777">
        <ele>2344.85907</ele>
      </trkpt>
      <trkpt lat="46.859321" lon="9.1778">
        <ele>2345.334</ele>
      </trkpt>
      <trkpt lat="46.85931" lon="9.17783">
        <ele>2344.79594</ele>
      </trkpt>
      <trkpt lat="46.859321" lon="9.177921">
        <ele>2345.39568</ele>
      </trkpt>
      <trkpt lat="46.85936" lon="9.177941">
        <ele>2346.54593</ele>
      </trkpt>
      <trkpt lat="46.859361" lon="9.17806">
        <ele>2344.22223</ele>
      </trkpt>
      <trkpt lat="46.859381" lon="9.17818">
        <ele>2342.80839</ele>
      </trkpt>
      <trkpt lat="46.85941" lon="9.178251">
        <ele>2342.90123</ele>
      </trkpt>
      <trkpt lat="46.859431" lon="9.178371">
        <ele>2341.9313</ele>
      </trkpt>
      <trkpt lat="46.85946" lon="9.178461">
        <ele>2342.10976</ele>
      </trkpt>
      <trkpt lat="46.859601" lon="9.17862">
        <ele>2344.79206</ele>
      </trkpt>
      <trkpt lat="46.85962" lon="9.17869">
        <ele>2344.81127</ele>
      </trkpt>
      <trkpt lat="46.859681" lon="9.178791">
        <ele>2345.04595</ele>
      </trkpt>
      <trkpt lat="46.859771" lon="9.17899">
        <ele>2345.84996</ele>
      </trkpt>
      <trkpt lat="46.859771" lon="9.17904">
        <ele>2345.56067</ele>
      </trkpt>
      <trkpt lat="46.859811" lon="9.179081">
        <ele>2345.08048</ele>
      </trkpt>
      <trkpt lat="46.859821" lon="9.17912">
        <ele>2345.05767</ele>
        <name>46.859821,9.179120</name>
        <extensions>
          <oa:Extension>
            <oa:mapZoom>14</oa:mapZoom>
          </oa:Extension>
        </extensions>
      </trkpt>
      <trkpt lat="46.85982" lon="9.179161">
        <ele>2345.19358</ele>
      </trkpt>
      <trkpt lat="46.859851" lon="9.17923">
        <ele>2345.33869</ele>
      </trkpt>
      <trkpt lat="46.85985" lon="9.17931">
        <ele>2344.96596</ele>
      </trkpt>
      <trkpt lat="46.85989" lon="9.179531">
        <ele>2345.22185</ele>
      </trkpt>
      <trkpt lat="46.86003" lon="9.179971">
        <ele>2344.14251</ele>
      </trkpt>
      <trkpt lat="46.86007" lon="9.180211">
        <ele>2344.37955</ele>
      </trkpt>
      <trkpt lat="46.86007" lon="9.18041">
        <ele>2344.39313</ele>
      </trkpt>
      <trkpt lat="46.86011" lon="9.180671">
        <ele>2342.59173</ele>
      </trkpt>
      <trkpt lat="46.860071" lon="9.18089">
        <ele>2338.92375</ele>
      </trkpt>
      <trkpt lat="46.86003" lon="9.18097">
        <ele>2337.15672</ele>
      </trkpt>
      <trkpt lat="46.860011" lon="9.18106">
        <ele>2334.5933</ele>
      </trkpt>
      <trkpt lat="46.860041" lon="9.181221">
        <ele>2332.70007</ele>
      </trkpt>
      <trkpt lat="46.86009" lon="9.181321">
        <ele>2332.70355</ele>
      </trkpt>
      <trkpt lat="46.860111" lon="9.181461">
        <ele>2331.61533</ele>
      </trkpt>
      <trkpt lat="46.86009" lon="9.18157">
        <ele>2330.92472</ele>
      </trkpt>
      <trkpt lat="46.860081" lon="9.18179">
        <ele>2329.56742</ele>
      </trkpt>
      <trkpt lat="46.860051" lon="9.181931">
        <ele>2326.68982</ele>
      </trkpt>
      <trkpt lat="46.86005" lon="9.18208">
        <ele>2324.44421</ele>
      </trkpt>
      <trkpt lat="46.86008" lon="9.182121">
        <ele>2323.92889</ele>
      </trkpt>
      <trkpt lat="46.86007" lon="9.182181">
        <ele>2323.57219</ele>
      </trkpt>
      <trkpt lat="46.86009" lon="9.18221">
        <ele>2323.93028</ele>
      </trkpt>
      <trkpt lat="46.86011" lon="9.182311">
        <ele>2323.17748</ele>
      </trkpt>
      <trkpt lat="46.86018" lon="9.182451">
        <ele>2323.78832</ele>
      </trkpt>
      <trkpt lat="46.860191" lon="9.182531">
        <ele>2323.38216</ele>
      </trkpt>
      <trkpt lat="46.86018" lon="9.182641">
        <ele>2323.05793</ele>
      </trkpt>
      <trkpt lat="46.8602" lon="9.182841">
        <ele>2319.96433</ele>
      </trkpt>
      <trkpt lat="46.860171" lon="9.182971">
        <ele>2317.61894</ele>
      </trkpt>
      <trkpt lat="46.860271" lon="9.183191">
        <ele>2315.05288</ele>
      </trkpt>
      <trkpt lat="46.860381" lon="9.18334">
        <ele>2315.05966</ele>
      </trkpt>
      <trkpt lat="46.8604" lon="9.18344">
        <ele>2314.47983</ele>
      </trkpt>
      <trkpt lat="46.860406" lon="9.183607">
        <ele>2313.61746</ele>
      </trkpt>
      <trkpt lat="46.860391" lon="9.18371">
        <ele>2313.2506</ele>
      </trkpt>
      <trkpt lat="46.86039" lon="9.18384">
        <ele>2312.81059</ele>
      </trkpt>
      <trkpt lat="46.860401" lon="9.184111">
        <ele>2312.09902</ele>
      </trkpt>
      <trkpt lat="46.86036" lon="9.18421">
        <ele>2311.81628</ele>
      </trkpt>
      <trkpt lat="46.860371" lon="9.18431">
        <ele>2311.30506</ele>
      </trkpt>
      <trkpt lat="46.860391" lon="9.18435">
        <ele>2311.22139</ele>
      </trkpt>
      <trkpt lat="46.86038" lon="9.18456">
        <ele>2311.96659</ele>
      </trkpt>
      <trkpt lat="46.86039" lon="9.18462">
        <ele>2312.30364</ele>
      </trkpt>
      <trkpt lat="46.86041" lon="9.18465">
        <ele>2312.56716</ele>
      </trkpt>
      <trkpt lat="46.86043" lon="9.184651">
        <ele>2312.74954</ele>
      </trkpt>
      <trkpt lat="46.86047" lon="9.18461">
        <ele>2312.92111</ele>
      </trkpt>
      <trkpt lat="46.86054" lon="9.184581">
        <ele>2312.48132</ele>
      </trkpt>
      <trkpt lat="46.86063" lon="9.184581">
        <ele>2312.96004</ele>
      </trkpt>
      <trkpt lat="46.860781" lon="9.18473">
        <ele>2315.56846</ele>
      </trkpt>
      <trkpt lat="46.860861" lon="9.184901">
        <ele>2317.14207</ele>
      </trkpt>
      <trkpt lat="46.860871" lon="9.18496">
        <ele>2317.37239</ele>
      </trkpt>
      <trkpt lat="46.86086" lon="9.185191">
        <ele>2317.23162</ele>
      </trkpt>
      <trkpt lat="46.86088" lon="9.185341">
        <ele>2317.40433</ele>
      </trkpt>
      <trkpt lat="46.860871" lon="9.185451">
        <ele>2316.85719</ele>
        <name>46.860871,9.185451</name>
        <extensions>
          <oa:Extension>
            <oa:mapZoom>17</oa:mapZoom>
          </oa:Extension>
        </extensions>
      </trkpt>
      <trkpt lat="46.860861" lon="9.185671">
        <ele>2315.10859</ele>
      </trkpt>
      <trkpt lat="46.86089" lon="9.186051">
        <ele>2315.71524</ele>
      </trkpt>
      <trkpt lat="46.860931" lon="9.186291">
        <ele>2316.42026</ele>
      </trkpt>
      <trkpt lat="46.86085" lon="9.18683">
        <ele>2312.64267</ele>
      </trkpt>
      <trkpt lat="46.86087" lon="9.187001">
        <ele>2312.38587</ele>
      </trkpt>
      <trkpt lat="46.86095" lon="9.18725">
        <ele>2312.298</ele>
      </trkpt>
      <trkpt lat="46.860971" lon="9.187381">
        <ele>2312.39937</ele>
      </trkpt>
      <trkpt lat="46.86097" lon="9.18745">
        <ele>2311.7685</ele>
      </trkpt>
      <trkpt lat="46.86092" lon="9.18772">
        <ele>2309.03201</ele>
      </trkpt>
      <trkpt lat="46.86092" lon="9.187891">
        <ele>2307.74863</ele>
      </trkpt>
      <trkpt lat="46.86096" lon="9.188101">
        <ele>2307.84102</ele>
      </trkpt>
      <trkpt lat="46.860971" lon="9.18838">
        <ele>2306.39667</ele>
      </trkpt>
      <trkpt lat="46.861041" lon="9.188561">
        <ele>2306.27893</ele>
      </trkpt>
      <trkpt lat="46.861041" lon="9.18867">
        <ele>2305.74185</ele>
      </trkpt>
      <trkpt lat="46.861061" lon="9.18879">
        <ele>2305.3069</ele>
      </trkpt>
      <trkpt lat="46.861061" lon="9.18903">
        <ele>2301.96206</ele>
      </trkpt>
      <trkpt lat="46.86103" lon="9.18911">
        <ele>2301.08733</ele>
      </trkpt>
      <trkpt lat="46.86103" lon="9.189171">
        <ele>2301.11346</ele>
      </trkpt>
      <trkpt lat="46.86106" lon="9.189391">
        <ele>2300.13209</ele>
      </trkpt>
      <trkpt lat="46.86104" lon="9.189541">
        <ele>2296.84767</ele>
      </trkpt>
      <trkpt lat="46.861041" lon="9.18963">
        <ele>2295.93367</ele>
      </trkpt>
      <trkpt lat="46.86101" lon="9.189721">
        <ele>2295.19715</ele>
      </trkpt>
      <trkpt lat="46.86101" lon="9.189771">
        <ele>2294.95026</ele>
      </trkpt>
      <trkpt lat="46.86107" lon="9.190161">
        <ele>2295.18959</ele>
      </trkpt>
      <trkpt lat="46.861041" lon="9.19056">
        <ele>2291.84987</ele>
      </trkpt>
      <trkpt lat="46.86101" lon="9.19072">
        <ele>2290.69082</ele>
      </trkpt>
      <trkpt lat="46.861011" lon="9.190881">
        <ele>2290.11403</ele>
      </trkpt>
      <trkpt lat="46.861051" lon="9.191131">
        <ele>2288.58676</ele>
      </trkpt>
      <trkpt lat="46.86104" lon="9.19128">
        <ele>2288.06592</ele>
      </trkpt>
      <trkpt lat="46.861061" lon="9.19137">
        <ele>2287.8527</ele>
      </trkpt>
      <trkpt lat="46.861111" lon="9.19145">
        <ele>2288.05416</ele>
      </trkpt>
      <trkpt lat="46.86112" lon="9.19152">
        <ele>2287.94072</ele>
      </trkpt>
      <trkpt lat="46.86112" lon="9.1916">
        <ele>2287.59702</ele>
      </trkpt>
      <trkpt lat="46.861071" lon="9.19195">
        <ele>2285.76307</ele>
      </trkpt>
      <trkpt lat="46.861031" lon="9.192041">
        <ele>2284.56262</ele>
      </trkpt>
      <trkpt lat="46.861051" lon="9.19209">
        <ele>2284.01448</ele>
      </trkpt>
      <trkpt lat="46.86106" lon="9.19217">
        <ele>2283.21005</ele>
      </trkpt>
      <trkpt lat="46.86095" lon="9.19264">
        <ele>2278.66759</ele>
      </trkpt>
      <trkpt lat="46.86095" lon="9.19304">
        <ele>2276.7014</ele>
      </trkpt>
      <trkpt lat="46.86093" lon="9.19323">
        <ele>2274.75542</ele>
      </trkpt>
      <trkpt lat="46.86086" lon="9.19341">
        <ele>2271.2562</ele>
      </trkpt>
      <trkpt lat="46.860838" lon="9.193418">
        <ele>2271.2</ele>
        <name>46.860860,9.193410</name>
        <extensions>
          <oa:locType>routingNode</oa:locType>
          <oa:Extension>
            <oa:mapZoom>17</oa:mapZoom>
          </oa:Extension>
        </extensions>
      </trkpt>
      <trkpt lat="46.860845" lon="9.193457">
        <ele>2271.1</ele>
      </trkpt>
      <trkpt lat="46.860846" lon="9.193578">
        <ele>2270.2</ele>
      </trkpt>
      <trkpt lat="46.860883" lon="9.193657">
        <ele>2269.9</ele>
      </trkpt>
      <trkpt lat="46.860901" lon="9.1938">
        <ele>2269.8</ele>
      </trkpt>
      <trkpt lat="46.860923" lon="9.19394">
        <ele>2270.6</ele>
      </trkpt>
      <trkpt lat="46.860952" lon="9.194073">
        <ele>2271.8</ele>
        <name>Vorab, Laax</name>
        <extensions>
          <oa:Extension>
            <oa:mapZoom>17</oa:mapZoom>
          </oa:Extension>
        </extensions>
      </trkpt>
    </trkseg>
  </trk>
</gpx>