<?xml version="1.0" encoding="utf-8"?><gpx version="1.1" creator="MySchweizMobil - https://map.schweizmobil.ch/" xmlns:xsi="http://www.w3.org/2001/XMLSchema-instance" xmlns="http://www.topografix.com/GPX/1/1" xsi:schemaLocation="http://www.topografix.com/GPX/1/1 http://www.topografix.com/GPX/1/1/gpx.xsd"><metadata><name>DH Grand-Conche</name><bounds minlat="46.181440137031174" minlon="6.816720485715888" maxlat="46.18607030580749" maxlon="6.834220440570868" /></metadata><trk><name>DH Grand-Conche</name><trkseg><trkpt lat="46.18583373469921" lon="6.816730692257688"><ele>2163.1</ele></trkpt><trkpt lat="46.1858301294338" lon="6.816729438305034"><ele>2163.1</ele></trkpt><trkpt lat="46.18582018458012" lon="6.816720485715888"><ele>2163.0</ele></trkpt><trkpt lat="46.18578997933117" lon="6.8167894763917465"><ele>2161.7</ele></trkpt><trkpt lat="46.18580015284108" lon="6.816839872513896"><ele>2160.1</ele></trkpt><trkpt lat="46.18583995364866" lon="6.816879568297507"><ele>2158.8</ele></trkpt><trkpt lat="46.18587959011436" lon="6.816889476561465"><ele>2158.8</ele></trkpt><trkpt lat="46.18592024042313" lon="6.816920096361668"><ele>2158.6</ele></trkpt><trkpt lat="46.185919619518366" lon="6.816970616056089"><ele>2157.1</ele></trkpt><trkpt lat="46.18593979492293" lon="6.817040325902265"><ele>2155.5</ele></trkpt><trkpt lat="46.18598043804814" lon="6.817069650734446"><ele>2154.9</ele></trkpt><trkpt lat="46.18601967491954" lon="6.817170227525962"><ele>2152.9</ele></trkpt><trkpt lat="46.18603011960954" lon="6.817269838328128"><ele>2151.3</ele></trkpt><trkpt lat="46.18607030580749" lon="6.817379470893284"><ele>2151.4</ele></trkpt><trkpt lat="46.18606984888256" lon="6.8174597784049515"><ele>2150.1</ele></trkpt><trkpt lat="46.18606011823287" lon="6.817489679136078"><ele>2147.9</ele></trkpt><trkpt lat="46.18604038568172" lon="6.817500266159065"><ele>2147.2</ele></trkpt><trkpt lat="46.18601963939408" lon="6.817490141603388"><ele>2146.5</ele></trkpt><trkpt lat="46.186000413768056" lon="6.817429487015253"><ele>2146.2</ele></trkpt><trkpt lat="46.185970343776674" lon="6.817359890018381"><ele>2144.8</ele></trkpt><trkpt lat="46.18596012051817" lon="6.8173004278433105"><ele>2144.4</ele></trkpt><trkpt lat="46.18594005238685" lon="6.817250144578034"><ele>2143.7</ele></trkpt><trkpt lat="46.18591031077966" lon="6.817240122947864"><ele>2142.6</ele></trkpt><trkpt lat="46.185879833880136" lon="6.817259899188696"><ele>2141.3</ele></trkpt><trkpt lat="46.185870217526016" lon="6.817310521641583"><ele>2139.9</ele></trkpt><trkpt lat="46.18589983062236" lon="6.817460425744128"><ele>2136.5</ele></trkpt><trkpt lat="46.185909946730305" lon="6.817500461190292"><ele>2136.1</ele></trkpt><trkpt lat="46.18593979537887" lon="6.817529909666311"><ele>2136.5</ele></trkpt><trkpt lat="46.185939959537926" lon="6.817559697278836"><ele>2136.2</ele></trkpt><trkpt lat="46.18593017890362" lon="6.817580532127241"><ele>2135.3</ele></trkpt><trkpt lat="46.185910332153064" lon="6.817570397285784"><ele>2134.5</ele></trkpt><trkpt lat="46.185869739119546" lon="6.817550137901059"><ele>2133.1</ele></trkpt><trkpt lat="46.18583971916906" lon="6.817489606782979"><ele>2131.5</ele></trkpt><trkpt lat="46.18581965826069" lon="6.817440618669896"><ele>2130.5</ele></trkpt><trkpt lat="46.185809649214946" lon="6.817420009958313"><ele>2128.9</ele></trkpt><trkpt lat="46.18578001470488" lon="6.817429414905897"><ele>2127.2</ele></trkpt><trkpt lat="46.18577029120176" lon="6.817460610592847"><ele>2126.3</ele></trkpt><trkpt lat="46.18576972001886" lon="6.81752019590871"><ele>2125.5</ele></trkpt><trkpt lat="46.1857798932025" lon="6.817570592148587"><ele>2124.5</ele></trkpt><trkpt lat="46.18582002202095" lon="6.8176698635458015"><ele>2123.3</ele></trkpt><trkpt lat="46.185820300310375" lon="6.817720372865443"><ele>2120.9</ele></trkpt><trkpt lat="46.185809891239714" lon="6.817790432111886"><ele>2118.5</ele></trkpt><trkpt lat="46.18583000906755" lon="6.817849781233141"><ele>2117.9</ele></trkpt><trkpt lat="46.18585997175913" lon="6.8178999516450896"><ele>2117.8</ele></trkpt><trkpt lat="46.18587019470174" lon="6.817959413823308"><ele>2115.9</ele></trkpt><trkpt lat="46.185869687442136" lon="6.818030655251043"><ele>2114.0</ele></trkpt><trkpt lat="46.185889698175586" lon="6.818070577839235"><ele>2114.1</ele></trkpt><trkpt lat="46.185909758810574" lon="6.818119566247381"><ele>2114.6</ele></trkpt><trkpt lat="46.18593975577877" lon="6.818339407037288"><ele>2107.9</ele></trkpt><trkpt lat="46.18595965948473" lon="6.8183599030778055"><ele>2107.9</ele></trkpt><trkpt lat="46.18598011198077" lon="6.8184801229615974"><ele>2104.9</ele></trkpt><trkpt lat="46.18598033289885" lon="6.818520271516406"><ele>2104.2</ele></trkpt><trkpt lat="46.185959807610196" lon="6.818550295123083"><ele>2102.8</ele></trkpt><trkpt lat="46.18594001795365" lon="6.818550520832423"><ele>2102.1</ele></trkpt><trkpt lat="46.18591010543546" lon="6.818509415779797"><ele>2101.1</ele></trkpt><trkpt lat="46.18587014128204" lon="6.818439931176683"><ele>2100.0</ele></trkpt><trkpt lat="46.18583006303794" lon="6.818349724898231"><ele>2099.4</ele></trkpt><trkpt lat="46.18580994547301" lon="6.818290375592242"><ele>2099.4</ele></trkpt><trkpt lat="46.18575029847148" lon="6.818240543743465"><ele>2096.2</ele></trkpt><trkpt lat="46.185679628924966" lon="6.818149391749332"><ele>2093.3</ele></trkpt><trkpt lat="46.18558996933782" lon="6.818040324136304"><ele>2090.6</ele></trkpt><trkpt lat="46.18552014923062" lon="6.817940096675448"><ele>2090.0</ele></trkpt><trkpt lat="46.18544032719627" lon="6.817820555928191"><ele>2089.2</ele></trkpt><trkpt lat="46.18536960736477" lon="6.817720339297684"><ele>2089.5</ele></trkpt><trkpt lat="46.185299729881834" lon="6.8176097518657475"><ele>2087.9</ele></trkpt><trkpt lat="46.18524987034902" lon="6.817540381738576"><ele>2087.5</ele></trkpt><trkpt lat="46.18524987034902" lon="6.817540381738576"><ele>2087.5</ele></trkpt><trkpt lat="46.18525438940972" lon="6.817544215650072"><ele>2087.5</ele></trkpt><trkpt lat="46.18524987034902" lon="6.817540381738576"><ele>2087.5</ele></trkpt><trkpt lat="46.185230130656706" lon="6.817549673488985"><ele>2087.2</ele></trkpt><trkpt lat="46.18522967361076" lon="6.8176299797601025"><ele>2084.4</ele></trkpt><trkpt lat="46.185219942916504" lon="6.817659879999477"><ele>2083.2</ele></trkpt><trkpt lat="46.185200153262564" lon="6.817660106029387"><ele>2081.8</ele></trkpt><trkpt lat="46.18518024943033" lon="6.817639610530559"><ele>2080.9</ele></trkpt><trkpt lat="46.18514972250947" lon="6.81765032061903"><ele>2079.5</ele></trkpt><trkpt lat="46.18513999180983" lon="6.817680220810872"><ele>2078.9</ele></trkpt><trkpt lat="46.18515016492166" lon="6.817730616497804"><ele>2076.9</ele></trkpt><trkpt lat="46.18516976849392" lon="6.817859910296188"><ele>2073.3</ele></trkpt><trkpt lat="46.185180048521254" lon="6.81792973247769"><ele>2070.8</ele></trkpt><trkpt lat="46.185190328505385" lon="6.8179995546855485"><ele>2069.3</ele></trkpt><trkpt lat="46.18523024300874" lon="6.818059972420507"><ele>2069.0</ele></trkpt><trkpt lat="46.18525025373109" lon="6.818099894550623"><ele>2069.1</ele></trkpt><trkpt lat="46.185309793835216" lon="6.818130299307453"><ele>2069.8</ele></trkpt><trkpt lat="46.185339863350485" lon="6.818199895885386"><ele>2069.6</ele></trkpt><trkpt lat="46.18538977951005" lon="6.818279627535831"><ele>2068.7</ele></trkpt><trkpt lat="46.18542997185347" lon="6.8183905546583485"><ele>2067.7</ele></trkpt><trkpt lat="46.18547959406739" lon="6.818580380610871"><ele>2065.0</ele></trkpt><trkpt lat="46.18552973081261" lon="6.818700261037979"><ele>2064.4</ele></trkpt><trkpt lat="46.18555985696267" lon="6.818780219049397"><ele>2064.0</ele></trkpt><trkpt lat="46.18559958369309" lon="6.818970158587434"><ele>2062.2</ele></trkpt><trkpt lat="46.18563015106845" lon="6.819130413448525"><ele>2061.3</ele></trkpt><trkpt lat="46.18566038368588" lon="6.819229798452689"><ele>2060.5</ele></trkpt><trkpt lat="46.18569040270286" lon="6.819290330330648"><ele>2060.3</ele></trkpt><trkpt lat="46.185689666867454" lon="6.819320128058733"><ele>2059.4</ele></trkpt><trkpt lat="46.18566998396272" lon="6.819339780098158"><ele>2058.9</ele></trkpt><trkpt lat="46.18564024254161" lon="6.819329757376388"><ele>2057.6</ele></trkpt><trkpt lat="46.185620289192" lon="6.819300195358123"><ele>2056.9</ele></trkpt><trkpt lat="46.185590220354754" lon="6.81923059781424"><ele>2056.7</ele></trkpt><trkpt lat="46.185559980619" lon="6.81912991783294"><ele>2055.6</ele></trkpt><trkpt lat="46.185489890896825" lon="6.818980475113368"><ele>2054.5</ele></trkpt><trkpt lat="46.185459707913864" lon="6.818890156275176"><ele>2054.5</ele></trkpt><trkpt lat="46.18542036572857" lon="6.8187701527580025"><ele>2054.5</ele></trkpt><trkpt lat="46.185400412232624" lon="6.818740591064161"><ele>2054.3</ele></trkpt><trkpt lat="46.18531990526021" lon="6.818659912634137"><ele>2053.2</ele></trkpt><trkpt lat="46.18526998936946" lon="6.818580180737444"><ele>2052.2</ele></trkpt><trkpt lat="46.18521017859483" lon="6.818500561849163"><ele>2050.0</ele></trkpt><trkpt lat="46.185160426515786" lon="6.818450617447954"><ele>2046.9</ele></trkpt><trkpt lat="46.185050291876955" lon="6.818380639199388"><ele>2044.5</ele></trkpt><trkpt lat="46.18499001625401" lon="6.818380031671731"><ele>2044.8</ele></trkpt><trkpt lat="46.18496014494379" lon="6.818509889624071"><ele>2043.2</ele></trkpt><trkpt lat="46.184999708269686" lon="6.818670039771346"><ele>2040.0</ele></trkpt><trkpt lat="46.18505028651992" lon="6.818870214965079"><ele>2037.0</ele></trkpt><trkpt lat="46.18508984933473" lon="6.819030365639207"><ele>2032.8</ele></trkpt><trkpt lat="46.18513014060471" lon="6.819159424028226"><ele>2030.1</ele></trkpt><trkpt lat="46.18513979788996" lon="6.819279765348572"><ele>2027.1</ele></trkpt><trkpt lat="46.185119656702064" lon="6.819379723298164"><ele>2023.9</ele></trkpt><trkpt lat="46.18506961036289" lon="6.819439871338479"><ele>2021.6</ele></trkpt><trkpt lat="46.18500045329484" lon="6.819460086548489"><ele>2019.5</ele></trkpt><trkpt lat="46.18488969727285" lon="6.819440625174475"><ele>2016.4</ele></trkpt><trkpt lat="46.18487974551902" lon="6.819430377156237"><ele>2015.4</ele></trkpt><trkpt lat="46.18488337921691" lon="6.819436811620635"><ele>2015.4</ele></trkpt><trkpt lat="46.18487974551902" lon="6.819430377156237"><ele>2015.4</ele></trkpt><trkpt lat="46.184820099023966" lon="6.81938054491018"><ele>2014.5</ele></trkpt><trkpt lat="46.184740221576604" lon="6.819250642906336"><ele>2011.8</ele></trkpt><trkpt lat="46.18469967867313" lon="6.819239448294706"><ele>2009.0</ele></trkpt><trkpt lat="46.18467994595945" lon="6.819250034419153"><ele>2008.2</ele></trkpt><trkpt lat="46.18467021483632" lon="6.8192799340671195"><ele>2006.7</ele></trkpt><trkpt lat="46.18467037853364" lon="6.819309720990349"><ele>2005.4</ele></trkpt><trkpt lat="46.184699768389024" lon="6.819419475262022"><ele>2004.1</ele></trkpt><trkpt lat="46.18471005456639" lon="6.81949059221973"><ele>2002.9</ele></trkpt><trkpt lat="46.18472038338396" lon="6.819569479713366"><ele>2001.6</ele></trkpt><trkpt lat="46.184720422788665" lon="6.819740441155518"><ele>1997.9</ele></trkpt><trkpt lat="46.18472974523124" lon="6.819799912673369"><ele>1996.8</ele></trkpt><trkpt lat="46.18474986911198" lon="6.819860556445142"><ele>1995.5</ele></trkpt><trkpt lat="46.18474997577204" lon="6.819879982728942"><ele>1994.8</ele></trkpt><trkpt lat="46.18473040653438" lon="6.819920355588918"><ele>1994.0</ele></trkpt><trkpt lat="46.18470988087484" lon="6.819950377978695"><ele>1992.4</ele></trkpt><trkpt lat="46.18468030303254" lon="6.8199701420308365"><ele>1991.1</ele></trkpt><trkpt lat="46.18463993082805" lon="6.819990028887413"><ele>1989.6</ele></trkpt><trkpt lat="46.184630142636856" lon="6.82000956771908"><ele>1988.6</ele></trkpt><trkpt lat="46.1846303132503" lon="6.820040649705321"><ele>1988.1</ele></trkpt><trkpt lat="46.18463041987937" lon="6.82006007594682"><ele>1987.7</ele></trkpt><trkpt lat="46.18466032472265" lon="6.820099885801606"><ele>1987.7</ele></trkpt><trkpt lat="46.18465964553472" lon="6.820140043622832"><ele>1986.7</ele></trkpt><trkpt lat="46.184659922718836" lon="6.820190551878594"><ele>1984.9</ele></trkpt><trkpt lat="46.18464023966378" lon="6.820210203231785"><ele>1984.4</ele></trkpt><trkpt lat="46.18461960022255" lon="6.820219504142026"><ele>1984.1</ele></trkpt><trkpt lat="46.184599753710486" lon="6.820209368582757"><ele>1983.6</ele></trkpt><trkpt lat="46.18457980059242" lon="6.820179806807127"><ele>1983.1</ele></trkpt><trkpt lat="46.184550002389415" lon="6.82015942318033"><ele>1982.3</ele></trkpt><trkpt lat="46.18452031790226" lon="6.820159760858415"><ele>1980.7</ele></trkpt><trkpt lat="46.1844799456647" lon="6.820179647515989"><ele>1978.3</ele></trkpt><trkpt lat="46.18446015600657" lon="6.820179872627115"><ele>1977.3</ele></trkpt><trkpt lat="46.184440366348504" lon="6.820180097738079"><ele>1976.8</ele></trkpt><trkpt lat="46.184389772346066" lon="6.820140523358175"><ele>1975.9</ele></trkpt><trkpt lat="46.18436008075163" lon="6.820139565969227"><ele>1974.8</ele></trkpt><trkpt lat="46.18435029964209" lon="6.820160399749725"><ele>1973.3</ele></trkpt><trkpt lat="46.18433966874811" lon="6.820190309286099"><ele>1971.8</ele></trkpt><trkpt lat="46.1843498904834" lon="6.820249770233938"><ele>1970.2</ele></trkpt><trkpt lat="46.184369957276616" lon="6.82030005313602"><ele>1968.4</ele></trkpt><trkpt lat="46.184360225875594" lon="6.820329952426101"><ele>1966.9</ele></trkpt><trkpt lat="46.18434959493669" lon="6.8203598619348185"><ele>1964.3</ele></trkpt><trkpt lat="46.18432991185253" lon="6.82037951311483"><ele>1962.8</ele></trkpt><trkpt lat="46.18429033253591" lon="6.820379963190423"><ele>1961.5</ele></trkpt><trkpt lat="46.18422016209739" lon="6.820379465977049"><ele>1960.0</ele></trkpt><trkpt lat="46.184169681848054" lon="6.820360612721533"><ele>1959.2</ele></trkpt><trkpt lat="46.18413972025308" lon="6.8203104425132475"><ele>1958.1</ele></trkpt><trkpt lat="46.184119710313844" lon="6.820270520385142"><ele>1957.4</ele></trkpt><trkpt lat="46.184099750105844" lon="6.820239663777565"><ele>1957.2</ele></trkpt><trkpt lat="46.18407006561923" lon="6.820240001409147"><ele>1956.8</ele></trkpt><trkpt lat="46.18406022764128" lon="6.820250474506777"><ele>1956.2</ele></trkpt><trkpt lat="46.1840503825562" lon="6.820259652531623"><ele>1955.8</ele></trkpt><trkpt lat="46.184049703311494" lon="6.820299809901038"><ele>1954.7</ele></trkpt><trkpt lat="46.184079885164074" lon="6.820390127181634"><ele>1953.3</ele></trkpt><trkpt lat="46.18408010540286" lon="6.820430274343059"><ele>1952.7</ele></trkpt><trkpt lat="46.184070430798215" lon="6.820470534006737"><ele>1951.4</ele></trkpt><trkpt lat="46.184049904993174" lon="6.820500555825273"><ele>1950.2</ele></trkpt><trkpt lat="46.18401043222659" lon="6.820520431831809"><ele>1948.3</ele></trkpt><trkpt lat="46.18398984958491" lon="6.820540093057677"><ele>1947.5</ele></trkpt><trkpt lat="46.183989906408335" lon="6.8205504535984565"><ele>1947.3</ele></trkpt><trkpt lat="46.183996238631934" lon="6.820556857354416"><ele>1947.3</ele></trkpt><trkpt lat="46.183989906408335" lon="6.8205504535984565"><ele>1947.3</ele></trkpt><trkpt lat="46.183980118120495" lon="6.820569992096152"><ele>1947.1</ele></trkpt><trkpt lat="46.18393023449146" lon="6.820659924306252"><ele>1944.1</ele></trkpt><trkpt lat="46.18388029398577" lon="6.820739495831438"><ele>1940.6</ele></trkpt><trkpt lat="46.183849986883864" lon="6.820790350919684"><ele>1938.9</ele></trkpt><trkpt lat="46.18377997974779" lon="6.8208196396222265"><ele>1937.5</ele></trkpt><trkpt lat="46.18357964725423" lon="6.820869836177812"><ele>1933.4</ele></trkpt><trkpt lat="46.18352044155659" lon="6.820900297046109"><ele>1932.7</ele></trkpt><trkpt lat="46.18343969682185" lon="6.820940068503556"><ele>1932.3</ele></trkpt><trkpt lat="46.18327995668854" lon="6.821010525272774"><ele>1934.0</ele></trkpt><trkpt lat="46.18321990110435" lon="6.821050061383813"><ele>1934.8</ele></trkpt><trkpt lat="46.18318037146719" lon="6.821059576301834"><ele>1934.0</ele></trkpt><trkpt lat="46.183120159738" lon="6.821070621252822"><ele>1932.4</ele></trkpt><trkpt lat="46.182979655643905" lon="6.821039839065456"><ele>1930.3</ele></trkpt><trkpt lat="46.182879694266134" lon="6.821020252583445"><ele>1928.9</ele></trkpt><trkpt lat="46.182730358107385" lon="6.82101935871541"><ele>1926.3</ele></trkpt><trkpt lat="46.18264034833754" lon="6.821010020242385"><ele>1925.1</ele></trkpt><trkpt lat="46.182599869492414" lon="6.821010480064162"><ele>1924.2</ele></trkpt><trkpt lat="46.18253975713311" lon="6.821039655416181"><ele>1922.4</ele></trkpt><trkpt lat="46.18252008102964" lon="6.821060600730139"><ele>1921.3</ele></trkpt><trkpt lat="46.182499604745885" lon="6.821099686697169"><ele>1920.2</ele></trkpt><trkpt lat="46.18251961439005" lon="6.821139607942111"><ele>1919.8</ele></trkpt><trkpt lat="46.18260028276239" lon="6.821250071685182"><ele>1917.1</ele></trkpt><trkpt lat="46.182630130427036" lon="6.821279520426273"><ele>1916.5</ele></trkpt><trkpt lat="46.18268961291188" lon="6.821299566902022"><ele>1915.4</ele></trkpt><trkpt lat="46.18274994526461" lon="6.8213105379409305"><ele>1913.8</ele></trkpt><trkpt lat="46.182779792913706" lon="6.821339986796113"><ele>1911.8</ele></trkpt><trkpt lat="46.182820385259674" lon="6.8213602478559565"><ele>1910.3</ele></trkpt><trkpt lat="46.18287029917967" lon="6.8214399787137205"><ele>1907.2</ele></trkpt><trkpt lat="46.18289036544105" lon="6.821490260688015"><ele>1905.4</ele></trkpt><trkpt lat="46.18287010884161" lon="6.821569493033123"><ele>1902.5</ele></trkpt><trkpt lat="46.18284958274573" lon="6.821599513775685"><ele>1901.0</ele></trkpt><trkpt lat="46.18281995498332" lon="6.8216102109776005"><ele>1899.6</ele></trkpt><trkpt lat="46.182759792835256" lon="6.821630320516055"><ele>1898.8</ele></trkpt><trkpt lat="46.18270968858509" lon="6.821680103583111"><ele>1895.5</ele></trkpt><trkpt lat="46.18262984310936" lon="6.82171986308572"><ele>1890.8</ele></trkpt><trkpt lat="46.18258041858764" lon="6.8217294896846"><ele>1889.0</ele></trkpt><trkpt lat="46.1825398830246" lon="6.821719588704933"><ele>1888.3</ele></trkpt><trkpt lat="46.18250014064554" lon="6.821690252048553"><ele>1888.3</ele></trkpt><trkpt lat="46.18245971142615" lon="6.82169977658299"><ele>1886.8</ele></trkpt><trkpt lat="46.18242029516724" lon="6.821730011383324"><ele>1884.8</ele></trkpt><trkpt lat="46.18238959771791" lon="6.82170963792345"><ele>1884.6</ele></trkpt><trkpt lat="46.18235975016595" lon="6.821680189076713"><ele>1883.6</ele></trkpt><trkpt lat="46.182320114129034" lon="6.821670277966583"><ele>1881.8</ele></trkpt><trkpt lat="46.18230043081906" lon="6.821689927940632"><ele>1880.5</ele></trkpt><trkpt lat="46.182299807779806" lon="6.821740444222109"><ele>1879.4</ele></trkpt><trkpt lat="46.1822801811691" lon="6.821770454380218"><ele>1878.8</ele></trkpt><trkpt lat="46.1822603844215" lon="6.821769383877612"><ele>1878.1</ele></trkpt><trkpt lat="46.18220979098258" lon="6.821729809605719"><ele>1876.9</ele></trkpt><trkpt lat="46.1821898382654" lon="6.821700248570572"><ele>1876.6</ele></trkpt><trkpt lat="46.18216009705985" lon="6.821690225200421"><ele>1875.7</ele></trkpt><trkpt lat="46.182139570932726" lon="6.821720245506084"><ele>1874.1</ele></trkpt><trkpt lat="46.182110212543705" lon="6.821780153378707"><ele>1871.5</ele></trkpt><trkpt lat="46.18207011646775" lon="6.821850543817026"><ele>1867.6</ele></trkpt><trkpt lat="46.18203985847979" lon="6.8219104617462705"><ele>1866.0</ele></trkpt><trkpt lat="46.182040078177856" lon="6.821950607409766"><ele>1865.8</ele></trkpt><trkpt lat="46.18205029898458" lon="6.822010066176878"><ele>1866.0</ele></trkpt><trkpt lat="46.182049675802034" lon="6.822060582222638"><ele>1865.6</ele></trkpt><trkpt lat="46.18203031833326" lon="6.8221398029328935"><ele>1864.1</ele></trkpt><trkpt lat="46.181990222033264" lon="6.822210193003105"><ele>1860.6</ele></trkpt><trkpt lat="46.18196985868417" lon="6.822269998473956"><ele>1858.9</ele></trkpt><trkpt lat="46.18196018342464" lon="6.822310256250616"><ele>1858.1</ele></trkpt><trkpt lat="46.1819802492973" lon="6.822360537705139"><ele>1856.4</ele></trkpt><trkpt lat="46.18202031724632" lon="6.822449445536312"><ele>1853.9</ele></trkpt><trkpt lat="46.182049817319665" lon="6.822579916508171"><ele>1852.8</ele></trkpt><trkpt lat="46.182069641825535" lon="6.822750645400685"><ele>1850.9</ele></trkpt><trkpt lat="46.18209995520715" lon="6.8230300442932945"><ele>1847.8</ele></trkpt><trkpt lat="46.182120289554554" lon="6.823129537033587"><ele>1847.2</ele></trkpt><trkpt lat="46.182169578503384" lon="6.8232597846309595"><ele>1845.5</ele></trkpt><trkpt lat="46.18214973226715" lon="6.823249648419822"><ele>1845.4</ele></trkpt><trkpt lat="46.182156963867" lon="6.823256042092124"><ele>1845.4</ele></trkpt><trkpt lat="46.18214973226715" lon="6.823249648419822"><ele>1845.4</ele></trkpt><trkpt lat="46.182169578503384" lon="6.8232597846309595"><ele>1845.5</ele></trkpt><trkpt lat="46.18220043831409" lon="6.823309944466338"><ele>1845.4</ele></trkpt><trkpt lat="46.1822502447989" lon="6.823370250804353"><ele>1845.5</ele></trkpt><trkpt lat="46.18236029678246" lon="6.8235904691117755"><ele>1846.1</ele></trkpt><trkpt lat="46.1824299754612" lon="6.823830571511569"><ele>1844.5</ele></trkpt><trkpt lat="46.18243030044616" lon="6.823890142934339"><ele>1844.2</ele></trkpt><trkpt lat="46.182429669358186" lon="6.823939364280044"><ele>1843.7</ele></trkpt><trkpt lat="46.18240026034741" lon="6.823990206063564"><ele>1843.0</ele></trkpt><trkpt lat="46.182360106391336" lon="6.824050235014963"><ele>1842.1</ele></trkpt><trkpt lat="46.18230026866881" lon="6.824129912969808"><ele>1840.8</ele></trkpt><trkpt lat="46.182140057718144" lon="6.824279365541838"><ele>1840.9</ele></trkpt><trkpt lat="46.182119587379866" lon="6.824319745049233"><ele>1840.9</ele></trkpt><trkpt lat="46.18211980622098" lon="6.824359890781096"><ele>1840.7</ele></trkpt><trkpt lat="46.18210023538408" lon="6.824400260081034"><ele>1839.9</ele></trkpt><trkpt lat="46.1820297089184" lon="6.824499484523378"><ele>1837.8</ele></trkpt><trkpt lat="46.18193004822511" lon="6.824700055443258"><ele>1833.8</ele></trkpt><trkpt lat="46.18188959394708" lon="6.824870170055243"><ele>1830.9</ele></trkpt><trkpt lat="46.18184965814831" lon="6.824970343329968"><ele>1828.7</ele></trkpt><trkpt lat="46.18183041145552" lon="6.825070282983713"><ele>1826.7</ele></trkpt><trkpt lat="46.18181032154253" lon="6.82518059284706"><ele>1824.1</ele></trkpt><trkpt lat="46.181700238771" lon="6.8254499191925895"><ele>1818.9</ele></trkpt><trkpt lat="46.18163983166587" lon="6.825590470367715"><ele>1815.1</ele></trkpt><trkpt lat="46.18159983887675" lon="6.825680282563349"><ele>1813.3</ele></trkpt><trkpt lat="46.1815598460163" lon="6.82577009462706"><ele>1812.1</ele></trkpt><trkpt lat="46.18154038031183" lon="6.825829888155332"><ele>1811.2</ele></trkpt><trkpt lat="46.1815198759221" lon="6.826029562946346"><ele>1807.7</ele></trkpt><trkpt lat="46.18150036080458" lon="6.82608029127424"><ele>1806.3</ele></trkpt><trkpt lat="46.18144965192481" lon="6.826350240705879"><ele>1804.5</ele></trkpt><trkpt lat="46.181440137031174" lon="6.82642028255013"><ele>1804.5</ele></trkpt><trkpt lat="46.181440355125126" lon="6.826460427789425"><ele>1804.8</ele></trkpt><trkpt lat="46.181449786573474" lon="6.826540617002072"><ele>1805.5</ele></trkpt><trkpt lat="46.18149964056355" lon="6.826609990527323"><ele>1805.0</ele></trkpt><trkpt lat="46.18152959935372" lon="6.826660161768589"><ele>1805.8</ele></trkpt><trkpt lat="46.18157023996884" lon="6.826689491404614"><ele>1805.6</ele></trkpt><trkpt lat="46.181590142153425" lon="6.826709988851981"><ele>1805.7</ele></trkpt><trkpt lat="46.18162972148866" lon="6.826709543399192"><ele>1805.3</ele></trkpt><trkpt lat="46.181680102220426" lon="6.826710271471805"><ele>1805.0</ele></trkpt><trkpt lat="46.181719737813026" lon="6.826720186133698"><ele>1804.2</ele></trkpt><trkpt lat="46.18175043435648" lon="6.826740562167255"><ele>1803.7</ele></trkpt><trkpt lat="46.181800182757065" lon="6.826790511013688"><ele>1802.4</ele></trkpt><trkpt lat="46.18185003659447" lon="6.826859885214118"><ele>1801.2</ele></trkpt><trkpt lat="46.181910010165765" lon="6.826970588824145"><ele>1798.3</ele></trkpt><trkpt lat="46.181940017996354" lon="6.8270298257796345"><ele>1796.3</ele></trkpt><trkpt lat="46.18194029209756" lon="6.827080331547387"><ele>1795.4</ele></trkpt><trkpt lat="46.18189956020701" lon="6.827199938691479"><ele>1792.8</ele></trkpt><trkpt lat="46.18189972181426" lon="6.8272297241225655"><ele>1792.0</ele></trkpt><trkpt lat="46.181909778248176" lon="6.827259398289915"><ele>1791.1</ele></trkpt><trkpt lat="46.181929624123896" lon="6.82726953591766"><ele>1790.6</ele></trkpt><trkpt lat="46.18194041848888" lon="6.8272694145407655"><ele>1790.1</ele></trkpt><trkpt lat="46.18197005381172" lon="6.827260015611092"><ele>1789.9</ele></trkpt><trkpt lat="46.18198989968751" lon="6.827270153250286"><ele>1789.3</ele></trkpt><trkpt lat="46.18199989990691" lon="6.827289467305137"><ele>1788.6</ele></trkpt><trkpt lat="46.18201006872656" lon="6.827339861880224"><ele>1786.5</ele></trkpt><trkpt lat="46.182010342689004" lon="6.82739036771449"><ele>1785.4</ele></trkpt><trkpt lat="46.18193997512609" lon="6.827519373574057"><ele>1782.5</ele></trkpt><trkpt lat="46.18188024730627" lon="6.827619767395134"><ele>1781.3</ele></trkpt><trkpt lat="46.18185977577335" lon="6.827660145454017"><ele>1780.7</ele></trkpt><trkpt lat="46.18182035791957" lon="6.82769037560678"><ele>1779.0</ele></trkpt><trkpt lat="46.18178998450604" lon="6.827729569756555"><ele>1777.9</ele></trkpt><trkpt lat="46.18178025113859" lon="6.827759466302087"><ele>1777.0</ele></trkpt><trkpt lat="46.1817803634592" lon="6.827780186557701"><ele>1776.6</ele></trkpt><trkpt lat="46.1818002584262" lon="6.827799389466305"><ele>1776.0</ele></trkpt><trkpt lat="46.181840111523215" lon="6.827849450482276"><ele>1774.8</ele></trkpt><trkpt lat="46.181860231075746" lon="6.827910094009704"><ele>1772.9</ele></trkpt><trkpt lat="46.18184959812998" lon="6.827940000665178"><ele>1771.7</ele></trkpt><trkpt lat="46.181839920848205" lon="6.827980257345168"><ele>1770.8</ele></trkpt><trkpt lat="46.181810446864496" lon="6.828019441244993"><ele>1769.8</ele></trkpt><trkpt lat="46.181780024219314" lon="6.828049570092038"><ele>1769.0</ele></trkpt><trkpt lat="46.181750451980925" lon="6.82807062369696"><ele>1768.6</ele></trkpt><trkpt lat="46.181729868027034" lon="6.8280902812529805"><ele>1767.9</ele></trkpt><trkpt lat="46.181720078435504" lon="6.82810981758432"><ele>1767.6</ele></trkpt><trkpt lat="46.18172019069173" lon="6.82813053781775"><ele>1767.1</ele></trkpt><trkpt lat="46.181730246888684" lon="6.828160212053586"><ele>1766.2</ele></trkpt><trkpt lat="46.181760148869834" lon="6.828200024235665"><ele>1764.8</ele></trkpt><trkpt lat="46.18177026116615" lon="6.828240058632468"><ele>1764.0</ele></trkpt><trkpt lat="46.18177042249893" lon="6.82826984399588"><ele>1763.4</ele></trkpt><trkpt lat="46.18174027331983" lon="6.82835047826944"><ele>1761.5</ele></trkpt><trkpt lat="46.181739640286764" lon="6.828399698939425"><ele>1760.2</ele></trkpt><trkpt lat="46.18173971539298" lon="6.828579716133043"><ele>1756.1</ele></trkpt><trkpt lat="46.18173993271882" lon="6.82861986160172"><ele>1755.2</ele></trkpt><trkpt lat="46.18176978546867" lon="6.828650608932383"><ele>1754.5</ele></trkpt><trkpt lat="46.18178957514028" lon="6.828650386910581"><ele>1754.2</ele></trkpt><trkpt lat="46.18179322233156" lon="6.828659411657728"><ele>1754.2</ele></trkpt><trkpt lat="46.18178957514028" lon="6.828650386910581"><ele>1754.2</ele></trkpt><trkpt lat="46.181800369506625" lon="6.828650265807711"><ele>1753.9</ele></trkpt><trkpt lat="46.18182015917825" lon="6.828650043785657"><ele>1753.0</ele></trkpt><trkpt lat="46.1818597385216" lon="6.828649599741074"><ele>1751.4</ele></trkpt><trkpt lat="46.18187958427238" lon="6.828659737866131"><ele>1750.3</ele></trkpt><trkpt lat="46.1819004417062" lon="6.828690586210131"><ele>1749.3</ele></trkpt><trkpt lat="46.181909703360766" lon="6.828739696025977"><ele>1748.1</ele></trkpt><trkpt lat="46.181909728876384" lon="6.828910648647779"><ele>1745.4</ele></trkpt><trkpt lat="46.18192010715644" lon="6.8289998940256025"><ele>1744.9</ele></trkpt><trkpt lat="46.18193033125459" lon="6.829060649003786"><ele>1745.1</ele></trkpt><trkpt lat="46.18198034479477" lon="6.829159810928957"><ele>1743.7</ele></trkpt><trkpt lat="46.18201015921407" lon="6.829349856433966"><ele>1741.4</ele></trkpt><trkpt lat="46.182019805633146" lon="6.829470192664168"><ele>1738.9</ele></trkpt><trkpt lat="46.18203013447394" lon="6.829550373173967"><ele>1738.0</ele></trkpt><trkpt lat="46.18204024629138" lon="6.829590408019952"><ele>1737.4</ele></trkpt><trkpt lat="46.182070147768506" lon="6.829630221213952"><ele>1736.4</ele></trkpt><trkpt lat="46.182099993245245" lon="6.829659674261114"><ele>1734.4</ele></trkpt><trkpt lat="46.18211978291923" lon="6.829659452604683"><ele>1733.6</ele></trkpt><trkpt lat="46.18212984571242" lon="6.829690422365093"><ele>1732.8</ele></trkpt><trkpt lat="46.182139845517746" lon="6.829709736913979"><ele>1732.0</ele></trkpt><trkpt lat="46.18214022337602" lon="6.829779668252193"><ele>1730.7</ele></trkpt><trkpt lat="46.18215033511218" lon="6.829819703221685"><ele>1729.7</ele></trkpt><trkpt lat="46.18214981337162" lon="6.829889644645623"><ele>1728.4</ele></trkpt><trkpt lat="46.18214962033208" lon="6.830020452244953"><ele>1725.6</ele></trkpt><trkpt lat="46.18215978093874" lon="6.830069552443092"><ele>1724.0</ele></trkpt><trkpt lat="46.18217973845685" lon="6.830100411553786"><ele>1721.9</ele></trkpt><trkpt lat="46.18222043412246" lon="6.830140104321329"><ele>1720.4</ele></trkpt><trkpt lat="46.18222959026063" lon="6.830169789267685"><ele>1719.1</ele></trkpt><trkpt lat="46.1822298070209" lon="6.830209935103773"><ele>1717.4</ele></trkpt><trkpt lat="46.18221012222464" lon="6.830229581958208"><ele>1716.8</ele></trkpt><trkpt lat="46.18217969898884" lon="6.830259709791528"><ele>1716.8</ele></trkpt><trkpt lat="46.18216996495101" lon="6.8302896060986695"><ele>1716.3</ele></trkpt><trkpt lat="46.182180188355005" lon="6.830350361597664"><ele>1714.1</ele></trkpt><trkpt lat="46.18219956080385" lon="6.830439507068735"><ele>1713.2</ele></trkpt><trkpt lat="46.18222962971207" lon="6.830510401493558"><ele>1711.2</ele></trkpt><trkpt lat="46.18228038079472" lon="6.8305797695861985"><ele>1709.1</ele></trkpt><trkpt lat="46.18237025180802" lon="6.830730292184815"><ele>1706.7</ele></trkpt><trkpt lat="46.182410103606195" lon="6.830780355869616"><ele>1705.7</ele></trkpt><trkpt lat="46.182550348075544" lon="6.830930316112991"><ele>1701.0</ele></trkpt><trkpt lat="46.1825703542423" lon="6.830970241006657"><ele>1700.4</ele></trkpt><trkpt lat="46.182599628022835" lon="6.831060571797956"><ele>1698.7</ele></trkpt><trkpt lat="46.182619850572735" lon="6.831140642902901"><ele>1697.9</ele></trkpt><trkpt lat="46.182629954845545" lon="6.831179383441059"><ele>1697.5</ele></trkpt><trkpt lat="46.182630282932024" lon="6.831240250162322"><ele>1696.5</ele></trkpt><trkpt lat="46.182710292311434" lon="6.83123029050568"><ele>1695.1</ele></trkpt><trkpt lat="46.182710292311434" lon="6.83123029050568"><ele>1695.1</ele></trkpt><trkpt lat="46.18271569647661" lon="6.831231525247601"><ele>1695.1</ele></trkpt><trkpt lat="46.182710292311434" lon="6.83123029050568"><ele>1695.1</ele></trkpt><trkpt lat="46.182749871666864" lon="6.831229848329315"><ele>1694.8</ele></trkpt><trkpt lat="46.18277966786696" lon="6.831250237339529"><ele>1694.4</ele></trkpt><trkpt lat="46.182809568759716" lon="6.831290051985527"><ele>1694.1</ele></trkpt><trkpt lat="46.18284036916934" lon="6.8313298566274145"><ele>1693.9</ele></trkpt><trkpt lat="46.182860431024416" lon="6.831380142217459"><ele>1693.4</ele></trkpt><trkpt lat="46.182900443026284" lon="6.831459992819325"><ele>1692.8</ele></trkpt><trkpt lat="46.18294029450189" lon="6.831510057525592"><ele>1692.4</ele></trkpt><trkpt lat="46.1830198857694" lon="6.831589466422872"><ele>1691.2</ele></trkpt><trkpt lat="46.18312027779403" lon="6.831689365353128"><ele>1689.5</ele></trkpt><trkpt lat="46.18316018496385" lon="6.83174979082374"><ele>1688.5</ele></trkpt><trkpt lat="46.18320014789028" lon="6.831820576784961"><ele>1687.7</ele></trkpt><trkpt lat="46.18322031412011" lon="6.831890288649153"><ele>1687.1</ele></trkpt><trkpt lat="46.18321984687147" lon="6.831970591833284"><ele>1686.6</ele></trkpt><trkpt lat="46.18322969960375" lon="6.832129782730377"><ele>1685.1</ele></trkpt><trkpt lat="46.183230452277904" lon="6.83226964824012"><ele>1683.8</ele></trkpt><trkpt lat="46.18323008926991" lon="6.832369377201445"><ele>1683.1</ele></trkpt><trkpt lat="46.18339027544829" lon="6.832380542274076"><ele>1683.8</ele></trkpt><trkpt lat="46.18341007816489" lon="6.8325499838787405"><ele>1683.6</ele></trkpt><trkpt lat="46.1834697509568" lon="6.832940449241506"><ele>1680.7</ele></trkpt><trkpt lat="46.183490236635166" lon="6.833069734501552"><ele>1679.5</ele></trkpt><trkpt lat="46.18348982421333" lon="6.83316039853201"><ele>1679.1</ele></trkpt><trkpt lat="46.183490304292505" lon="6.83324975748753"><ele>1679.5</ele></trkpt><trkpt lat="46.18347988558497" lon="6.833319810765223"><ele>1679.5</ele></trkpt><trkpt lat="46.18345973196627" lon="6.833419760471653"><ele>1679.3</ele></trkpt><trkpt lat="46.18342968341767" lon="6.833519820233535"><ele>1679.2</ele></trkpt><trkpt lat="46.183390059756945" lon="6.833679562526158"><ele>1679.1</ele></trkpt><trkpt lat="46.18338043604078" lon="6.833730179762842"><ele>1679.0</ele></trkpt><trkpt lat="46.183379696393594" lon="6.833759976030786"><ele>1678.9</ele></trkpt><trkpt lat="46.183379911876834" lon="6.833800122728862"><ele>1678.9</ele></trkpt><trkpt lat="46.18340002128335" lon="6.8338594751139565"><ele>1678.8</ele></trkpt><trkpt lat="46.18346004358423" lon="6.833980550036672"><ele>1678.9</ele></trkpt><trkpt lat="46.18352016301735" lon="6.834119756040464"><ele>1679.0</ele></trkpt><trkpt lat="46.18355038937831" lon="6.834220440570868"><ele>1678.9</ele></trkpt><trkpt lat="46.1835575856272" lon="6.834220360569143"><ele>1678.9</ele></trkpt></trkseg></trk></gpx>