<?xml version="1.0" encoding="utf-8"?><gpx version="1.1" creator="MySchweizMobil - https://map.schweizmobil.ch/" xmlns:xsi="http://www.w3.org/2001/XMLSchema-instance" xmlns="http://www.topografix.com/GPX/1/1" xsi:schemaLocation="http://www.topografix.com/GPX/1/1 http://www.topografix.com/GPX/1/1/gpx.xsd"><metadata><name>DH La Quatreans</name><bounds minlat="46.225469563792835" minlon="6.853030175495194" maxlat="46.23618698096737" maxlon="6.863729614777825" /></metadata><trk><name>DH La Quatreans</name><trkseg><trkpt lat="46.225475014061104" lon="6.861589739198645"><ele>1811.1</ele></trkpt><trkpt lat="46.225469563792835" lon="6.861579428051068"><ele>1811.1</ele></trkpt><trkpt lat="46.22550004851291" lon="6.86155966225191"><ele>1810.5</ele></trkpt><trkpt lat="46.225550429126145" lon="6.861560423184314"><ele>1808.9</ele></trkpt><trkpt lat="46.225580166851344" lon="6.861570476341251"><ele>1808.3</ele></trkpt><trkpt lat="46.22565004780316" lon="6.861690274528005"><ele>1806.7</ele></trkpt><trkpt lat="46.22568983290779" lon="6.861730032185343"><ele>1805.0</ele></trkpt><trkpt lat="46.22572031765454" lon="6.861710266390564"><ele>1803.8</ele></trkpt><trkpt lat="46.225749902862454" lon="6.86169051012739"><ele>1802.2</ele></trkpt><trkpt lat="46.22577038661493" lon="6.861650112309169"><ele>1801.3</ele></trkpt><trkpt lat="46.22577012798488" lon="6.861599565690601"><ele>1800.5</ele></trkpt><trkpt lat="46.22575003312663" lon="6.8615401568400225"><ele>1800.8</ele></trkpt><trkpt lat="46.225720036714755" lon="6.861479557096791"><ele>1801.2</ele></trkpt><trkpt lat="46.22573957442035" lon="6.8614300963145"><ele>1799.3</ele></trkpt><trkpt lat="46.22577015862299" lon="6.861429771340327"><ele>1797.6</ele></trkpt><trkpt lat="46.225790001471" lon="6.861439929603444"><ele>1796.8</ele></trkpt><trkpt lat="46.225810202507795" lon="6.861520075549917"><ele>1797.0</ele></trkpt><trkpt lat="46.225820196886446" lon="6.861539411452276"><ele>1796.8</ele></trkpt><trkpt lat="46.225839993297456" lon="6.861540497283157"><ele>1795.9</ele></trkpt><trkpt lat="46.22584988818667" lon="6.861540392164376"><ele>1795.2</ele></trkpt><trkpt lat="46.22584962950754" lon="6.8614898454724695"><ele>1794.2</ele></trkpt><trkpt lat="46.22584962950754" lon="6.8614898454724695"><ele>1794.2</ele></trkpt><trkpt lat="46.22585324754826" lon="6.861493695451418"><ele>1794.2</ele></trkpt><trkpt lat="46.22584962950754" lon="6.8614898454724695"><ele>1794.2</ele></trkpt><trkpt lat="46.22586027136714" lon="6.861459921194145"><ele>1793.7</ele></trkpt><trkpt lat="46.225889956034656" lon="6.861459605793619"><ele>1792.5</ele></trkpt><trkpt lat="46.225939642743135" lon="6.861500554402354"><ele>1791.0</ele></trkpt><trkpt lat="46.225959790680214" lon="6.861570332018532"><ele>1790.8</ele></trkpt><trkpt lat="46.225960195214604" lon="6.861649392389816"><ele>1791.1</ele></trkpt><trkpt lat="46.22599019153562" lon="6.861709992494149"><ele>1790.3</ele></trkpt><trkpt lat="46.22602987718064" lon="6.861730309314341"><ele>1788.5</ele></trkpt><trkpt lat="46.22608040365733" lon="6.861759584052163"><ele>1785.7</ele></trkpt><trkpt lat="46.226100451994974" lon="6.861809920819268"><ele>1784.4</ele></trkpt><trkpt lat="46.226140389520424" lon="6.8618794886409065"><ele>1782.0</ele></trkpt><trkpt lat="46.226200176432414" lon="6.861960511171165"><ele>1778.4</ele></trkpt><trkpt lat="46.22625990364502" lon="6.86202986916977"><ele>1776.1</ele></trkpt><trkpt lat="46.226299688631165" lon="6.862069627521063"><ele>1775.0</ele></trkpt><trkpt lat="46.22634027374748" lon="6.8620899351718805"><ele>1774.0</ele></trkpt><trkpt lat="46.226379700900694" lon="6.86205970521292"><ele>1773.3</ele></trkpt><trkpt lat="46.22638959579063" lon="6.8620596001875285"><ele>1772.6</ele></trkpt><trkpt lat="46.22639859777167" lon="6.862060800792029"><ele>1772.6</ele></trkpt><trkpt lat="46.22638959579063" lon="6.8620596001875285"><ele>1772.6</ele></trkpt><trkpt lat="46.22643987037591" lon="6.8620396242650425"><ele>1771.9</ele></trkpt><trkpt lat="46.226500298289764" lon="6.862070090571365"><ele>1770.8</ele></trkpt><trkpt lat="46.22654023565563" lon="6.862139659095203"><ele>1770.0</ele></trkpt><trkpt lat="46.22658986911722" lon="6.862170240120497"><ele>1768.5</ele></trkpt><trkpt lat="46.2266001217509" lon="6.862240123811487"><ele>1768.4</ele></trkpt><trkpt lat="46.22661022199287" lon="6.862280197522448"><ele>1767.5</ele></trkpt><trkpt lat="46.22664985454565" lon="6.8622901462846695"><ele>1766.8</ele></trkpt><trkpt lat="46.22668018703269" lon="6.862240570410446"><ele>1765.4</ele></trkpt><trkpt lat="46.226699665446404" lon="6.862179444224562"><ele>1765.0</ele></trkpt><trkpt lat="46.22674989367537" lon="6.862150395665213"><ele>1763.0</ele></trkpt><trkpt lat="46.22677967772697" lon="6.8621695220050345"><ele>1761.7</ele></trkpt><trkpt lat="46.22678988398939" lon="6.8622303332991486"><ele>1761.5</ele></trkpt><trkpt lat="46.22683002658753" lon="6.862340081177365"><ele>1759.7</ele></trkpt><trkpt lat="46.22684022613552" lon="6.862399596467009"><ele>1759.0</ele></trkpt><trkpt lat="46.22683958487201" lon="6.862450153624816"><ele>1758.4</ele></trkpt><trkpt lat="46.22689001183624" lon="6.862459988058019"><ele>1756.6</ele></trkpt><trkpt lat="46.226900211321045" lon="6.862519503435746"><ele>1755.2</ele></trkpt><trkpt lat="46.226879780222646" lon="6.8625702705149045"><ele>1755.3</ele></trkpt><trkpt lat="46.22687013690742" lon="6.862619626999679"><ele>1754.9</ele></trkpt><trkpt lat="46.22685975290031" lon="6.862700099242012"><ele>1753.5</ele></trkpt><trkpt lat="46.22684021463761" lon="6.862749560586422"><ele>1752.2</ele></trkpt><trkpt lat="46.22685026837135" lon="6.8627805619177"><ele>1751.3</ele></trkpt><trkpt lat="46.22689979577132" lon="6.862790406194818"><ele>1748.6</ele></trkpt><trkpt lat="46.22694027487029" lon="6.8627899770847876"><ele>1746.3</ele></trkpt><trkpt lat="46.22696011759695" lon="6.862800136062436"><ele>1745.9</ele></trkpt><trkpt lat="46.226949574645744" lon="6.862849502114134"><ele>1745.5</ele></trkpt><trkpt lat="46.22690965797877" lon="6.862960099206556"><ele>1744.2</ele></trkpt><trkpt lat="46.226900014493246" lon="6.8630094556493235"><ele>1743.2</ele></trkpt><trkpt lat="46.22691006815567" lon="6.863040457062684"><ele>1742.0</ele></trkpt><trkpt lat="46.226929857937854" lon="6.863040247366545"><ele>1741.2</ele></trkpt><trkpt lat="46.226979927609186" lon="6.862980093172008"><ele>1740.5</ele></trkpt><trkpt lat="46.22701041257638" lon="6.862960327609054"><ele>1739.4</ele></trkpt><trkpt lat="46.22703040745408" lon="6.863000296900314"><ele>1738.1</ele></trkpt><trkpt lat="46.22702971299985" lon="6.863040485449203"><ele>1737.2</ele></trkpt><trkpt lat="46.22699973733479" lon="6.863160050412582"><ele>1736.0</ele></trkpt><trkpt lat="46.22698030468235" lon="6.863230249257559"><ele>1735.1</ele></trkpt><trkpt lat="46.22694991885968" lon="6.863269456089913"><ele>1734.0</ele></trkpt><trkpt lat="46.226940228953914" lon="6.863309739847846"><ele>1733.1</ele></trkpt><trkpt lat="46.22696027660142" lon="6.8633600779815085"><ele>1732.5</ele></trkpt><trkpt lat="46.2269703235564" lon="6.8633897833980395"><ele>1731.1</ele></trkpt><trkpt lat="46.226959833232804" lon="6.863449518110288"><ele>1730.2</ele></trkpt><trkpt lat="46.22696983389202" lon="6.86347015087151"><ele>1729.3</ele></trkpt><trkpt lat="46.22701036587619" lon="6.863480091041866"><ele>1726.9</ele></trkpt><trkpt lat="46.22704025546154" lon="6.863519955763008"><ele>1725.3</ele></trkpt><trkpt lat="46.227050408123844" lon="6.863570398818604"><ele>1724.6</ele></trkpt><trkpt lat="46.22707040278568" lon="6.863610368363409"><ele>1724.0</ele></trkpt><trkpt lat="46.227109883219306" lon="6.863590507894943"><ele>1722.2</ele></trkpt><trkpt lat="46.22714020966816" lon="6.863539636226578"><ele>1720.4</ele></trkpt><trkpt lat="46.22719033248748" lon="6.863489851068621"><ele>1720.5</ele></trkpt><trkpt lat="46.227210122270705" lon="6.863489641534862"><ele>1719.5</ele></trkpt><trkpt lat="46.2272300178144" lon="6.863510169635169"><ele>1717.6</ele></trkpt><trkpt lat="46.227240117606016" lon="6.863550244045763"><ele>1715.9</ele></trkpt><trkpt lat="46.22723977981962" lon="6.863660422271205"><ele>1713.9</ele></trkpt><trkpt lat="46.22728041090678" lon="6.863689804183046"><ele>1713.0</ele></trkpt><trkpt lat="46.227319838489755" lon="6.863659574861182"><ele>1711.0</ele></trkpt><trkpt lat="46.2273601722088" lon="6.863630632078788"><ele>1709.4</ele></trkpt><trkpt lat="46.22737016622682" lon="6.863649968919617"><ele>1707.8</ele></trkpt><trkpt lat="46.227390259976765" lon="6.863709380318263"><ele>1706.9</ele></trkpt><trkpt lat="46.227419997513046" lon="6.863719434989716"><ele>1704.7</ele></trkpt><trkpt lat="46.22746017265525" lon="6.8636593856149375"><ele>1703.8</ele></trkpt><trkpt lat="46.22750965372296" lon="6.863660158040657"><ele>1702.0</ele></trkpt><trkpt lat="46.227529747467685" lon="6.8637195695953785"><ele>1700.9</ele></trkpt><trkpt lat="46.22756038453882" lon="6.863729614777825"><ele>1700.0</ele></trkpt><trkpt lat="46.22765982991566" lon="6.863649495159329"><ele>1697.5</ele></trkpt><trkpt lat="46.22771005852468" lon="6.863620447444574"><ele>1696.6</ele></trkpt><trkpt lat="46.227729848308634" lon="6.863620237956336"><ele>1695.3</ele></trkpt><trkpt lat="46.22778996519331" lon="6.863589789312153"><ele>1694.1</ele></trkpt><trkpt lat="46.227791817136044" lon="6.863600139190998"><ele>1694.1</ele></trkpt><trkpt lat="46.22778996519331" lon="6.863589789312153"><ele>1694.1</ele></trkpt><trkpt lat="46.227809754977244" lon="6.863589579812456"><ele>1692.8</ele></trkpt><trkpt lat="46.22786972644474" lon="6.863530616507209"><ele>1690.6</ele></trkpt><trkpt lat="46.22794002293694" lon="6.863379514323195"><ele>1687.7</ele></trkpt><trkpt lat="46.227980356585356" lon="6.8633505710033385"><ele>1686.6</ele></trkpt><trkpt lat="46.22805006411812" lon="6.8632603955256695"><ele>1684.1</ele></trkpt><trkpt lat="46.228099981795694" lon="6.863170429470347"><ele>1682.1</ele></trkpt><trkpt lat="46.22811031322027" lon="6.863079586499069"><ele>1681.0</ele></trkpt><trkpt lat="46.22813018880035" lon="6.862919944086875"><ele>1679.5</ele></trkpt><trkpt lat="46.228170178572114" lon="6.862999884314352"><ele>1679.1</ele></trkpt><trkpt lat="46.22821022120564" lon="6.863090193662843"><ele>1679.2</ele></trkpt><trkpt lat="46.22825024385639" lon="6.86300033204446"><ele>1677.3</ele></trkpt><trkpt lat="46.22829016056524" lon="6.862889732256707"><ele>1675.1</ele></trkpt><trkpt lat="46.228320188892745" lon="6.862780533332933"><ele>1672.7</ele></trkpt><trkpt lat="46.228370390064306" lon="6.862570016836718"><ele>1667.4</ele></trkpt><trkpt lat="46.22838982230769" lon="6.862499815962478"><ele>1665.4</ele></trkpt><trkpt lat="46.22839076819338" lon="6.862508879329332"><ele>1665.4</ele></trkpt><trkpt lat="46.22838982230769" lon="6.862499815962478"><ele>1665.4</ele></trkpt><trkpt lat="46.22841964494599" lon="6.862350436582767"><ele>1663.4</ele></trkpt><trkpt lat="46.228449719123226" lon="6.862250310018744"><ele>1662.0</ele></trkpt><trkpt lat="46.228470103704424" lon="6.86219046843399"><ele>1660.5</ele></trkpt><trkpt lat="46.22851022502947" lon="6.862120047711534"><ele>1659.0</ele></trkpt><trkpt lat="46.22856019481456" lon="6.862040448918289"><ele>1656.3</ele></trkpt><trkpt lat="46.22862021186727" lon="6.861990556037838"><ele>1654.8</ele></trkpt><trkpt lat="46.22869991263125" lon="6.861919714752941"><ele>1652.6</ele></trkpt><trkpt lat="46.22875983019845" lon="6.861850379535412"><ele>1651.0</ele></trkpt><trkpt lat="46.22892978059227" lon="6.861660624066431"><ele>1645.9</ele></trkpt><trkpt lat="46.22902002355216" lon="6.861540413730421"><ele>1642.6</ele></trkpt><trkpt lat="46.22911031945513" lon="6.861430572169101"><ele>1639.6</ele></trkpt><trkpt lat="46.22917007748949" lon="6.8613301283355925"><ele>1637.6</ele></trkpt><trkpt lat="46.229229988060425" lon="6.861259495720146"><ele>1636.2</ele></trkpt><trkpt lat="46.229299899660454" lon="6.8612094961785415"><ele>1635.1</ele></trkpt><trkpt lat="46.229379706128995" lon="6.8611593913136355"><ele>1634.3</ele></trkpt><trkpt lat="46.22943977589393" lon="6.861119865945818"><ele>1633.6</ele></trkpt><trkpt lat="46.22944968405896" lon="6.861122353053115"><ele>1633.6</ele></trkpt><trkpt lat="46.22943977589393" lon="6.861119865945818"><ele>1633.6</ele></trkpt><trkpt lat="46.229449617685205" lon="6.861109391505835"><ele>1632.9</ele></trkpt><trkpt lat="46.22955016652994" lon="6.861069435621583"><ele>1631.3</ele></trkpt><trkpt lat="46.22964002714702" lon="6.8610503329220345"><ele>1629.3</ele></trkpt><trkpt lat="46.22965961113873" lon="6.861009941540246"><ele>1629.3</ele></trkpt><trkpt lat="46.22973032257598" lon="6.860940489295762"><ele>1627.9</ele></trkpt><trkpt lat="46.229810228524514" lon="6.860909826089318"><ele>1625.6</ele></trkpt><trkpt lat="46.22983971399669" lon="6.860870625446146"><ele>1624.8</ele></trkpt><trkpt lat="46.22985040217759" lon="6.860849772001946"><ele>1624.6</ele></trkpt><trkpt lat="46.22992036672576" lon="6.860810140691027"><ele>1623.3</ele></trkpt><trkpt lat="46.22995005139678" lon="6.8608098249127"><ele>1622.7</ele></trkpt><trkpt lat="46.22999037774925" lon="6.860779582451167"><ele>1621.8</ele></trkpt><trkpt lat="46.23002970493283" lon="6.86072990698733"><ele>1620.6</ele></trkpt><trkpt lat="46.23007962059961" lon="6.860639935336979"><ele>1619.6</ele></trkpt><trkpt lat="46.230120235206556" lon="6.860490435406045"><ele>1619.5</ele></trkpt><trkpt lat="46.2301496142117" lon="6.86043049557107"><ele>1618.4</ele></trkpt><trkpt lat="46.23027018084354" lon="6.860259404076497"><ele>1615.0</ele></trkpt><trkpt lat="46.23029955972631" lon="6.8601994639515755"><ele>1614.8</ele></trkpt><trkpt lat="46.23030946126412" lon="6.860200654755484"><ele>1614.8</ele></trkpt><trkpt lat="46.23029955972631" lon="6.8601994639515755"><ele>1614.8</ele></trkpt><trkpt lat="46.23032009613616" lon="6.8601694315968125"><ele>1614.6</ele></trkpt><trkpt lat="46.23035996353039" lon="6.860049752290499"><ele>1614.1</ele></trkpt><trkpt lat="46.23038004101844" lon="6.859930283649425"><ele>1613.0</ele></trkpt><trkpt lat="46.230410419035444" lon="6.859889776303072"><ele>1612.5</ele></trkpt><trkpt lat="46.230440003931164" lon="6.8598700173471885"><ele>1611.6</ele></trkpt><trkpt lat="46.230480383248626" lon="6.859850143349788"><ele>1610.1</ele></trkpt><trkpt lat="46.23055039401418" lon="6.859819583560137"><ele>1608.2</ele></trkpt><trkpt lat="46.23057987910903" lon="6.859780381792841"><ele>1607.1</ele></trkpt><trkpt lat="46.230599615666286" lon="6.859769801441216"><ele>1606.8</ele></trkpt><trkpt lat="46.23063994174151" lon="6.859739557847792"><ele>1605.9</ele></trkpt><trkpt lat="46.230659631721636" lon="6.859719904185979"><ele>1605.4</ele></trkpt><trkpt lat="46.23068996308625" lon="6.859670323225295"><ele>1604.4</ele></trkpt><trkpt lat="46.2307399777339" lon="6.859599792290205"><ele>1604.1</ele></trkpt><trkpt lat="46.23079009882499" lon="6.859550000208965"><ele>1603.7</ele></trkpt><trkpt lat="46.230850168030585" lon="6.859510472039768"><ele>1601.5</ele></trkpt><trkpt lat="46.230850168030585" lon="6.859510472039768"><ele>1601.5</ele></trkpt><trkpt lat="46.230853799451005" lon="6.859516914616954"><ele>1601.5</ele></trkpt><trkpt lat="46.230850168030585" lon="6.859510472039768"><ele>1601.5</ele></trkpt><trkpt lat="46.230960298345224" lon="6.85940948571294"><ele>1600.4</ele></trkpt><trkpt lat="46.2309997314465" lon="6.859380547436309"><ele>1599.6</ele></trkpt><trkpt lat="46.231059847197216" lon="6.859350092277855"><ele>1597.9</ele></trkpt><trkpt lat="46.23110022642427" lon="6.859330217668206"><ele>1597.3</ele></trkpt><trkpt lat="46.23117019044323" lon="6.859290583492953"><ele>1595.7</ele></trkpt><trkpt lat="46.23121961162352" lon="6.8592796862284064"><ele>1594.9</ele></trkpt><trkpt lat="46.23124030093793" lon="6.859279465553334"><ele>1594.4</ele></trkpt><trkpt lat="46.23127014540488" lon="6.85931025768131"><ele>1593.7</ele></trkpt><trkpt lat="46.231289988448204" lon="6.859320416198557"><ele>1593.2</ele></trkpt><trkpt lat="46.23137994198967" lon="6.85931945680661"><ele>1590.9</ele></trkpt><trkpt lat="46.231430375894355" lon="6.859330585361029"><ele>1589.1</ele></trkpt><trkpt lat="46.23146995545283" lon="6.859330163235281"><ele>1588.1</ele></trkpt><trkpt lat="46.23150043978749" lon="6.85931039399625"><ele>1587.1</ele></trkpt><trkpt lat="46.231539966080774" lon="6.859299602220808"><ele>1585.7</ele></trkpt><trkpt lat="46.23157959890461" lon="6.859309549713691"><ele>1583.8</ele></trkpt><trkpt lat="46.2316103428992" lon="6.859340332456593"><ele>1582.8</ele></trkpt><trkpt lat="46.231639693887864" lon="6.8594502030287225"><ele>1581.8</ele></trkpt><trkpt lat="46.23165978985017" lon="6.8595096175389045"><ele>1581.8</ele></trkpt><trkpt lat="46.2316899936275" lon="6.859610405257726"><ele>1578.9</ele></trkpt><trkpt lat="46.23173013877913" lon="6.859720161087942"><ele>1576.9</ele></trkpt><trkpt lat="46.2317501348073" lon="6.8597601326560165"><ele>1576.7</ele></trkpt><trkpt lat="46.231769977810565" lon="6.859770291426974"><ele>1576.4</ele></trkpt><trkpt lat="46.23182025200295" lon="6.859750311414092"><ele>1575.5</ele></trkpt><trkpt lat="46.23187041973767" lon="6.859709591968576"><ele>1573.5</ele></trkpt><trkpt lat="46.23190979968618" lon="6.85967028372014"><ele>1572.2</ele></trkpt><trkpt lat="46.231920441066755" lon="6.859640355752811"><ele>1572.2</ele></trkpt><trkpt lat="46.231960301247675" lon="6.859519376324201"><ele>1571.2</ele></trkpt><trkpt lat="46.231989679740046" lon="6.859459433937703"><ele>1569.5</ele></trkpt><trkpt lat="46.23206992561208" lon="6.859319875467065"><ele>1567.2</ele></trkpt><trkpt lat="46.23210025680303" lon="6.859270292998218"><ele>1565.7</ele></trkpt><trkpt lat="46.232129581889055" lon="6.859199980576269"><ele>1564.8</ele></trkpt><trkpt lat="46.23215011803488" lon="6.859169946834107"><ele>1564.3</ele></trkpt><trkpt lat="46.23215556852461" lon="6.859180259006514"><ele>1564.3</ele></trkpt><trkpt lat="46.23215011803488" lon="6.859169946834107"><ele>1564.3</ele></trkpt><trkpt lat="46.23215995964657" lon="6.859159471519631"><ele>1563.7</ele></trkpt><trkpt lat="46.232190190859754" lon="6.859090445582675"><ele>1562.5</ele></trkpt><trkpt lat="46.23220967423513" lon="6.859030608298699"><ele>1562.0</ele></trkpt><trkpt lat="46.23223989870756" lon="6.858960286006119"><ele>1560.5</ele></trkpt><trkpt lat="46.232260381489674" lon="6.858919882341174"><ele>1559.4</ele></trkpt><trkpt lat="46.232299807804914" lon="6.858889646795902"><ele>1555.1</ele></trkpt><trkpt lat="46.23234982863246" lon="6.858820409279832"><ele>1552.5</ele></trkpt><trkpt lat="46.232399896068884" lon="6.858760245209543"><ele>1550.2</ele></trkpt><trkpt lat="46.2324202254838" lon="6.858690028170665"><ele>1549.5</ele></trkpt><trkpt lat="46.23245008975807" lon="6.858549709217685"><ele>1550.1</ele></trkpt><trkpt lat="46.23245973129761" lon="6.8585003469494135"><ele>1549.8</ele></trkpt><trkpt lat="46.23249975030495" lon="6.8584104749357975"><ele>1546.7</ele></trkpt><trkpt lat="46.23251033800152" lon="6.858370176578995"><ele>1546.0</ele></trkpt><trkpt lat="46.232509924502615" lon="6.858289810486183"><ele>1546.4</ele></trkpt><trkpt lat="46.23249961605751" lon="6.858209550131902"><ele>1546.5</ele></trkpt><trkpt lat="46.23249016038886" lon="6.8581202066066"><ele>1545.6</ele></trkpt><trkpt lat="46.23247995191154" lon="6.858059389711835"><ele>1544.8</ele></trkpt><trkpt lat="46.2324899789064" lon="6.857910208251368"><ele>1542.6</ele></trkpt><trkpt lat="46.232489590053035" lon="6.85766002686863"><ele>1540.1</ele></trkpt><trkpt lat="46.232490407440295" lon="6.857469462292905"><ele>1538.2</ele></trkpt><trkpt lat="46.232479844556586" lon="6.857339945517019"><ele>1536.8</ele></trkpt><trkpt lat="46.232480122722755" lon="6.857219386828604"><ele>1535.8</ele></trkpt><trkpt lat="46.23245981838243" lon="6.857119789263524"><ele>1535.2</ele></trkpt><trkpt lat="46.232440105993014" lon="6.856960555768744"><ele>1533.8</ele></trkpt><trkpt lat="46.232409746063965" lon="6.856829954962292"><ele>1533.0</ele></trkpt><trkpt lat="46.23238023870245" lon="6.856690271096075"><ele>1531.5</ele></trkpt><trkpt lat="46.232369721752605" lon="6.8565698282998415"><ele>1530.7</ele></trkpt><trkpt lat="46.23235979641167" lon="6.856389749627912"><ele>1528.7</ele></trkpt><trkpt lat="46.2323603572816" lon="6.856149928995419"><ele>1526.9</ele></trkpt><trkpt lat="46.23235020130355" lon="6.856099482401116"><ele>1525.6</ele></trkpt><trkpt lat="46.232357410974835" lon="6.85610199766915"><ele>1525.6</ele></trkpt><trkpt lat="46.23235020130355" lon="6.856099482401116"><ele>1525.6</ele></trkpt><trkpt lat="46.23233033344673" lon="6.855910436473918"><ele>1524.3</ele></trkpt><trkpt lat="46.23229999419496" lon="6.855610021783929"><ele>1521.3</ele></trkpt><trkpt lat="46.232289683846055" lon="6.855529762246925"><ele>1520.5</ele></trkpt><trkpt lat="46.2322897589882" lon="6.855370317319512"><ele>1519.3</ele></trkpt><trkpt lat="46.23231024048652" lon="6.855329912265887"><ele>1519.0</ele></trkpt><trkpt lat="46.23232992970095" lon="6.855310256404814"><ele>1518.2</ele></trkpt><trkpt lat="46.232329567664046" lon="6.855240260382563"><ele>1517.5</ele></trkpt><trkpt lat="46.23232968934356" lon="6.855089888896086"><ele>1515.4</ele></trkpt><trkpt lat="46.23233028036324" lon="6.855030252991331"><ele>1514.8</ele></trkpt><trkpt lat="46.23233001877119" lon="6.854979700309506"><ele>1514.9</ele></trkpt><trkpt lat="46.23231991593703" lon="6.854939623740591"><ele>1514.3</ele></trkpt><trkpt lat="46.232309766127344" lon="6.854890473631771"><ele>1514.4</ele></trkpt><trkpt lat="46.23230024744482" lon="6.85478946499801"><ele>1513.3</ele></trkpt><trkpt lat="46.23228994322383" lon="6.854710501837687"><ele>1513.0</ele></trkpt><trkpt lat="46.232270274427115" lon="6.85456034326063"><ele>1510.7</ele></trkpt><trkpt lat="46.232269911925556" lon="6.854490347320067"><ele>1509.2</ele></trkpt><trkpt lat="46.232249806608806" lon="6.854429637776736"><ele>1509.4</ele></trkpt><trkpt lat="46.232240347950906" lon="6.854340295318377"><ele>1508.4</ele></trkpt><trkpt lat="46.23223013743882" lon="6.854279479411951"><ele>1508.4</ele></trkpt><trkpt lat="46.23221983286139" lon="6.854200516449938"><ele>1507.8</ele></trkpt><trkpt lat="46.23218037361678" lon="6.854050571236921"><ele>1506.2</ele></trkpt><trkpt lat="46.2321800107994" lon="6.853980575415382"><ele>1505.0</ele></trkpt><trkpt lat="46.23218002326475" lon="6.853809464837022"><ele>1499.1</ele></trkpt><trkpt lat="46.232179613243545" lon="6.85373039548544"><ele>1497.3</ele></trkpt><trkpt lat="46.2321904264736" lon="6.853560464855569"><ele>1493.1</ele></trkpt><trkpt lat="46.232199803561166" lon="6.853460549384976"><ele>1489.8</ele></trkpt><trkpt lat="46.23220971685038" lon="6.853290628332131"><ele>1486.4</ele></trkpt><trkpt lat="46.23221035401484" lon="6.853240066076023"><ele>1486.1</ele></trkpt><trkpt lat="46.232210044523086" lon="6.853180439977468"><ele>1485.8</ele></trkpt><trkpt lat="46.23218988466901" lon="6.853109361232628"><ele>1485.2</ele></trkpt><trkpt lat="46.23218968278516" lon="6.853070474661648"><ele>1484.8</ele></trkpt><trkpt lat="46.232190420803356" lon="6.8530393557071605"><ele>1484.6</ele></trkpt><trkpt lat="46.23220026857678" lon="6.853030175495194"><ele>1483.5</ele></trkpt><trkpt lat="46.232220112185644" lon="6.853040331895701"><ele>1481.9</ele></trkpt><trkpt lat="46.23223995579365" lon="6.853050488303616"><ele>1481.0</ele></trkpt><trkpt lat="46.23224000290273" lon="6.8530595618451855"><ele>1480.5</ele></trkpt><trkpt lat="46.23224630637695" lon="6.853060790182459"><ele>1480.5</ele></trkpt><trkpt lat="46.23224000290273" lon="6.8530595618451855"><ele>1480.5</ele></trkpt><trkpt lat="46.23226989617217" lon="6.853099424673778"><ele>1479.9</ele></trkpt><trkpt lat="46.23229000220376" lon="6.8531601337480295"><ele>1479.1</ele></trkpt><trkpt lat="46.232320258738895" lon="6.853269992664867"><ele>1478.4</ele></trkpt><trkpt lat="46.232350205749235" lon="6.853320225450933"><ele>1476.9</ele></trkpt><trkpt lat="46.23237999802975" lon="6.8533406451495225"><ele>1475.3</ele></trkpt><trkpt lat="46.23240004339824" lon="6.853389688419044"><ele>1474.2</ele></trkpt><trkpt lat="46.232420149273985" lon="6.8534503977457755"><ele>1472.9</ele></trkpt><trkpt lat="46.232450096204246" lon="6.85350063072337"><ele>1471.0</ele></trkpt><trkpt lat="46.23251962265092" lon="6.853550437417777"><ele>1467.3</ele></trkpt><trkpt lat="46.232540365748314" lon="6.853560584378308"><ele>1466.4</ele></trkpt><trkpt lat="46.23256041102141" lon="6.85360962787342"><ele>1465.8</ele></trkpt><trkpt lat="46.2326102552156" lon="6.8536803876041406"><ele>1464.8</ele></trkpt><trkpt lat="46.23265993803627" lon="6.853720037936953"><ele>1462.5</ele></trkpt><trkpt lat="46.23268988484688" lon="6.853770271284366"><ele>1461.1</ele></trkpt><trkpt lat="46.23272988110118" lon="6.853850211486858"><ele>1460.1</ele></trkpt><trkpt lat="46.23279041204439" lon="6.853900115722019"><ele>1458.2</ele></trkpt><trkpt lat="46.23280961139163" lon="6.853959539121844"><ele>1458.0</ele></trkpt><trkpt lat="46.23283971262688" lon="6.854039586135768"><ele>1458.6</ele></trkpt><trkpt lat="46.23288040668973" lon="6.854080630007827"><ele>1456.8</ele></trkpt><trkpt lat="46.23293019013337" lon="6.85413972445502"><ele>1454.3</ele></trkpt><trkpt lat="46.23298997589765" lon="6.854219452354407"><ele>1452.1</ele></trkpt><trkpt lat="46.23301039023919" lon="6.854339789627593"><ele>1451.8</ele></trkpt><trkpt lat="46.23302031198519" lon="6.85434486814138"><ele>1451.8</ele></trkpt><trkpt lat="46.23301039023919" lon="6.854339789627593"><ele>1451.8</ele></trkpt><trkpt lat="46.23302039256484" lon="6.854360423009087"><ele>1451.6</ele></trkpt><trkpt lat="46.2330501309405" lon="6.854370473611338"><ele>1450.1</ele></trkpt><trkpt lat="46.23306986699326" lon="6.854359890816833"><ele>1448.7</ele></trkpt><trkpt lat="46.23309030112307" lon="6.854310411118986"><ele>1446.8</ele></trkpt><trkpt lat="46.23312040210998" lon="6.854390458740008"><ele>1446.1</ele></trkpt><trkpt lat="46.2331201402317" lon="6.854339905327056"><ele>1446.3</ele></trkpt><trkpt lat="46.23311983132047" lon="6.8542802782252235"><ele>1446.5</ele></trkpt><trkpt lat="46.23312036818052" lon="6.854210271514782"><ele>1445.3</ele></trkpt><trkpt lat="46.23311026507304" lon="6.854170194506503"><ele>1445.2</ele></trkpt><trkpt lat="46.23308995804402" lon="6.85407059692557"><ele>1444.4</ele></trkpt><trkpt lat="46.233080438628186" lon="6.8539695869866595"><ele>1442.8</ele></trkpt><trkpt lat="46.233080129521554" lon="6.853909959930418"><ele>1441.7</ele></trkpt><trkpt lat="46.233079867428216" lon="6.853859406557178"><ele>1441.2</ele></trkpt><trkpt lat="46.233089661502255" lon="6.853839856419067"><ele>1440.6</ele></trkpt><trkpt lat="46.23311030376134" lon="6.853830559980426"><ele>1439.4</ele></trkpt><trkpt lat="46.23313024811006" lon="6.8538601604657465"><ele>1438.2</ele></trkpt><trkpt lat="46.233160241898865" lon="6.853919468020339"><ele>1437.3</ele></trkpt><trkpt lat="46.23321003214666" lon="6.853979858867505"><ele>1434.4</ele></trkpt><trkpt lat="46.23323987806068" lon="6.85401064920337"><ele>1433.5</ele></trkpt><trkpt lat="46.233259876110274" lon="6.854050619782362"><ele>1433.1</ele></trkpt><trkpt lat="46.2332800756784" lon="6.854129477744687"><ele>1432.4</ele></trkpt><trkpt lat="46.23331033798826" lon="6.854240635445664"><ele>1431.0</ele></trkpt><trkpt lat="46.23333038296676" lon="6.8542896798854285"><ele>1430.3</ele></trkpt><trkpt lat="46.23334038530174" lon="6.854310313379075"><ele>1430.5</ele></trkpt><trkpt lat="46.23336022879645" lon="6.854320470459367"><ele>1430.7</ele></trkpt><trkpt lat="46.233369827650655" lon="6.85408962231703"><ele>1427.8</ele></trkpt><trkpt lat="46.23338043309649" lon="6.853879504368526"><ele>1425.2</ele></trkpt><trkpt lat="46.233390347016595" lon="6.853709579704696"><ele>1423.1</ele></trkpt><trkpt lat="46.23339036579605" lon="6.853539761567255"><ele>1420.7</ele></trkpt><trkpt lat="46.23337979840685" lon="6.853410243411521"><ele>1418.3</ele></trkpt><trkpt lat="46.233360282609866" lon="6.853289895975947"><ele>1416.9</ele></trkpt><trkpt lat="46.233359818400004" lon="6.853200454937518"><ele>1416.3</ele></trkpt><trkpt lat="46.23338029912328" lon="6.853160048272287"><ele>1415.8</ele></trkpt><trkpt lat="46.23340998377736" lon="6.853159728300006"><ele>1415.3</ele></trkpt><trkpt lat="46.23342977354679" lon="6.8531595149849585"><ele>1415.1</ele></trkpt><trkpt lat="46.233449617145055" lon="6.853169671662215"><ele>1414.7</ele></trkpt><trkpt lat="46.2334704141044" lon="6.85319018864751"><ele>1414.2</ele></trkpt><trkpt lat="46.23348956673183" lon="6.853240538789459"><ele>1413.4</ele></trkpt><trkpt lat="46.23351966847733" lon="6.853320586406102"><ele>1412.0</ele></trkpt><trkpt lat="46.233549716358525" lon="6.853390264099544"><ele>1410.7</ele></trkpt><trkpt lat="46.23359970864298" lon="6.853489542474862"><ele>1408.7</ele></trkpt><trkpt lat="46.233679600647974" lon="6.853629981439586"><ele>1405.9</ele></trkpt><trkpt lat="46.23381012857423" lon="6.853820432445847"><ele>1400.6</ele></trkpt><trkpt lat="46.23414975197147" lon="6.8542601233530505"><ele>1386.8</ele></trkpt><trkpt lat="46.23433006209081" lon="6.854509673823422"><ele>1380.2</ele></trkpt><trkpt lat="46.23448037831056" lon="6.854699916458539"><ele>1376.0</ele></trkpt><trkpt lat="46.23457985058932" lon="6.85479996220391"><ele>1373.4</ele></trkpt><trkpt lat="46.23462958669566" lon="6.854849985213795"><ele>1371.8</ele></trkpt><trkpt lat="46.23479043517881" lon="6.85498955888506"><ele>1367.5</ele></trkpt><trkpt lat="46.234929694645764" lon="6.855129365313834"><ele>1362.0</ele></trkpt><trkpt lat="46.235079755067595" lon="6.855270352807918"><ele>1356.0</ele></trkpt><trkpt lat="46.23518996763952" lon="6.855359914453484"><ele>1351.6</ele></trkpt><trkpt lat="46.23519991615385" lon="6.855370178520938"><ele>1350.9</ele></trkpt><trkpt lat="46.235207119138934" lon="6.855371397532917"><ele>1350.9</ele></trkpt><trkpt lat="46.23519991615385" lon="6.855370178520938"><ele>1350.9</ele></trkpt><trkpt lat="46.23518996763952" lon="6.855359914453484"><ele>1351.6</ele></trkpt><trkpt lat="46.235200224489695" lon="6.855429807908712"><ele>1350.4</ele></trkpt><trkpt lat="46.235240273186655" lon="6.855520123356114"><ele>1349.4</ele></trkpt><trkpt lat="46.235290370807796" lon="6.855640147465053"><ele>1348.5</ele></trkpt><trkpt lat="46.235349617723074" lon="6.85578989003709"><ele>1347.7</ele></trkpt><trkpt lat="46.23544981226506" lon="6.8560299394552695"><ele>1345.9</ele></trkpt><trkpt lat="46.235529908628145" lon="6.856210572195234"><ele>1341.7</ele></trkpt><trkpt lat="46.23556026258467" lon="6.856339883846924"><ele>1339.7</ele></trkpt><trkpt lat="46.23562030775001" lon="6.856470173764564"><ele>1337.4</ele></trkpt><trkpt lat="46.2356600947088" lon="6.856509934891649"><ele>1335.7</ele></trkpt><trkpt lat="46.23571003743185" lon="6.85660014586139"><ele>1334.0</ele></trkpt><trkpt lat="46.23573003456714" lon="6.856640119207113"><ele>1333.4</ele></trkpt><trkpt lat="46.235779870181496" lon="6.856709589532083"><ele>1332.7</ele></trkpt><trkpt lat="46.23585034825647" lon="6.856769764192849"><ele>1331.9</ele></trkpt><trkpt lat="46.23589008830233" lon="6.85680045155361"><ele>1330.3</ele></trkpt><trkpt lat="46.23593977003443" lon="6.856840107126451"><ele>1329.1</ele></trkpt><trkpt lat="46.23601991189378" lon="6.857029816861356"><ele>1327.6</ele></trkpt><trkpt lat="46.236060012778154" lon="6.8571305053412255"><ele>1326.5</ele></trkpt><trkpt lat="46.23609021200131" lon="6.857230003579208"><ele>1325.8</ele></trkpt><trkpt lat="46.23612966703164" lon="6.8573799618744955"><ele>1324.5</ele></trkpt><trkpt lat="46.23617028184908" lon="6.857580467025138"><ele>1323.0</ele></trkpt><trkpt lat="46.23617973794571" lon="6.857669816500533"><ele>1322.6</ele></trkpt><trkpt lat="46.23618698096737" lon="6.857678813727943"><ele>1322.6</ele></trkpt></trkseg></trk></gpx>