<?xml version="1.0" encoding="UTF-8"?>
<gpx xmlns="http://www.topografix.com/GPX/1/1" xmlns:gpxtpx="http://www.garmin.com/xmlschemas/TrackPointExtension/v1" xmlns:gpxtrkx="http://www.garmin.com/xmlschemas/TrackStatsExtension/v1" xmlns:gpxx="http://www.garmin.com/xmlschemas/GpxExtensions/v3" xmlns:xsi="https://www.w3.org/2001/XMLSchema-instance" creator="bergfex GmbH" version="1.1" xsi:schemaLocation="https://www.topografix.com/GPX/1/1 https://www.topografix.com/GPX/1/1/gpx.xsd"><metadata><link href="https://www.bergfex.at"><text>bergfex GmbH</text></link></metadata><trk><name>Freeride-MTB-Strecke Bormio 3000 - Santa Caterina Valfurva</name><extensions><gpxtrkx:TrackStatsExtension><gpxtrkx:Distance>12490</gpxtrkx:Distance><gpxtrkx:TotalElapsedTime>15300</gpxtrkx:TotalElapsedTime><gpxtrkx:Ascent>162</gpxtrkx:Ascent><gpxtrkx:Descent>1397</gpxtrkx:Descent><gpxtrkx:MaxElevation>2993</gpxtrkx:MaxElevation><gpxtrkx:MinElevation>1723</gpxtrkx:MinElevation></gpxtrkx:TrackStatsExtension></extensions><trkseg><trkpt lat="46.42073" lon="10.410957"><ele>2997.0</ele></trkpt><trkpt lat="46.420262" lon="10.41055"><ele>2997.0</ele></trkpt><trkpt lat="46.41967" lon="10.409595"><ele>2985.0</ele></trkpt><trkpt lat="46.419323" lon="10.409305"><ele>2985.0</ele></trkpt><trkpt lat="46.418842" lon="10.409059"><ele>2981.0</ele></trkpt><trkpt lat="46.418036" lon="10.409209"><ele>2979.0</ele></trkpt><trkpt lat="46.417799" lon="10.409059"><ele>2976.0</ele></trkpt><trkpt lat="46.417496" lon="10.409241"><ele>2961.0</ele></trkpt><trkpt lat="46.417585" lon="10.409638"><ele>2954.0</ele></trkpt><trkpt lat="46.4172" lon="10.409466"><ele>2945.0</ele></trkpt><trkpt lat="46.41703" lon="10.409273"><ele>2944.0</ele></trkpt><trkpt lat="46.416542" lon="10.40937"><ele>2931.0</ele></trkpt><trkpt lat="46.416305" lon="10.409284"><ele>2926.0</ele></trkpt><trkpt lat="46.415972" lon="10.409048"><ele>2919.0</ele></trkpt><trkpt lat="46.415381" lon="10.40893"><ele>2907.0</ele></trkpt><trkpt lat="46.4149" lon="10.408576"><ele>2899.0</ele></trkpt><trkpt lat="46.414367" lon="10.408597"><ele>2885.0</ele></trkpt><trkpt lat="46.414249" lon="10.408447"><ele>2884.0</ele></trkpt><trkpt lat="46.41419" lon="10.4082"><ele>2887.0</ele></trkpt><trkpt lat="46.413968" lon="10.408158"><ele>2886.0</ele></trkpt><trkpt lat="46.413664" lon="10.407814"><ele>2887.0</ele></trkpt><trkpt lat="46.413465" lon="10.407911"><ele>2879.0</ele></trkpt><trkpt lat="46.413339" lon="10.407803"><ele>2882.0</ele></trkpt><trkpt lat="46.412895" lon="10.407857"><ele>2884.0</ele></trkpt><trkpt lat="46.41257" lon="10.407782"><ele>2879.0</ele></trkpt><trkpt lat="46.412207" lon="10.407246"><ele>2881.0</ele></trkpt><trkpt lat="46.412163" lon="10.406645"><ele>2897.0</ele></trkpt><trkpt lat="46.411948" lon="10.406055"><ele>2909.0</ele></trkpt><trkpt lat="46.411578" lon="10.405561"><ele>2917.0</ele></trkpt><trkpt lat="46.410794" lon="10.404842"><ele>2918.0</ele></trkpt><trkpt lat="46.410314" lon="10.404982"><ele>2910.0</ele></trkpt><trkpt lat="46.409951" lon="10.404778"><ele>2915.0</ele></trkpt><trkpt lat="46.409677" lon="10.404724"><ele>2906.0</ele></trkpt><trkpt lat="46.4093" lon="10.404767"><ele>2887.0</ele></trkpt><trkpt lat="46.408893" lon="10.404392"><ele>2881.0</ele></trkpt><trkpt lat="46.408568" lon="10.404274"><ele>2876.0</ele></trkpt><trkpt lat="46.407806" lon="10.404896"><ele>2858.0</ele></trkpt><trkpt lat="46.407791" lon="10.405057"><ele>2853.0</ele></trkpt><trkpt lat="46.407554" lon="10.40525"><ele>2849.0</ele></trkpt><trkpt lat="46.407258" lon="10.405164"><ele>2851.0</ele></trkpt><trkpt lat="46.407051" lon="10.404992"><ele>2848.0</ele></trkpt><trkpt lat="46.406474" lon="10.405239"><ele>2838.0</ele></trkpt><trkpt lat="46.406163" lon="10.405046"><ele>2837.0</ele></trkpt><trkpt lat="46.405068" lon="10.404724"><ele>2803.0</ele></trkpt><trkpt lat="46.40461" lon="10.40452"><ele>2796.0</ele></trkpt><trkpt lat="46.403966" lon="10.404209"><ele>2793.0</ele></trkpt><trkpt lat="46.403552" lon="10.403877"><ele>2788.0</ele></trkpt><trkpt lat="46.402486" lon="10.40378"><ele>2753.0</ele></trkpt><trkpt lat="46.402272" lon="10.403973"><ele>2744.0</ele></trkpt><trkpt lat="46.401917" lon="10.403566"><ele>2740.0</ele></trkpt><trkpt lat="46.401562" lon="10.40392"><ele>2735.0</ele></trkpt><trkpt lat="46.401613" lon="10.404113"><ele>2734.0</ele></trkpt><trkpt lat="46.401547" lon="10.404231"><ele>2734.0</ele></trkpt><trkpt lat="46.400999" lon="10.404853"><ele>2720.0</ele></trkpt><trkpt lat="46.400814" lon="10.406055"><ele>2719.0</ele></trkpt><trkpt lat="46.400622" lon="10.406012"><ele>2718.0</ele></trkpt><trkpt lat="46.400489" lon="10.406065"><ele>2720.0</ele></trkpt><trkpt lat="46.400149" lon="10.406505"><ele>2721.0</ele></trkpt><trkpt lat="46.399113" lon="10.40687"><ele>2717.0</ele></trkpt><trkpt lat="46.398713" lon="10.407353"><ele>2716.0</ele></trkpt><trkpt lat="46.398462" lon="10.407342"><ele>2715.0</ele></trkpt><trkpt lat="46.398447" lon="10.407546"><ele>2714.0</ele></trkpt><trkpt lat="46.397566" lon="10.407943"><ele>2707.0</ele></trkpt><trkpt lat="46.396012" lon="10.407932"><ele>2691.0</ele></trkpt><trkpt lat="46.39585" lon="10.40775"><ele>2690.0</ele></trkpt><trkpt lat="46.394584" lon="10.408372"><ele>2669.0</ele></trkpt><trkpt lat="46.394488" lon="10.40834"><ele>2668.0</ele></trkpt><trkpt lat="46.394451" lon="10.408748"><ele>2664.0</ele></trkpt><trkpt lat="46.395021" lon="10.409027"><ele>2657.0</ele></trkpt><trkpt lat="46.395383" lon="10.408973"><ele>2655.0</ele></trkpt><trkpt lat="46.396012" lon="10.409649"><ele>2641.0</ele></trkpt><trkpt lat="46.396789" lon="10.409992"><ele>2632.0</ele></trkpt><trkpt lat="46.397159" lon="10.410314"><ele>2627.0</ele></trkpt><trkpt lat="46.397366" lon="10.410732"><ele>2620.0</ele></trkpt><trkpt lat="46.397551" lon="10.4107"><ele>2623.0</ele></trkpt><trkpt lat="46.397744" lon="10.410936"><ele>2620.0</ele></trkpt><trkpt lat="46.39804" lon="10.410958"><ele>2621.0</ele></trkpt><trkpt lat="46.398099" lon="10.411097"><ele>2620.0</ele></trkpt><trkpt lat="46.398291" lon="10.411097"><ele>2626.0</ele></trkpt><trkpt lat="46.39909" lon="10.411913"><ele>2620.0</ele></trkpt><trkpt lat="46.399564" lon="10.412503"><ele>2617.0</ele></trkpt><trkpt lat="46.400178" lon="10.414166"><ele>2595.0</ele></trkpt><trkpt lat="46.400444" lon="10.414412"><ele>2595.0</ele></trkpt><trkpt lat="46.400496" lon="10.414638"><ele>2593.0</ele></trkpt><trkpt lat="46.401221" lon="10.415314"><ele>2582.0</ele></trkpt><trkpt lat="46.401273" lon="10.415711"><ele>2573.0</ele></trkpt><trkpt lat="46.401421" lon="10.415807"><ele>2567.0</ele></trkpt><trkpt lat="46.401517" lon="10.4157"><ele>2566.0</ele></trkpt><trkpt lat="46.401621" lon="10.415764"><ele>2562.0</ele></trkpt><trkpt lat="46.40165" lon="10.415936"><ele>2558.0</ele></trkpt><trkpt lat="46.401924" lon="10.416408"><ele>2537.0</ele></trkpt><trkpt lat="46.401872" lon="10.416623"><ele>2533.0</ele></trkpt><trkpt lat="46.402146" lon="10.416805"><ele>2521.0</ele></trkpt><trkpt lat="46.402183" lon="10.417041"><ele>2513.0</ele></trkpt><trkpt lat="46.402339" lon="10.417309"><ele>2505.0</ele></trkpt><trkpt lat="46.402568" lon="10.417363"><ele>2498.0</ele></trkpt><trkpt lat="46.40262" lon="10.417856"><ele>2492.0</ele></trkpt><trkpt lat="46.402916" lon="10.418296"><ele>2488.0</ele></trkpt><trkpt lat="46.403411" lon="10.418736"><ele>2483.0</ele></trkpt><trkpt lat="46.40424" lon="10.419315"><ele>2481.0</ele></trkpt><trkpt lat="46.405601" lon="10.41983"><ele>2467.0</ele></trkpt><trkpt lat="46.406237" lon="10.419906"><ele>2458.0</ele></trkpt><trkpt lat="46.40805" lon="10.42071"><ele>2438.0</ele></trkpt><trkpt lat="46.408523" lon="10.421139"><ele>2422.0</ele></trkpt><trkpt lat="46.409145" lon="10.421118"><ele>2416.0</ele></trkpt><trkpt lat="46.409381" lon="10.421654"><ele>2404.0</ele></trkpt><trkpt lat="46.409374" lon="10.421998"><ele>2399.0</ele></trkpt><trkpt lat="46.409744" lon="10.422266"><ele>2391.0</ele></trkpt><trkpt lat="46.410047" lon="10.422298"><ele>2379.0</ele></trkpt><trkpt lat="46.41021" lon="10.422706"><ele>2370.0</ele></trkpt><trkpt lat="46.410188" lon="10.423296"><ele>2362.0</ele></trkpt><trkpt lat="46.410291" lon="10.423639"><ele>2353.0</ele></trkpt><trkpt lat="46.410269" lon="10.424068"><ele>2351.0</ele></trkpt><trkpt lat="46.410114" lon="10.424347"><ele>2350.0</ele></trkpt><trkpt lat="46.410232" lon="10.424347"><ele>2343.0</ele></trkpt><trkpt lat="46.410232" lon="10.424498"><ele>2337.0</ele></trkpt><trkpt lat="46.410447" lon="10.424347"><ele>2328.0</ele></trkpt><trkpt lat="46.410417" lon="10.424701"><ele>2321.0</ele></trkpt><trkpt lat="46.410669" lon="10.424658"><ele>2312.0</ele></trkpt><trkpt lat="46.410698" lon="10.424959"><ele>2313.0</ele></trkpt><trkpt lat="46.411541" lon="10.42571"><ele>2293.0</ele></trkpt><trkpt lat="46.412163" lon="10.427598"><ele>2277.0</ele></trkpt><trkpt lat="46.412547" lon="10.428231"><ele>2282.0</ele></trkpt><trkpt lat="46.412784" lon="10.429315"><ele>2283.0</ele></trkpt><trkpt lat="46.41254" lon="10.430452"><ele>2276.0</ele></trkpt><trkpt lat="46.412333" lon="10.430785"><ele>2280.0</ele></trkpt><trkpt lat="46.412377" lon="10.431149"><ele>2277.0</ele></trkpt><trkpt lat="46.412185" lon="10.431718"><ele>2279.0</ele></trkpt><trkpt lat="46.412074" lon="10.433789"><ele>2292.0</ele></trkpt><trkpt lat="46.412192" lon="10.434057"><ele>2291.0</ele></trkpt><trkpt lat="46.412111" lon="10.43455"><ele>2299.0</ele></trkpt><trkpt lat="46.412" lon="10.434744"><ele>2304.0</ele></trkpt><trkpt lat="46.412266" lon="10.435237"><ele>2305.0</ele></trkpt><trkpt lat="46.411956" lon="10.436149"><ele>2305.0</ele></trkpt><trkpt lat="46.412022" lon="10.436289"><ele>2303.0</ele></trkpt><trkpt lat="46.411897" lon="10.43646"><ele>2310.0</ele></trkpt><trkpt lat="46.412067" lon="10.437211"><ele>2316.0</ele></trkpt><trkpt lat="46.412037" lon="10.43822"><ele>2325.0</ele></trkpt><trkpt lat="46.412451" lon="10.438499"><ele>2333.0</ele></trkpt><trkpt lat="46.412584" lon="10.438939"><ele>2336.0</ele></trkpt><trkpt lat="46.412481" lon="10.439711"><ele>2343.0</ele></trkpt><trkpt lat="46.412688" lon="10.440194"><ele>2345.0</ele></trkpt><trkpt lat="46.413028" lon="10.44029"><ele>2346.0</ele></trkpt><trkpt lat="46.413354" lon="10.440687"><ele>2355.0</ele></trkpt><trkpt lat="46.413509" lon="10.441127"><ele>2353.0</ele></trkpt><trkpt lat="46.413509" lon="10.441749"><ele>2347.0</ele></trkpt><trkpt lat="46.413724" lon="10.442018"><ele>2342.0</ele></trkpt><trkpt lat="46.414116" lon="10.442264"><ele>2340.0</ele></trkpt><trkpt lat="46.414345" lon="10.442973"><ele>2334.0</ele></trkpt><trkpt lat="46.4145" lon="10.443252"><ele>2326.0</ele></trkpt><trkpt lat="46.414485" lon="10.443584"><ele>2325.0</ele></trkpt><trkpt lat="46.415114" lon="10.444174"><ele>2311.0</ele></trkpt><trkpt lat="46.415011" lon="10.444668"><ele>2319.0</ele></trkpt><trkpt lat="46.415033" lon="10.444947"><ele>2321.0</ele></trkpt><trkpt lat="46.41487" lon="10.445623"><ele>2322.0</ele></trkpt><trkpt lat="46.415003" lon="10.445719"><ele>2319.0</ele></trkpt><trkpt lat="46.414988" lon="10.446159"><ele>2329.0</ele></trkpt><trkpt lat="46.414826" lon="10.446642"><ele>2336.0</ele></trkpt><trkpt lat="46.414685" lon="10.446738"><ele>2339.0</ele></trkpt><trkpt lat="46.414722" lon="10.446964"><ele>2344.0</ele></trkpt><trkpt lat="46.414574" lon="10.447296"><ele>2354.0</ele></trkpt><trkpt lat="46.414493" lon="10.447704"><ele>2357.0</ele></trkpt><trkpt lat="46.414138" lon="10.448444"><ele>2371.0</ele></trkpt><trkpt lat="46.414227" lon="10.449421"><ele>2381.0</ele></trkpt><trkpt lat="46.414175" lon="10.450032"><ele>2382.0</ele></trkpt><trkpt lat="46.41382" lon="10.450805"><ele>2384.0</ele></trkpt><trkpt lat="46.413546" lon="10.45103"><ele>2379.0</ele></trkpt><trkpt lat="46.41305" lon="10.451996"><ele>2373.0</ele></trkpt><trkpt lat="46.412747" lon="10.453176"><ele>2376.0</ele></trkpt><trkpt lat="46.412118" lon="10.454463"><ele>2371.0</ele></trkpt><trkpt lat="46.411741" lon="10.45501"><ele>2367.0</ele></trkpt><trkpt lat="46.411815" lon="10.4553"><ele>2365.0</ele></trkpt><trkpt lat="46.411615" lon="10.455665"><ele>2365.0</ele></trkpt><trkpt lat="46.411675" lon="10.456051"><ele>2361.0</ele></trkpt><trkpt lat="46.41129" lon="10.456738"><ele>2351.0</ele></trkpt><trkpt lat="46.411075" lon="10.456963"><ele>2353.0</ele></trkpt><trkpt lat="46.410617" lon="10.45721"><ele>2370.0</ele></trkpt><trkpt lat="46.410632" lon="10.457403"><ele>2367.0</ele></trkpt><trkpt lat="46.409315" lon="10.458798"><ele>2363.0</ele></trkpt><trkpt lat="46.409241" lon="10.459001"><ele>2358.0</ele></trkpt><trkpt lat="46.409411" lon="10.459066"><ele>2350.0</ele></trkpt><trkpt lat="46.409019" lon="10.4603"><ele>2325.0</ele></trkpt><trkpt lat="46.40859" lon="10.460793"><ele>2319.0</ele></trkpt><trkpt lat="46.408568" lon="10.461158"><ele>2308.0</ele></trkpt><trkpt lat="46.408316" lon="10.46163"><ele>2305.0</ele></trkpt><trkpt lat="46.408087" lon="10.461694"><ele>2306.0</ele></trkpt><trkpt lat="46.407821" lon="10.462145"><ele>2307.0</ele></trkpt><trkpt lat="46.407732" lon="10.462424"><ele>2305.0</ele></trkpt><trkpt lat="46.407391" lon="10.46266"><ele>2298.0</ele></trkpt><trkpt lat="46.407436" lon="10.46295"><ele>2294.0</ele></trkpt><trkpt lat="46.40734" lon="10.463121"><ele>2288.0</ele></trkpt><trkpt lat="46.407384" lon="10.463443"><ele>2281.0</ele></trkpt><trkpt lat="46.406985" lon="10.46355"><ele>2272.0</ele></trkpt><trkpt lat="46.406785" lon="10.463787"><ele>2263.0</ele></trkpt><trkpt lat="46.406607" lon="10.463851"><ele>2262.0</ele></trkpt><trkpt lat="46.408116" lon="10.466125"><ele>2208.0</ele></trkpt><trkpt lat="46.408531" lon="10.466887"><ele>2195.0</ele></trkpt><trkpt lat="46.408834" lon="10.467209"><ele>2181.0</ele></trkpt><trkpt lat="46.409056" lon="10.46767"><ele>2170.0</ele></trkpt><trkpt lat="46.409381" lon="10.46796"><ele>2153.0</ele></trkpt><trkpt lat="46.409648" lon="10.468582"><ele>2133.0</ele></trkpt><trkpt lat="46.409929" lon="10.468915"><ele>2121.0</ele></trkpt><trkpt lat="46.410114" lon="10.468904"><ele>2117.0</ele></trkpt><trkpt lat="46.411741" lon="10.470943"><ele>2051.0</ele></trkpt><trkpt lat="46.412525" lon="10.472262"><ele>2038.0</ele></trkpt><trkpt lat="46.412688" lon="10.472638"><ele>2028.0</ele></trkpt><trkpt lat="46.412836" lon="10.473185"><ele>2016.0</ele></trkpt><trkpt lat="46.413021" lon="10.473442"><ele>2005.0</ele></trkpt><trkpt lat="46.412984" lon="10.47414"><ele>1994.0</ele></trkpt><trkpt lat="46.413243" lon="10.474902"><ele>1975.0</ele></trkpt><trkpt lat="46.413339" lon="10.476371"><ele>1951.0</ele></trkpt><trkpt lat="46.413235" lon="10.476801"><ele>1944.0</ele></trkpt><trkpt lat="46.413539" lon="10.477165"><ele>1923.0</ele></trkpt><trkpt lat="46.413524" lon="10.477423"><ele>1917.0</ele></trkpt><trkpt lat="46.41342" lon="10.477627"><ele>1915.0</ele></trkpt><trkpt lat="46.413576" lon="10.47768"><ele>1907.0</ele></trkpt><trkpt lat="46.413524" lon="10.477949"><ele>1902.0</ele></trkpt><trkpt lat="46.41359" lon="10.478174"><ele>1893.0</ele></trkpt><trkpt lat="46.41345" lon="10.478764"><ele>1880.0</ele></trkpt><trkpt lat="46.413694" lon="10.478775"><ele>1872.0</ele></trkpt><trkpt lat="46.413857" lon="10.478968"><ele>1863.0</ele></trkpt><trkpt lat="46.41396" lon="10.479268"><ele>1854.0</ele></trkpt><trkpt lat="46.414227" lon="10.479365"><ele>1849.0</ele></trkpt><trkpt lat="46.41453" lon="10.479687"><ele>1840.0</ele></trkpt><trkpt lat="46.415034" lon="10.47978"><ele>1819.0</ele></trkpt><trkpt lat="46.414961" lon="10.479939"><ele>1822.0</ele></trkpt><trkpt lat="46.414804" lon="10.479971"><ele>1827.0</ele></trkpt><trkpt lat="46.414548" lon="10.480264"><ele>1818.0</ele></trkpt><trkpt lat="46.414241" lon="10.480162"><ele>1824.0</ele></trkpt><trkpt lat="46.414456" lon="10.481081"><ele>1813.0</ele></trkpt><trkpt lat="46.414451" lon="10.481445"><ele>1818.0</ele></trkpt><trkpt lat="46.414356" lon="10.48171"><ele>1817.0</ele></trkpt><trkpt lat="46.414936" lon="10.4826"><ele>1795.0</ele></trkpt><trkpt lat="46.415066" lon="10.482929"><ele>1787.0</ele></trkpt><trkpt lat="46.415007" lon="10.48342"><ele>1770.0</ele></trkpt><trkpt lat="46.414447" lon="10.484925"><ele>1768.0</ele></trkpt><trkpt lat="46.415327" lon="10.48556"><ele>1736.0</ele></trkpt><trkpt lat="46.41579" lon="10.486436"><ele>1715.0</ele></trkpt><trkpt lat="46.415858" lon="10.486981"><ele>1725.0</ele></trkpt><trkpt lat="46.41608" lon="10.48692"><ele>1730.0</ele></trkpt><trkpt lat="46.416208" lon="10.486444"><ele>1730.0</ele></trkpt></trkseg></trk></gpx>
