<?xml version="1.0" encoding="UTF-8" standalone="yes"?>
<gpx version="1.1" creator="outdooractive - http://www.outdooractive.com" xmlns="http://www.topografix.com/GPX/1/1" xmlns:oa="http://www.outdooractive.com/GPX/Extensions/1" xmlns:xsi="http://www.w3.org/2001/XMLSchema-instance" xsi:schemaLocation="http://www.topografix.com/GPX/1/1 http://www.topografix.com/GPX/1/1/gpx.xsd http://www.outdooractive.com/GPX/Extensions/1 https://www.outdooractive.com/schema/gpx_extensions.xsd">
  <metadata>
    <name>Crap Masegn Tour</name>
    <author>
      <name>Florian Frey - Flims Laax</name>
    </author>
    <link href="https://www.outdooractive.com/r/23434924"/>
    <time>2026-05-15T06:32:37.585Z</time>
    <extensions>
      <oa:oaCategory>mountainbiking</oa:oaCategory>
    </extensions>
  </metadata>
  <trk>
    <name>Crap Masegn Tour</name>
    <desc>Das alpine Enduro-Erlebnis in Flims Laax! Einsame und endlose Singletrails in der Berglandschaft und über weitläufige Alpwiesen - ein Trailfeuerwerk mit 1500 Tiefenmetern.</desc>
    <type>mountainbiking</type>
    <trkseg>
      <trkpt lat="46.83587" lon="9.214431">
        <ele>2218.59283</ele>
        <name>46.835354,9.215330</name>
        <extensions>
          <oa:Extension>
            <oa:mapZoom>13</oa:mapZoom>
          </oa:Extension>
        </extensions>
      </trkpt>
      <trkpt lat="46.836451" lon="9.213641">
        <ele>2225.01097</ele>
      </trkpt>
      <trkpt lat="46.83714" lon="9.213492">
        <ele>2232.6543</ele>
      </trkpt>
      <trkpt lat="46.83736" lon="9.21307">
        <ele>2232.20738</ele>
      </trkpt>
      <trkpt lat="46.837353" lon="9.2128">
        <ele>2231.54548</ele>
        <name>46.837353,9.212800</name>
        <extensions>
          <oa:Extension>
            <oa:mapZoom>14</oa:mapZoom>
          </oa:Extension>
        </extensions>
      </trkpt>
      <trkpt lat="46.83722" lon="9.212042">
        <ele>2233.71049</ele>
      </trkpt>
      <trkpt lat="46.837351" lon="9.211771">
        <ele>2235.78078</ele>
      </trkpt>
      <trkpt lat="46.83743" lon="9.210971">
        <ele>2236.8356</ele>
      </trkpt>
      <trkpt lat="46.83797" lon="9.20939">
        <ele>2254.74498</ele>
      </trkpt>
      <trkpt lat="46.838214" lon="9.206591">
        <ele>2278.05846</ele>
      </trkpt>
      <trkpt lat="46.83814" lon="9.205271">
        <ele>2275.53939</ele>
      </trkpt>
      <trkpt lat="46.838533" lon="9.20371">
        <ele>2286.58534</ele>
      </trkpt>
      <trkpt lat="46.838672" lon="9.20222">
        <ele>2294.10313</ele>
      </trkpt>
      <trkpt lat="46.83908" lon="9.201102">
        <ele>2298.00941</ele>
      </trkpt>
      <trkpt lat="46.83892" lon="9.200461">
        <ele>2300.29726</ele>
      </trkpt>
      <trkpt lat="46.8389" lon="9.19989">
        <ele>2298.61014</ele>
        <name>46.838900,9.199890</name>
        <extensions>
          <oa:Extension>
            <oa:mapZoom>14</oa:mapZoom>
          </oa:Extension>
        </extensions>
      </trkpt>
      <trkpt lat="46.839041" lon="9.199471">
        <ele>2296.00838</ele>
      </trkpt>
      <trkpt lat="46.839593" lon="9.198731">
        <ele>2291.62719</ele>
      </trkpt>
      <trkpt lat="46.839944" lon="9.1985">
        <ele>2292.82697</ele>
      </trkpt>
      <trkpt lat="46.84028" lon="9.197972">
        <ele>2298.73088</ele>
      </trkpt>
      <trkpt lat="46.8407" lon="9.19757">
        <ele>2304.05092</ele>
      </trkpt>
      <trkpt lat="46.841342" lon="9.19717">
        <ele>2312.08498</ele>
      </trkpt>
      <trkpt lat="46.84173" lon="9.195831">
        <ele>2322.02396</ele>
      </trkpt>
      <trkpt lat="46.842013" lon="9.1952">
        <ele>2326.6486</ele>
      </trkpt>
      <trkpt lat="46.84202" lon="9.194992">
        <ele>2328.53366</ele>
        <name>46.842020,9.194992</name>
        <extensions>
          <oa:Extension>
            <oa:mapZoom>14</oa:mapZoom>
          </oa:Extension>
        </extensions>
      </trkpt>
      <trkpt lat="46.841883" lon="9.1947">
        <ele>2330.9484</ele>
      </trkpt>
      <trkpt lat="46.8416" lon="9.19293">
        <ele>2348.64227</ele>
      </trkpt>
      <trkpt lat="46.84172" lon="9.19248">
        <ele>2351.50032</ele>
      </trkpt>
      <trkpt lat="46.842104" lon="9.192022">
        <ele>2360.13352</ele>
      </trkpt>
      <trkpt lat="46.84225" lon="9.190481">
        <ele>2371.15042</ele>
      </trkpt>
      <trkpt lat="46.84218" lon="9.18877">
        <ele>2381.53454</ele>
      </trkpt>
      <trkpt lat="46.84223" lon="9.18468">
        <ele>2418.74528</ele>
      </trkpt>
      <trkpt lat="46.84236" lon="9.183612">
        <ele>2426.05991</ele>
      </trkpt>
      <trkpt lat="46.842184" lon="9.182682">
        <ele>2434.00685</ele>
      </trkpt>
      <trkpt lat="46.842272" lon="9.1808">
        <ele>2465.79445</ele>
      </trkpt>
      <trkpt lat="46.84262" lon="9.18025">
        <ele>2468.24927</ele>
        <name>46.842620,9.180250</name>
        <extensions>
          <oa:Extension>
            <oa:mapZoom>14</oa:mapZoom>
          </oa:Extension>
        </extensions>
      </trkpt>
      <trkpt lat="46.842624" lon="9.180021">
        <ele>2468.56421</ele>
      </trkpt>
      <trkpt lat="46.843151" lon="9.179452">
        <ele>2455.64423</ele>
      </trkpt>
      <trkpt lat="46.84352" lon="9.1788">
        <ele>2454.26262</ele>
      </trkpt>
      <trkpt lat="46.844492" lon="9.17824">
        <ele>2437.2276</ele>
      </trkpt>
      <trkpt lat="46.844702" lon="9.177922">
        <ele>2432.88692</ele>
      </trkpt>
      <trkpt lat="46.84476" lon="9.177541">
        <ele>2424.89143</ele>
      </trkpt>
      <trkpt lat="46.845704" lon="9.17664">
        <ele>2418.07741</ele>
      </trkpt>
      <trkpt lat="46.84573" lon="9.17648">
        <ele>2422.74861</ele>
      </trkpt>
      <trkpt lat="46.846102" lon="9.17603">
        <ele>2426.66619</ele>
      </trkpt>
      <trkpt lat="46.847311" lon="9.17534">
        <ele>2426.72702</ele>
      </trkpt>
      <trkpt lat="46.84787" lon="9.17521">
        <ele>2441.41642</ele>
      </trkpt>
      <trkpt lat="46.847944" lon="9.175072">
        <ele>2446.46729</ele>
      </trkpt>
      <trkpt lat="46.848011" lon="9.175161">
        <ele>2448.52452</ele>
      </trkpt>
      <trkpt lat="46.8484" lon="9.174262">
        <ele>2457.376</ele>
      </trkpt>
      <trkpt lat="46.848743" lon="9.173881">
        <ele>2460.77452</ele>
      </trkpt>
      <trkpt lat="46.849102" lon="9.17317">
        <ele>2462.80544</ele>
      </trkpt>
      <trkpt lat="46.84928" lon="9.173072">
        <ele>2465.49789</ele>
        <name>46.849280,9.173072</name>
        <extensions>
          <oa:Extension>
            <oa:mapZoom>14</oa:mapZoom>
          </oa:Extension>
        </extensions>
      </trkpt>
      <trkpt lat="46.84956" lon="9.17319">
        <ele>2463.56267</ele>
      </trkpt>
      <trkpt lat="46.84987" lon="9.1731">
        <ele>2460.65936</ele>
      </trkpt>
      <trkpt lat="46.85027" lon="9.173281">
        <ele>2454.32252</ele>
      </trkpt>
      <trkpt lat="46.8505" lon="9.17431">
        <ele>2434.10556</ele>
      </trkpt>
      <trkpt lat="46.85065" lon="9.17368">
        <ele>2421.15531</ele>
      </trkpt>
      <trkpt lat="46.851051" lon="9.173221">
        <ele>2410.83262</ele>
        <name>46.851051,9.173221</name>
        <extensions>
          <oa:Extension>
            <oa:mapZoom>14</oa:mapZoom>
          </oa:Extension>
        </extensions>
      </trkpt>
      <trkpt lat="46.851452" lon="9.17265">
        <ele>2401.12739</ele>
      </trkpt>
      <trkpt lat="46.851594" lon="9.17224">
        <ele>2399.99292</ele>
      </trkpt>
      <trkpt lat="46.851823" lon="9.17209">
        <ele>2391.54052</ele>
      </trkpt>
      <trkpt lat="46.8521" lon="9.171462">
        <ele>2388.28239</ele>
      </trkpt>
      <trkpt lat="46.85221" lon="9.171442">
        <ele>2382.97167</ele>
      </trkpt>
      <trkpt lat="46.852314" lon="9.171221">
        <ele>2380.42442</ele>
      </trkpt>
      <trkpt lat="46.852961" lon="9.16955">
        <ele>2377.30329</ele>
      </trkpt>
      <trkpt lat="46.853175" lon="9.168611">
        <ele>2383.73942</ele>
      </trkpt>
      <trkpt lat="46.85363" lon="9.16851">
        <ele>2383.23728</ele>
        <name>46.853630,9.168510</name>
        <extensions>
          <oa:Extension>
            <oa:mapZoom>14</oa:mapZoom>
          </oa:Extension>
        </extensions>
      </trkpt>
      <trkpt lat="46.854382" lon="9.16882">
        <ele>2381.71561</ele>
      </trkpt>
      <trkpt lat="46.854741" lon="9.16882">
        <ele>2380.09823</ele>
      </trkpt>
      <trkpt lat="46.85495" lon="9.169652">
        <ele>2386.41542</ele>
      </trkpt>
      <trkpt lat="46.855204" lon="9.170152">
        <ele>2387.21931</ele>
      </trkpt>
      <trkpt lat="46.8553" lon="9.17019">
        <ele>2389.74511</ele>
      </trkpt>
      <trkpt lat="46.855493" lon="9.169841">
        <ele>2404.57735</ele>
      </trkpt>
      <trkpt lat="46.85575" lon="9.16989">
        <ele>2400.75028</ele>
      </trkpt>
      <trkpt lat="46.855963" lon="9.17053">
        <ele>2400.66523</ele>
        <name>46.855963,9.170530</name>
        <extensions>
          <oa:Extension>
            <oa:mapZoom>14</oa:mapZoom>
          </oa:Extension>
        </extensions>
      </trkpt>
      <trkpt lat="46.856054" lon="9.170582">
        <ele>2401.69082</ele>
      </trkpt>
      <trkpt lat="46.856281" lon="9.17122">
        <ele>2402.07162</ele>
      </trkpt>
      <trkpt lat="46.856455" lon="9.17215">
        <ele>2395.27214</ele>
      </trkpt>
      <trkpt lat="46.856574" lon="9.172372">
        <ele>2388.18653</ele>
      </trkpt>
      <trkpt lat="46.85638" lon="9.173301">
        <ele>2381.38297</ele>
      </trkpt>
      <trkpt lat="46.85644" lon="9.173922">
        <ele>2378.11381</ele>
      </trkpt>
      <trkpt lat="46.856534" lon="9.174001">
        <ele>2376.38118</ele>
        <name>46.856534,9.174001</name>
        <extensions>
          <oa:Extension>
            <oa:mapZoom>14</oa:mapZoom>
          </oa:Extension>
        </extensions>
      </trkpt>
      <trkpt lat="46.85695" lon="9.174581">
        <ele>2376.82556</ele>
      </trkpt>
      <trkpt lat="46.85718" lon="9.1746">
        <ele>2373.97165</ele>
      </trkpt>
      <trkpt lat="46.8575" lon="9.174911">
        <ele>2373.99423</ele>
      </trkpt>
      <trkpt lat="46.857484" lon="9.175132">
        <ele>2367.50842</ele>
      </trkpt>
      <trkpt lat="46.8578" lon="9.174951">
        <ele>2356.02991</ele>
      </trkpt>
      <trkpt lat="46.85802" lon="9.175101">
        <ele>2355.40445</ele>
      </trkpt>
      <trkpt lat="46.858553" lon="9.176372">
        <ele>2352.91646</ele>
      </trkpt>
      <trkpt lat="46.858983" lon="9.17661">
        <ele>2353.43548</ele>
      </trkpt>
      <trkpt lat="46.859212" lon="9.17688">
        <ele>2351.10723</ele>
      </trkpt>
      <trkpt lat="46.859364" lon="9.17753">
        <ele>2347.08629</ele>
      </trkpt>
      <trkpt lat="46.85931" lon="9.17783">
        <ele>2344.79594</ele>
      </trkpt>
      <trkpt lat="46.859422" lon="9.178331">
        <ele>2342.0543</ele>
      </trkpt>
      <trkpt lat="46.85984" lon="9.179201">
        <ele>2345.34645</ele>
        <name>46.859840,9.179201</name>
        <extensions>
          <oa:Extension>
            <oa:mapZoom>14</oa:mapZoom>
          </oa:Extension>
        </extensions>
      </trkpt>
      <trkpt lat="46.86011" lon="9.180671">
        <ele>2342.59173</ele>
      </trkpt>
      <trkpt lat="46.860013" lon="9.18106">
        <ele>2334.62413</ele>
      </trkpt>
      <trkpt lat="46.860114" lon="9.181462">
        <ele>2331.61255</ele>
      </trkpt>
      <trkpt lat="46.86005" lon="9.18208">
        <ele>2324.44421</ele>
      </trkpt>
      <trkpt lat="46.860193" lon="9.182531">
        <ele>2323.37526</ele>
      </trkpt>
      <trkpt lat="46.860171" lon="9.182971">
        <ele>2317.61894</ele>
      </trkpt>
      <trkpt lat="46.8604" lon="9.18344">
        <ele>2314.47983</ele>
      </trkpt>
      <trkpt lat="46.86039" lon="9.18462">
        <ele>2312.30364</ele>
      </trkpt>
      <trkpt lat="46.86063" lon="9.184581">
        <ele>2312.96004</ele>
      </trkpt>
      <trkpt lat="46.860874" lon="9.18496">
        <ele>2317.38242</ele>
      </trkpt>
      <trkpt lat="46.860931" lon="9.186291">
        <ele>2316.42026</ele>
      </trkpt>
      <trkpt lat="46.86085" lon="9.18683">
        <ele>2312.64267</ele>
      </trkpt>
      <trkpt lat="46.860971" lon="9.187381">
        <ele>2312.39937</ele>
      </trkpt>
      <trkpt lat="46.86092" lon="9.187892">
        <ele>2307.74198</ele>
      </trkpt>
      <trkpt lat="46.861061" lon="9.18879">
        <ele>2305.3069</ele>
      </trkpt>
      <trkpt lat="46.861011" lon="9.190882">
        <ele>2290.10254</ele>
      </trkpt>
      <trkpt lat="46.86112" lon="9.1916">
        <ele>2287.59702</ele>
      </trkpt>
      <trkpt lat="46.86086" lon="9.19341">
        <ele>2271.2562</ele>
      </trkpt>
      <trkpt lat="46.860964" lon="9.1943">
        <ele>2271.85089</ele>
      </trkpt>
      <trkpt lat="46.86081" lon="9.194791">
        <ele>2267.4366</ele>
      </trkpt>
      <trkpt lat="46.86089" lon="9.195902">
        <ele>2262.94554</ele>
      </trkpt>
      <trkpt lat="46.860774" lon="9.19647">
        <ele>2256.24993</ele>
        <name>46.860774,9.196470</name>
        <extensions>
          <oa:Extension>
            <oa:mapZoom>14</oa:mapZoom>
          </oa:Extension>
        </extensions>
      </trkpt>
      <trkpt lat="46.860554" lon="9.197322">
        <ele>2248.36851</ele>
      </trkpt>
      <trkpt lat="46.86046" lon="9.20005">
        <ele>2228.74023</ele>
      </trkpt>
      <trkpt lat="46.86026" lon="9.20077">
        <ele>2222.55165</ele>
      </trkpt>
      <trkpt lat="46.85985" lon="9.20179">
        <ele>2217.00358</ele>
      </trkpt>
      <trkpt lat="46.85892" lon="9.203132">
        <ele>2189.04847</ele>
      </trkpt>
      <trkpt lat="46.85816" lon="9.20467">
        <ele>2164.87987</ele>
      </trkpt>
      <trkpt lat="46.85793" lon="9.20525">
        <ele>2160.37595</ele>
      </trkpt>
      <trkpt lat="46.857874" lon="9.205822">
        <ele>2155.26309</ele>
      </trkpt>
      <trkpt lat="46.85763" lon="9.20648">
        <ele>2148.66593</ele>
      </trkpt>
      <trkpt lat="46.85756" lon="9.20695">
        <ele>2148.12752</ele>
        <name>46.857560,9.206950</name>
        <extensions>
          <oa:Extension>
            <oa:mapZoom>14</oa:mapZoom>
          </oa:Extension>
        </extensions>
      </trkpt>
      <trkpt lat="46.85744" lon="9.207122">
        <ele>2146.24133</ele>
      </trkpt>
      <trkpt lat="46.857274" lon="9.207152">
        <ele>2145.66254</ele>
      </trkpt>
      <trkpt lat="46.8567" lon="9.208151">
        <ele>2134.04455</ele>
      </trkpt>
      <trkpt lat="46.8562" lon="9.20842">
        <ele>2125.86229</ele>
      </trkpt>
      <trkpt lat="46.856111" lon="9.20869">
        <ele>2123.17258</ele>
      </trkpt>
      <trkpt lat="46.855511" lon="9.20938">
        <ele>2103.34574</ele>
      </trkpt>
      <trkpt lat="46.85546" lon="9.20965">
        <ele>2094.29001</ele>
        <name>46.855460,9.209650</name>
        <extensions>
          <oa:Extension>
            <oa:mapZoom>14</oa:mapZoom>
          </oa:Extension>
        </extensions>
      </trkpt>
      <trkpt lat="46.855361" lon="9.209711">
        <ele>2088.43191</ele>
      </trkpt>
      <trkpt lat="46.85504" lon="9.209551">
        <ele>2080.97832</ele>
      </trkpt>
      <trkpt lat="46.85488" lon="9.20965">
        <ele>2077.54043</ele>
      </trkpt>
      <trkpt lat="46.85473" lon="9.2094">
        <ele>2074.10798</ele>
      </trkpt>
      <trkpt lat="46.85409" lon="9.20959">
        <ele>2055.17095</ele>
      </trkpt>
      <trkpt lat="46.85361" lon="9.20951">
        <ele>2044.84818</ele>
      </trkpt>
      <trkpt lat="46.853014" lon="9.210321">
        <ele>2028.3541</ele>
        <name>46.853014,9.210321</name>
        <extensions>
          <oa:Extension>
            <oa:mapZoom>14</oa:mapZoom>
          </oa:Extension>
        </extensions>
      </trkpt>
      <trkpt lat="46.85284" lon="9.21042">
        <ele>2023.6483</ele>
      </trkpt>
      <trkpt lat="46.8523" lon="9.21134">
        <ele>2006.27664</ele>
      </trkpt>
      <trkpt lat="46.852152" lon="9.212181">
        <ele>1998.74053</ele>
      </trkpt>
      <trkpt lat="46.85185" lon="9.21311">
        <ele>1984.46863</ele>
      </trkpt>
      <trkpt lat="46.852048" lon="9.213492">
        <ele>1984.01035</ele>
      </trkpt>
      <trkpt lat="46.851168" lon="9.214474">
        <ele>1951.62506</ele>
      </trkpt>
      <trkpt lat="46.851467" lon="9.21689">
        <ele>1932.44985</ele>
      </trkpt>
      <trkpt lat="46.851376" lon="9.217529">
        <ele>1915.85488</ele>
      </trkpt>
      <trkpt lat="46.851438" lon="9.218336">
        <ele>1910.83128</ele>
      </trkpt>
      <trkpt lat="46.851133" lon="9.218932">
        <ele>1896.14135</ele>
      </trkpt>
      <trkpt lat="46.850621" lon="9.218797">
        <ele>1888.89002</ele>
      </trkpt>
      <trkpt lat="46.850496" lon="9.218167">
        <ele>1882.68986</ele>
        <name>46.850496,9.218167</name>
        <extensions>
          <oa:Extension>
            <oa:mapZoom>14</oa:mapZoom>
          </oa:Extension>
        </extensions>
      </trkpt>
      <trkpt lat="46.85036" lon="9.21768">
        <ele>1873.9324</ele>
      </trkpt>
      <trkpt lat="46.8493" lon="9.215371">
        <ele>1837.29334</ele>
        <name>46.849300,9.215371</name>
        <extensions>
          <oa:Extension>
            <oa:mapZoom>14</oa:mapZoom>
          </oa:Extension>
        </extensions>
      </trkpt>
      <trkpt lat="46.849221" lon="9.21544">
        <ele>1834.18547</ele>
      </trkpt>
      <trkpt lat="46.84915" lon="9.21708">
        <ele>1813.46318</ele>
      </trkpt>
      <trkpt lat="46.84923" lon="9.21745">
        <ele>1810.6736</ele>
      </trkpt>
      <trkpt lat="46.849181" lon="9.218991">
        <ele>1792.0718</ele>
      </trkpt>
      <trkpt lat="46.849364" lon="9.220678">
        <ele>1773.08666</ele>
      </trkpt>
      <trkpt lat="46.84836" lon="9.224797">
        <ele>1709.07527</ele>
      </trkpt>
      <trkpt lat="46.84769" lon="9.225788">
        <ele>1667.19403</ele>
      </trkpt>
      <trkpt lat="46.84735" lon="9.226611">
        <ele>1667.36143</ele>
      </trkpt>
      <trkpt lat="46.84717" lon="9.22875">
        <ele>1639.9699</ele>
      </trkpt>
      <trkpt lat="46.846801" lon="9.22932">
        <ele>1636.21863</ele>
      </trkpt>
      <trkpt lat="46.846783" lon="9.229611">
        <ele>1635.45224</ele>
        <name>46.846783,9.229611</name>
        <extensions>
          <oa:Extension>
            <oa:mapZoom>14</oa:mapZoom>
          </oa:Extension>
        </extensions>
      </trkpt>
      <trkpt lat="46.84632" lon="9.23028">
        <ele>1632.3995</ele>
      </trkpt>
      <trkpt lat="46.84598" lon="9.231221">
        <ele>1628.66189</ele>
      </trkpt>
      <trkpt lat="46.84592" lon="9.23216">
        <ele>1625.61949</ele>
      </trkpt>
      <trkpt lat="46.846031" lon="9.232411">
        <ele>1625.31601</ele>
      </trkpt>
      <trkpt lat="46.84596" lon="9.23298">
        <ele>1623.39503</ele>
      </trkpt>
      <trkpt lat="46.845772" lon="9.233202">
        <ele>1622.7204</ele>
      </trkpt>
      <trkpt lat="46.84541" lon="9.233341">
        <ele>1622.05792</ele>
      </trkpt>
      <trkpt lat="46.845181" lon="9.23394">
        <ele>1619.39124</ele>
      </trkpt>
      <trkpt lat="46.844793" lon="9.235901">
        <ele>1615.21749</ele>
      </trkpt>
      <trkpt lat="46.844581" lon="9.237882">
        <ele>1612.9283</ele>
      </trkpt>
      <trkpt lat="46.84356" lon="9.241201">
        <ele>1608.63359</ele>
      </trkpt>
      <trkpt lat="46.84341" lon="9.24222">
        <ele>1608.63567</ele>
      </trkpt>
      <trkpt lat="46.84311" lon="9.242741">
        <ele>1610.86184</ele>
      </trkpt>
      <trkpt lat="46.843082" lon="9.24307">
        <ele>1611.23476</ele>
      </trkpt>
      <trkpt lat="46.842942" lon="9.24299">
        <ele>1608.80316</ele>
      </trkpt>
      <trkpt lat="46.84279" lon="9.24312">
        <ele>1606.75366</ele>
      </trkpt>
      <trkpt lat="46.84302" lon="9.24409">
        <ele>1595.92233</ele>
        <name>46.843020,9.244090</name>
        <extensions>
          <oa:Extension>
            <oa:mapZoom>14</oa:mapZoom>
          </oa:Extension>
        </extensions>
      </trkpt>
      <trkpt lat="46.84231" lon="9.24461">
        <ele>1585.27556</ele>
      </trkpt>
      <trkpt lat="46.84196" lon="9.245152">
        <ele>1577.70184</ele>
      </trkpt>
      <trkpt lat="46.841812" lon="9.24589">
        <ele>1569.75139</ele>
      </trkpt>
      <trkpt lat="46.84106" lon="9.24758">
        <ele>1555.20741</ele>
        <name>46.841060,9.247580</name>
        <extensions>
          <oa:Extension>
            <oa:mapZoom>14</oa:mapZoom>
          </oa:Extension>
        </extensions>
      </trkpt>
      <trkpt lat="46.841" lon="9.24804">
        <ele>1553.2554</ele>
      </trkpt>
      <trkpt lat="46.84117" lon="9.24862">
        <ele>1551.16569</ele>
      </trkpt>
      <trkpt lat="46.841632" lon="9.24913">
        <ele>1548.81749</ele>
      </trkpt>
      <trkpt lat="46.84192" lon="9.24913">
        <ele>1547.2363</ele>
      </trkpt>
      <trkpt lat="46.842222" lon="9.24932">
        <ele>1546.52351</ele>
        <name>46.842222,9.249320</name>
        <extensions>
          <oa:Extension>
            <oa:mapZoom>14</oa:mapZoom>
          </oa:Extension>
        </extensions>
      </trkpt>
      <trkpt lat="46.84247" lon="9.250021">
        <ele>1545.26572</ele>
      </trkpt>
      <trkpt lat="46.842412" lon="9.25039">
        <ele>1544.77875</ele>
      </trkpt>
      <trkpt lat="46.842313" lon="9.25056">
        <ele>1543.98942</ele>
      </trkpt>
      <trkpt lat="46.841993" lon="9.25071">
        <ele>1543.75846</ele>
      </trkpt>
      <trkpt lat="46.84175" lon="9.251131">
        <ele>1540.04272</ele>
      </trkpt>
      <trkpt lat="46.84171" lon="9.25154">
        <ele>1535.1362</ele>
      </trkpt>
      <trkpt lat="46.84134" lon="9.252852">
        <ele>1517.74367</ele>
        <name>46.841340,9.252852</name>
        <extensions>
          <oa:Extension>
            <oa:mapZoom>14</oa:mapZoom>
          </oa:Extension>
        </extensions>
      </trkpt>
      <trkpt lat="46.84122" lon="9.252671">
        <ele>1513.72868</ele>
      </trkpt>
      <trkpt lat="46.84105" lon="9.252651">
        <ele>1507.79676</ele>
      </trkpt>
      <trkpt lat="46.84066" lon="9.252892">
        <ele>1497.32478</ele>
      </trkpt>
      <trkpt lat="46.84049" lon="9.253171">
        <ele>1489.91216</ele>
      </trkpt>
      <trkpt lat="46.84052" lon="9.253522">
        <ele>1485.2382</ele>
      </trkpt>
      <trkpt lat="46.84094" lon="9.25443">
        <ele>1475.0071</ele>
      </trkpt>
      <trkpt lat="46.84093" lon="9.25465">
        <ele>1473.85973</ele>
      </trkpt>
      <trkpt lat="46.8406" lon="9.25522">
        <ele>1461.20327</ele>
      </trkpt>
      <trkpt lat="46.840541" lon="9.25551">
        <ele>1457.49922</ele>
      </trkpt>
      <trkpt lat="46.84038" lon="9.25534">
        <ele>1453.17978</ele>
      </trkpt>
      <trkpt lat="46.8401" lon="9.255362">
        <ele>1450.94121</ele>
      </trkpt>
      <trkpt lat="46.83901" lon="9.256411">
        <ele>1412.14526</ele>
      </trkpt>
      <trkpt lat="46.83876" lon="9.25651">
        <ele>1407.11862</ele>
      </trkpt>
      <trkpt lat="46.838412" lon="9.25699">
        <ele>1391.26733</ele>
        <name>46.838412,9.256990</name>
        <extensions>
          <oa:Extension>
            <oa:mapZoom>14</oa:mapZoom>
          </oa:Extension>
        </extensions>
      </trkpt>
      <trkpt lat="46.838403" lon="9.257612">
        <ele>1388.37572</ele>
      </trkpt>
      <trkpt lat="46.83803" lon="9.25812">
        <ele>1380.26172</ele>
      </trkpt>
      <trkpt lat="46.83797" lon="9.25902">
        <ele>1371.46341</ele>
      </trkpt>
      <trkpt lat="46.838081" lon="9.25947">
        <ele>1362.78001</ele>
      </trkpt>
      <trkpt lat="46.8385" lon="9.25974">
        <ele>1355.15378</ele>
      </trkpt>
      <trkpt lat="46.838723" lon="9.26029">
        <ele>1354.32471</ele>
      </trkpt>
      <trkpt lat="46.839793" lon="9.26124">
        <ele>1355.47222</ele>
      </trkpt>
      <trkpt lat="46.839683" lon="9.26193">
        <ele>1354.78309</ele>
      </trkpt>
      <trkpt lat="46.83949" lon="9.26236">
        <ele>1350.76825</ele>
        <name>46.839490,9.262360</name>
        <extensions>
          <oa:Extension>
            <oa:mapZoom>14</oa:mapZoom>
          </oa:Extension>
        </extensions>
      </trkpt>
      <trkpt lat="46.838462" lon="9.2639">
        <ele>1342.85594</ele>
      </trkpt>
      <trkpt lat="46.837821" lon="9.264091">
        <ele>1339.41508</ele>
      </trkpt>
      <trkpt lat="46.83762" lon="9.26426">
        <ele>1338.62041</ele>
      </trkpt>
      <trkpt lat="46.83742" lon="9.2647">
        <ele>1335.69058</ele>
      </trkpt>
      <trkpt lat="46.8375" lon="9.265061">
        <ele>1329.64025</ele>
      </trkpt>
      <trkpt lat="46.83737" lon="9.26541">
        <ele>1325.75076</ele>
      </trkpt>
      <trkpt lat="46.83672" lon="9.26601">
        <ele>1317.28465</ele>
      </trkpt>
      <trkpt lat="46.836511" lon="9.266">
        <ele>1322.11943</ele>
      </trkpt>
      <trkpt lat="46.83634" lon="9.26643">
        <ele>1309.53569</ele>
      </trkpt>
      <trkpt lat="46.83597" lon="9.26677">
        <ele>1301.98759</ele>
      </trkpt>
      <trkpt lat="46.835381" lon="9.267011">
        <ele>1300.18874</ele>
      </trkpt>
      <trkpt lat="46.834561" lon="9.26787">
        <ele>1287.14682</ele>
      </trkpt>
      <trkpt lat="46.83422" lon="9.26793">
        <ele>1286.49457</ele>
      </trkpt>
      <trkpt lat="46.83335" lon="9.269">
        <ele>1283.24316</ele>
      </trkpt>
      <trkpt lat="46.83318" lon="9.26941">
        <ele>1279.1352</ele>
      </trkpt>
      <trkpt lat="46.83302" lon="9.269482">
        <ele>1275.49836</ele>
      </trkpt>
      <trkpt lat="46.83289" lon="9.27004">
        <ele>1272.45669</ele>
      </trkpt>
      <trkpt lat="46.83245" lon="9.27035">
        <ele>1262.11687</ele>
      </trkpt>
      <trkpt lat="46.83232" lon="9.270781">
        <ele>1257.66844</ele>
      </trkpt>
      <trkpt lat="46.83196" lon="9.27123">
        <ele>1250.53036</ele>
      </trkpt>
      <trkpt lat="46.83194" lon="9.271551">
        <ele>1247.03119</ele>
      </trkpt>
      <trkpt lat="46.83174" lon="9.27157">
        <ele>1244.0244</ele>
      </trkpt>
      <trkpt lat="46.831682" lon="9.271841">
        <ele>1241.13832</ele>
      </trkpt>
      <trkpt lat="46.83154" lon="9.271781">
        <ele>1238.13712</ele>
      </trkpt>
      <trkpt lat="46.831222" lon="9.27202">
        <ele>1232.97145</ele>
        <name>46.831222,9.272020</name>
        <extensions>
          <oa:Extension>
            <oa:mapZoom>14</oa:mapZoom>
          </oa:Extension>
        </extensions>
      </trkpt>
      <trkpt lat="46.831221" lon="9.27214">
        <ele>1233.64291</ele>
      </trkpt>
      <trkpt lat="46.83102" lon="9.27217">
        <ele>1229.12315</ele>
      </trkpt>
      <trkpt lat="46.83089" lon="9.27267">
        <ele>1226.23943</ele>
      </trkpt>
      <trkpt lat="46.830661" lon="9.27289">
        <ele>1222.67667</ele>
      </trkpt>
      <trkpt lat="46.83057" lon="9.273261">
        <ele>1220.77896</ele>
      </trkpt>
      <trkpt lat="46.83031" lon="9.27343">
        <ele>1218.55571</ele>
      </trkpt>
      <trkpt lat="46.82996" lon="9.27419">
        <ele>1207.73136</ele>
      </trkpt>
      <trkpt lat="46.829941" lon="9.27441">
        <ele>1205.72257</ele>
      </trkpt>
      <trkpt lat="46.83005" lon="9.274751">
        <ele>1203.08303</ele>
      </trkpt>
      <trkpt lat="46.82995" lon="9.27497">
        <ele>1201.77066</ele>
      </trkpt>
      <trkpt lat="46.829922" lon="9.275482">
        <ele>1195.20908</ele>
      </trkpt>
      <trkpt lat="46.82973" lon="9.27568">
        <ele>1191.48778</ele>
      </trkpt>
      <trkpt lat="46.82977" lon="9.27612">
        <ele>1186.77129</ele>
      </trkpt>
      <trkpt lat="46.82941" lon="9.277022">
        <ele>1179.55717</ele>
      </trkpt>
      <trkpt lat="46.82915" lon="9.2773">
        <ele>1179.73495</ele>
      </trkpt>
      <trkpt lat="46.82891" lon="9.277781">
        <ele>1173.19186</ele>
      </trkpt>
      <trkpt lat="46.82857" lon="9.27809">
        <ele>1167.95815</ele>
      </trkpt>
      <trkpt lat="46.828501" lon="9.27835">
        <ele>1166.00008</ele>
      </trkpt>
      <trkpt lat="46.828541" lon="9.27877">
        <ele>1162.438</ele>
      </trkpt>
      <trkpt lat="46.82835" lon="9.278921">
        <ele>1161.43828</ele>
      </trkpt>
      <trkpt lat="46.82796" lon="9.27983">
        <ele>1151.27511</ele>
      </trkpt>
      <trkpt lat="46.8272" lon="9.28097">
        <ele>1140.93353</ele>
      </trkpt>
      <trkpt lat="46.82686" lon="9.2811">
        <ele>1136.66521</ele>
      </trkpt>
      <trkpt lat="46.82678" lon="9.281371">
        <ele>1135.47309</ele>
        <name>46.826780,9.281371</name>
        <extensions>
          <oa:Extension>
            <oa:mapZoom>14</oa:mapZoom>
          </oa:Extension>
        </extensions>
      </trkpt>
      <trkpt lat="46.82666" lon="9.28143">
        <ele>1134.98884</ele>
      </trkpt>
      <trkpt lat="46.82649" lon="9.281841">
        <ele>1133.2525</ele>
      </trkpt>
      <trkpt lat="46.826342" lon="9.28139">
        <ele>1130.38106</ele>
      </trkpt>
      <trkpt lat="46.826" lon="9.281081">
        <ele>1125.46227</ele>
      </trkpt>
      <trkpt lat="46.82584" lon="9.28113">
        <ele>1123.72838</ele>
      </trkpt>
      <trkpt lat="46.8257" lon="9.281511">
        <ele>1121.36942</ele>
      </trkpt>
      <trkpt lat="46.82539" lon="9.28179">
        <ele>1117.21348</ele>
      </trkpt>
      <trkpt lat="46.82518" lon="9.28145">
        <ele>1113.01841</ele>
      </trkpt>
      <trkpt lat="46.82501" lon="9.281431">
        <ele>1111.76398</ele>
      </trkpt>
      <trkpt lat="46.824971" lon="9.281321">
        <ele>1111.63793</ele>
        <name>46.824971,9.281321</name>
        <extensions>
          <oa:Extension>
            <oa:mapZoom>14</oa:mapZoom>
          </oa:Extension>
        </extensions>
      </trkpt>
      <trkpt lat="46.824721" lon="9.28075">
        <ele>1111.99211</ele>
      </trkpt>
      <trkpt lat="46.824611" lon="9.280041">
        <ele>1112.10369</ele>
      </trkpt>
      <trkpt lat="46.824662" lon="9.2795">
        <ele>1111.90924</ele>
      </trkpt>
      <trkpt lat="46.82527" lon="9.27681">
        <ele>1110.91976</ele>
      </trkpt>
      <trkpt lat="46.82524" lon="9.27603">
        <ele>1109.73812</ele>
      </trkpt>
      <trkpt lat="46.82504" lon="9.27517">
        <ele>1112.77299</ele>
        <name>46.825040,9.275170</name>
        <extensions>
          <oa:Extension>
            <oa:mapZoom>14</oa:mapZoom>
          </oa:Extension>
        </extensions>
      </trkpt>
      <trkpt lat="46.82496" lon="9.274761">
        <ele>1113.16327</ele>
      </trkpt>
      <trkpt lat="46.82502" lon="9.27473">
        <ele>1113.40182</ele>
      </trkpt>
      <trkpt lat="46.82481" lon="9.27383">
        <ele>1111.60483</ele>
      </trkpt>
      <trkpt lat="46.82453" lon="9.27314">
        <ele>1110.86873</ele>
      </trkpt>
      <trkpt lat="46.82424" lon="9.2727">
        <ele>1110.4785</ele>
      </trkpt>
      <trkpt lat="46.8227" lon="9.27142">
        <ele>1108.95384</ele>
      </trkpt>
      <trkpt lat="46.821951" lon="9.27048">
        <ele>1107.66355</ele>
      </trkpt>
      <trkpt lat="46.82187" lon="9.270622">
        <ele>1107.88938</ele>
      </trkpt>
      <trkpt lat="46.82133" lon="9.270061">
        <ele>1106.56048</ele>
      </trkpt>
      <trkpt lat="46.821091" lon="9.27002">
        <ele>1106.99118</ele>
        <name>46.821091,9.270020</name>
        <extensions>
          <oa:Extension>
            <oa:mapZoom>14</oa:mapZoom>
          </oa:Extension>
        </extensions>
      </trkpt>
      <trkpt lat="46.82098" lon="9.27">
        <ele>1106.82643</ele>
      </trkpt>
      <trkpt lat="46.82099" lon="9.26961">
        <ele>1101.99959</ele>
      </trkpt>
      <trkpt lat="46.82121" lon="9.26914">
        <ele>1102.32487</ele>
      </trkpt>
      <trkpt lat="46.82127" lon="9.26845">
        <ele>1101.93996</ele>
      </trkpt>
      <trkpt lat="46.8214" lon="9.26824">
        <ele>1101.10851</ele>
      </trkpt>
      <trkpt lat="46.82147" lon="9.267561">
        <ele>1101.12535</ele>
      </trkpt>
      <trkpt lat="46.82161" lon="9.267171">
        <ele>1100.7586</ele>
      </trkpt>
      <trkpt lat="46.82183" lon="9.267041">
        <ele>1097.92436</ele>
      </trkpt>
      <trkpt lat="46.82233" lon="9.26711">
        <ele>1095.8522</ele>
        <name>46.822330,9.267110</name>
        <extensions>
          <oa:Extension>
            <oa:mapZoom>14</oa:mapZoom>
          </oa:Extension>
        </extensions>
      </trkpt>
      <trkpt lat="46.822352" lon="9.26696">
        <ele>1093.90598</ele>
      </trkpt>
      <trkpt lat="46.82151" lon="9.26596">
        <ele>1082.39243</ele>
      </trkpt>
      <trkpt lat="46.8208" lon="9.265631">
        <ele>1086.14291</ele>
      </trkpt>
      <trkpt lat="46.82056" lon="9.265421">
        <ele>1089.41555</ele>
      </trkpt>
      <trkpt lat="46.82034" lon="9.264981">
        <ele>1088.55306</ele>
      </trkpt>
      <trkpt lat="46.820017" lon="9.26506">
        <ele>1086.26232</ele>
        <name>46.820017,9.265060</name>
        <extensions>
          <oa:Extension>
            <oa:mapZoom>14</oa:mapZoom>
          </oa:Extension>
        </extensions>
      </trkpt>
    </trkseg>
  </trk>
</gpx>