<?xml version="1.0" encoding="UTF-8" standalone="yes"?>
<gpx version="1.1" creator="outdooractive - http://www.outdooractive.com" xmlns="http://www.topografix.com/GPX/1/1" xmlns:oa="http://www.outdooractive.com/GPX/Extensions/1" xmlns:xsi="http://www.w3.org/2001/XMLSchema-instance" xsi:schemaLocation="http://www.topografix.com/GPX/1/1 http://www.topografix.com/GPX/1/1/gpx.xsd http://www.outdooractive.com/GPX/Extensions/1 https://www.outdooractive.com/schema/gpx_extensions.xsd">
  <metadata>
    <name>Long Line Giggijoch</name>
    <author>
      <name>Jakob Falkner - Ötztal</name>
    </author>
    <link href="https://www.outdooractive.com/r/37756695"/>
    <time>2026-01-01T11:30:50.683Z</time>
    <extensions>
      <oa:oaCategory>mountainbiking</oa:oaCategory>
    </extensions>
  </metadata>
  <trk>
    <name>Long Line Giggijoch</name>
    <desc>Die längste Route der BIKE REPUBLIC SÖLDEN! Die Long Line Giggijoch verknüpft 5 Trails und serviert gewaltige 16 km von 1.300 m hinab ins Tal.</desc>
    <type>mountainbiking</type>
    <trkseg>
      <trkpt lat="46.965687" lon="10.958295">
        <ele>2657.88614</ele>
        <name>46.965687,10.958295</name>
        <extensions>
          <oa:Extension>
            <oa:mapZoom>17</oa:mapZoom>
          </oa:Extension>
        </extensions>
      </trkpt>
      <trkpt lat="46.965409" lon="10.958225">
        <ele>2655.88644</ele>
      </trkpt>
      <trkpt lat="46.965347" lon="10.95807">
        <ele>2654.7694</ele>
      </trkpt>
      <trkpt lat="46.965689" lon="10.956891">
        <ele>2641.04188</ele>
      </trkpt>
      <trkpt lat="46.965642" lon="10.956574">
        <ele>2636.8007</ele>
      </trkpt>
      <trkpt lat="46.965439" lon="10.956128">
        <ele>2630.98397</ele>
      </trkpt>
      <trkpt lat="46.965429" lon="10.955005">
        <ele>2625.4772</ele>
      </trkpt>
      <trkpt lat="46.965352" lon="10.954788">
        <ele>2623.76557</ele>
      </trkpt>
      <trkpt lat="46.965129" lon="10.954607">
        <ele>2620.24465</ele>
      </trkpt>
      <trkpt lat="46.964791" lon="10.953705">
        <ele>2621.45369</ele>
      </trkpt>
      <trkpt lat="46.964626" lon="10.953565">
        <ele>2621.3534</ele>
      </trkpt>
      <trkpt lat="46.964406" lon="10.953563">
        <ele>2620.47547</ele>
      </trkpt>
      <trkpt lat="46.963881" lon="10.954029">
        <ele>2622.70866</ele>
      </trkpt>
      <trkpt lat="46.963731" lon="10.954451">
        <ele>2616.29847</ele>
      </trkpt>
      <trkpt lat="46.963762" lon="10.955044">
        <ele>2614.80962</ele>
      </trkpt>
      <trkpt lat="46.963647" lon="10.95487">
        <ele>2612.77777</ele>
      </trkpt>
      <trkpt lat="46.963437" lon="10.954898">
        <ele>2609.24895</ele>
      </trkpt>
      <trkpt lat="46.962885" lon="10.954139">
        <ele>2597.77992</ele>
      </trkpt>
      <trkpt lat="46.962768" lon="10.954342">
        <ele>2595.09925</ele>
      </trkpt>
      <trkpt lat="46.962759" lon="10.954627">
        <ele>2592.95173</ele>
      </trkpt>
      <trkpt lat="46.96286" lon="10.954823">
        <ele>2591.42328</ele>
      </trkpt>
      <trkpt lat="46.962883" lon="10.955292">
        <ele>2589.62903</ele>
      </trkpt>
      <trkpt lat="46.962743" lon="10.95538">
        <ele>2587.24784</ele>
      </trkpt>
      <trkpt lat="46.962663" lon="10.955267">
        <ele>2585.20997</ele>
      </trkpt>
      <trkpt lat="46.962621" lon="10.955353">
        <ele>2584.13549</ele>
      </trkpt>
      <trkpt lat="46.962632" lon="10.955508">
        <ele>2583.37791</ele>
      </trkpt>
      <trkpt lat="46.962733" lon="10.955682">
        <ele>2582.67991</ele>
      </trkpt>
      <trkpt lat="46.963285" lon="10.956067">
        <ele>2576.3673</ele>
      </trkpt>
      <trkpt lat="46.963336" lon="10.956653">
        <ele>2573.76139</ele>
      </trkpt>
      <trkpt lat="46.963517" lon="10.956956">
        <ele>2572.80759</ele>
      </trkpt>
      <trkpt lat="46.963511" lon="10.957165">
        <ele>2571.0213</ele>
      </trkpt>
      <trkpt lat="46.963566" lon="10.957339">
        <ele>2570.34603</ele>
      </trkpt>
      <trkpt lat="46.963515" lon="10.95741">
        <ele>2568.53924</ele>
      </trkpt>
      <trkpt lat="46.963226" lon="10.956925">
        <ele>2566.17671</ele>
      </trkpt>
      <trkpt lat="46.963301" lon="10.9574">
        <ele>2562.16462</ele>
      </trkpt>
      <trkpt lat="46.963263" lon="10.95789">
        <ele>2557.58426</ele>
      </trkpt>
      <trkpt lat="46.963224" lon="10.957889">
        <ele>2555.86902</ele>
      </trkpt>
      <trkpt lat="46.963212" lon="10.95769">
        <ele>2556.17469</ele>
      </trkpt>
      <trkpt lat="46.963079" lon="10.957399">
        <ele>2554.13565</ele>
      </trkpt>
      <trkpt lat="46.963046" lon="10.957461">
        <ele>2551.55828</ele>
      </trkpt>
      <trkpt lat="46.963099" lon="10.957626">
        <ele>2551.36264</ele>
      </trkpt>
      <trkpt lat="46.963112" lon="10.958134">
        <ele>2549.44434</ele>
      </trkpt>
      <trkpt lat="46.963063" lon="10.958114">
        <ele>2547.7224</ele>
      </trkpt>
      <trkpt lat="46.962949" lon="10.957537">
        <ele>2545.53644</ele>
      </trkpt>
      <trkpt lat="46.96286" lon="10.957948">
        <ele>2539.42668</ele>
      </trkpt>
      <trkpt lat="46.962933" lon="10.958463">
        <ele>2535.30028</ele>
      </trkpt>
      <trkpt lat="46.963246" lon="10.958898">
        <ele>2531.53538</ele>
      </trkpt>
      <trkpt lat="46.963198" lon="10.958941">
        <ele>2529.41439</ele>
      </trkpt>
      <trkpt lat="46.962972" lon="10.958814">
        <ele>2528.83483</ele>
      </trkpt>
      <trkpt lat="46.963148" lon="10.95901">
        <ele>2526.78838</ele>
      </trkpt>
      <trkpt lat="46.963223" lon="10.959266">
        <ele>2524.14056</ele>
      </trkpt>
      <trkpt lat="46.963302" lon="10.959366">
        <ele>2524.64539</ele>
      </trkpt>
      <trkpt lat="46.963319" lon="10.959578">
        <ele>2523.49285</ele>
      </trkpt>
      <trkpt lat="46.963185" lon="10.959341">
        <ele>2522.31429</ele>
      </trkpt>
      <trkpt lat="46.963178" lon="10.959566">
        <ele>2520.49614</ele>
      </trkpt>
      <trkpt lat="46.963261" lon="10.959862">
        <ele>2519.10459</ele>
      </trkpt>
      <trkpt lat="46.963401" lon="10.960125">
        <ele>2517.26995</ele>
      </trkpt>
      <trkpt lat="46.963358" lon="10.960175">
        <ele>2515.42757</ele>
      </trkpt>
      <trkpt lat="46.963278" lon="10.960095">
        <ele>2514.76664</ele>
      </trkpt>
      <trkpt lat="46.962876" lon="10.95938">
        <ele>2513.86823</ele>
      </trkpt>
      <trkpt lat="46.963199" lon="10.960781">
        <ele>2499.92526</ele>
      </trkpt>
      <trkpt lat="46.963117" lon="10.960814">
        <ele>2496.85911</ele>
      </trkpt>
      <trkpt lat="46.962992" lon="10.960271">
        <ele>2497.53005</ele>
      </trkpt>
      <trkpt lat="46.962888" lon="10.960103">
        <ele>2496.80966</ele>
      </trkpt>
      <trkpt lat="46.962958" lon="10.9612">
        <ele>2485.69846</ele>
      </trkpt>
      <trkpt lat="46.96303" lon="10.961328">
        <ele>2486.44861</ele>
      </trkpt>
      <trkpt lat="46.963104" lon="10.961736">
        <ele>2482.23982</ele>
      </trkpt>
      <trkpt lat="46.963595" lon="10.962301">
        <ele>2473.96124</ele>
      </trkpt>
      <trkpt lat="46.964292" lon="10.963684">
        <ele>2462.91367</ele>
      </trkpt>
      <trkpt lat="46.964718" lon="10.964316">
        <ele>2457.56015</ele>
      </trkpt>
      <trkpt lat="46.965135" lon="10.964619">
        <ele>2452.15925</ele>
      </trkpt>
      <trkpt lat="46.965659" lon="10.965255">
        <ele>2452.14177</ele>
      </trkpt>
      <trkpt lat="46.965986" lon="10.965485">
        <ele>2451.39289</ele>
      </trkpt>
      <trkpt lat="46.96618" lon="10.965801">
        <ele>2451.88296</ele>
      </trkpt>
      <trkpt lat="46.966741" lon="10.966475">
        <ele>2449.95786</ele>
      </trkpt>
      <trkpt lat="46.9669" lon="10.966529">
        <ele>2451.02661</ele>
      </trkpt>
      <trkpt lat="46.967093" lon="10.966461">
        <ele>2450.63278</ele>
      </trkpt>
      <trkpt lat="46.967331" lon="10.966484">
        <ele>2449.83576</ele>
      </trkpt>
      <trkpt lat="46.967678" lon="10.966756">
        <ele>2450.30465</ele>
      </trkpt>
      <trkpt lat="46.968346" lon="10.966917">
        <ele>2449.11141</ele>
      </trkpt>
      <trkpt lat="46.968894" lon="10.967204">
        <ele>2448.35531</ele>
      </trkpt>
      <trkpt lat="46.96931" lon="10.967763">
        <ele>2448.61525</ele>
      </trkpt>
      <trkpt lat="46.969933" lon="10.968809">
        <ele>2443.2876</ele>
      </trkpt>
      <trkpt lat="46.970574" lon="10.969399">
        <ele>2440.35731</ele>
      </trkpt>
      <trkpt lat="46.970921" lon="10.969322">
        <ele>2438.53424</ele>
      </trkpt>
      <trkpt lat="46.970918" lon="10.969428">
        <ele>2436.75744</ele>
      </trkpt>
      <trkpt lat="46.970691" lon="10.969587">
        <ele>2435.23296</ele>
      </trkpt>
      <trkpt lat="46.97072" lon="10.969649">
        <ele>2433.64597</ele>
      </trkpt>
      <trkpt lat="46.970861" lon="10.969594">
        <ele>2433.39457</ele>
      </trkpt>
      <trkpt lat="46.970796" lon="10.969778">
        <ele>2431.70044</ele>
      </trkpt>
      <trkpt lat="46.970835" lon="10.969863">
        <ele>2430.88955</ele>
      </trkpt>
      <trkpt lat="46.970973" lon="10.969787">
        <ele>2431.26023</ele>
      </trkpt>
      <trkpt lat="46.971464" lon="10.969267">
        <ele>2428.9983</ele>
      </trkpt>
      <trkpt lat="46.971848" lon="10.969069">
        <ele>2428.81638</ele>
      </trkpt>
      <trkpt lat="46.971839" lon="10.969166">
        <ele>2426.88811</ele>
      </trkpt>
      <trkpt lat="46.971606" lon="10.969371">
        <ele>2424.74164</ele>
      </trkpt>
      <trkpt lat="46.97159" lon="10.969455">
        <ele>2423.00795</ele>
      </trkpt>
      <trkpt lat="46.97168" lon="10.969455">
        <ele>2422.28216</ele>
      </trkpt>
      <trkpt lat="46.971953" lon="10.969243">
        <ele>2423.41413</ele>
      </trkpt>
      <trkpt lat="46.971997" lon="10.969329">
        <ele>2421.44844</ele>
      </trkpt>
      <trkpt lat="46.97164" lon="10.969686">
        <ele>2417.82365</ele>
      </trkpt>
      <trkpt lat="46.971535" lon="10.969902">
        <ele>2414.47055</ele>
      </trkpt>
      <trkpt lat="46.971413" lon="10.970017">
        <ele>2413.67593</ele>
      </trkpt>
      <trkpt lat="46.971349" lon="10.970189">
        <ele>2413.80922</ele>
      </trkpt>
      <trkpt lat="46.971363" lon="10.97032">
        <ele>2412.07202</ele>
      </trkpt>
      <trkpt lat="46.971688" lon="10.969968">
        <ele>2410.89339</ele>
      </trkpt>
      <trkpt lat="46.97173" lon="10.970078">
        <ele>2409.06724</ele>
      </trkpt>
      <trkpt lat="46.971615" lon="10.970313">
        <ele>2408.08306</ele>
      </trkpt>
      <trkpt lat="46.971838" lon="10.97023">
        <ele>2407.77026</ele>
      </trkpt>
      <trkpt lat="46.971888" lon="10.970536">
        <ele>2406.1677</ele>
      </trkpt>
      <trkpt lat="46.972037" lon="10.970692">
        <ele>2402.77492</ele>
      </trkpt>
      <trkpt lat="46.972773" lon="10.970504">
        <ele>2394.33458</ele>
      </trkpt>
      <trkpt lat="46.97292" lon="10.97036">
        <ele>2393.14217</ele>
      </trkpt>
      <trkpt lat="46.97355" lon="10.97043">
        <ele>2381.14867</ele>
      </trkpt>
      <trkpt lat="46.97409" lon="10.97069">
        <ele>2372.86524</ele>
      </trkpt>
      <trkpt lat="46.97511" lon="10.97071">
        <ele>2351.71082</ele>
      </trkpt>
      <trkpt lat="46.9754" lon="10.97085">
        <ele>2347.85008</ele>
      </trkpt>
      <trkpt lat="46.97554" lon="10.97105">
        <ele>2343.47661</ele>
      </trkpt>
      <trkpt lat="46.97556" lon="10.97117">
        <ele>2341.07046</ele>
      </trkpt>
      <trkpt lat="46.97546" lon="10.97141">
        <ele>2336.8651</ele>
      </trkpt>
      <trkpt lat="46.97488" lon="10.97207">
        <ele>2328.47488</ele>
      </trkpt>
      <trkpt lat="46.97428" lon="10.97309">
        <ele>2312.5752</ele>
      </trkpt>
      <trkpt lat="46.97419" lon="10.97343">
        <ele>2308.08106</ele>
      </trkpt>
      <trkpt lat="46.97425" lon="10.97363">
        <ele>2306.34846</ele>
      </trkpt>
      <trkpt lat="46.97473" lon="10.97451">
        <ele>2289.49646</ele>
      </trkpt>
      <trkpt lat="46.975011" lon="10.974784">
        <ele>2283.56418</ele>
        <name>46.975011,10.974784</name>
        <extensions>
          <oa:Extension>
            <oa:mapZoom>17</oa:mapZoom>
          </oa:Extension>
        </extensions>
      </trkpt>
      <trkpt lat="46.975231" lon="10.97502">
        <ele>2279.89712</ele>
      </trkpt>
      <trkpt lat="46.975579" lon="10.975614">
        <ele>2276.96651</ele>
      </trkpt>
      <trkpt lat="46.975326" lon="10.975492">
        <ele>2277.40604</ele>
      </trkpt>
      <trkpt lat="46.97515" lon="10.97546">
        <ele>2277.21521</ele>
      </trkpt>
      <trkpt lat="46.974931" lon="10.975471">
        <ele>2277.29496</ele>
      </trkpt>
      <trkpt lat="46.97473" lon="10.975578">
        <ele>2275.30233</ele>
      </trkpt>
      <trkpt lat="46.974509" lon="10.97516">
        <ele>2277.17934</ele>
      </trkpt>
      <trkpt lat="46.974194" lon="10.974823">
        <ele>2275.29676</ele>
      </trkpt>
      <trkpt lat="46.974237" lon="10.974949">
        <ele>2272.66601</ele>
      </trkpt>
      <trkpt lat="46.974541" lon="10.9753">
        <ele>2273.25125</ele>
      </trkpt>
      <trkpt lat="46.974785" lon="10.975921">
        <ele>2268.10751</ele>
      </trkpt>
      <trkpt lat="46.974735" lon="10.975927">
        <ele>2264.37334</ele>
      </trkpt>
      <trkpt lat="46.974471" lon="10.975432">
        <ele>2263.32188</ele>
      </trkpt>
      <trkpt lat="46.97413" lon="10.975086">
        <ele>2261.98054</ele>
      </trkpt>
      <trkpt lat="46.974091" lon="10.975159">
        <ele>2257.80177</ele>
      </trkpt>
      <trkpt lat="46.974396" lon="10.975439">
        <ele>2258.8928</ele>
      </trkpt>
      <trkpt lat="46.9744" lon="10.975506">
        <ele>2256.53092</ele>
      </trkpt>
      <trkpt lat="46.97404" lon="10.975231">
        <ele>2253.25003</ele>
      </trkpt>
      <trkpt lat="46.973997" lon="10.975302">
        <ele>2249.57761</ele>
      </trkpt>
      <trkpt lat="46.974365" lon="10.975634">
        <ele>2250.27586</ele>
      </trkpt>
      <trkpt lat="46.974808" lon="10.976998">
        <ele>2242.46832</ele>
      </trkpt>
      <trkpt lat="46.974942" lon="10.977179">
        <ele>2241.39109</ele>
      </trkpt>
      <trkpt lat="46.974905" lon="10.977216">
        <ele>2238.95492</ele>
      </trkpt>
      <trkpt lat="46.974781" lon="10.977103">
        <ele>2238.74916</ele>
      </trkpt>
      <trkpt lat="46.974513" lon="10.976452">
        <ele>2234.43608</ele>
      </trkpt>
      <trkpt lat="46.974358" lon="10.976215">
        <ele>2232.80103</ele>
      </trkpt>
      <trkpt lat="46.974568" lon="10.976914">
        <ele>2227.96435</ele>
      </trkpt>
      <trkpt lat="46.974626" lon="10.977403">
        <ele>2224.89896</ele>
      </trkpt>
      <trkpt lat="46.974889" lon="10.977554">
        <ele>2224.59773</ele>
      </trkpt>
      <trkpt lat="46.974859" lon="10.977615">
        <ele>2221.65842</ele>
      </trkpt>
      <trkpt lat="46.974558" lon="10.977534">
        <ele>2219.45113</ele>
      </trkpt>
      <trkpt lat="46.974481" lon="10.977145">
        <ele>2219.12574</ele>
      </trkpt>
      <trkpt lat="46.974424" lon="10.977142">
        <ele>2215.29153</ele>
      </trkpt>
      <trkpt lat="46.974517" lon="10.977668">
        <ele>2214.19698</ele>
      </trkpt>
      <trkpt lat="46.974786" lon="10.977899">
        <ele>2211.88425</ele>
      </trkpt>
      <trkpt lat="46.974791" lon="10.977993">
        <ele>2209.30339</ele>
      </trkpt>
      <trkpt lat="46.974438" lon="10.977851">
        <ele>2206.31763</ele>
      </trkpt>
      <trkpt lat="46.97418" lon="10.977054">
        <ele>2201.33354</ele>
      </trkpt>
      <trkpt lat="46.974121" lon="10.977085">
        <ele>2197.2022</ele>
      </trkpt>
      <trkpt lat="46.974312" lon="10.978092">
        <ele>2193.63404</ele>
      </trkpt>
      <trkpt lat="46.97457" lon="10.978231">
        <ele>2192.9388</ele>
      </trkpt>
      <trkpt lat="46.974727" lon="10.978417">
        <ele>2189.54783</ele>
      </trkpt>
      <trkpt lat="46.974685" lon="10.978456">
        <ele>2188.44036</ele>
      </trkpt>
      <trkpt lat="46.974353" lon="10.978371">
        <ele>2186.37111</ele>
      </trkpt>
      <trkpt lat="46.974361" lon="10.978448">
        <ele>2184.792</ele>
      </trkpt>
      <trkpt lat="46.974473" lon="10.978492">
        <ele>2184.97434</ele>
      </trkpt>
      <trkpt lat="46.97459" lon="10.978664">
        <ele>2182.30842</ele>
      </trkpt>
      <trkpt lat="46.974273" lon="10.97869">
        <ele>2179.47001</ele>
      </trkpt>
      <trkpt lat="46.974276" lon="10.978766">
        <ele>2178.30341</ele>
      </trkpt>
      <trkpt lat="46.974395" lon="10.978776">
        <ele>2177.45484</ele>
      </trkpt>
      <trkpt lat="46.974419" lon="10.978838">
        <ele>2176.11605</ele>
      </trkpt>
      <trkpt lat="46.974297" lon="10.978937">
        <ele>2175.34098</ele>
      </trkpt>
      <trkpt lat="46.974186" lon="10.979302">
        <ele>2173.01509</ele>
      </trkpt>
      <trkpt lat="46.974239" lon="10.979335">
        <ele>2171.92949</ele>
      </trkpt>
      <trkpt lat="46.974509" lon="10.979039">
        <ele>2171.04958</ele>
      </trkpt>
      <trkpt lat="46.974556" lon="10.979102">
        <ele>2168.77413</ele>
      </trkpt>
      <trkpt lat="46.974427" lon="10.979229">
        <ele>2167.68774</ele>
      </trkpt>
      <trkpt lat="46.974265" lon="10.979621">
        <ele>2165.41423</ele>
      </trkpt>
      <trkpt lat="46.974125" lon="10.979775">
        <ele>2163.45244</ele>
      </trkpt>
      <trkpt lat="46.974076" lon="10.979745">
        <ele>2163.35092</ele>
      </trkpt>
      <trkpt lat="46.973969" lon="10.979387">
        <ele>2161.86871</ele>
      </trkpt>
      <trkpt lat="46.973819" lon="10.978415">
        <ele>2157.38956</ele>
      </trkpt>
      <trkpt lat="46.973779" lon="10.978455">
        <ele>2155.29125</ele>
      </trkpt>
      <trkpt lat="46.97377" lon="10.978755">
        <ele>2153.02954</ele>
      </trkpt>
      <trkpt lat="46.973825" lon="10.979816">
        <ele>2146.75579</ele>
      </trkpt>
      <trkpt lat="46.973993" lon="10.980561">
        <ele>2140.72582</ele>
      </trkpt>
      <trkpt lat="46.974252" lon="10.980356">
        <ele>2138.26205</ele>
      </trkpt>
      <trkpt lat="46.974804" lon="10.979755">
        <ele>2133.44008</ele>
      </trkpt>
      <trkpt lat="46.975122" lon="10.979571">
        <ele>2132.61842</ele>
      </trkpt>
      <trkpt lat="46.975269" lon="10.979672">
        <ele>2130.04451</ele>
      </trkpt>
      <trkpt lat="46.975522" lon="10.980464">
        <ele>2120.93723</ele>
      </trkpt>
      <trkpt lat="46.975739" lon="10.981774">
        <ele>2102.40647</ele>
      </trkpt>
      <trkpt lat="46.975857" lon="10.981927">
        <ele>2099.32819</ele>
      </trkpt>
      <trkpt lat="46.975677" lon="10.981913">
        <ele>2098.63079</ele>
        <name>46.975677,10.981913</name>
        <extensions>
          <oa:Extension>
            <oa:mapZoom>19</oa:mapZoom>
          </oa:Extension>
        </extensions>
      </trkpt>
      <trkpt lat="46.975669" lon="10.982135">
        <ele>2095.95027</ele>
      </trkpt>
      <trkpt lat="46.975775" lon="10.982753">
        <ele>2088.95248</ele>
      </trkpt>
      <trkpt lat="46.975774" lon="10.982905">
        <ele>2086.4729</ele>
      </trkpt>
      <trkpt lat="46.975725" lon="10.982991">
        <ele>2084.56434</ele>
        <name>46.975725,10.982991</name>
        <extensions>
          <oa:Extension>
            <oa:mapZoom>19</oa:mapZoom>
          </oa:Extension>
        </extensions>
      </trkpt>
      <trkpt lat="46.97567" lon="10.982946">
        <ele>2083.39185</ele>
      </trkpt>
      <trkpt lat="46.975601" lon="10.982455">
        <ele>2082.32867</ele>
      </trkpt>
      <trkpt lat="46.975459" lon="10.982241">
        <ele>2080.35006</ele>
      </trkpt>
      <trkpt lat="46.975113" lon="10.981368">
        <ele>2076.66401</ele>
      </trkpt>
      <trkpt lat="46.975061" lon="10.981395">
        <ele>2073.97444</ele>
        <name>46.975061,10.981395</name>
        <extensions>
          <oa:Extension>
            <oa:mapZoom>19</oa:mapZoom>
          </oa:Extension>
        </extensions>
      </trkpt>
      <trkpt lat="46.975423" lon="10.982666">
        <ele>2066.13656</ele>
      </trkpt>
      <trkpt lat="46.975398" lon="10.983072">
        <ele>2063.65807</ele>
      </trkpt>
      <trkpt lat="46.975475" lon="10.983367">
        <ele>2061.96803</ele>
      </trkpt>
      <trkpt lat="46.975461" lon="10.984367">
        <ele>2057.58155</ele>
        <name>46.975461,10.984367</name>
        <extensions>
          <oa:Extension>
            <oa:mapZoom>19</oa:mapZoom>
          </oa:Extension>
        </extensions>
      </trkpt>
      <trkpt lat="46.975412" lon="10.984424">
        <ele>2056.57666</ele>
      </trkpt>
      <trkpt lat="46.975359" lon="10.983411">
        <ele>2052.64621</ele>
      </trkpt>
      <trkpt lat="46.975225" lon="10.983179">
        <ele>2050.24414</ele>
      </trkpt>
      <trkpt lat="46.975202" lon="10.982878">
        <ele>2048.84143</ele>
      </trkpt>
      <trkpt lat="46.97508" lon="10.982525">
        <ele>2049.35167</ele>
      </trkpt>
      <trkpt lat="46.975058" lon="10.982633">
        <ele>2045.47963</ele>
        <name>46.975058,10.982633</name>
        <extensions>
          <oa:Extension>
            <oa:mapZoom>19</oa:mapZoom>
          </oa:Extension>
        </extensions>
      </trkpt>
      <trkpt lat="46.975122" lon="10.982958">
        <ele>2043.27092</ele>
      </trkpt>
      <trkpt lat="46.975106" lon="10.983241">
        <ele>2041.45035</ele>
      </trkpt>
      <trkpt lat="46.975185" lon="10.983881">
        <ele>2039.50151</ele>
      </trkpt>
      <trkpt lat="46.975139" lon="10.984057">
        <ele>2037.32196</ele>
      </trkpt>
      <trkpt lat="46.97518" lon="10.984249">
        <ele>2038.08682</ele>
      </trkpt>
      <trkpt lat="46.975124" lon="10.98423">
        <ele>2034.18145</ele>
      </trkpt>
      <trkpt lat="46.974924" lon="10.983258">
        <ele>2029.39987</ele>
      </trkpt>
      <trkpt lat="46.974935" lon="10.983899">
        <ele>2023.12228</ele>
      </trkpt>
      <trkpt lat="46.974832" lon="10.984691">
        <ele>2017.03086</ele>
      </trkpt>
      <trkpt lat="46.974901" lon="10.985246">
        <ele>2014.86504</ele>
      </trkpt>
      <trkpt lat="46.974754" lon="10.985703">
        <ele>2010.84804</ele>
      </trkpt>
      <trkpt lat="46.97473" lon="10.986144">
        <ele>2009.13837</ele>
      </trkpt>
      <trkpt lat="46.974567" lon="10.98688">
        <ele>2005.5742</ele>
      </trkpt>
      <trkpt lat="46.974583" lon="10.987238">
        <ele>2004.6448</ele>
      </trkpt>
      <trkpt lat="46.974635" lon="10.987354">
        <ele>2004.0689</ele>
      </trkpt>
      <trkpt lat="46.974723" lon="10.987402">
        <ele>2001.89328</ele>
      </trkpt>
      <trkpt lat="46.974602" lon="10.9875">
        <ele>1999.57935</ele>
      </trkpt>
      <trkpt lat="46.974715" lon="10.98763">
        <ele>1996.66709</ele>
      </trkpt>
      <trkpt lat="46.974596" lon="10.98767">
        <ele>1994.57414</ele>
      </trkpt>
      <trkpt lat="46.974607" lon="10.987757">
        <ele>1992.59457</ele>
        <name>46.974607,10.987757</name>
        <extensions>
          <oa:Extension>
            <oa:mapZoom>19</oa:mapZoom>
          </oa:Extension>
        </extensions>
      </trkpt>
      <trkpt lat="46.974755" lon="10.987789">
        <ele>1991.62214</ele>
      </trkpt>
      <trkpt lat="46.975187" lon="10.987228">
        <ele>1984.68372</ele>
      </trkpt>
      <trkpt lat="46.975414" lon="10.987197">
        <ele>1982.90912</ele>
        <name>46.975414,10.987197</name>
        <extensions>
          <oa:Extension>
            <oa:mapZoom>19</oa:mapZoom>
          </oa:Extension>
        </extensions>
      </trkpt>
      <trkpt lat="46.975459" lon="10.987264">
        <ele>1981.45255</ele>
      </trkpt>
      <trkpt lat="46.975212" lon="10.987497">
        <ele>1977.56638</ele>
      </trkpt>
      <trkpt lat="46.975476" lon="10.987523">
        <ele>1975.97714</ele>
      </trkpt>
      <trkpt lat="46.975599" lon="10.987695">
        <ele>1975.14412</ele>
      </trkpt>
      <trkpt lat="46.975662" lon="10.987942">
        <ele>1973.66126</ele>
      </trkpt>
      <trkpt lat="46.975736" lon="10.988963">
        <ele>1963.40201</ele>
        <name>46.975736,10.988963</name>
        <extensions>
          <oa:Extension>
            <oa:mapZoom>19</oa:mapZoom>
          </oa:Extension>
        </extensions>
      </trkpt>
      <trkpt lat="46.97569" lon="10.988952">
        <ele>1961.62161</ele>
      </trkpt>
      <trkpt lat="46.975646" lon="10.988729">
        <ele>1960.43447</ele>
      </trkpt>
      <trkpt lat="46.975543" lon="10.988602">
        <ele>1958.25919</ele>
      </trkpt>
      <trkpt lat="46.975325" lon="10.98848">
        <ele>1954.74189</ele>
      </trkpt>
      <trkpt lat="46.97523" lon="10.988551">
        <ele>1952.74355</ele>
      </trkpt>
      <trkpt lat="46.975211" lon="10.988637">
        <ele>1951.61507</ele>
        <name>46.975211,10.988637</name>
        <extensions>
          <oa:Extension>
            <oa:mapZoom>19</oa:mapZoom>
          </oa:Extension>
        </extensions>
      </trkpt>
      <trkpt lat="46.975208" lon="10.988759">
        <ele>1949.93442</ele>
      </trkpt>
      <trkpt lat="46.974462" lon="10.989315">
        <ele>1942.50442</ele>
      </trkpt>
      <trkpt lat="46.974346" lon="10.989481">
        <ele>1940.28439</ele>
      </trkpt>
      <trkpt lat="46.974296" lon="10.9897">
        <ele>1939.7076</ele>
      </trkpt>
      <trkpt lat="46.974012" lon="10.989951">
        <ele>1937.57796</ele>
      </trkpt>
      <trkpt lat="46.974045" lon="10.99002">
        <ele>1936.00781</ele>
      </trkpt>
      <trkpt lat="46.97437" lon="10.989908">
        <ele>1933.62453</ele>
      </trkpt>
      <trkpt lat="46.974381" lon="10.98997">
        <ele>1932.08118</ele>
      </trkpt>
      <trkpt lat="46.974197" lon="10.990183">
        <ele>1930.46044</ele>
      </trkpt>
      <trkpt lat="46.97443" lon="10.99009">
        <ele>1928.52285</ele>
      </trkpt>
      <trkpt lat="46.974448" lon="10.99016">
        <ele>1926.70208</ele>
      </trkpt>
      <trkpt lat="46.974231" lon="10.990371">
        <ele>1924.58963</ele>
      </trkpt>
      <trkpt lat="46.973436" lon="10.990443">
        <ele>1917.3228</ele>
      </trkpt>
      <trkpt lat="46.973445" lon="10.990542">
        <ele>1914.87138</ele>
      </trkpt>
      <trkpt lat="46.973904" lon="10.990503">
        <ele>1914.57023</ele>
      </trkpt>
      <trkpt lat="46.973939" lon="10.990562">
        <ele>1912.81568</ele>
      </trkpt>
      <trkpt lat="46.973825" lon="10.99069">
        <ele>1908.88544</ele>
      </trkpt>
      <trkpt lat="46.973379" lon="10.990778">
        <ele>1906.95267</ele>
      </trkpt>
      <trkpt lat="46.973439" lon="10.990874">
        <ele>1905.14584</ele>
        <name>46.973439,10.990874</name>
        <extensions>
          <oa:Extension>
            <oa:mapZoom>19</oa:mapZoom>
          </oa:Extension>
        </extensions>
      </trkpt>
      <trkpt lat="46.973443" lon="10.99095">
        <ele>1903.03638</ele>
      </trkpt>
      <trkpt lat="46.973384" lon="10.99095">
        <ele>1902.69967</ele>
      </trkpt>
      <trkpt lat="46.973237" lon="10.990779">
        <ele>1903.80008</ele>
      </trkpt>
      <trkpt lat="46.973219" lon="10.990832">
        <ele>1902.0475</ele>
      </trkpt>
      <trkpt lat="46.9733" lon="10.990967">
        <ele>1900.49741</ele>
      </trkpt>
      <trkpt lat="46.973269" lon="10.991012">
        <ele>1897.98886</ele>
      </trkpt>
      <trkpt lat="46.973083" lon="10.990886">
        <ele>1898.0181</ele>
      </trkpt>
      <trkpt lat="46.972919" lon="10.990525">
        <ele>1894.51908</ele>
      </trkpt>
      <trkpt lat="46.972719" lon="10.990298">
        <ele>1891.35172</ele>
      </trkpt>
      <trkpt lat="46.97264" lon="10.989797">
        <ele>1888.05083</ele>
      </trkpt>
      <trkpt lat="46.972643" lon="10.989283">
        <ele>1885.41326</ele>
      </trkpt>
      <trkpt lat="46.972573" lon="10.988697">
        <ele>1883.50137</ele>
      </trkpt>
      <trkpt lat="46.97249" lon="10.98845">
        <ele>1881.96678</ele>
      </trkpt>
      <trkpt lat="46.972475" lon="10.987978">
        <ele>1879.53581</ele>
      </trkpt>
      <trkpt lat="46.972548" lon="10.987567">
        <ele>1877.94776</ele>
      </trkpt>
      <trkpt lat="46.97252" lon="10.987358">
        <ele>1877.08131</ele>
      </trkpt>
      <trkpt lat="46.97248" lon="10.987309">
        <ele>1877.82238</ele>
      </trkpt>
      <trkpt lat="46.972052" lon="10.987526">
        <ele>1873.61985</ele>
      </trkpt>
      <trkpt lat="46.97205" lon="10.987579">
        <ele>1872.73615</ele>
        <name>46.972050,10.987579</name>
        <extensions>
          <oa:Extension>
            <oa:mapZoom>19</oa:mapZoom>
          </oa:Extension>
        </extensions>
      </trkpt>
      <trkpt lat="46.972249" lon="10.987659">
        <ele>1868.78514</ele>
      </trkpt>
      <trkpt lat="46.972293" lon="10.987778">
        <ele>1867.54478</ele>
      </trkpt>
      <trkpt lat="46.972227" lon="10.988441">
        <ele>1860.95518</ele>
      </trkpt>
      <trkpt lat="46.972142" lon="10.988389">
        <ele>1856.94232</ele>
      </trkpt>
      <trkpt lat="46.972234" lon="10.988605">
        <ele>1860.20968</ele>
      </trkpt>
      <trkpt lat="46.972165" lon="10.988863">
        <ele>1857.91378</ele>
      </trkpt>
      <trkpt lat="46.972086" lon="10.989814">
        <ele>1856.41053</ele>
      </trkpt>
      <trkpt lat="46.971996" lon="10.990022">
        <ele>1854.78535</ele>
      </trkpt>
      <trkpt lat="46.972113" lon="10.990423">
        <ele>1855.2278</ele>
      </trkpt>
      <trkpt lat="46.972064" lon="10.990681">
        <ele>1853.34558</ele>
      </trkpt>
      <trkpt lat="46.972239" lon="10.991042">
        <ele>1852.53574</ele>
      </trkpt>
      <trkpt lat="46.972377" lon="10.991642">
        <ele>1850.7567</ele>
      </trkpt>
      <trkpt lat="46.972791" lon="10.992113">
        <ele>1847.45203</ele>
      </trkpt>
      <trkpt lat="46.972744" lon="10.992135">
        <ele>1846.20628</ele>
      </trkpt>
      <trkpt lat="46.972349" lon="10.991862">
        <ele>1843.86916</ele>
      </trkpt>
      <trkpt lat="46.972344" lon="10.991921">
        <ele>1842.25224</ele>
      </trkpt>
      <trkpt lat="46.972462" lon="10.992062">
        <ele>1841.84845</ele>
        <name>46.972462,10.992062</name>
        <extensions>
          <oa:Extension>
            <oa:mapZoom>19</oa:mapZoom>
          </oa:Extension>
        </extensions>
      </trkpt>
      <trkpt lat="46.972467" lon="10.992174">
        <ele>1838.95856</ele>
      </trkpt>
      <trkpt lat="46.972166" lon="10.991839">
        <ele>1837.57264</ele>
      </trkpt>
      <trkpt lat="46.971985" lon="10.991198">
        <ele>1835.30266</ele>
      </trkpt>
      <trkpt lat="46.97176" lon="10.99095">
        <ele>1831.68055</ele>
      </trkpt>
      <trkpt lat="46.971696" lon="10.990653">
        <ele>1830.48475</ele>
      </trkpt>
      <trkpt lat="46.971705" lon="10.990371">
        <ele>1827.95785</ele>
      </trkpt>
      <trkpt lat="46.971612" lon="10.990155">
        <ele>1827.18788</ele>
        <name>46.971612,10.990155</name>
        <extensions>
          <oa:Extension>
            <oa:mapZoom>19</oa:mapZoom>
          </oa:Extension>
        </extensions>
      </trkpt>
      <trkpt lat="46.971555" lon="10.990195">
        <ele>1823.28488</ele>
      </trkpt>
      <trkpt lat="46.971619" lon="10.990398">
        <ele>1822.14382</ele>
      </trkpt>
      <trkpt lat="46.971616" lon="10.990973">
        <ele>1822.40501</ele>
      </trkpt>
      <trkpt lat="46.971807" lon="10.991377">
        <ele>1820.38784</ele>
      </trkpt>
      <trkpt lat="46.971805" lon="10.992003">
        <ele>1815.91875</ele>
      </trkpt>
      <trkpt lat="46.972164" lon="10.992931">
        <ele>1811.24655</ele>
        <name>46.972164,10.992931</name>
        <extensions>
          <oa:Extension>
            <oa:mapZoom>19</oa:mapZoom>
          </oa:Extension>
        </extensions>
      </trkpt>
      <trkpt lat="46.97243" lon="10.993062">
        <ele>1809.7758</ele>
      </trkpt>
      <trkpt lat="46.972551" lon="10.993387">
        <ele>1806.65425</ele>
      </trkpt>
      <trkpt lat="46.973182" lon="10.993455">
        <ele>1801.84593</ele>
        <name>46.973182,10.993455</name>
        <extensions>
          <oa:Extension>
            <oa:mapZoom>19</oa:mapZoom>
          </oa:Extension>
        </extensions>
      </trkpt>
      <trkpt lat="46.973185" lon="10.993528">
        <ele>1800.70905</ele>
      </trkpt>
      <trkpt lat="46.973127" lon="10.993574">
        <ele>1800.21915</ele>
      </trkpt>
      <trkpt lat="46.97269" lon="10.99365">
        <ele>1797.14229</ele>
      </trkpt>
      <trkpt lat="46.972697" lon="10.993718">
        <ele>1794.75899</ele>
      </trkpt>
      <trkpt lat="46.972839" lon="10.993765">
        <ele>1793.17182</ele>
      </trkpt>
      <trkpt lat="46.972817" lon="10.993831">
        <ele>1790.67192</ele>
      </trkpt>
      <trkpt lat="46.972348" lon="10.993779">
        <ele>1785.7743</ele>
      </trkpt>
      <trkpt lat="46.972471" lon="10.993909">
        <ele>1783.31776</ele>
        <name>46.972471,10.993909</name>
        <extensions>
          <oa:Extension>
            <oa:mapZoom>19</oa:mapZoom>
          </oa:Extension>
        </extensions>
      </trkpt>
      <trkpt lat="46.972526" lon="10.993941">
        <ele>1782.94827</ele>
      </trkpt>
      <trkpt lat="46.972517" lon="10.994003">
        <ele>1780.36026</ele>
      </trkpt>
      <trkpt lat="46.971819" lon="10.993714">
        <ele>1774.77917</ele>
      </trkpt>
      <trkpt lat="46.971588" lon="10.993548">
        <ele>1773.21263</ele>
      </trkpt>
      <trkpt lat="46.971419" lon="10.993058">
        <ele>1769.97771</ele>
        <name>46.971419,10.993058</name>
        <extensions>
          <oa:Extension>
            <oa:mapZoom>19</oa:mapZoom>
          </oa:Extension>
        </extensions>
      </trkpt>
      <trkpt lat="46.971383" lon="10.993221">
        <ele>1767.55989</ele>
      </trkpt>
      <trkpt lat="46.971458" lon="10.993577">
        <ele>1765.7786</ele>
      </trkpt>
      <trkpt lat="46.971416" lon="10.993578">
        <ele>1763.05648</ele>
      </trkpt>
      <trkpt lat="46.971298" lon="10.993296">
        <ele>1762.79846</ele>
      </trkpt>
      <trkpt lat="46.971261" lon="10.99333">
        <ele>1760.52563</ele>
      </trkpt>
      <trkpt lat="46.971357" lon="10.993943">
        <ele>1753.79772</ele>
      </trkpt>
      <trkpt lat="46.971432" lon="10.994062">
        <ele>1754.57498</ele>
        <name>46.971432,10.994062</name>
        <extensions>
          <oa:Extension>
            <oa:mapZoom>19</oa:mapZoom>
          </oa:Extension>
        </extensions>
      </trkpt>
      <trkpt lat="46.97142" lon="10.994125">
        <ele>1751.91848</ele>
      </trkpt>
      <trkpt lat="46.97137" lon="10.994076">
        <ele>1751.15075</ele>
      </trkpt>
      <trkpt lat="46.971202" lon="10.993611">
        <ele>1750.73365</ele>
      </trkpt>
      <trkpt lat="46.971165" lon="10.993644">
        <ele>1748.1204</ele>
      </trkpt>
      <trkpt lat="46.971196" lon="10.993876">
        <ele>1746.882</ele>
      </trkpt>
      <trkpt lat="46.971059" lon="10.993677">
        <ele>1741.98854</ele>
      </trkpt>
      <trkpt lat="46.971098" lon="10.994017">
        <ele>1740.38747</ele>
      </trkpt>
      <trkpt lat="46.971215" lon="10.994204">
        <ele>1740.86592</ele>
      </trkpt>
      <trkpt lat="46.971182" lon="10.994248">
        <ele>1738.60951</ele>
      </trkpt>
      <trkpt lat="46.971092" lon="10.994141">
        <ele>1737.77422</ele>
      </trkpt>
      <trkpt lat="46.971053" lon="10.994164">
        <ele>1735.7071</ele>
      </trkpt>
      <trkpt lat="46.971191" lon="10.994441">
        <ele>1735.17293</ele>
      </trkpt>
      <trkpt lat="46.971147" lon="10.994499">
        <ele>1731.63386</ele>
      </trkpt>
      <trkpt lat="46.970919" lon="10.994256">
        <ele>1728.07925</ele>
      </trkpt>
      <trkpt lat="46.970855" lon="10.993871">
        <ele>1726.43804</ele>
      </trkpt>
      <trkpt lat="46.970796" lon="10.993837">
        <ele>1724.80768</ele>
      </trkpt>
      <trkpt lat="46.970749" lon="10.994525">
        <ele>1717.84473</ele>
      </trkpt>
      <trkpt lat="46.970903" lon="10.99465">
        <ele>1718.17698</ele>
      </trkpt>
      <trkpt lat="46.971055" lon="10.994918">
        <ele>1716.43091</ele>
      </trkpt>
      <trkpt lat="46.971029" lon="10.994979">
        <ele>1713.87158</ele>
      </trkpt>
      <trkpt lat="46.970831" lon="10.994744">
        <ele>1712.98788</ele>
      </trkpt>
      <trkpt lat="46.970676" lon="10.994694">
        <ele>1711.81639</ele>
      </trkpt>
      <trkpt lat="46.970634" lon="10.994395">
        <ele>1712.24991</ele>
      </trkpt>
      <trkpt lat="46.970583" lon="10.994383">
        <ele>1710.80706</ele>
        <name>46.970583,10.994383</name>
        <extensions>
          <oa:Extension>
            <oa:mapZoom>19</oa:mapZoom>
          </oa:Extension>
        </extensions>
      </trkpt>
      <trkpt lat="46.970633" lon="10.994791">
        <ele>1708.165</ele>
      </trkpt>
      <trkpt lat="46.970846" lon="10.995038">
        <ele>1705.06787</ele>
      </trkpt>
      <trkpt lat="46.970826" lon="10.995103">
        <ele>1703.01833</ele>
      </trkpt>
      <trkpt lat="46.970708" lon="10.995114">
        <ele>1701.91369</ele>
      </trkpt>
      <trkpt lat="46.970695" lon="10.995182">
        <ele>1700.89731</ele>
      </trkpt>
      <trkpt lat="46.970886" lon="10.995329">
        <ele>1698.68204</ele>
      </trkpt>
      <trkpt lat="46.970647" lon="10.995564">
        <ele>1695.52523</ele>
      </trkpt>
      <trkpt lat="46.970547" lon="10.995716">
        <ele>1694.12756</ele>
      </trkpt>
      <trkpt lat="46.970552" lon="10.995798">
        <ele>1692.72447</ele>
      </trkpt>
      <trkpt lat="46.970697" lon="10.995843">
        <ele>1690.73724</ele>
      </trkpt>
      <trkpt lat="46.970937" lon="10.995803">
        <ele>1689.6034</ele>
      </trkpt>
      <trkpt lat="46.970954" lon="10.995904">
        <ele>1687.74213</ele>
      </trkpt>
      <trkpt lat="46.97085" lon="10.995985">
        <ele>1686.33853</ele>
      </trkpt>
      <trkpt lat="46.970969" lon="10.996191">
        <ele>1684.09638</ele>
      </trkpt>
      <trkpt lat="46.971088" lon="10.996316">
        <ele>1682.8065</ele>
      </trkpt>
      <trkpt lat="46.971261" lon="10.996292">
        <ele>1681.14597</ele>
      </trkpt>
      <trkpt lat="46.971287" lon="10.996486">
        <ele>1679.97734</ele>
      </trkpt>
      <trkpt lat="46.971204" lon="10.996725">
        <ele>1679.0511</ele>
      </trkpt>
      <trkpt lat="46.971213" lon="10.99685">
        <ele>1677.57005</ele>
      </trkpt>
      <trkpt lat="46.971305" lon="10.996921">
        <ele>1676.65244</ele>
      </trkpt>
      <trkpt lat="46.971436" lon="10.996818">
        <ele>1675.93952</ele>
      </trkpt>
      <trkpt lat="46.971517" lon="10.99683">
        <ele>1675.26085</ele>
      </trkpt>
      <trkpt lat="46.971614" lon="10.997166">
        <ele>1672.35068</ele>
      </trkpt>
      <trkpt lat="46.971425" lon="10.997344">
        <ele>1670.28216</ele>
      </trkpt>
      <trkpt lat="46.971103" lon="10.997082">
        <ele>1668.00533</ele>
      </trkpt>
      <trkpt lat="46.971072" lon="10.997139">
        <ele>1665.28986</ele>
      </trkpt>
      <trkpt lat="46.971413" lon="10.997596">
        <ele>1661.87576</ele>
      </trkpt>
      <trkpt lat="46.971558" lon="10.997603">
        <ele>1661.80046</ele>
      </trkpt>
      <trkpt lat="46.971757" lon="10.997743">
        <ele>1660.25739</ele>
        <name>46.971757,10.997743</name>
        <extensions>
          <oa:Extension>
            <oa:mapZoom>19</oa:mapZoom>
          </oa:Extension>
        </extensions>
      </trkpt>
      <trkpt lat="46.971818" lon="10.997795">
        <ele>1659.20286</ele>
      </trkpt>
      <trkpt lat="46.971529" lon="10.997729">
        <ele>1656.74371</ele>
      </trkpt>
      <trkpt lat="46.97141" lon="10.997782">
        <ele>1654.9544</ele>
      </trkpt>
      <trkpt lat="46.970984" lon="10.997531">
        <ele>1652.08391</ele>
      </trkpt>
      <trkpt lat="46.970849" lon="10.997612">
        <ele>1650.48781</ele>
      </trkpt>
      <trkpt lat="46.970728" lon="10.997555">
        <ele>1651.32814</ele>
        <name>46.970728,10.997555</name>
        <extensions>
          <oa:Extension>
            <oa:mapZoom>19</oa:mapZoom>
          </oa:Extension>
        </extensions>
      </trkpt>
      <trkpt lat="46.970694" lon="10.997633">
        <ele>1649.6212</ele>
      </trkpt>
      <trkpt lat="46.970757" lon="10.997744">
        <ele>1647.32389</ele>
      </trkpt>
      <trkpt lat="46.971026" lon="10.997765">
        <ele>1646.08322</ele>
      </trkpt>
      <trkpt lat="46.971335" lon="10.998069">
        <ele>1643.14097</ele>
      </trkpt>
      <trkpt lat="46.971924" lon="10.998417">
        <ele>1637.66342</ele>
      </trkpt>
      <trkpt lat="46.972112" lon="10.998295">
        <ele>1638.02513</ele>
      </trkpt>
      <trkpt lat="46.972156" lon="10.998338">
        <ele>1636.31863</ele>
        <name>46.972156,10.998338</name>
        <extensions>
          <oa:Extension>
            <oa:mapZoom>19</oa:mapZoom>
          </oa:Extension>
        </extensions>
      </trkpt>
      <trkpt lat="46.971978" lon="10.998541">
        <ele>1632.88949</ele>
      </trkpt>
      <trkpt lat="46.97164" lon="10.998569">
        <ele>1630.84593</ele>
      </trkpt>
      <trkpt lat="46.971682" lon="10.998648">
        <ele>1629.09308</ele>
      </trkpt>
      <trkpt lat="46.971868" lon="10.998679">
        <ele>1628.85616</ele>
      </trkpt>
      <trkpt lat="46.971858" lon="10.998749">
        <ele>1626.5028</ele>
      </trkpt>
      <trkpt lat="46.971676" lon="10.998752">
        <ele>1625.75504</ele>
      </trkpt>
      <trkpt lat="46.971286" lon="10.998503">
        <ele>1624.20229</ele>
        <name>46.971286,10.998503</name>
        <extensions>
          <oa:Extension>
            <oa:mapZoom>19</oa:mapZoom>
          </oa:Extension>
        </extensions>
      </trkpt>
      <trkpt lat="46.971248" lon="10.998509">
        <ele>1623.33752</ele>
      </trkpt>
      <trkpt lat="46.971255" lon="10.99857">
        <ele>1621.1634</ele>
      </trkpt>
      <trkpt lat="46.971707" lon="10.999012">
        <ele>1616.7824</ele>
      </trkpt>
      <trkpt lat="46.971995" lon="10.999029">
        <ele>1614.49014</ele>
      </trkpt>
      <trkpt lat="46.972001" lon="10.999101">
        <ele>1612.23774</ele>
      </trkpt>
      <trkpt lat="46.97195" lon="10.999136">
        <ele>1612.27618</ele>
        <name>46.971950,10.999136</name>
        <extensions>
          <oa:Extension>
            <oa:mapZoom>19</oa:mapZoom>
          </oa:Extension>
        </extensions>
      </trkpt>
      <trkpt lat="46.971747" lon="10.999172">
        <ele>1612.23909</ele>
      </trkpt>
      <trkpt lat="46.971418" lon="10.998978">
        <ele>1611.51069</ele>
      </trkpt>
      <trkpt lat="46.971411" lon="10.999045">
        <ele>1609.29251</ele>
      </trkpt>
      <trkpt lat="46.97164" lon="10.999298">
        <ele>1607.19479</ele>
      </trkpt>
      <trkpt lat="46.971606" lon="10.99934">
        <ele>1605.44645</ele>
      </trkpt>
      <trkpt lat="46.971453" lon="10.999288">
        <ele>1604.15089</ele>
      </trkpt>
      <trkpt lat="46.971432" lon="10.999335">
        <ele>1602.82905</ele>
      </trkpt>
      <trkpt lat="46.971603" lon="10.999481">
        <ele>1601.21151</ele>
      </trkpt>
      <trkpt lat="46.971261" lon="10.999361">
        <ele>1599.43507</ele>
      </trkpt>
      <trkpt lat="46.971233" lon="10.999415">
        <ele>1596.95802</ele>
      </trkpt>
      <trkpt lat="46.971271" lon="10.999469">
        <ele>1595.24767</ele>
        <name>46.971271,10.999469</name>
        <extensions>
          <oa:Extension>
            <oa:mapZoom>19</oa:mapZoom>
          </oa:Extension>
        </extensions>
      </trkpt>
      <trkpt lat="46.971703" lon="10.999975">
        <ele>1586.54568</ele>
      </trkpt>
      <trkpt lat="46.972346" lon="11.000025">
        <ele>1580.28261</ele>
      </trkpt>
      <trkpt lat="46.972679" lon="11.000119">
        <ele>1575.08447</ele>
      </trkpt>
      <trkpt lat="46.973305" lon="11.000642">
        <ele>1563.71856</ele>
      </trkpt>
      <trkpt lat="46.974491" lon="11.000378">
        <ele>1560.37412</ele>
      </trkpt>
      <trkpt lat="46.975577" lon="11.000631">
        <ele>1560.58233</ele>
      </trkpt>
      <trkpt lat="46.975869" lon="11.000779">
        <ele>1558.97944</ele>
        <name>46.975869,11.000779</name>
        <extensions>
          <oa:Extension>
            <oa:mapZoom>19</oa:mapZoom>
          </oa:Extension>
        </extensions>
      </trkpt>
      <trkpt lat="46.97586" lon="11.000851">
        <ele>1556.53773</ele>
      </trkpt>
      <trkpt lat="46.975786" lon="11.000804">
        <ele>1555.55077</ele>
      </trkpt>
      <trkpt lat="46.975765" lon="11.000869">
        <ele>1553.47148</ele>
      </trkpt>
      <trkpt lat="46.976022" lon="11.00118">
        <ele>1550.72857</ele>
      </trkpt>
      <trkpt lat="46.975857" lon="11.001253">
        <ele>1549.01808</ele>
      </trkpt>
      <trkpt lat="46.975768" lon="11.001431">
        <ele>1548.43063</ele>
      </trkpt>
      <trkpt lat="46.975627" lon="11.001544">
        <ele>1547.79095</ele>
      </trkpt>
      <trkpt lat="46.975649" lon="11.00162">
        <ele>1546.22136</ele>
      </trkpt>
      <trkpt lat="46.975802" lon="11.001628">
        <ele>1544.64566</ele>
      </trkpt>
      <trkpt lat="46.975831" lon="11.001685">
        <ele>1542.82041</ele>
      </trkpt>
      <trkpt lat="46.975622" lon="11.001891">
        <ele>1539.88804</ele>
      </trkpt>
      <trkpt lat="46.975689" lon="11.002146">
        <ele>1535.38017</ele>
      </trkpt>
      <trkpt lat="46.975469" lon="11.001916">
        <ele>1534.19641</ele>
      </trkpt>
      <trkpt lat="46.975615" lon="11.002309">
        <ele>1530.41966</ele>
        <name>46.975615,11.002309</name>
        <extensions>
          <oa:Extension>
            <oa:mapZoom>18</oa:mapZoom>
          </oa:Extension>
        </extensions>
      </trkpt>
      <trkpt lat="46.975576" lon="11.002366">
        <ele>1527.60496</ele>
      </trkpt>
      <trkpt lat="46.975501" lon="11.002232">
        <ele>1527.39005</ele>
      </trkpt>
      <trkpt lat="46.975419" lon="11.002204">
        <ele>1526.52058</ele>
      </trkpt>
      <trkpt lat="46.975508" lon="11.002496">
        <ele>1523.87172</ele>
      </trkpt>
      <trkpt lat="46.975445" lon="11.002606">
        <ele>1521.83722</ele>
      </trkpt>
      <trkpt lat="46.974653" lon="11.002774">
        <ele>1515.33071</ele>
      </trkpt>
      <trkpt lat="46.97435" lon="11.002934">
        <ele>1513.04161</ele>
      </trkpt>
      <trkpt lat="46.974355" lon="11.003092">
        <ele>1511.22428</ele>
      </trkpt>
      <trkpt lat="46.974424" lon="11.003231">
        <ele>1509.18351</ele>
      </trkpt>
      <trkpt lat="46.974625" lon="11.003422">
        <ele>1508.95186</ele>
      </trkpt>
      <trkpt lat="46.974871" lon="11.003549">
        <ele>1509.85448</ele>
      </trkpt>
      <trkpt lat="46.974872" lon="11.003736">
        <ele>1509.50378</ele>
      </trkpt>
      <trkpt lat="46.974789" lon="11.00403">
        <ele>1508.42559</ele>
      </trkpt>
      <trkpt lat="46.974624" lon="11.004086">
        <ele>1507.90541</ele>
      </trkpt>
      <trkpt lat="46.974291" lon="11.003925">
        <ele>1503.4324</ele>
      </trkpt>
      <trkpt lat="46.973853" lon="11.003958">
        <ele>1498.48175</ele>
      </trkpt>
      <trkpt lat="46.973584" lon="11.00389">
        <ele>1495.52675</ele>
      </trkpt>
      <trkpt lat="46.973582" lon="11.003961">
        <ele>1493.43298</ele>
      </trkpt>
      <trkpt lat="46.973733" lon="11.004096">
        <ele>1491.54772</ele>
      </trkpt>
      <trkpt lat="46.97357" lon="11.004076">
        <ele>1489.87967</ele>
      </trkpt>
      <trkpt lat="46.973672" lon="11.004185">
        <ele>1488.11154</ele>
      </trkpt>
      <trkpt lat="46.973565" lon="11.004201">
        <ele>1485.81877</ele>
      </trkpt>
      <trkpt lat="46.973666" lon="11.00434">
        <ele>1483.96358</ele>
      </trkpt>
      <trkpt lat="46.973394" lon="11.004394">
        <ele>1479.43768</ele>
      </trkpt>
      <trkpt lat="46.97335" lon="11.004492">
        <ele>1477.7618</ele>
        <name>46.973349,11.004492</name>
        <extensions>
          <oa:Extension>
            <oa:mapZoom>18</oa:mapZoom>
          </oa:Extension>
        </extensions>
      </trkpt>
      <trkpt lat="46.973558" lon="11.004556">
        <ele>1478.59388</ele>
      </trkpt>
      <trkpt lat="46.973928" lon="11.004707">
        <ele>1478.96335</ele>
      </trkpt>
      <trkpt lat="46.9744" lon="11.004825">
        <ele>1479.2421</ele>
      </trkpt>
      <trkpt lat="46.97485" lon="11.004787">
        <ele>1482.09882</ele>
      </trkpt>
      <trkpt lat="46.975341" lon="11.004787">
        <ele>1477.49288</ele>
      </trkpt>
      <trkpt lat="46.975487" lon="11.004658">
        <ele>1477.08687</ele>
      </trkpt>
      <trkpt lat="46.975707" lon="11.004272">
        <ele>1475.0504</ele>
      </trkpt>
      <trkpt lat="46.975842" lon="11.004084">
        <ele>1473.78249</ele>
      </trkpt>
      <trkpt lat="46.975952" lon="11.003907">
        <ele>1472.90777</ele>
      </trkpt>
      <trkpt lat="46.976076" lon="11.003807">
        <ele>1471.32792</ele>
      </trkpt>
      <trkpt lat="46.976074" lon="11.003985">
        <ele>1470.26179</ele>
      </trkpt>
      <trkpt lat="46.975619" lon="11.004838">
        <ele>1464.19723</ele>
      </trkpt>
      <trkpt lat="46.975663" lon="11.0049">
        <ele>1459.99507</ele>
      </trkpt>
      <trkpt lat="46.975779" lon="11.00464">
        <ele>1462.15393</ele>
      </trkpt>
      <trkpt lat="46.975831" lon="11.004635">
        <ele>1459.46642</ele>
      </trkpt>
      <trkpt lat="46.975678" lon="11.005043">
        <ele>1455.88243</ele>
      </trkpt>
      <trkpt lat="46.975694" lon="11.005688">
        <ele>1451.04258</ele>
      </trkpt>
      <trkpt lat="46.975118" lon="11.005978">
        <ele>1446.16864</ele>
      </trkpt>
      <trkpt lat="46.974647" lon="11.006088">
        <ele>1441.39837</ele>
      </trkpt>
      <trkpt lat="46.974673" lon="11.006141">
        <ele>1439.02681</ele>
      </trkpt>
      <trkpt lat="46.974995" lon="11.006176">
        <ele>1437.2108</ele>
      </trkpt>
      <trkpt lat="46.975645" lon="11.006081">
        <ele>1432.03948</ele>
      </trkpt>
      <trkpt lat="46.975942" lon="11.006074">
        <ele>1431.66328</ele>
      </trkpt>
      <trkpt lat="46.975971" lon="11.006132">
        <ele>1428.53217</ele>
      </trkpt>
      <trkpt lat="46.975639" lon="11.006233">
        <ele>1425.98346</ele>
      </trkpt>
      <trkpt lat="46.975116" lon="11.006586">
        <ele>1420.57079</ele>
      </trkpt>
      <trkpt lat="46.975139" lon="11.006668">
        <ele>1418.11122</ele>
      </trkpt>
      <trkpt lat="46.975712" lon="11.00648">
        <ele>1414.84378</ele>
      </trkpt>
      <trkpt lat="46.975744" lon="11.006525">
        <ele>1412.58051</ele>
      </trkpt>
      <trkpt lat="46.974838" lon="11.007123">
        <ele>1401.65846</ele>
      </trkpt>
      <trkpt lat="46.974384" lon="11.007252">
        <ele>1396.46256</ele>
      </trkpt>
      <trkpt lat="46.973314" lon="11.007366">
        <ele>1386.36573</ele>
      </trkpt>
      <trkpt lat="46.9729" lon="11.00728">
        <ele>1383.13095</ele>
      </trkpt>
      <trkpt lat="46.972893" lon="11.007363">
        <ele>1380.53162</ele>
      </trkpt>
      <trkpt lat="46.973101" lon="11.007411">
        <ele>1380.72243</ele>
      </trkpt>
      <trkpt lat="46.973117" lon="11.007479">
        <ele>1378.53394</ele>
      </trkpt>
      <trkpt lat="46.972758" lon="11.007532">
        <ele>1375.73066</ele>
      </trkpt>
      <trkpt lat="46.972751" lon="11.007617">
        <ele>1373.45687</ele>
      </trkpt>
      <trkpt lat="46.973409" lon="11.007663">
        <ele>1370.15715</ele>
      </trkpt>
      <trkpt lat="46.973412" lon="11.007713">
        <ele>1367.67939</ele>
      </trkpt>
      <trkpt lat="46.973177" lon="11.007786">
        <ele>1364.40729</ele>
      </trkpt>
      <trkpt lat="46.973009" lon="11.007823">
        <ele>1362.7972</ele>
      </trkpt>
      <trkpt lat="46.972829" lon="11.007866">
        <ele>1362.15027</ele>
      </trkpt>
      <trkpt lat="46.972669" lon="11.007931">
        <ele>1363.62924</ele>
      </trkpt>
      <trkpt lat="46.972756" lon="11.007974">
        <ele>1356.79233</ele>
      </trkpt>
      <trkpt lat="46.972895" lon="11.007925">
        <ele>1356.62332</ele>
      </trkpt>
      <trkpt lat="46.973049" lon="11.007898">
        <ele>1356.72932</ele>
      </trkpt>
      <trkpt lat="46.973144" lon="11.007893">
        <ele>1357.5176</ele>
      </trkpt>
      <trkpt lat="46.973221" lon="11.007877">
        <ele>1358.00324</ele>
      </trkpt>
      <trkpt lat="46.973291" lon="11.007856">
        <ele>1358.50691</ele>
      </trkpt>
      <trkpt lat="46.973353" lon="11.007861">
        <ele>1358.18116</ele>
      </trkpt>
      <trkpt lat="46.973413" lon="11.007874">
        <ele>1359.83556</ele>
      </trkpt>
      <trkpt lat="46.973421" lon="11.007941">
        <ele>1357.06896</ele>
      </trkpt>
      <trkpt lat="46.973435" lon="11.008019">
        <ele>1354.03582</ele>
      </trkpt>
      <trkpt lat="46.973492" lon="11.008027">
        <ele>1354.38453</ele>
      </trkpt>
      <trkpt lat="46.973553" lon="11.008038">
        <ele>1354.23281</ele>
      </trkpt>
      <trkpt lat="46.973595" lon="11.008051">
        <ele>1353.71171</ele>
      </trkpt>
      <trkpt lat="46.973622" lon="11.008081">
        <ele>1352.72543</ele>
      </trkpt>
      <trkpt lat="46.973587" lon="11.00811">
        <ele>1351.57839</ele>
      </trkpt>
      <trkpt lat="46.973538" lon="11.008124">
        <ele>1350.64416</ele>
      </trkpt>
      <trkpt lat="46.973521" lon="11.008188">
        <ele>1347.74715</ele>
      </trkpt>
      <trkpt lat="46.973556" lon="11.008223">
        <ele>1347.4793</ele>
      </trkpt>
      <trkpt lat="46.973584" lon="11.008255">
        <ele>1347.12789</ele>
      </trkpt>
      <trkpt lat="46.9736" lon="11.008298">
        <ele>1346.24328</ele>
      </trkpt>
      <trkpt lat="46.973575" lon="11.008413">
        <ele>1344.90564</ele>
      </trkpt>
      <trkpt lat="46.973509" lon="11.008435">
        <ele>1344.74182</ele>
      </trkpt>
      <trkpt lat="46.973404" lon="11.00843">
        <ele>1344.6498</ele>
      </trkpt>
      <trkpt lat="46.973074" lon="11.008474">
        <ele>1344.8</ele>
        <name>46.973074,11.008474</name>
        <extensions>
          <oa:locType>routingNode</oa:locType>
          <oa:Extension>
            <oa:mapZoom>19</oa:mapZoom>
          </oa:Extension>
        </extensions>
      </trkpt>
      <trkpt lat="46.97284" lon="11.00849">
        <ele>1345.0</ele>
      </trkpt>
      <trkpt lat="46.97273" lon="11.00858">
        <ele>1344.9</ele>
      </trkpt>
      <trkpt lat="46.97264" lon="11.00882">
        <ele>1345.0</ele>
      </trkpt>
      <trkpt lat="46.972621" lon="11.009165">
        <ele>1345.0</ele>
        <name>46.972621,11.009165</name>
        <extensions>
          <oa:locType>routingNode</oa:locType>
          <oa:Extension>
            <oa:mapZoom>19</oa:mapZoom>
          </oa:Extension>
        </extensions>
      </trkpt>
    </trkseg>
  </trk>
</gpx>