<?xml version="1.0" encoding="UTF-8" standalone="yes"?>
<gpx version="1.1" creator="outdooractive - http://www.outdooractive.com" xmlns="http://www.topografix.com/GPX/1/1" xmlns:oa="http://www.outdooractive.com/GPX/Extensions/1" xmlns:xsi="http://www.w3.org/2001/XMLSchema-instance" xsi:schemaLocation="http://www.topografix.com/GPX/1/1 http://www.topografix.com/GPX/1/1/gpx.xsd http://www.outdooractive.com/GPX/Extensions/1 https://www.outdooractive.com/schema/gpx_extensions.xsd">
  <metadata>
    <name>Long Trail Fernar</name>
    <author>
      <name>Jakob Falkner - Ötztal</name>
    </author>
    <link href="https://www.outdooractive.com/r/54305266"/>
    <time>2025-12-02T11:32:02.779Z</time>
    <extensions>
      <oa:oaCategory>mountainbiking</oa:oaCategory>
    </extensions>
  </metadata>
  <trk>
    <name>Long Trail Fernar</name>
    <desc>Die härteste Strecke in der BIKE REPUBLIC SÖLDEN: 10 Kilometer, 1.500 Tiefenmeter und das in extrem anspruchsvollem, alpinem Gelände!</desc>
    <type>mountainbiking</type>
    <trkseg>
      <trkpt lat="46.921182" lon="10.94823">
        <ele>2782.73301</ele>
        <name>46.921182,10.948230</name>
        <extensions>
          <oa:Extension>
            <oa:mapZoom>13</oa:mapZoom>
          </oa:Extension>
        </extensions>
      </trkpt>
      <trkpt lat="46.921188" lon="10.948313">
        <ele>2782.74114</ele>
      </trkpt>
      <trkpt lat="46.92162" lon="10.948341">
        <ele>2781.47276</ele>
      </trkpt>
      <trkpt lat="46.922103" lon="10.948249">
        <ele>2782.89966</ele>
      </trkpt>
      <trkpt lat="46.92213" lon="10.94879">
        <ele>2784.85179</ele>
      </trkpt>
      <trkpt lat="46.922181" lon="10.948917">
        <ele>2786.15194</ele>
      </trkpt>
      <trkpt lat="46.922275" lon="10.948978">
        <ele>2786.86815</ele>
      </trkpt>
      <trkpt lat="46.922322" lon="10.949594">
        <ele>2781.15863</ele>
      </trkpt>
      <trkpt lat="46.922249" lon="10.950653">
        <ele>2770.47067</ele>
      </trkpt>
      <trkpt lat="46.922246" lon="10.950893">
        <ele>2764.98543</ele>
      </trkpt>
      <trkpt lat="46.92228" lon="10.950964">
        <ele>2764.53048</ele>
        <name>46.922278,10.950966</name>
        <extensions>
          <oa:Extension>
            <oa:mapZoom>13</oa:mapZoom>
          </oa:Extension>
        </extensions>
      </trkpt>
      <trkpt lat="46.922384" lon="10.951271">
        <ele>2764.77695</ele>
      </trkpt>
      <trkpt lat="46.922395" lon="10.95176">
        <ele>2753.974</ele>
      </trkpt>
      <trkpt lat="46.922424" lon="10.951808">
        <ele>2754.83709</ele>
      </trkpt>
      <trkpt lat="46.922425" lon="10.951877">
        <ele>2753.83994</ele>
      </trkpt>
      <trkpt lat="46.922343" lon="10.951944">
        <ele>2751.29019</ele>
      </trkpt>
      <trkpt lat="46.922359" lon="10.952253">
        <ele>2744.19484</ele>
      </trkpt>
      <trkpt lat="46.922403" lon="10.952233">
        <ele>2744.81099</ele>
      </trkpt>
      <trkpt lat="46.922448" lon="10.952325">
        <ele>2742.42697</ele>
      </trkpt>
      <trkpt lat="46.92249" lon="10.952566">
        <ele>2738.48415</ele>
      </trkpt>
      <trkpt lat="46.922489" lon="10.952942">
        <ele>2731.03689</ele>
      </trkpt>
      <trkpt lat="46.922616" lon="10.953065">
        <ele>2729.35877</ele>
      </trkpt>
      <trkpt lat="46.922607" lon="10.953136">
        <ele>2727.86123</ele>
      </trkpt>
      <trkpt lat="46.92256" lon="10.953163">
        <ele>2726.73373</ele>
      </trkpt>
      <trkpt lat="46.922313" lon="10.953205">
        <ele>2719.81639</ele>
      </trkpt>
      <trkpt lat="46.922377" lon="10.953366">
        <ele>2715.33209</ele>
        <name>46.922377,10.953366</name>
        <extensions>
          <oa:Extension>
            <oa:mapZoom>13</oa:mapZoom>
          </oa:Extension>
        </extensions>
      </trkpt>
      <trkpt lat="46.922481" lon="10.95361">
        <ele>2711.18398</ele>
      </trkpt>
      <trkpt lat="46.922491" lon="10.9537">
        <ele>2708.1189</ele>
      </trkpt>
      <trkpt lat="46.922362" lon="10.953681">
        <ele>2706.85224</ele>
      </trkpt>
      <trkpt lat="46.922329" lon="10.953828">
        <ele>2703.1311</ele>
      </trkpt>
      <trkpt lat="46.922278" lon="10.95377">
        <ele>2702.65476</ele>
      </trkpt>
      <trkpt lat="46.922269" lon="10.953901">
        <ele>2699.45719</ele>
      </trkpt>
      <trkpt lat="46.922216" lon="10.953912">
        <ele>2697.31438</ele>
      </trkpt>
      <trkpt lat="46.922186" lon="10.954015">
        <ele>2693.84794</ele>
      </trkpt>
      <trkpt lat="46.922084" lon="10.954099">
        <ele>2688.36772</ele>
      </trkpt>
      <trkpt lat="46.922136" lon="10.954165">
        <ele>2687.15424</ele>
      </trkpt>
      <trkpt lat="46.922062" lon="10.954247">
        <ele>2683.15417</ele>
      </trkpt>
      <trkpt lat="46.921994" lon="10.954159">
        <ele>2682.01706</ele>
      </trkpt>
      <trkpt lat="46.922015" lon="10.953888">
        <ele>2681.9533</ele>
      </trkpt>
      <trkpt lat="46.921879" lon="10.953692">
        <ele>2676.14613</ele>
      </trkpt>
      <trkpt lat="46.921791" lon="10.9538">
        <ele>2670.17768</ele>
      </trkpt>
      <trkpt lat="46.921735" lon="10.953798">
        <ele>2669.27565</ele>
      </trkpt>
      <trkpt lat="46.921559" lon="10.95404">
        <ele>2658.89286</ele>
      </trkpt>
      <trkpt lat="46.92141" lon="10.954416">
        <ele>2651.85172</ele>
      </trkpt>
      <trkpt lat="46.921351" lon="10.954744">
        <ele>2645.93204</ele>
      </trkpt>
      <trkpt lat="46.92127" lon="10.954985">
        <ele>2646.76893</ele>
      </trkpt>
      <trkpt lat="46.921121" lon="10.955327">
        <ele>2649.57436</ele>
      </trkpt>
      <trkpt lat="46.921101" lon="10.955549">
        <ele>2646.30573</ele>
        <name>46.920988,10.955558</name>
        <extensions>
          <oa:Extension>
            <oa:mapZoom>13</oa:mapZoom>
          </oa:Extension>
        </extensions>
      </trkpt>
      <trkpt lat="46.921092" lon="10.955906">
        <ele>2642.99245</ele>
      </trkpt>
      <trkpt lat="46.921212" lon="10.956567">
        <ele>2643.9107</ele>
      </trkpt>
      <trkpt lat="46.921398" lon="10.957127">
        <ele>2634.53756</ele>
      </trkpt>
      <trkpt lat="46.92148" lon="10.957206">
        <ele>2631.40027</ele>
      </trkpt>
      <trkpt lat="46.921516" lon="10.957484">
        <ele>2624.86003</ele>
      </trkpt>
      <trkpt lat="46.921493" lon="10.957629">
        <ele>2621.39339</ele>
        <name>46.921428,10.957661</name>
        <extensions>
          <oa:Extension>
            <oa:mapZoom>13</oa:mapZoom>
          </oa:Extension>
        </extensions>
      </trkpt>
      <trkpt lat="46.921511" lon="10.957685">
        <ele>2619.42025</ele>
      </trkpt>
      <trkpt lat="46.921557" lon="10.957611">
        <ele>2617.4479</ele>
      </trkpt>
      <trkpt lat="46.921618" lon="10.957673">
        <ele>2612.6144</ele>
      </trkpt>
      <trkpt lat="46.921978" lon="10.957235">
        <ele>2611.29429</ele>
      </trkpt>
      <trkpt lat="46.922073" lon="10.957268">
        <ele>2611.43828</ele>
      </trkpt>
      <trkpt lat="46.92217" lon="10.957687">
        <ele>2612.50533</ele>
      </trkpt>
      <trkpt lat="46.922156" lon="10.957815">
        <ele>2612.30884</ele>
      </trkpt>
      <trkpt lat="46.922184" lon="10.957845">
        <ele>2613.27115</ele>
      </trkpt>
      <trkpt lat="46.922436" lon="10.957805">
        <ele>2616.83261</ele>
      </trkpt>
      <trkpt lat="46.922751" lon="10.958327">
        <ele>2617.9555</ele>
      </trkpt>
      <trkpt lat="46.922829" lon="10.958831">
        <ele>2624.50863</ele>
      </trkpt>
      <trkpt lat="46.922809" lon="10.959287">
        <ele>2624.53075</ele>
      </trkpt>
      <trkpt lat="46.922956" lon="10.959612">
        <ele>2623.56988</ele>
      </trkpt>
      <trkpt lat="46.92288" lon="10.960678">
        <ele>2614.54575</ele>
      </trkpt>
      <trkpt lat="46.922772" lon="10.961794">
        <ele>2583.53328</ele>
      </trkpt>
      <trkpt lat="46.922546" lon="10.961915">
        <ele>2583.93723</ele>
      </trkpt>
      <trkpt lat="46.92244" lon="10.962253">
        <ele>2578.01195</ele>
      </trkpt>
      <trkpt lat="46.922448" lon="10.96234">
        <ele>2577.50071</ele>
        <name>46.922454,10.962338</name>
        <extensions>
          <oa:Extension>
            <oa:mapZoom>13</oa:mapZoom>
          </oa:Extension>
        </extensions>
      </trkpt>
      <trkpt lat="46.92249" lon="10.962895">
        <ele>2565.68146</ele>
      </trkpt>
      <trkpt lat="46.922421" lon="10.962997">
        <ele>2562.57186</ele>
      </trkpt>
      <trkpt lat="46.922443" lon="10.963267">
        <ele>2557.68188</ele>
      </trkpt>
      <trkpt lat="46.922397" lon="10.963517">
        <ele>2551.74132</ele>
      </trkpt>
      <trkpt lat="46.92249" lon="10.963699">
        <ele>2545.93276</ele>
      </trkpt>
      <trkpt lat="46.922414" lon="10.964159">
        <ele>2537.46393</ele>
      </trkpt>
      <trkpt lat="46.922614" lon="10.964854">
        <ele>2521.2696</ele>
      </trkpt>
      <trkpt lat="46.922531" lon="10.965343">
        <ele>2515.76567</ele>
      </trkpt>
      <trkpt lat="46.922533" lon="10.965451">
        <ele>2513.91709</ele>
      </trkpt>
      <trkpt lat="46.92259" lon="10.965595">
        <ele>2513.24735</ele>
      </trkpt>
      <trkpt lat="46.92253" lon="10.966012">
        <ele>2504.33629</ele>
      </trkpt>
      <trkpt lat="46.922465" lon="10.966205">
        <ele>2501.78091</ele>
      </trkpt>
      <trkpt lat="46.922514" lon="10.966338">
        <ele>2499.3632</ele>
      </trkpt>
      <trkpt lat="46.922384" lon="10.966538">
        <ele>2494.22957</ele>
      </trkpt>
      <trkpt lat="46.922262" lon="10.966586">
        <ele>2488.89129</ele>
      </trkpt>
      <trkpt lat="46.922196" lon="10.966546">
        <ele>2485.99708</ele>
      </trkpt>
      <trkpt lat="46.922134" lon="10.966678">
        <ele>2480.73423</ele>
      </trkpt>
      <trkpt lat="46.92213" lon="10.966783">
        <ele>2477.4997</ele>
      </trkpt>
      <trkpt lat="46.922097" lon="10.966837">
        <ele>2474.15637</ele>
      </trkpt>
      <trkpt lat="46.922077" lon="10.966807">
        <ele>2474.32513</ele>
      </trkpt>
      <trkpt lat="46.922047" lon="10.96683">
        <ele>2472.49153</ele>
      </trkpt>
      <trkpt lat="46.922057" lon="10.966927">
        <ele>2469.40374</ele>
      </trkpt>
      <trkpt lat="46.922036" lon="10.966901">
        <ele>2469.93982</ele>
      </trkpt>
      <trkpt lat="46.921929" lon="10.96697">
        <ele>2464.42007</ele>
      </trkpt>
      <trkpt lat="46.921827" lon="10.966901">
        <ele>2460.41448</ele>
      </trkpt>
      <trkpt lat="46.921741" lon="10.966596">
        <ele>2453.38136</ele>
      </trkpt>
      <trkpt lat="46.9217" lon="10.966948">
        <ele>2448.83569</ele>
      </trkpt>
      <trkpt lat="46.9216" lon="10.966748">
        <ele>2441.94672</ele>
      </trkpt>
      <trkpt lat="46.921566" lon="10.967548">
        <ele>2415.62979</ele>
      </trkpt>
      <trkpt lat="46.921493" lon="10.967628">
        <ele>2409.24536</ele>
      </trkpt>
      <trkpt lat="46.921524" lon="10.967695">
        <ele>2406.87827</ele>
      </trkpt>
      <trkpt lat="46.921506" lon="10.967721">
        <ele>2405.30319</ele>
      </trkpt>
      <trkpt lat="46.921415" lon="10.967714">
        <ele>2402.38907</ele>
      </trkpt>
      <trkpt lat="46.921389" lon="10.967766">
        <ele>2399.08979</ele>
      </trkpt>
      <trkpt lat="46.921307" lon="10.967789">
        <ele>2394.88594</ele>
      </trkpt>
      <trkpt lat="46.921249" lon="10.967734">
        <ele>2392.81326</ele>
      </trkpt>
      <trkpt lat="46.921184" lon="10.967978">
        <ele>2386.04925</ele>
      </trkpt>
      <trkpt lat="46.921156" lon="10.967968">
        <ele>2384.98545</ele>
      </trkpt>
      <trkpt lat="46.921054" lon="10.96845">
        <ele>2370.13037</ele>
      </trkpt>
      <trkpt lat="46.920985" lon="10.968551">
        <ele>2364.94878</ele>
      </trkpt>
      <trkpt lat="46.920935" lon="10.968808">
        <ele>2357.83705</ele>
      </trkpt>
      <trkpt lat="46.920902" lon="10.968843">
        <ele>2355.72581</ele>
      </trkpt>
      <trkpt lat="46.920903" lon="10.968964">
        <ele>2354.15915</ele>
      </trkpt>
      <trkpt lat="46.920873" lon="10.968957">
        <ele>2353.22763</ele>
      </trkpt>
      <trkpt lat="46.920862" lon="10.969001">
        <ele>2352.26458</ele>
      </trkpt>
      <trkpt lat="46.920895" lon="10.969139">
        <ele>2349.8497</ele>
      </trkpt>
      <trkpt lat="46.920944" lon="10.969157">
        <ele>2348.41634</ele>
        <name>46.920959,10.969076</name>
        <extensions>
          <oa:Extension>
            <oa:mapZoom>13</oa:mapZoom>
          </oa:Extension>
        </extensions>
      </trkpt>
      <trkpt lat="46.921052" lon="10.969198">
        <ele>2343.95651</ele>
      </trkpt>
      <trkpt lat="46.921098" lon="10.969303">
        <ele>2340.79921</ele>
      </trkpt>
      <trkpt lat="46.921096" lon="10.969374">
        <ele>2339.06617</ele>
      </trkpt>
      <trkpt lat="46.921251" lon="10.969518">
        <ele>2336.77851</ele>
      </trkpt>
      <trkpt lat="46.921592" lon="10.970064">
        <ele>2330.7924</ele>
      </trkpt>
      <trkpt lat="46.921808" lon="10.970247">
        <ele>2326.35441</ele>
      </trkpt>
      <trkpt lat="46.921827" lon="10.970315">
        <ele>2324.64491</ele>
      </trkpt>
      <trkpt lat="46.921951" lon="10.970423">
        <ele>2323.29693</ele>
      </trkpt>
      <trkpt lat="46.921968" lon="10.97049">
        <ele>2320.80306</ele>
      </trkpt>
      <trkpt lat="46.922088" lon="10.970638">
        <ele>2318.87918</ele>
      </trkpt>
      <trkpt lat="46.922118" lon="10.970876">
        <ele>2313.13134</ele>
      </trkpt>
      <trkpt lat="46.922202" lon="10.971034">
        <ele>2310.99959</ele>
      </trkpt>
      <trkpt lat="46.922184" lon="10.971124">
        <ele>2306.95589</ele>
      </trkpt>
      <trkpt lat="46.92221" lon="10.971226">
        <ele>2304.92962</ele>
      </trkpt>
      <trkpt lat="46.922089" lon="10.971323">
        <ele>2299.70539</ele>
      </trkpt>
      <trkpt lat="46.922098" lon="10.971468">
        <ele>2298.36077</ele>
      </trkpt>
      <trkpt lat="46.922188" lon="10.971638">
        <ele>2296.59085</ele>
      </trkpt>
      <trkpt lat="46.922199" lon="10.971758">
        <ele>2294.58862</ele>
      </trkpt>
      <trkpt lat="46.92238" lon="10.972061">
        <ele>2289.30997</ele>
      </trkpt>
      <trkpt lat="46.922363" lon="10.972199">
        <ele>2284.27178</ele>
      </trkpt>
      <trkpt lat="46.922416" lon="10.972372">
        <ele>2279.38858</ele>
      </trkpt>
      <trkpt lat="46.923161" lon="10.973391">
        <ele>2267.03165</ele>
      </trkpt>
      <trkpt lat="46.923568" lon="10.973869">
        <ele>2259.28889</ele>
      </trkpt>
      <trkpt lat="46.923772" lon="10.974033">
        <ele>2254.36302</ele>
      </trkpt>
      <trkpt lat="46.923835" lon="10.974181">
        <ele>2251.55919</ele>
      </trkpt>
      <trkpt lat="46.923833" lon="10.974308">
        <ele>2248.05067</ele>
      </trkpt>
      <trkpt lat="46.923982" lon="10.974655">
        <ele>2238.52697</ele>
      </trkpt>
      <trkpt lat="46.924102" lon="10.974841">
        <ele>2234.1238</ele>
      </trkpt>
      <trkpt lat="46.924287" lon="10.97502">
        <ele>2229.94339</ele>
      </trkpt>
      <trkpt lat="46.924447" lon="10.975086">
        <ele>2228.81296</ele>
      </trkpt>
      <trkpt lat="46.924649" lon="10.975487">
        <ele>2219.18358</ele>
      </trkpt>
      <trkpt lat="46.924759" lon="10.975614">
        <ele>2216.66814</ele>
      </trkpt>
      <trkpt lat="46.924833" lon="10.975826">
        <ele>2210.02661</ele>
      </trkpt>
      <trkpt lat="46.924977" lon="10.975854">
        <ele>2208.04461</ele>
      </trkpt>
      <trkpt lat="46.925124" lon="10.975943">
        <ele>2205.93572</ele>
      </trkpt>
      <trkpt lat="46.925457" lon="10.975911">
        <ele>2202.60369</ele>
      </trkpt>
      <trkpt lat="46.925616" lon="10.975937">
        <ele>2200.42232</ele>
      </trkpt>
      <trkpt lat="46.925754" lon="10.976023">
        <ele>2195.24298</ele>
      </trkpt>
      <trkpt lat="46.925878" lon="10.976003">
        <ele>2195.85412</ele>
      </trkpt>
      <trkpt lat="46.925979" lon="10.976175">
        <ele>2193.89374</ele>
      </trkpt>
      <trkpt lat="46.926093" lon="10.97622">
        <ele>2192.22712</ele>
      </trkpt>
      <trkpt lat="46.926138" lon="10.976325">
        <ele>2190.31127</ele>
      </trkpt>
      <trkpt lat="46.926198" lon="10.976397">
        <ele>2189.82575</ele>
      </trkpt>
      <trkpt lat="46.926234" lon="10.97639">
        <ele>2190.88464</ele>
      </trkpt>
      <trkpt lat="46.926294" lon="10.976517">
        <ele>2187.8667</ele>
      </trkpt>
      <trkpt lat="46.926818" lon="10.976899">
        <ele>2190.37814</ele>
      </trkpt>
      <trkpt lat="46.926908" lon="10.976998">
        <ele>2189.8584</ele>
      </trkpt>
      <trkpt lat="46.926939" lon="10.977098">
        <ele>2187.899</ele>
        <name>46.926967,10.977058</name>
        <extensions>
          <oa:Extension>
            <oa:mapZoom>13</oa:mapZoom>
          </oa:Extension>
        </extensions>
      </trkpt>
      <trkpt lat="46.926985" lon="10.977178">
        <ele>2187.18034</ele>
      </trkpt>
      <trkpt lat="46.927213" lon="10.977266">
        <ele>2183.18295</ele>
      </trkpt>
      <trkpt lat="46.927388" lon="10.977194">
        <ele>2183.04371</ele>
      </trkpt>
      <trkpt lat="46.92744" lon="10.977341">
        <ele>2181.77016</ele>
      </trkpt>
      <trkpt lat="46.927458" lon="10.977631">
        <ele>2180.87488</ele>
      </trkpt>
      <trkpt lat="46.927566" lon="10.978044">
        <ele>2177.75899</ele>
      </trkpt>
      <trkpt lat="46.927815" lon="10.978511">
        <ele>2176.77857</ele>
      </trkpt>
      <trkpt lat="46.927987" lon="10.978684">
        <ele>2177.82749</ele>
      </trkpt>
      <trkpt lat="46.928233" lon="10.978834">
        <ele>2181.23199</ele>
      </trkpt>
      <trkpt lat="46.928438" lon="10.978882">
        <ele>2182.76947</ele>
      </trkpt>
      <trkpt lat="46.92849" lon="10.978966">
        <ele>2182.14292</ele>
      </trkpt>
      <trkpt lat="46.929075" lon="10.979408">
        <ele>2184.09734</ele>
      </trkpt>
      <trkpt lat="46.929467" lon="10.979527">
        <ele>2181.37001</ele>
      </trkpt>
      <trkpt lat="46.929551" lon="10.979628">
        <ele>2180.55866</ele>
      </trkpt>
      <trkpt lat="46.929722" lon="10.979711">
        <ele>2179.47666</ele>
      </trkpt>
      <trkpt lat="46.930167" lon="10.98009">
        <ele>2175.51809</ele>
      </trkpt>
      <trkpt lat="46.930385" lon="10.980048">
        <ele>2172.71652</ele>
      </trkpt>
      <trkpt lat="46.930539" lon="10.980116">
        <ele>2170.22434</ele>
      </trkpt>
      <trkpt lat="46.930618" lon="10.980195">
        <ele>2169.35121</ele>
      </trkpt>
      <trkpt lat="46.930794" lon="10.980504">
        <ele>2167.92963</ele>
      </trkpt>
      <trkpt lat="46.930903" lon="10.980977">
        <ele>2164.91627</ele>
      </trkpt>
      <trkpt lat="46.930992" lon="10.981172">
        <ele>2162.04989</ele>
      </trkpt>
      <trkpt lat="46.931189" lon="10.981477">
        <ele>2157.99603</ele>
      </trkpt>
      <trkpt lat="46.931341" lon="10.981597">
        <ele>2154.89592</ele>
      </trkpt>
      <trkpt lat="46.93164" lon="10.981977">
        <ele>2150.45108</ele>
      </trkpt>
      <trkpt lat="46.93203" lon="10.982137">
        <ele>2144.93807</ele>
      </trkpt>
      <trkpt lat="46.932134" lon="10.982254">
        <ele>2144.0393</ele>
      </trkpt>
      <trkpt lat="46.932576" lon="10.98301">
        <ele>2132.5918</ele>
      </trkpt>
      <trkpt lat="46.93269" lon="10.983239">
        <ele>2129.79262</ele>
      </trkpt>
      <trkpt lat="46.932739" lon="10.983453">
        <ele>2127.01276</ele>
      </trkpt>
      <trkpt lat="46.932866" lon="10.98359">
        <ele>2124.12806</ele>
      </trkpt>
      <trkpt lat="46.933002" lon="10.983903">
        <ele>2118.47468</ele>
      </trkpt>
      <trkpt lat="46.93331" lon="10.98446">
        <ele>2108.91318</ele>
        <name>46.933327,10.984440</name>
        <extensions>
          <oa:Extension>
            <oa:mapZoom>13</oa:mapZoom>
          </oa:Extension>
        </extensions>
      </trkpt>
      <trkpt lat="46.933406" lon="10.984633">
        <ele>2105.74271</ele>
      </trkpt>
      <trkpt lat="46.933476" lon="10.984848">
        <ele>2102.59459</ele>
      </trkpt>
      <trkpt lat="46.933649" lon="10.98561">
        <ele>2092.83125</ele>
      </trkpt>
      <trkpt lat="46.933786" lon="10.986014">
        <ele>2087.89318</ele>
      </trkpt>
      <trkpt lat="46.933914" lon="10.986674">
        <ele>2081.47645</ele>
      </trkpt>
      <trkpt lat="46.934006" lon="10.987385">
        <ele>2073.42968</ele>
      </trkpt>
      <trkpt lat="46.934244" lon="10.988074">
        <ele>2062.736</ele>
      </trkpt>
      <trkpt lat="46.934382" lon="10.988633">
        <ele>2054.8529</ele>
      </trkpt>
      <trkpt lat="46.934582" lon="10.989218">
        <ele>2050.45099</ele>
        <name>46.934528,10.989246</name>
        <extensions>
          <oa:Extension>
            <oa:mapZoom>13</oa:mapZoom>
          </oa:Extension>
        </extensions>
      </trkpt>
      <trkpt lat="46.934609" lon="10.989441">
        <ele>2049.57725</ele>
      </trkpt>
      <trkpt lat="46.934596" lon="10.989893">
        <ele>2046.21279</ele>
      </trkpt>
      <trkpt lat="46.934759" lon="10.990742">
        <ele>2042.61515</ele>
      </trkpt>
      <trkpt lat="46.934783" lon="10.991068">
        <ele>2039.44987</ele>
      </trkpt>
      <trkpt lat="46.934695" lon="10.991751">
        <ele>2031.55101</ele>
        <name>46.934682,10.991757</name>
        <extensions>
          <oa:Extension>
            <oa:mapZoom>13</oa:mapZoom>
          </oa:Extension>
        </extensions>
      </trkpt>
      <trkpt lat="46.934544" lon="10.992462">
        <ele>2025.17029</ele>
      </trkpt>
      <trkpt lat="46.934479" lon="10.993075">
        <ele>2016.77531</ele>
      </trkpt>
      <trkpt lat="46.934236" lon="10.994021">
        <ele>2002.03569</ele>
        <name>46.934236,10.994021</name>
        <extensions>
          <oa:Extension>
            <oa:mapZoom>13</oa:mapZoom>
          </oa:Extension>
        </extensions>
      </trkpt>
      <trkpt lat="46.934188" lon="10.994527">
        <ele>1999.54793</ele>
      </trkpt>
      <trkpt lat="46.934223" lon="10.995542">
        <ele>1991.8432</ele>
      </trkpt>
      <trkpt lat="46.934171" lon="10.996346">
        <ele>1981.06226</ele>
      </trkpt>
      <trkpt lat="46.934175" lon="10.996902">
        <ele>1977.7885</ele>
      </trkpt>
      <trkpt lat="46.934313" lon="10.997426">
        <ele>1976.6875</ele>
      </trkpt>
      <trkpt lat="46.934368" lon="10.997849">
        <ele>1973.74302</ele>
      </trkpt>
      <trkpt lat="46.934416" lon="10.997972">
        <ele>1974.1292</ele>
      </trkpt>
      <trkpt lat="46.9344" lon="10.99809">
        <ele>1972.93564</ele>
      </trkpt>
      <trkpt lat="46.9345" lon="10.99847">
        <ele>1977.18531</ele>
      </trkpt>
      <trkpt lat="46.934475" lon="10.998919">
        <ele>1973.11024</ele>
      </trkpt>
      <trkpt lat="46.934574" lon="10.999468">
        <ele>1971.19368</ele>
      </trkpt>
      <trkpt lat="46.934652" lon="10.999722">
        <ele>1972.19667</ele>
      </trkpt>
      <trkpt lat="46.934768" lon="10.999941">
        <ele>1972.29398</ele>
      </trkpt>
      <trkpt lat="46.93505" lon="11.000675">
        <ele>1969.81121</ele>
      </trkpt>
      <trkpt lat="46.935374" lon="11.000987">
        <ele>1963.7484</ele>
      </trkpt>
      <trkpt lat="46.935688" lon="11.001114">
        <ele>1963.66553</ele>
      </trkpt>
      <trkpt lat="46.936218" lon="11.001599">
        <ele>1968.9022</ele>
      </trkpt>
      <trkpt lat="46.936419" lon="11.001857">
        <ele>1968.63464</ele>
      </trkpt>
      <trkpt lat="46.936773" lon="11.002151">
        <ele>1968.50152</ele>
      </trkpt>
      <trkpt lat="46.937384" lon="11.002502">
        <ele>1974.31242</ele>
      </trkpt>
      <trkpt lat="46.937688" lon="11.002722">
        <ele>1977.12661</ele>
      </trkpt>
      <trkpt lat="46.937753" lon="11.002788">
        <ele>1976.72616</ele>
      </trkpt>
      <trkpt lat="46.937789" lon="11.002891">
        <ele>1975.92627</ele>
      </trkpt>
      <trkpt lat="46.938349" lon="11.003282">
        <ele>1966.07601</ele>
      </trkpt>
      <trkpt lat="46.938741" lon="11.003425">
        <ele>1956.03381</ele>
      </trkpt>
      <trkpt lat="46.939107" lon="11.003516">
        <ele>1949.05308</ele>
      </trkpt>
      <trkpt lat="46.939341" lon="11.003591">
        <ele>1941.67375</ele>
      </trkpt>
      <trkpt lat="46.939631" lon="11.003704">
        <ele>1929.41315</ele>
      </trkpt>
      <trkpt lat="46.939789" lon="11.003717">
        <ele>1927.7429</ele>
      </trkpt>
      <trkpt lat="46.94012" lon="11.003932">
        <ele>1918.22329</ele>
      </trkpt>
      <trkpt lat="46.940149" lon="11.003765">
        <ele>1920.63329</ele>
      </trkpt>
      <trkpt lat="46.940193" lon="11.003991">
        <ele>1916.35099</ele>
      </trkpt>
      <trkpt lat="46.940451" lon="11.003645">
        <ele>1911.38414</ele>
      </trkpt>
      <trkpt lat="46.940567" lon="11.003277">
        <ele>1903.16404</ele>
      </trkpt>
      <trkpt lat="46.940759" lon="11.002991">
        <ele>1897.93517</ele>
      </trkpt>
      <trkpt lat="46.940818" lon="11.002973">
        <ele>1894.35055</ele>
      </trkpt>
      <trkpt lat="46.94092" lon="11.002759">
        <ele>1890.0617</ele>
      </trkpt>
      <trkpt lat="46.940975" lon="11.00283">
        <ele>1887.1808</ele>
      </trkpt>
      <trkpt lat="46.941062" lon="11.002769">
        <ele>1885.39569</ele>
      </trkpt>
      <trkpt lat="46.941161" lon="11.002636">
        <ele>1883.26006</ele>
      </trkpt>
      <trkpt lat="46.941486" lon="11.002442">
        <ele>1873.07917</ele>
      </trkpt>
      <trkpt lat="46.941786" lon="11.002092">
        <ele>1859.50534</ele>
      </trkpt>
      <trkpt lat="46.942045" lon="11.001915">
        <ele>1848.89449</ele>
      </trkpt>
      <trkpt lat="46.942293" lon="11.001908">
        <ele>1842.01899</ele>
      </trkpt>
      <trkpt lat="46.942745" lon="11.002248">
        <ele>1821.17443</ele>
      </trkpt>
      <trkpt lat="46.944009" lon="11.003414">
        <ele>1774.59104</ele>
      </trkpt>
      <trkpt lat="46.944181" lon="11.00363">
        <ele>1768.39591</ele>
      </trkpt>
      <trkpt lat="46.944211" lon="11.003754">
        <ele>1765.99852</ele>
      </trkpt>
      <trkpt lat="46.944407" lon="11.003942">
        <ele>1762.01932</ele>
      </trkpt>
      <trkpt lat="46.944578" lon="11.004182">
        <ele>1756.2658</ele>
      </trkpt>
      <trkpt lat="46.94474" lon="11.004203">
        <ele>1751.81933</ele>
      </trkpt>
      <trkpt lat="46.944942" lon="11.004127">
        <ele>1746.47343</ele>
      </trkpt>
      <trkpt lat="46.945335" lon="11.004061">
        <ele>1734.60685</ele>
      </trkpt>
      <trkpt lat="46.945648" lon="11.003805">
        <ele>1728.32241</ele>
      </trkpt>
      <trkpt lat="46.94608" lon="11.003505">
        <ele>1720.12273</ele>
      </trkpt>
      <trkpt lat="46.946669" lon="11.003154">
        <ele>1712.04267</ele>
      </trkpt>
      <trkpt lat="46.946904" lon="11.00316">
        <ele>1706.74698</ele>
      </trkpt>
      <trkpt lat="46.947369" lon="11.003653">
        <ele>1689.46062</ele>
      </trkpt>
      <trkpt lat="46.947862" lon="11.003993">
        <ele>1679.50687</ele>
      </trkpt>
      <trkpt lat="46.948168" lon="11.004245">
        <ele>1674.33576</ele>
      </trkpt>
      <trkpt lat="46.948329" lon="11.00431">
        <ele>1672.04938</ele>
      </trkpt>
      <trkpt lat="46.948644" lon="11.004599">
        <ele>1659.48331</ele>
      </trkpt>
      <trkpt lat="46.948871" lon="11.004771">
        <ele>1653.55906</ele>
      </trkpt>
      <trkpt lat="46.949281" lon="11.00476">
        <ele>1652.32258</ele>
      </trkpt>
      <trkpt lat="46.949511" lon="11.004757">
        <ele>1650.16865</ele>
      </trkpt>
      <trkpt lat="46.950138" lon="11.004546">
        <ele>1644.05678</ele>
      </trkpt>
      <trkpt lat="46.950511" lon="11.004642">
        <ele>1637.27679</ele>
      </trkpt>
      <trkpt lat="46.950709" lon="11.004921">
        <ele>1627.8258</ele>
      </trkpt>
      <trkpt lat="46.951154" lon="11.004989">
        <ele>1623.36867</ele>
      </trkpt>
      <trkpt lat="46.951397" lon="11.005112">
        <ele>1621.48545</ele>
      </trkpt>
      <trkpt lat="46.951585" lon="11.005106">
        <ele>1619.76828</ele>
      </trkpt>
      <trkpt lat="46.951903" lon="11.005307">
        <ele>1617.13743</ele>
      </trkpt>
      <trkpt lat="46.952306" lon="11.005361">
        <ele>1610.67073</ele>
      </trkpt>
      <trkpt lat="46.952795" lon="11.005607">
        <ele>1602.85251</ele>
      </trkpt>
      <trkpt lat="46.95314" lon="11.005586">
        <ele>1600.42368</ele>
      </trkpt>
      <trkpt lat="46.953521" lon="11.005624">
        <ele>1594.34882</ele>
      </trkpt>
      <trkpt lat="46.953902" lon="11.005758">
        <ele>1588.19595</ele>
      </trkpt>
      <trkpt lat="46.954305" lon="11.005989">
        <ele>1584.32919</ele>
      </trkpt>
      <trkpt lat="46.954419" lon="11.005975">
        <ele>1582.85996</ele>
      </trkpt>
      <trkpt lat="46.95467" lon="11.00585">
        <ele>1578.75413</ele>
      </trkpt>
      <trkpt lat="46.954656" lon="11.006012">
        <ele>1577.07993</ele>
      </trkpt>
      <trkpt lat="46.95453" lon="11.006359">
        <ele>1573.12242</ele>
      </trkpt>
      <trkpt lat="46.955174" lon="11.006147">
        <ele>1569.31151</ele>
      </trkpt>
      <trkpt lat="46.955643" lon="11.005729">
        <ele>1565.89775</ele>
      </trkpt>
      <trkpt lat="46.955815" lon="11.005637">
        <ele>1566.43671</ele>
      </trkpt>
      <trkpt lat="46.956291" lon="11.005522">
        <ele>1561.35362</ele>
      </trkpt>
      <trkpt lat="46.95687" lon="11.005527">
        <ele>1558.67687</ele>
      </trkpt>
      <trkpt lat="46.957119" lon="11.005447">
        <ele>1557.90223</ele>
      </trkpt>
      <trkpt lat="46.957531" lon="11.005222">
        <ele>1555.45917</ele>
      </trkpt>
      <trkpt lat="46.957785" lon="11.004991">
        <ele>1553.67452</ele>
      </trkpt>
      <trkpt lat="46.957987" lon="11.004594">
        <ele>1545.04782</ele>
      </trkpt>
      <trkpt lat="46.958073" lon="11.004428">
        <ele>1542.83047</ele>
      </trkpt>
      <trkpt lat="46.95819" lon="11.004406">
        <ele>1541.91516</ele>
      </trkpt>
      <trkpt lat="46.958245" lon="11.004535">
        <ele>1541.45737</ele>
      </trkpt>
      <trkpt lat="46.958193" lon="11.004814">
        <ele>1542.02865</ele>
      </trkpt>
      <trkpt lat="46.958073" lon="11.005163">
        <ele>1540.46124</ele>
      </trkpt>
      <trkpt lat="46.957908" lon="11.005549">
        <ele>1533.30174</ele>
      </trkpt>
      <trkpt lat="46.957714" lon="11.00578">
        <ele>1529.27675</ele>
      </trkpt>
      <trkpt lat="46.957395" lon="11.006091">
        <ele>1523.86776</ele>
      </trkpt>
      <trkpt lat="46.957015" lon="11.00637">
        <ele>1517.6053</ele>
      </trkpt>
      <trkpt lat="46.956875" lon="11.006557">
        <ele>1511.52411</ele>
      </trkpt>
      <trkpt lat="46.956883" lon="11.006788">
        <ele>1504.15026</ele>
      </trkpt>
      <trkpt lat="46.956806" lon="11.006874">
        <ele>1503.05725</ele>
      </trkpt>
      <trkpt lat="46.956758" lon="11.006944">
        <ele>1501.95631</ele>
      </trkpt>
      <trkpt lat="46.956824" lon="11.00697">
        <ele>1500.63579</ele>
      </trkpt>
      <trkpt lat="46.956736" lon="11.007056">
        <ele>1498.36163</ele>
      </trkpt>
      <trkpt lat="46.956626" lon="11.007088">
        <ele>1498.55837</ele>
      </trkpt>
      <trkpt lat="46.956542" lon="11.007137">
        <ele>1498.16508</ele>
      </trkpt>
      <trkpt lat="46.956454" lon="11.007233">
        <ele>1496.14262</ele>
      </trkpt>
      <trkpt lat="46.956355" lon="11.007319">
        <ele>1494.5504</ele>
      </trkpt>
      <trkpt lat="46.956286" lon="11.007416">
        <ele>1492.18322</ele>
      </trkpt>
      <trkpt lat="46.95629" lon="11.007507">
        <ele>1489.59661</ele>
      </trkpt>
      <trkpt lat="46.956399" lon="11.007555">
        <ele>1486.78932</ele>
      </trkpt>
      <trkpt lat="46.956531" lon="11.007555">
        <ele>1483.97048</ele>
      </trkpt>
      <trkpt lat="46.956648" lon="11.007539">
        <ele>1481.83763</ele>
      </trkpt>
      <trkpt lat="46.956736" lon="11.007523">
        <ele>1481.18032</ele>
      </trkpt>
      <trkpt lat="46.956839" lon="11.007523">
        <ele>1480.30085</ele>
      </trkpt>
      <trkpt lat="46.956934" lon="11.007518">
        <ele>1480.01476</ele>
      </trkpt>
      <trkpt lat="46.957047" lon="11.008062">
        <ele>1472.10864</ele>
      </trkpt>
      <trkpt lat="46.957216" lon="11.008011">
        <ele>1469.99116</ele>
      </trkpt>
      <trkpt lat="46.957644" lon="11.007754">
        <ele>1468.21552</ele>
      </trkpt>
      <trkpt lat="46.957792" lon="11.007625">
        <ele>1469.01329</ele>
      </trkpt>
      <trkpt lat="46.958259" lon="11.007547">
        <ele>1452.84629</ele>
      </trkpt>
      <trkpt lat="46.958311" lon="11.007588">
        <ele>1449.27242</ele>
      </trkpt>
      <trkpt lat="46.958311" lon="11.007666">
        <ele>1446.98335</ele>
      </trkpt>
      <trkpt lat="46.958225" lon="11.00773">
        <ele>1448.27668</ele>
      </trkpt>
      <trkpt lat="46.958031" lon="11.007777">
        <ele>1453.78301</ele>
      </trkpt>
      <trkpt lat="46.957872" lon="11.007954">
        <ele>1448.95358</ele>
      </trkpt>
      <trkpt lat="46.957533" lon="11.008104">
        <ele>1452.16873</ele>
      </trkpt>
      <trkpt lat="46.957208" lon="11.008336">
        <ele>1451.53819</ele>
      </trkpt>
      <trkpt lat="46.957138" lon="11.008416">
        <ele>1449.4118</ele>
      </trkpt>
      <trkpt lat="46.957061" lon="11.00865">
        <ele>1441.27359</ele>
      </trkpt>
      <trkpt lat="46.956983" lon="11.00873">
        <ele>1441.91885</ele>
      </trkpt>
      <trkpt lat="46.956815" lon="11.00869">
        <ele>1449.09254</ele>
      </trkpt>
      <trkpt lat="46.956691" lon="11.008729">
        <ele>1451.05981</ele>
      </trkpt>
      <trkpt lat="46.956341" lon="11.009034">
        <ele>1438.54742</ele>
      </trkpt>
      <trkpt lat="46.956009" lon="11.009213">
        <ele>1434.29159</ele>
      </trkpt>
      <trkpt lat="46.955881" lon="11.009449">
        <ele>1431.50186</ele>
      </trkpt>
      <trkpt lat="46.955677" lon="11.009446">
        <ele>1429.46716</ele>
      </trkpt>
      <trkpt lat="46.955242" lon="11.009575">
        <ele>1427.71717</ele>
      </trkpt>
      <trkpt lat="46.955131" lon="11.009638">
        <ele>1424.0882</ele>
      </trkpt>
      <trkpt lat="46.955098" lon="11.009716">
        <ele>1419.67323</ele>
      </trkpt>
      <trkpt lat="46.955265" lon="11.0098">
        <ele>1412.70715</ele>
      </trkpt>
      <trkpt lat="46.955369" lon="11.009933">
        <ele>1405.81986</ele>
      </trkpt>
      <trkpt lat="46.955559" lon="11.010052">
        <ele>1401.79435</ele>
      </trkpt>
      <trkpt lat="46.956133" lon="11.010122">
        <ele>1387.90682</ele>
      </trkpt>
      <trkpt lat="46.956618" lon="11.010005">
        <ele>1378.94355</ele>
      </trkpt>
      <trkpt lat="46.956795" lon="11.0099">
        <ele>1378.36979</ele>
      </trkpt>
      <trkpt lat="46.956978" lon="11.009726">
        <ele>1384.82308</ele>
      </trkpt>
      <trkpt lat="46.957268" lon="11.009672">
        <ele>1380.62933</ele>
      </trkpt>
      <trkpt lat="46.957547" lon="11.009537">
        <ele>1374.85778</ele>
      </trkpt>
      <trkpt lat="46.957978" lon="11.009123">
        <ele>1371.90142</ele>
      </trkpt>
      <trkpt lat="46.958401" lon="11.008878">
        <ele>1367.11474</ele>
      </trkpt>
      <trkpt lat="46.958447" lon="11.00888">
        <ele>1365.99829</ele>
      </trkpt>
      <trkpt lat="46.958454" lon="11.008923">
        <ele>1364.02831</ele>
      </trkpt>
      <trkpt lat="46.958351" lon="11.009042">
        <ele>1361.61276</ele>
      </trkpt>
      <trkpt lat="46.95849" lon="11.009179">
        <ele>1359.95921</ele>
      </trkpt>
      <trkpt lat="46.958631" lon="11.009482">
        <ele>1360.8</ele>
        <name>46.958585,11.009354</name>
        <extensions>
          <oa:Extension>
            <oa:mapZoom>13</oa:mapZoom>
          </oa:Extension>
        </extensions>
      </trkpt>
    </trkseg>
  </trk>
</gpx>