<?xml version="1.0" encoding="UTF-8" standalone="no"?>
<gpx version="1.1" creator="mountainbike-freiburg.com" xmlns="http://www.topografix.com/GPX/1/1" xmlns:xsi="http://www.w3.org/2001/XMLSchema-instance" xmlns:gpxtpx="http://www.garmin.com/xmlschemas/TrackPointExtension/v1" xsi:schemaLocation="http://www.topografix.com/GPX/1/1 http://www.topografix.com/GPX/1/1/gpx.xsd http://www.garmin.com/xmlschemas/TrackPointExtension/v1 http://www.garmin.com/xmlschemas/TrackPointExtensionv1.xsd">
<metadata>
<name>Floh Trail 2</name>
<link href="https://www.mountainbike-freiburg.com/">
<text>Mountainbike Freiburg e.V.</text>
</link>
</metadata>
<trk>
<name>
Floh Trial 2
</name>
<trkseg>
<trkpt lat="47.99423" lon="7.89826">
<ele>422</ele>
<time>2025-07-28T02:10:55-07:00</time>
</trkpt>
<trkpt lat="47.99418" lon="7.89811">
<ele>419</ele>
<time>2025-07-28T02:10:56-07:00</time>
</trkpt>
<trkpt lat="47.99414" lon="7.89805">
<ele>419</ele>
<time>2025-07-28T02:10:57-07:00</time>
</trkpt>
<trkpt lat="47.99404" lon="7.89771">
<ele>415</ele>
<time>2025-07-28T02:10:58-07:00</time>
</trkpt>
<trkpt lat="47.99402" lon="7.89767">
<ele>406</ele>
<time>2025-07-28T02:10:59-07:00</time>
</trkpt>
<trkpt lat="47.9939" lon="7.89761">
<ele>404</ele>
<time>2025-07-28T02:11:00-07:00</time>
</trkpt>
<trkpt lat="47.99389" lon="7.89756">
<ele>404</ele>
<time>2025-07-28T02:11:01-07:00</time>
</trkpt>
<trkpt lat="47.99391" lon="7.8974">
<ele>404</ele>
<time>2025-07-28T02:11:02-07:00</time>
</trkpt>
<trkpt lat="47.99389" lon="7.89736">
<ele>403</ele>
<time>2025-07-28T02:11:03-07:00</time>
</trkpt>
<trkpt lat="47.9938" lon="7.89731">
<ele>403</ele>
<time>2025-07-28T02:11:04-07:00</time>
</trkpt>
<trkpt lat="47.99378" lon="7.89728">
<ele>403</ele>
<time>2025-07-28T02:11:05-07:00</time>
</trkpt>
<trkpt lat="47.99379" lon="7.89712">
<ele>403</ele>
<time>2025-07-28T02:11:06-07:00</time>
</trkpt>
<trkpt lat="47.99377" lon="7.89709">
<ele>403</ele>
<time>2025-07-28T02:11:07-07:00</time>
</trkpt>
<trkpt lat="47.99368" lon="7.89701">
<ele>396</ele>
<time>2025-07-28T02:11:08-07:00</time>
</trkpt>
<trkpt lat="47.9936" lon="7.89703">
<ele>396</ele>
<time>2025-07-28T02:11:09-07:00</time>
</trkpt>
<trkpt lat="47.99335" lon="7.89687">
<ele>386</ele>
<time>2025-07-28T02:11:10-07:00</time>
</trkpt>
<trkpt lat="47.99327" lon="7.89675">
<ele>381</ele>
<time>2025-07-28T02:11:11-07:00</time>
</trkpt>
<trkpt lat="47.99322" lon="7.89652">
<ele>376</ele>
<time>2025-07-28T02:11:12-07:00</time>
</trkpt>
<trkpt lat="47.99312" lon="7.89642">
<ele>364</ele>
<time>2025-07-28T02:11:13-07:00</time>
</trkpt>
<trkpt lat="47.99305" lon="7.89643">
<ele>364</ele>
<time>2025-07-28T02:11:14-07:00</time>
</trkpt>
<trkpt lat="47.99297" lon="7.89639">
<ele>364</ele>
<time>2025-07-28T02:11:15-07:00</time>
</trkpt>
<trkpt lat="47.99295" lon="7.89627">
<ele>364</ele>
<time>2025-07-28T02:11:16-07:00</time>
</trkpt>
<trkpt lat="47.99292" lon="7.89626">
<ele>364</ele>
<time>2025-07-28T02:11:17-07:00</time>
</trkpt>
<trkpt lat="47.99287" lon="7.89627">
<ele>356</ele>
<time>2025-07-28T02:11:18-07:00</time>
</trkpt>
<trkpt lat="47.99282" lon="7.89623">
<ele>355</ele>
<time>2025-07-28T02:11:19-07:00</time>
</trkpt>
<trkpt lat="47.99279" lon="7.89617">
<ele>355</ele>
<time>2025-07-28T02:11:20-07:00</time>
</trkpt>
<trkpt lat="47.99271" lon="7.89609">
<ele>355</ele>
<time>2025-07-28T02:11:21-07:00</time>
</trkpt>
<trkpt lat="47.99268" lon="7.896">
<ele>355</ele>
<time>2025-07-28T02:11:22-07:00</time>
</trkpt>
<trkpt lat="47.9925" lon="7.89588">
<ele>343</ele>
<time>2025-07-28T02:11:23-07:00</time>
</trkpt>
</trkseg>
</trk>
</gpx>
