<?xml version="1.0" encoding="UTF-8" standalone="no"?>
<gpx version="1.1" creator="mountainbike-freiburg.com" xmlns="http://www.topografix.com/GPX/1/1" xmlns:xsi="http://www.w3.org/2001/XMLSchema-instance" xmlns:gpxtpx="http://www.garmin.com/xmlschemas/TrackPointExtension/v1" xsi:schemaLocation="http://www.topografix.com/GPX/1/1 http://www.topografix.com/GPX/1/1/gpx.xsd http://www.garmin.com/xmlschemas/TrackPointExtension/v1 http://www.garmin.com/xmlschemas/TrackPointExtensionv1.xsd">
<metadata>
<name>Floh Trail 1</name>
<link href="https://www.mountainbike-freiburg.com/">
<text>Mountainbike Freiburg e.V.</text>
</link>
</metadata>
<trk>
<name>
Floh Trail 1
</name>
<trkseg>
<trkpt lat="47.99423" lon="7.89826">
<ele>422</ele>
<time>2025-07-28T02:10:35-07:00</time>
</trkpt>
<trkpt lat="47.99421" lon="7.89806">
<ele>419</ele>
<time>2025-07-28T02:10:36-07:00</time>
</trkpt>
<trkpt lat="47.99412" lon="7.89796">
<ele>419</ele>
<time>2025-07-28T02:10:37-07:00</time>
</trkpt>
<trkpt lat="47.99406" lon="7.89792">
<ele>419</ele>
<time>2025-07-28T02:10:38-07:00</time>
</trkpt>
<trkpt lat="47.99405" lon="7.89778">
<ele>415</ele>
<time>2025-07-28T02:10:39-07:00</time>
</trkpt>
<trkpt lat="47.99403" lon="7.89774">
<ele>415</ele>
<time>2025-07-28T02:10:40-07:00</time>
</trkpt>
<trkpt lat="47.99395" lon="7.89767">
<ele>406</ele>
<time>2025-07-28T02:10:41-07:00</time>
</trkpt>
<trkpt lat="47.99385" lon="7.89753">
<ele>404</ele>
<time>2025-07-28T02:10:42-07:00</time>
</trkpt>
<trkpt lat="47.99372" lon="7.89747">
<ele>398</ele>
<time>2025-07-28T02:10:43-07:00</time>
</trkpt>
<trkpt lat="47.99368" lon="7.89743">
<ele>398</ele>
<time>2025-07-28T02:10:44-07:00</time>
</trkpt>
<trkpt lat="47.99364" lon="7.89728">
<ele>397</ele>
<time>2025-07-28T02:10:45-07:00</time>
</trkpt>
<trkpt lat="47.99357" lon="7.89724">
<ele>397</ele>
<time>2025-07-28T02:10:46-07:00</time>
</trkpt>
<trkpt lat="47.99354" lon="7.89715">
<ele>397</ele>
<time>2025-07-28T02:10:47-07:00</time>
</trkpt>
<trkpt lat="47.99346" lon="7.89713">
<ele>388</ele>
<time>2025-07-28T02:10:48-07:00</time>
</trkpt>
<trkpt lat="47.99341" lon="7.89709">
<ele>388</ele>
<time>2025-07-28T02:10:49-07:00</time>
</trkpt>
<trkpt lat="47.99338" lon="7.89699">
<ele>386</ele>
<time>2025-07-28T02:10:50-07:00</time>
</trkpt>
<trkpt lat="47.99326" lon="7.89687">
<ele>386</ele>
<time>2025-07-28T02:10:51-07:00</time>
</trkpt>
<trkpt lat="47.99315" lon="7.89683">
<ele>372</ele>
<time>2025-07-28T02:10:52-07:00</time>
</trkpt>
<trkpt lat="47.9931" lon="7.89667">
<ele>367</ele>
<time>2025-07-28T02:10:53-07:00</time>
</trkpt>
<trkpt lat="47.99303" lon="7.8966">
<ele>367</ele>
<time>2025-07-28T02:10:54-07:00</time>
</trkpt>
<trkpt lat="47.99299" lon="7.8965">
<ele>364</ele>
<time>2025-07-28T02:10:55-07:00</time>
</trkpt>
<trkpt lat="47.99292" lon="7.89642">
<ele>364</ele>
<time>2025-07-28T02:10:56-07:00</time>
</trkpt>
<trkpt lat="47.99287" lon="7.89642">
<ele>356</ele>
<time>2025-07-28T02:10:57-07:00</time>
</trkpt>
<trkpt lat="47.99278" lon="7.89633">
<ele>356</ele>
<time>2025-07-28T02:10:58-07:00</time>
</trkpt>
<trkpt lat="47.99265" lon="7.89611">
<ele>355</ele>
<time>2025-07-28T02:10:59-07:00</time>
</trkpt>
<trkpt lat="47.99255" lon="7.89601">
<ele>344</ele>
<time>2025-07-28T02:11:00-07:00</time>
</trkpt>
<trkpt lat="47.9925" lon="7.89588">
<ele>343</ele>
<time>2025-07-28T02:11:01-07:00</time>
</trkpt>
</trkseg>
</trk>
</gpx>
