<?xml version="1.0" encoding="UTF-8" standalone="no"?>
<gpx version="1.1" creator="mountainbike-freiburg.com" xmlns="http://www.topografix.com/GPX/1/1" xmlns:xsi="http://www.w3.org/2001/XMLSchema-instance" xmlns:gpxtpx="http://www.garmin.com/xmlschemas/TrackPointExtension/v1" xsi:schemaLocation="http://www.topografix.com/GPX/1/1 http://www.topografix.com/GPX/1/1/gpx.xsd http://www.garmin.com/xmlschemas/TrackPointExtension/v1 http://www.garmin.com/xmlschemas/TrackPointExtensionv1.xsd">
<metadata>
<name>Hubbelfuchs</name>
<link href="https://www.mountainbike-freiburg.com/">
<text>Mountainbike Freiburg e.V.</text>
</link>
</metadata>
<trk>
<name>
Hubbelfuchs
</name>
<trkseg>
<trkpt lat="48.01002" lon="7.90154">
<ele>739</ele>
<time>2025-07-28T08:19:31-07:00</time>
</trkpt>
<trkpt lat="48.01001" lon="7.90153">
<ele>739</ele>
<time>2025-07-28T08:19:32-07:00</time>
</trkpt>
<trkpt lat="48.00998" lon="7.90126">
<ele>738</ele>
<time>2025-07-28T08:19:33-07:00</time>
</trkpt>
<trkpt lat="48.01005" lon="7.90097">
<ele>737</ele>
<time>2025-07-28T08:19:34-07:00</time>
</trkpt>
<trkpt lat="48.0101" lon="7.9006">
<ele>733</ele>
<time>2025-07-28T08:19:35-07:00</time>
</trkpt>
<trkpt lat="48.01013" lon="7.90025">
<ele>727</ele>
<time>2025-07-28T08:19:36-07:00</time>
</trkpt>
<trkpt lat="48.01011" lon="7.90014">
<ele>726</ele>
<time>2025-07-28T08:19:37-07:00</time>
</trkpt>
<trkpt lat="48.00996" lon="7.89987">
<ele>725</ele>
<time>2025-07-28T08:19:38-07:00</time>
</trkpt>
<trkpt lat="48.01002" lon="7.89976">
<ele>724</ele>
<time>2025-07-28T08:19:39-07:00</time>
</trkpt>
<trkpt lat="48.01015" lon="7.8995">
<ele>721</ele>
<time>2025-07-28T08:19:40-07:00</time>
</trkpt>
<trkpt lat="48.01011" lon="7.89895">
<ele>713</ele>
<time>2025-07-28T08:19:41-07:00</time>
</trkpt>
<trkpt lat="48.01018" lon="7.8981">
<ele>693</ele>
<time>2025-07-28T08:19:42-07:00</time>
</trkpt>
<trkpt lat="48.01016" lon="7.89713">
<ele>669</ele>
<time>2025-07-28T08:19:43-07:00</time>
</trkpt>
<trkpt lat="48.01021" lon="7.89652">
<ele>661</ele>
<time>2025-07-28T08:19:44-07:00</time>
</trkpt>
<trkpt lat="48.01016" lon="7.89612">
<ele>653</ele>
<time>2025-07-28T08:19:45-07:00</time>
</trkpt>
<trkpt lat="48.01018" lon="7.89555">
<ele>643</ele>
<time>2025-07-28T08:19:46-07:00</time>
</trkpt>
<trkpt lat="48.01022" lon="7.89548">
<ele>643</ele>
<time>2025-07-28T08:19:47-07:00</time>
</trkpt>
<trkpt lat="48.01035" lon="7.89261">
<ele>603</ele>
<time>2025-07-28T08:19:48-07:00</time>
</trkpt>
<trkpt lat="48.01049" lon="7.89141">
<ele>594</ele>
<time>2025-07-28T08:19:49-07:00</time>
</trkpt>
<trkpt lat="48.01036" lon="7.89108">
<ele>597</ele>
<time>2025-07-28T08:19:50-07:00</time>
</trkpt>
<trkpt lat="48.01045" lon="7.89044">
<ele>590</ele>
<time>2025-07-28T08:19:51-07:00</time>
</trkpt>
<trkpt lat="48.01027" lon="7.89003">
<ele>592</ele>
<time>2025-07-28T08:19:52-07:00</time>
</trkpt>
<trkpt lat="48.01022" lon="7.88966">
<ele>590</ele>
<time>2025-07-28T08:19:53-07:00</time>
</trkpt>
<trkpt lat="48.01031" lon="7.88931">
<ele>587</ele>
<time>2025-07-28T08:19:54-07:00</time>
</trkpt>
<trkpt lat="48.01026" lon="7.88775">
<ele>558</ele>
<time>2025-07-28T08:19:55-07:00</time>
</trkpt>
<trkpt lat="48.01056" lon="7.88688">
<ele>538</ele>
<time>2025-07-28T08:19:56-07:00</time>
</trkpt>
<trkpt lat="48.01066" lon="7.88656">
<ele>535</ele>
<time>2025-07-28T08:19:57-07:00</time>
</trkpt>
<trkpt lat="48.01064" lon="7.88619">
<ele>532</ele>
<time>2025-07-28T08:19:58-07:00</time>
</trkpt>
<trkpt lat="48.01061" lon="7.88603">
<ele>531</ele>
<time>2025-07-28T08:19:59-07:00</time>
</trkpt>
<trkpt lat="48.0106" lon="7.88581">
<ele>531</ele>
<time>2025-07-28T08:20:00-07:00</time>
</trkpt>
<trkpt lat="48.01071" lon="7.88571">
<ele>531</ele>
<time>2025-07-28T08:20:01-07:00</time>
</trkpt>
<trkpt lat="48.01079" lon="7.88549">
<ele>532</ele>
<time>2025-07-28T08:20:02-07:00</time>
</trkpt>
<trkpt lat="48.01091" lon="7.88538">
<ele>534</ele>
<time>2025-07-28T08:20:03-07:00</time>
</trkpt>
<trkpt lat="48.01169" lon="7.88431">
<ele>553</ele>
<time>2025-07-28T08:20:04-07:00</time>
</trkpt>
<trkpt lat="48.01184" lon="7.88389">
<ele>558</ele>
<time>2025-07-28T08:20:05-07:00</time>
</trkpt>
<trkpt lat="48.01193" lon="7.88334">
<ele>564</ele>
<time>2025-07-28T08:20:06-07:00</time>
</trkpt>
<trkpt lat="48.012" lon="7.88308">
<ele>562</ele>
<time>2025-07-28T08:20:07-07:00</time>
</trkpt>
<trkpt lat="48.01206" lon="7.8829">
<ele>561</ele>
<time>2025-07-28T08:20:08-07:00</time>
</trkpt>
<trkpt lat="48.01209" lon="7.88262">
<ele>563</ele>
<time>2025-07-28T08:20:09-07:00</time>
</trkpt>
<trkpt lat="48.01216" lon="7.88248">
<ele>564</ele>
<time>2025-07-28T08:20:10-07:00</time>
</trkpt>
<trkpt lat="48.01215" lon="7.88233">
<ele>564</ele>
<time>2025-07-28T08:20:11-07:00</time>
</trkpt>
<trkpt lat="48.01215" lon="7.88227">
<ele>565</ele>
<time>2025-07-28T08:20:12-07:00</time>
</trkpt>
<trkpt lat="48.01223" lon="7.88209">
<ele>563</ele>
<time>2025-07-28T08:20:13-07:00</time>
</trkpt>
<trkpt lat="48.01228" lon="7.882">
<ele>562</ele>
<time>2025-07-28T08:20:14-07:00</time>
</trkpt>
<trkpt lat="48.01236" lon="7.88165">
<ele>555</ele>
<time>2025-07-28T08:20:15-07:00</time>
</trkpt>
<trkpt lat="48.0124" lon="7.88154">
<ele>553</ele>
<time>2025-07-28T08:20:16-07:00</time>
</trkpt>
<trkpt lat="48.01247" lon="7.88148">
<ele>551</ele>
<time>2025-07-28T08:20:17-07:00</time>
</trkpt>
<trkpt lat="48.01251" lon="7.88141">
<ele>550</ele>
<time>2025-07-28T08:20:18-07:00</time>
</trkpt>
<trkpt lat="48.01255" lon="7.88127">
<ele>547</ele>
<time>2025-07-28T08:20:19-07:00</time>
</trkpt>
<trkpt lat="48.01258" lon="7.88101">
<ele>544</ele>
<time>2025-07-28T08:20:20-07:00</time>
</trkpt>
<trkpt lat="48.0126" lon="7.88088">
<ele>542</ele>
<time>2025-07-28T08:20:21-07:00</time>
</trkpt>
<trkpt lat="48.01259" lon="7.88082">
<ele>541</ele>
<time>2025-07-28T08:20:22-07:00</time>
</trkpt>
<trkpt lat="48.01255" lon="7.88079">
<ele>541</ele>
<time>2025-07-28T08:20:23-07:00</time>
</trkpt>
<trkpt lat="48.01254" lon="7.88068">
<ele>541</ele>
<time>2025-07-28T08:20:24-07:00</time>
</trkpt>
<trkpt lat="48.01255" lon="7.88061">
<ele>540</ele>
<time>2025-07-28T08:20:25-07:00</time>
</trkpt>
<trkpt lat="48.01262" lon="7.88042">
<ele>537</ele>
<time>2025-07-28T08:20:26-07:00</time>
</trkpt>
<trkpt lat="48.01268" lon="7.8804">
<ele>537</ele>
<time>2025-07-28T08:20:27-07:00</time>
</trkpt>
<trkpt lat="48.01265" lon="7.88017">
<ele>535</ele>
<time>2025-07-28T08:20:28-07:00</time>
</trkpt>
<trkpt lat="48.01266" lon="7.88007">
<ele>534</ele>
<time>2025-07-28T08:20:29-07:00</time>
</trkpt>
<trkpt lat="48.0127" lon="7.88004">
<ele>534</ele>
<time>2025-07-28T08:20:30-07:00</time>
</trkpt>
<trkpt lat="48.01274" lon="7.87998">
<ele>533</ele>
<time>2025-07-28T08:20:31-07:00</time>
</trkpt>
<trkpt lat="48.01273" lon="7.87993">
<ele>532</ele>
<time>2025-07-28T08:20:32-07:00</time>
</trkpt>
<trkpt lat="48.01272" lon="7.87982">
<ele>530</ele>
<time>2025-07-28T08:20:33-07:00</time>
</trkpt>
<trkpt lat="48.01275" lon="7.87974">
<ele>528</ele>
<time>2025-07-28T08:20:34-07:00</time>
</trkpt>
<trkpt lat="48.01279" lon="7.8797">
<ele>527</ele>
<time>2025-07-28T08:20:35-07:00</time>
</trkpt>
<trkpt lat="48.01283" lon="7.87968">
<ele>526</ele>
<time>2025-07-28T08:20:36-07:00</time>
</trkpt>
<trkpt lat="48.01282" lon="7.87955">
<ele>524</ele>
<time>2025-07-28T08:20:37-07:00</time>
</trkpt>
<trkpt lat="48.01283" lon="7.87943">
<ele>522</ele>
<time>2025-07-28T08:20:38-07:00</time>
</trkpt>
<trkpt lat="48.01287" lon="7.87935">
<ele>519</ele>
<time>2025-07-28T08:20:39-07:00</time>
</trkpt>
<trkpt lat="48.01294" lon="7.87935">
<ele>517</ele>
<time>2025-07-28T08:20:40-07:00</time>
</trkpt>
<trkpt lat="48.013" lon="7.87929">
<ele>514</ele>
<time>2025-07-28T08:20:41-07:00</time>
</trkpt>
<trkpt lat="48.01305" lon="7.87914">
<ele>511</ele>
<time>2025-07-28T08:20:42-07:00</time>
</trkpt>
<trkpt lat="48.01312" lon="7.87905">
<ele>507</ele>
<time>2025-07-28T08:20:43-07:00</time>
</trkpt>
<trkpt lat="48.01318" lon="7.87892">
<ele>505</ele>
<time>2025-07-28T08:20:44-07:00</time>
</trkpt>
<trkpt lat="48.01317" lon="7.87865">
<ele>503</ele>
<time>2025-07-28T08:20:45-07:00</time>
</trkpt>
<trkpt lat="48.01319" lon="7.87858">
<ele>501</ele>
<time>2025-07-28T08:20:46-07:00</time>
</trkpt>
<trkpt lat="48.01322" lon="7.8785">
<ele>498</ele>
<time>2025-07-28T08:20:47-07:00</time>
</trkpt>
<trkpt lat="48.01327" lon="7.8785">
<ele>497</ele>
<time>2025-07-28T08:20:48-07:00</time>
</trkpt>
<trkpt lat="48.01329" lon="7.87845">
<ele>496</ele>
<time>2025-07-28T08:20:49-07:00</time>
</trkpt>
<trkpt lat="48.01332" lon="7.8784">
<ele>494</ele>
<time>2025-07-28T08:20:50-07:00</time>
</trkpt>
<trkpt lat="48.01331" lon="7.87827">
<ele>492</ele>
<time>2025-07-28T08:20:51-07:00</time>
</trkpt>
<trkpt lat="48.01333" lon="7.87818">
<ele>490</ele>
<time>2025-07-28T08:20:52-07:00</time>
</trkpt>
<trkpt lat="48.01339" lon="7.87815">
<ele>489</ele>
<time>2025-07-28T08:20:53-07:00</time>
</trkpt>
<trkpt lat="48.01342" lon="7.8781">
<ele>487</ele>
<time>2025-07-28T08:20:54-07:00</time>
</trkpt>
<trkpt lat="48.01346" lon="7.878">
<ele>485</ele>
<time>2025-07-28T08:20:55-07:00</time>
</trkpt>
<trkpt lat="48.01347" lon="7.87791">
<ele>484</ele>
<time>2025-07-28T08:20:56-07:00</time>
</trkpt>
<trkpt lat="48.01347" lon="7.87782">
<ele>482</ele>
<time>2025-07-28T08:20:57-07:00</time>
</trkpt>
<trkpt lat="48.01348" lon="7.87775">
<ele>481</ele>
<time>2025-07-28T08:20:58-07:00</time>
</trkpt>
<trkpt lat="48.01352" lon="7.87775">
<ele>480</ele>
<time>2025-07-28T08:20:59-07:00</time>
</trkpt>
<trkpt lat="48.01356" lon="7.87767">
<ele>479</ele>
<time>2025-07-28T08:21:00-07:00</time>
</trkpt>
<trkpt lat="48.01357" lon="7.87758">
<ele>478</ele>
<time>2025-07-28T08:21:01-07:00</time>
</trkpt>
<trkpt lat="48.01362" lon="7.87751">
<ele>478</ele>
<time>2025-07-28T08:21:02-07:00</time>
</trkpt>
<trkpt lat="48.0136" lon="7.87744">
<ele>476</ele>
<time>2025-07-28T08:21:03-07:00</time>
</trkpt>
<trkpt lat="48.01359" lon="7.87732">
<ele>474</ele>
<time>2025-07-28T08:21:04-07:00</time>
</trkpt>
<trkpt lat="48.01367" lon="7.87719">
<ele>472</ele>
<time>2025-07-28T08:21:05-07:00</time>
</trkpt>
<trkpt lat="48.01372" lon="7.87717">
<ele>471</ele>
<time>2025-07-28T08:21:06-07:00</time>
</trkpt>
<trkpt lat="48.01373" lon="7.87707">
<ele>470</ele>
<time>2025-07-28T08:21:07-07:00</time>
</trkpt>
<trkpt lat="48.01372" lon="7.87693">
<ele>468</ele>
<time>2025-07-28T08:21:08-07:00</time>
</trkpt>
<trkpt lat="48.01366" lon="7.87678">
<ele>465</ele>
<time>2025-07-28T08:21:09-07:00</time>
</trkpt>
</trkseg>
</trk>
</gpx>
