<?xml version="1.0" encoding="UTF-8" standalone="no"?>
<gpx version="1.1" creator="mountainbike-freiburg.com" xmlns="http://www.topografix.com/GPX/1/1" xmlns:xsi="http://www.w3.org/2001/XMLSchema-instance" xmlns:gpxtpx="http://www.garmin.com/xmlschemas/TrackPointExtension/v1" xsi:schemaLocation="http://www.topografix.com/GPX/1/1 http://www.topografix.com/GPX/1/1/gpx.xsd http://www.garmin.com/xmlschemas/TrackPointExtension/v1 http://www.garmin.com/xmlschemas/TrackPointExtensionv1.xsd">
<metadata>
<name>Schädelwäg Uphill</name>
<link href="https://www.mountainbike-freiburg.com/">
<text>Mountainbike Freiburg e.V.</text>
</link>
</metadata>
<trk>
<name>
Canadian Trail
</name>
<trkseg>
<trkpt lat="47.92324" lon="7.95904">
<ele>665</ele>
<time>2025-07-28T01:43:09-07:00</time>
</trkpt>
<trkpt lat="47.92318" lon="7.95913">
<ele>685</ele>
<time>2025-07-28T01:43:10-07:00</time>
</trkpt>
<trkpt lat="47.9232" lon="7.95933">
<ele>665</ele>
<time>2025-07-28T01:43:11-07:00</time>
</trkpt>
<trkpt lat="47.92337" lon="7.95994">
<ele>678</ele>
<time>2025-07-28T01:43:12-07:00</time>
</trkpt>
<trkpt lat="47.92349" lon="7.96081">
<ele>674</ele>
<time>2025-07-28T01:43:13-07:00</time>
</trkpt>
<trkpt lat="47.92351" lon="7.9619">
<ele>686</ele>
<time>2025-07-28T01:43:14-07:00</time>
</trkpt>
<trkpt lat="47.92346" lon="7.96261">
<ele>708</ele>
<time>2025-07-28T01:43:15-07:00</time>
</trkpt>
<trkpt lat="47.92335" lon="7.96282">
<ele>700</ele>
<time>2025-07-28T01:43:16-07:00</time>
</trkpt>
<trkpt lat="47.92326" lon="7.9629">
<ele>700</ele>
<time>2025-07-28T01:43:17-07:00</time>
</trkpt>
<trkpt lat="47.92298" lon="7.96303">
<ele>705</ele>
<time>2025-07-28T01:43:18-07:00</time>
</trkpt>
<trkpt lat="47.92282" lon="7.96318">
<ele>724</ele>
<time>2025-07-28T01:43:19-07:00</time>
</trkpt>
<trkpt lat="47.92232" lon="7.96403">
<ele>737</ele>
<time>2025-07-28T01:43:20-07:00</time>
</trkpt>
<trkpt lat="47.92209" lon="7.96429">
<ele>737</ele>
<time>2025-07-28T01:43:21-07:00</time>
</trkpt>
<trkpt lat="47.92195" lon="7.96439">
<ele>740</ele>
<time>2025-07-28T01:43:22-07:00</time>
</trkpt>
<trkpt lat="47.9217" lon="7.96443">
<ele>742</ele>
<time>2025-07-28T01:43:23-07:00</time>
</trkpt>
<trkpt lat="47.92141" lon="7.96427">
<ele>757</ele>
<time>2025-07-28T01:43:24-07:00</time>
</trkpt>
<trkpt lat="47.92116" lon="7.96412">
<ele>760</ele>
<time>2025-07-28T01:43:25-07:00</time>
</trkpt>
<trkpt lat="47.92092" lon="7.96413">
<ele>762</ele>
<time>2025-07-28T01:43:26-07:00</time>
</trkpt>
<trkpt lat="47.92023" lon="7.96438">
<ele>756</ele>
<time>2025-07-28T01:43:27-07:00</time>
</trkpt>
<trkpt lat="47.91993" lon="7.96423">
<ele>770</ele>
<time>2025-07-28T01:43:28-07:00</time>
</trkpt>
<trkpt lat="47.91952" lon="7.96419">
<ele>777</ele>
<time>2025-07-28T01:43:29-07:00</time>
</trkpt>
<trkpt lat="47.91907" lon="7.9642">
<ele>783</ele>
<time>2025-07-28T01:43:30-07:00</time>
</trkpt>
<trkpt lat="47.91872" lon="7.96433">
<ele>781</ele>
<time>2025-07-28T01:43:31-07:00</time>
</trkpt>
<trkpt lat="47.91848" lon="7.96436">
<ele>781</ele>
<time>2025-07-28T01:43:32-07:00</time>
</trkpt>
<trkpt lat="47.91827" lon="7.96441">
<ele>783</ele>
<time>2025-07-28T01:43:33-07:00</time>
</trkpt>
<trkpt lat="47.91805" lon="7.96444">
<ele>794</ele>
<time>2025-07-28T01:43:34-07:00</time>
</trkpt>
<trkpt lat="47.9178" lon="7.96457">
<ele>807</ele>
<time>2025-07-28T01:43:35-07:00</time>
</trkpt>
<trkpt lat="47.91755" lon="7.96474">
<ele>819</ele>
<time>2025-07-28T01:43:36-07:00</time>
</trkpt>
<trkpt lat="47.91747" lon="7.96461">
<ele>819</ele>
<time>2025-07-28T01:43:37-07:00</time>
</trkpt>
<trkpt lat="47.91746" lon="7.96448">
<ele>821</ele>
<time>2025-07-28T01:43:38-07:00</time>
</trkpt>
<trkpt lat="47.91753" lon="7.96437">
<ele>821</ele>
<time>2025-07-28T01:43:39-07:00</time>
</trkpt>
<trkpt lat="47.9177" lon="7.96427">
<ele>817</ele>
<time>2025-07-28T01:43:40-07:00</time>
</trkpt>
<trkpt lat="47.91787" lon="7.96412">
<ele>817</ele>
<time>2025-07-28T01:43:41-07:00</time>
</trkpt>
<trkpt lat="47.91823" lon="7.9638">
<ele>803</ele>
<time>2025-07-28T01:43:42-07:00</time>
</trkpt>
<trkpt lat="47.91846" lon="7.96359">
<ele>812</ele>
<time>2025-07-28T01:43:43-07:00</time>
</trkpt>
<trkpt lat="47.91869" lon="7.96326">
<ele>820</ele>
<time>2025-07-28T01:43:44-07:00</time>
</trkpt>
<trkpt lat="47.91898" lon="7.96317">
<ele>825</ele>
<time>2025-07-28T01:43:45-07:00</time>
</trkpt>
<trkpt lat="47.91915" lon="7.963">
<ele>821</ele>
<time>2025-07-28T01:43:46-07:00</time>
</trkpt>
<trkpt lat="47.9193" lon="7.96264">
<ele>828</ele>
<time>2025-07-28T01:43:47-07:00</time>
</trkpt>
<trkpt lat="47.91945" lon="7.96234">
<ele>835</ele>
<time>2025-07-28T01:43:48-07:00</time>
</trkpt>
<trkpt lat="47.91961" lon="7.96204">
<ele>834</ele>
<time>2025-07-28T01:43:49-07:00</time>
</trkpt>
<trkpt lat="47.91968" lon="7.96178">
<ele>835</ele>
<time>2025-07-28T01:43:50-07:00</time>
</trkpt>
<trkpt lat="47.91965" lon="7.96151">
<ele>833</ele>
<time>2025-07-28T01:43:51-07:00</time>
</trkpt>
<trkpt lat="47.91943" lon="7.96126">
<ele>839</ele>
<time>2025-07-28T01:43:52-07:00</time>
</trkpt>
<trkpt lat="47.9191" lon="7.96106">
<ele>843</ele>
<time>2025-07-28T01:43:53-07:00</time>
</trkpt>
<trkpt lat="47.9187" lon="7.96078">
<ele>859</ele>
<time>2025-07-28T01:43:54-07:00</time>
</trkpt>
<trkpt lat="47.91862" lon="7.96057">
<ele>859</ele>
<time>2025-07-28T01:43:55-07:00</time>
</trkpt>
<trkpt lat="47.91862" lon="7.96017">
<ele>863</ele>
<time>2025-07-28T01:43:56-07:00</time>
</trkpt>
<trkpt lat="47.91863" lon="7.95964">
<ele>867</ele>
<time>2025-07-28T01:43:57-07:00</time>
</trkpt>
<trkpt lat="47.91861" lon="7.95927">
<ele>863</ele>
<time>2025-07-28T01:43:58-07:00</time>
</trkpt>
<trkpt lat="47.91853" lon="7.95899">
<ele>859</ele>
<time>2025-07-28T01:43:59-07:00</time>
</trkpt>
<trkpt lat="47.91844" lon="7.95877">
<ele>867</ele>
<time>2025-07-28T01:44:00-07:00</time>
</trkpt>
<trkpt lat="47.91829" lon="7.95864">
<ele>864</ele>
<time>2025-07-28T01:44:01-07:00</time>
</trkpt>
<trkpt lat="47.91812" lon="7.95854">
<ele>870</ele>
<time>2025-07-28T01:44:02-07:00</time>
</trkpt>
<trkpt lat="47.91774" lon="7.95848">
<ele>877</ele>
<time>2025-07-28T01:44:03-07:00</time>
</trkpt>
<trkpt lat="47.91757" lon="7.95838">
<ele>884</ele>
<time>2025-07-28T01:44:04-07:00</time>
</trkpt>
<trkpt lat="47.91749" lon="7.95819">
<ele>881</ele>
<time>2025-07-28T01:44:05-07:00</time>
</trkpt>
<trkpt lat="47.91717" lon="7.95713">
<ele>891</ele>
<time>2025-07-28T01:44:06-07:00</time>
</trkpt>
<trkpt lat="47.91697" lon="7.95628">
<ele>903</ele>
<time>2025-07-28T01:44:07-07:00</time>
</trkpt>
<trkpt lat="47.9169" lon="7.95559">
<ele>904</ele>
<time>2025-07-28T01:44:08-07:00</time>
</trkpt>
<trkpt lat="47.91685" lon="7.95495">
<ele>904</ele>
<time>2025-07-28T01:44:09-07:00</time>
</trkpt>
<trkpt lat="47.91678" lon="7.95463">
<ele>913</ele>
<time>2025-07-28T01:44:10-07:00</time>
</trkpt>
<trkpt lat="47.91661" lon="7.95444">
<ele>912</ele>
<time>2025-07-28T01:44:11-07:00</time>
</trkpt>
</trkseg>
</trk>
</gpx>
