<?xml version="1.0" encoding="UTF-8" standalone="no"?>
<gpx version="1.1" creator="mountainbike-freiburg.com" xmlns="http://www.topografix.com/GPX/1/1" xmlns:xsi="http://www.w3.org/2001/XMLSchema-instance" xmlns:gpxtpx="http://www.garmin.com/xmlschemas/TrackPointExtension/v1" xsi:schemaLocation="http://www.topografix.com/GPX/1/1 http://www.topografix.com/GPX/1/1/gpx.xsd http://www.garmin.com/xmlschemas/TrackPointExtension/v1 http://www.garmin.com/xmlschemas/TrackPointExtensionv1.xsd">
<metadata>
<name>Badisch Moon Rising Trail</name>
<link href="https://www.mountainbike-freiburg.com/">
<text>Mountainbike Freiburg e.V.</text>
</link>
</metadata>
<trk>
<name>
Badisch Moon Rising
</name>
<trkseg>
<trkpt lat="47.92944" lon="7.89156">
<ele>833</ele>
<time>2025-07-28T02:01:03-07:00</time>
</trkpt>
<trkpt lat="47.9295" lon="7.89149">
<ele>833</ele>
<time>2025-07-28T02:01:04-07:00</time>
</trkpt>
<trkpt lat="47.92958" lon="7.89148">
<ele>833</ele>
<time>2025-07-28T02:01:05-07:00</time>
</trkpt>
<trkpt lat="47.92968" lon="7.89149">
<ele>834</ele>
<time>2025-07-28T02:01:06-07:00</time>
</trkpt>
<trkpt lat="47.92981" lon="7.89149">
<ele>834</ele>
<time>2025-07-28T02:01:07-07:00</time>
</trkpt>
<trkpt lat="47.92998" lon="7.89137">
<ele>834</ele>
<time>2025-07-28T02:01:08-07:00</time>
</trkpt>
<trkpt lat="47.93019" lon="7.89115">
<ele>839</ele>
<time>2025-07-28T02:01:09-07:00</time>
</trkpt>
<trkpt lat="47.93051" lon="7.89106">
<ele>843</ele>
<time>2025-07-28T02:01:10-07:00</time>
</trkpt>
<trkpt lat="47.93057" lon="7.89105">
<ele>843</ele>
<time>2025-07-28T02:01:11-07:00</time>
</trkpt>
<trkpt lat="47.93061" lon="7.89098">
<ele>843</ele>
<time>2025-07-28T02:01:12-07:00</time>
</trkpt>
<trkpt lat="47.93064" lon="7.8909">
<ele>841</ele>
<time>2025-07-28T02:01:13-07:00</time>
</trkpt>
<trkpt lat="47.93069" lon="7.89081">
<ele>841</ele>
<time>2025-07-28T02:01:14-07:00</time>
</trkpt>
<trkpt lat="47.93076" lon="7.89092">
<ele>847</ele>
<time>2025-07-28T02:01:15-07:00</time>
</trkpt>
<trkpt lat="47.93082" lon="7.89097">
<ele>847</ele>
<time>2025-07-28T02:01:16-07:00</time>
</trkpt>
<trkpt lat="47.93084" lon="7.89085">
<ele>847</ele>
<time>2025-07-28T02:01:17-07:00</time>
</trkpt>
<trkpt lat="47.93086" lon="7.89079">
<ele>847</ele>
<time>2025-07-28T02:01:18-07:00</time>
</trkpt>
<trkpt lat="47.93094" lon="7.89088">
<ele>847</ele>
<time>2025-07-28T02:01:19-07:00</time>
</trkpt>
<trkpt lat="47.93105" lon="7.89088">
<ele>854</ele>
<time>2025-07-28T02:01:20-07:00</time>
</trkpt>
<trkpt lat="47.93114" lon="7.89089">
<ele>854</ele>
<time>2025-07-28T02:01:21-07:00</time>
</trkpt>
<trkpt lat="47.93125" lon="7.8909">
<ele>856</ele>
<time>2025-07-28T02:01:22-07:00</time>
</trkpt>
<trkpt lat="47.93146" lon="7.89082">
<ele>856</ele>
<time>2025-07-28T02:01:23-07:00</time>
</trkpt>
<trkpt lat="47.93177" lon="7.89066">
<ele>857</ele>
<time>2025-07-28T02:01:24-07:00</time>
</trkpt>
<trkpt lat="47.93199" lon="7.89049">
<ele>860</ele>
<time>2025-07-28T02:01:25-07:00</time>
</trkpt>
<trkpt lat="47.93216" lon="7.89044">
<ele>860</ele>
<time>2025-07-28T02:01:26-07:00</time>
</trkpt>
<trkpt lat="47.93228" lon="7.89047">
<ele>860</ele>
<time>2025-07-28T02:01:27-07:00</time>
</trkpt>
<trkpt lat="47.93242" lon="7.89039">
<ele>863</ele>
<time>2025-07-28T02:01:28-07:00</time>
</trkpt>
<trkpt lat="47.93247" lon="7.89033">
<ele>863</ele>
<time>2025-07-28T02:01:29-07:00</time>
</trkpt>
<trkpt lat="47.93258" lon="7.89017">
<ele>863</ele>
<time>2025-07-28T02:01:30-07:00</time>
</trkpt>
<trkpt lat="47.93269" lon="7.89005">
<ele>864</ele>
<time>2025-07-28T02:01:31-07:00</time>
</trkpt>
<trkpt lat="47.93284" lon="7.88993">
<ele>864</ele>
<time>2025-07-28T02:01:32-07:00</time>
</trkpt>
<trkpt lat="47.93324" lon="7.88959">
<ele>871</ele>
<time>2025-07-28T02:01:33-07:00</time>
</trkpt>
<trkpt lat="47.9334" lon="7.88938">
<ele>867</ele>
<time>2025-07-28T02:01:34-07:00</time>
</trkpt>
<trkpt lat="47.93369" lon="7.88901">
<ele>859</ele>
<time>2025-07-28T02:01:35-07:00</time>
</trkpt>
<trkpt lat="47.9338" lon="7.88884">
<ele>868</ele>
<time>2025-07-28T02:01:36-07:00</time>
</trkpt>
<trkpt lat="47.93386" lon="7.8887">
<ele>861</ele>
<time>2025-07-28T02:01:37-07:00</time>
</trkpt>
<trkpt lat="47.93395" lon="7.88837">
<ele>856</ele>
<time>2025-07-28T02:01:38-07:00</time>
</trkpt>
<trkpt lat="47.93399" lon="7.88818">
<ele>852</ele>
<time>2025-07-28T02:01:39-07:00</time>
</trkpt>
<trkpt lat="47.93402" lon="7.888">
<ele>852</ele>
<time>2025-07-28T02:01:40-07:00</time>
</trkpt>
<trkpt lat="47.93408" lon="7.88769">
<ele>853</ele>
<time>2025-07-28T02:01:41-07:00</time>
</trkpt>
<trkpt lat="47.93411" lon="7.88749">
<ele>848</ele>
<time>2025-07-28T02:01:42-07:00</time>
</trkpt>
<trkpt lat="47.93422" lon="7.88736">
<ele>842</ele>
<time>2025-07-28T02:01:43-07:00</time>
</trkpt>
<trkpt lat="47.93433" lon="7.88731">
<ele>840</ele>
<time>2025-07-28T02:01:44-07:00</time>
</trkpt>
<trkpt lat="47.93443" lon="7.88734">
<ele>840</ele>
<time>2025-07-28T02:01:45-07:00</time>
</trkpt>
<trkpt lat="47.93454" lon="7.88749">
<ele>844</ele>
<time>2025-07-28T02:01:46-07:00</time>
</trkpt>
<trkpt lat="47.93467" lon="7.88773">
<ele>843</ele>
<time>2025-07-28T02:01:47-07:00</time>
</trkpt>
<trkpt lat="47.93474" lon="7.88804">
<ele>847</ele>
<time>2025-07-28T02:01:48-07:00</time>
</trkpt>
<trkpt lat="47.93485" lon="7.88834">
<ele>851</ele>
<time>2025-07-28T02:01:49-07:00</time>
</trkpt>
<trkpt lat="47.93494" lon="7.88862">
<ele>839</ele>
<time>2025-07-28T02:01:50-07:00</time>
</trkpt>
<trkpt lat="47.93499" lon="7.88895">
<ele>844</ele>
<time>2025-07-28T02:01:51-07:00</time>
</trkpt>
<trkpt lat="47.93518" lon="7.8893">
<ele>834</ele>
<time>2025-07-28T02:01:52-07:00</time>
</trkpt>
<trkpt lat="47.93534" lon="7.8896">
<ele>840</ele>
<time>2025-07-28T02:01:53-07:00</time>
</trkpt>
<trkpt lat="47.93542" lon="7.88978">
<ele>830</ele>
<time>2025-07-28T02:01:54-07:00</time>
</trkpt>
<trkpt lat="47.9356" lon="7.89009">
<ele>834</ele>
<time>2025-07-28T02:01:55-07:00</time>
</trkpt>
<trkpt lat="47.93577" lon="7.89018">
<ele>836</ele>
<time>2025-07-28T02:01:56-07:00</time>
</trkpt>
<trkpt lat="47.93592" lon="7.89025">
<ele>836</ele>
<time>2025-07-28T02:01:57-07:00</time>
</trkpt>
<trkpt lat="47.93612" lon="7.89027">
<ele>839</ele>
<time>2025-07-28T02:01:58-07:00</time>
</trkpt>
<trkpt lat="47.93635" lon="7.89035">
<ele>838</ele>
<time>2025-07-28T02:01:59-07:00</time>
</trkpt>
<trkpt lat="47.93645" lon="7.89041">
<ele>838</ele>
<time>2025-07-28T02:02:00-07:00</time>
</trkpt>
<trkpt lat="47.93667" lon="7.89057">
<ele>837</ele>
<time>2025-07-28T02:02:01-07:00</time>
</trkpt>
<trkpt lat="47.93687" lon="7.89058">
<ele>836</ele>
<time>2025-07-28T02:02:02-07:00</time>
</trkpt>
<trkpt lat="47.93696" lon="7.8906">
<ele>836</ele>
<time>2025-07-28T02:02:03-07:00</time>
</trkpt>
<trkpt lat="47.93712" lon="7.89062">
<ele>836</ele>
<time>2025-07-28T02:02:04-07:00</time>
</trkpt>
<trkpt lat="47.93721" lon="7.8906">
<ele>836</ele>
<time>2025-07-28T02:02:05-07:00</time>
</trkpt>
<trkpt lat="47.93735" lon="7.89065">
<ele>836</ele>
<time>2025-07-28T02:02:06-07:00</time>
</trkpt>
<trkpt lat="47.93747" lon="7.89059">
<ele>838</ele>
<time>2025-07-28T02:02:07-07:00</time>
</trkpt>
<trkpt lat="47.93772" lon="7.89059">
<ele>839</ele>
<time>2025-07-28T02:02:08-07:00</time>
</trkpt>
<trkpt lat="47.9378" lon="7.89063">
<ele>839</ele>
<time>2025-07-28T02:02:09-07:00</time>
</trkpt>
<trkpt lat="47.93794" lon="7.89073">
<ele>842</ele>
<time>2025-07-28T02:02:10-07:00</time>
</trkpt>
<trkpt lat="47.93806" lon="7.89072">
<ele>842</ele>
<time>2025-07-28T02:02:11-07:00</time>
</trkpt>
<trkpt lat="47.93815" lon="7.89071">
<ele>842</ele>
<time>2025-07-28T02:02:12-07:00</time>
</trkpt>
<trkpt lat="47.93825" lon="7.89076">
<ele>840</ele>
<time>2025-07-28T02:02:13-07:00</time>
</trkpt>
<trkpt lat="47.93833" lon="7.89071">
<ele>840</ele>
<time>2025-07-28T02:02:14-07:00</time>
</trkpt>
<trkpt lat="47.93845" lon="7.89085">
<ele>840</ele>
<time>2025-07-28T02:02:15-07:00</time>
</trkpt>
<trkpt lat="47.93857" lon="7.89071">
<ele>836</ele>
<time>2025-07-28T02:02:16-07:00</time>
</trkpt>
<trkpt lat="47.93879" lon="7.89087">
<ele>832</ele>
<time>2025-07-28T02:02:17-07:00</time>
</trkpt>
<trkpt lat="47.93887" lon="7.89096">
<ele>832</ele>
<time>2025-07-28T02:02:18-07:00</time>
</trkpt>
<trkpt lat="47.93898" lon="7.89108">
<ele>834</ele>
<time>2025-07-28T02:02:19-07:00</time>
</trkpt>
<trkpt lat="47.9391" lon="7.89118">
<ele>829</ele>
<time>2025-07-28T02:02:20-07:00</time>
</trkpt>
<trkpt lat="47.93922" lon="7.89121">
<ele>829</ele>
<time>2025-07-28T02:02:21-07:00</time>
</trkpt>
<trkpt lat="47.93934" lon="7.89121">
<ele>820</ele>
<time>2025-07-28T02:02:22-07:00</time>
</trkpt>
<trkpt lat="47.93961" lon="7.89121">
<ele>813</ele>
<time>2025-07-28T02:02:23-07:00</time>
</trkpt>
<trkpt lat="47.93978" lon="7.89128">
<ele>816</ele>
<time>2025-07-28T02:02:24-07:00</time>
</trkpt>
<trkpt lat="47.93993" lon="7.89127">
<ele>813</ele>
<time>2025-07-28T02:02:25-07:00</time>
</trkpt>
<trkpt lat="47.94031" lon="7.89132">
<ele>811</ele>
<time>2025-07-28T02:02:26-07:00</time>
</trkpt>
<trkpt lat="47.94047" lon="7.89133">
<ele>809</ele>
<time>2025-07-28T02:02:27-07:00</time>
</trkpt>
<trkpt lat="47.94067" lon="7.89137">
<ele>809</ele>
<time>2025-07-28T02:02:28-07:00</time>
</trkpt>
<trkpt lat="47.94077" lon="7.89137">
<ele>812</ele>
<time>2025-07-28T02:02:29-07:00</time>
</trkpt>
<trkpt lat="47.9409" lon="7.89137">
<ele>812</ele>
<time>2025-07-28T02:02:30-07:00</time>
</trkpt>
<trkpt lat="47.94101" lon="7.89135">
<ele>811</ele>
<time>2025-07-28T02:02:31-07:00</time>
</trkpt>
<trkpt lat="47.94116" lon="7.89122">
<ele>808</ele>
<time>2025-07-28T02:02:32-07:00</time>
</trkpt>
<trkpt lat="47.94127" lon="7.89116">
<ele>813</ele>
<time>2025-07-28T02:02:33-07:00</time>
</trkpt>
<trkpt lat="47.94141" lon="7.89108">
<ele>813</ele>
<time>2025-07-28T02:02:34-07:00</time>
</trkpt>
<trkpt lat="47.94152" lon="7.89092">
<ele>810</ele>
<time>2025-07-28T02:02:35-07:00</time>
</trkpt>
<trkpt lat="47.94182" lon="7.8905">
<ele>820</ele>
<time>2025-07-28T02:02:36-07:00</time>
</trkpt>
<trkpt lat="47.94194" lon="7.89041">
<ele>815</ele>
<time>2025-07-28T02:02:37-07:00</time>
</trkpt>
<trkpt lat="47.94213" lon="7.89025">
<ele>820</ele>
<time>2025-07-28T02:02:38-07:00</time>
</trkpt>
<trkpt lat="47.94232" lon="7.89015">
<ele>820</ele>
<time>2025-07-28T02:02:39-07:00</time>
</trkpt>
<trkpt lat="47.94245" lon="7.89">
<ele>821</ele>
<time>2025-07-28T02:02:40-07:00</time>
</trkpt>
<trkpt lat="47.94257" lon="7.88987">
<ele>821</ele>
<time>2025-07-28T02:02:41-07:00</time>
</trkpt>
<trkpt lat="47.94269" lon="7.88977">
<ele>819</ele>
<time>2025-07-28T02:02:42-07:00</time>
</trkpt>
<trkpt lat="47.94288" lon="7.88963">
<ele>819</ele>
<time>2025-07-28T02:02:43-07:00</time>
</trkpt>
<trkpt lat="47.94299" lon="7.88954">
<ele>812</ele>
<time>2025-07-28T02:02:44-07:00</time>
</trkpt>
<trkpt lat="47.94314" lon="7.88943">
<ele>812</ele>
<time>2025-07-28T02:02:45-07:00</time>
</trkpt>
<trkpt lat="47.94335" lon="7.88924">
<ele>812</ele>
<time>2025-07-28T02:02:46-07:00</time>
</trkpt>
<trkpt lat="47.94353" lon="7.88883">
<ele>813</ele>
<time>2025-07-28T02:02:47-07:00</time>
</trkpt>
<trkpt lat="47.94361" lon="7.88872">
<ele>812</ele>
<time>2025-07-28T02:02:48-07:00</time>
</trkpt>
<trkpt lat="47.94371" lon="7.88849">
<ele>812</ele>
<time>2025-07-28T02:02:49-07:00</time>
</trkpt>
<trkpt lat="47.94381" lon="7.88819">
<ele>811</ele>
<time>2025-07-28T02:02:50-07:00</time>
</trkpt>
<trkpt lat="47.9439" lon="7.88798">
<ele>811</ele>
<time>2025-07-28T02:02:51-07:00</time>
</trkpt>
<trkpt lat="47.94408" lon="7.8877">
<ele>808</ele>
<time>2025-07-28T02:02:52-07:00</time>
</trkpt>
<trkpt lat="47.94407" lon="7.88748">
<ele>806</ele>
<time>2025-07-28T02:02:53-07:00</time>
</trkpt>
<trkpt lat="47.94424" lon="7.88728">
<ele>802</ele>
<time>2025-07-28T02:02:54-07:00</time>
</trkpt>
<trkpt lat="47.94427" lon="7.88707">
<ele>795</ele>
<time>2025-07-28T02:02:55-07:00</time>
</trkpt>
<trkpt lat="47.94433" lon="7.88691">
<ele>798</ele>
<time>2025-07-28T02:02:56-07:00</time>
</trkpt>
<trkpt lat="47.94448" lon="7.88671">
<ele>792</ele>
<time>2025-07-28T02:02:57-07:00</time>
</trkpt>
<trkpt lat="47.94455" lon="7.88659">
<ele>792</ele>
<time>2025-07-28T02:02:58-07:00</time>
</trkpt>
<trkpt lat="47.94468" lon="7.88644">
<ele>792</ele>
<time>2025-07-28T02:02:59-07:00</time>
</trkpt>
<trkpt lat="47.94476" lon="7.88621">
<ele>787</ele>
<time>2025-07-28T02:03:00-07:00</time>
</trkpt>
<trkpt lat="47.94484" lon="7.88596">
<ele>781</ele>
<time>2025-07-28T02:03:01-07:00</time>
</trkpt>
<trkpt lat="47.94493" lon="7.88576">
<ele>786</ele>
<time>2025-07-28T02:03:02-07:00</time>
</trkpt>
<trkpt lat="47.94516" lon="7.88564">
<ele>783</ele>
<time>2025-07-28T02:03:03-07:00</time>
</trkpt>
<trkpt lat="47.94534" lon="7.88555">
<ele>783</ele>
<time>2025-07-28T02:03:04-07:00</time>
</trkpt>
<trkpt lat="47.9454" lon="7.88549">
<ele>783</ele>
<time>2025-07-28T02:03:05-07:00</time>
</trkpt>
<trkpt lat="47.94551" lon="7.88548">
<ele>780</ele>
<time>2025-07-28T02:03:06-07:00</time>
</trkpt>
<trkpt lat="47.94587" lon="7.88522">
<ele>776</ele>
<time>2025-07-28T02:03:07-07:00</time>
</trkpt>
<trkpt lat="47.94605" lon="7.8851">
<ele>773</ele>
<time>2025-07-28T02:03:08-07:00</time>
</trkpt>
<trkpt lat="47.94628" lon="7.88495">
<ele>774</ele>
<time>2025-07-28T02:03:09-07:00</time>
</trkpt>
<trkpt lat="47.94651" lon="7.88479">
<ele>773</ele>
<time>2025-07-28T02:03:10-07:00</time>
</trkpt>
<trkpt lat="47.94668" lon="7.88459">
<ele>776</ele>
<time>2025-07-28T02:03:11-07:00</time>
</trkpt>
<trkpt lat="47.9468" lon="7.88446">
<ele>772</ele>
<time>2025-07-28T02:03:12-07:00</time>
</trkpt>
<trkpt lat="47.9469" lon="7.88435">
<ele>773</ele>
<time>2025-07-28T02:03:13-07:00</time>
</trkpt>
<trkpt lat="47.94705" lon="7.8843">
<ele>768</ele>
<time>2025-07-28T02:03:14-07:00</time>
</trkpt>
<trkpt lat="47.94713" lon="7.88415">
<ele>772</ele>
<time>2025-07-28T02:03:15-07:00</time>
</trkpt>
<trkpt lat="47.94724" lon="7.884">
<ele>772</ele>
<time>2025-07-28T02:03:16-07:00</time>
</trkpt>
<trkpt lat="47.94737" lon="7.8839">
<ele>775</ele>
<time>2025-07-28T02:03:17-07:00</time>
</trkpt>
<trkpt lat="47.94748" lon="7.88369">
<ele>776</ele>
<time>2025-07-28T02:03:18-07:00</time>
</trkpt>
<trkpt lat="47.94758" lon="7.88369">
<ele>776</ele>
<time>2025-07-28T02:03:19-07:00</time>
</trkpt>
<trkpt lat="47.94762" lon="7.88346">
<ele>777</ele>
<time>2025-07-28T02:03:20-07:00</time>
</trkpt>
<trkpt lat="47.94779" lon="7.88332">
<ele>781</ele>
<time>2025-07-28T02:03:21-07:00</time>
</trkpt>
<trkpt lat="47.94795" lon="7.88312">
<ele>784</ele>
<time>2025-07-28T02:03:22-07:00</time>
</trkpt>
<trkpt lat="47.94808" lon="7.88296">
<ele>784</ele>
<time>2025-07-28T02:03:23-07:00</time>
</trkpt>
<trkpt lat="47.94827" lon="7.88274">
<ele>787</ele>
<time>2025-07-28T02:03:24-07:00</time>
</trkpt>
<trkpt lat="47.94839" lon="7.88263">
<ele>793</ele>
<time>2025-07-28T02:03:25-07:00</time>
</trkpt>
<trkpt lat="47.94856" lon="7.8826">
<ele>791</ele>
<time>2025-07-28T02:03:26-07:00</time>
</trkpt>
<trkpt lat="47.94876" lon="7.8826">
<ele>788</ele>
<time>2025-07-28T02:03:27-07:00</time>
</trkpt>
<trkpt lat="47.94902" lon="7.88262">
<ele>788</ele>
<time>2025-07-28T02:03:28-07:00</time>
</trkpt>
<trkpt lat="47.94927" lon="7.88257">
<ele>782</ele>
<time>2025-07-28T02:03:29-07:00</time>
</trkpt>
<trkpt lat="47.94942" lon="7.88248">
<ele>779</ele>
<time>2025-07-28T02:03:30-07:00</time>
</trkpt>
<trkpt lat="47.9496" lon="7.88228">
<ele>775</ele>
<time>2025-07-28T02:03:31-07:00</time>
</trkpt>
<trkpt lat="47.94978" lon="7.88202">
<ele>777</ele>
<time>2025-07-28T02:03:32-07:00</time>
</trkpt>
<trkpt lat="47.94991" lon="7.88173">
<ele>767</ele>
<time>2025-07-28T02:03:33-07:00</time>
</trkpt>
<trkpt lat="47.95001" lon="7.88172">
<ele>767</ele>
<time>2025-07-28T02:03:34-07:00</time>
</trkpt>
<trkpt lat="47.95008" lon="7.88147">
<ele>762</ele>
<time>2025-07-28T02:03:35-07:00</time>
</trkpt>
<trkpt lat="47.95018" lon="7.88154">
<ele>757</ele>
<time>2025-07-28T02:03:36-07:00</time>
</trkpt>
<trkpt lat="47.95036" lon="7.88144">
<ele>754</ele>
<time>2025-07-28T02:03:37-07:00</time>
</trkpt>
<trkpt lat="47.95052" lon="7.88148">
<ele>748</ele>
<time>2025-07-28T02:03:38-07:00</time>
</trkpt>
<trkpt lat="47.95085" lon="7.88151">
<ele>744</ele>
<time>2025-07-28T02:03:39-07:00</time>
</trkpt>
<trkpt lat="47.95108" lon="7.88145">
<ele>746</ele>
<time>2025-07-28T02:03:40-07:00</time>
</trkpt>
<trkpt lat="47.95123" lon="7.88143">
<ele>746</ele>
<time>2025-07-28T02:03:41-07:00</time>
</trkpt>
<trkpt lat="47.95133" lon="7.88141">
<ele>749</ele>
<time>2025-07-28T02:03:42-07:00</time>
</trkpt>
<trkpt lat="47.95144" lon="7.88137">
<ele>749</ele>
<time>2025-07-28T02:03:43-07:00</time>
</trkpt>
<trkpt lat="47.95156" lon="7.88139">
<ele>747</ele>
<time>2025-07-28T02:03:44-07:00</time>
</trkpt>
<trkpt lat="47.95169" lon="7.88137">
<ele>747</ele>
<time>2025-07-28T02:03:45-07:00</time>
</trkpt>
<trkpt lat="47.95189" lon="7.88131">
<ele>743</ele>
<time>2025-07-28T02:03:46-07:00</time>
</trkpt>
<trkpt lat="47.95205" lon="7.88127">
<ele>743</ele>
<time>2025-07-28T02:03:47-07:00</time>
</trkpt>
<trkpt lat="47.95219" lon="7.88122">
<ele>743</ele>
<time>2025-07-28T02:03:48-07:00</time>
</trkpt>
<trkpt lat="47.95229" lon="7.88119">
<ele>743</ele>
<time>2025-07-28T02:03:49-07:00</time>
</trkpt>
<trkpt lat="47.95243" lon="7.88119">
<ele>742</ele>
<time>2025-07-28T02:03:50-07:00</time>
</trkpt>
<trkpt lat="47.95255" lon="7.88119">
<ele>742</ele>
<time>2025-07-28T02:03:51-07:00</time>
</trkpt>
<trkpt lat="47.95272" lon="7.88124">
<ele>742</ele>
<time>2025-07-28T02:03:52-07:00</time>
</trkpt>
<trkpt lat="47.95285" lon="7.88128">
<ele>733</ele>
<time>2025-07-28T02:03:53-07:00</time>
</trkpt>
<trkpt lat="47.953" lon="7.88132">
<ele>731</ele>
<time>2025-07-28T02:03:54-07:00</time>
</trkpt>
<trkpt lat="47.95315" lon="7.88133">
<ele>731</ele>
<time>2025-07-28T02:03:55-07:00</time>
</trkpt>
<trkpt lat="47.9533" lon="7.88156">
<ele>726</ele>
<time>2025-07-28T02:03:56-07:00</time>
</trkpt>
<trkpt lat="47.95339" lon="7.88181">
<ele>720</ele>
<time>2025-07-28T02:03:57-07:00</time>
</trkpt>
<trkpt lat="47.95352" lon="7.88212">
<ele>712</ele>
<time>2025-07-28T02:03:58-07:00</time>
</trkpt>
<trkpt lat="47.95369" lon="7.88212">
<ele>712</ele>
<time>2025-07-28T02:03:59-07:00</time>
</trkpt>
<trkpt lat="47.9538" lon="7.88204">
<ele>716</ele>
<time>2025-07-28T02:04:00-07:00</time>
</trkpt>
<trkpt lat="47.95386" lon="7.88198">
<ele>716</ele>
<time>2025-07-28T02:04:01-07:00</time>
</trkpt>
<trkpt lat="47.95395" lon="7.88208">
<ele>716</ele>
<time>2025-07-28T02:04:02-07:00</time>
</trkpt>
<trkpt lat="47.95401" lon="7.88231">
<ele>713</ele>
<time>2025-07-28T02:04:03-07:00</time>
</trkpt>
<trkpt lat="47.9541" lon="7.88238">
<ele>705</ele>
<time>2025-07-28T02:04:04-07:00</time>
</trkpt>
<trkpt lat="47.95414" lon="7.8825">
<ele>705</ele>
<time>2025-07-28T02:04:05-07:00</time>
</trkpt>
<trkpt lat="47.95426" lon="7.88282">
<ele>702</ele>
<time>2025-07-28T02:04:06-07:00</time>
</trkpt>
<trkpt lat="47.95434" lon="7.88278">
<ele>702</ele>
<time>2025-07-28T02:04:07-07:00</time>
</trkpt>
</trkseg>
</trk>
</gpx>
