<?xml version="1.0" encoding="UTF-8" standalone="no"?>
<gpx version="1.1" creator="mountainbike-freiburg.com" xmlns="http://www.topografix.com/GPX/1/1" xmlns:xsi="http://www.w3.org/2001/XMLSchema-instance" xmlns:gpxtpx="http://www.garmin.com/xmlschemas/TrackPointExtension/v1" xsi:schemaLocation="http://www.topografix.com/GPX/1/1 http://www.topografix.com/GPX/1/1/gpx.xsd http://www.garmin.com/xmlschemas/TrackPointExtension/v1 http://www.garmin.com/xmlschemas/TrackPointExtensionv1.xsd">
<metadata>
<name>Borderline</name>
<link href="https://www.mountainbike-freiburg.com/">
<text>Mountainbike Freiburg e.V.</text>
</link>
</metadata>
<trk>
<name>
Borderline
</name>
<trkseg>
<trkpt lat="48.00884" lon="7.90109">
<ele>738</ele>
<time>2025-07-27T15:32:59-07:00</time>
</trkpt>
<trkpt lat="48.00872" lon="7.90118">
<ele>729</ele>
<time>2025-07-27T15:33:00-07:00</time>
</trkpt>
<trkpt lat="48.00859" lon="7.90108">
<ele>729</ele>
<time>2025-07-27T15:33:01-07:00</time>
</trkpt>
<trkpt lat="48.00844" lon="7.9012">
<ele>720</ele>
<time>2025-07-27T15:33:02-07:00</time>
</trkpt>
<trkpt lat="48.00837" lon="7.90115">
<ele>720</ele>
<time>2025-07-27T15:33:03-07:00</time>
</trkpt>
<trkpt lat="48.00828" lon="7.90123">
<ele>720</ele>
<time>2025-07-27T15:33:04-07:00</time>
</trkpt>
<trkpt lat="48.0081" lon="7.90112">
<ele>711</ele>
<time>2025-07-27T15:33:05-07:00</time>
</trkpt>
<trkpt lat="48.008" lon="7.90111">
<ele>711</ele>
<time>2025-07-27T15:33:06-07:00</time>
</trkpt>
<trkpt lat="48.00785" lon="7.90133">
<ele>696</ele>
<time>2025-07-27T15:33:07-07:00</time>
</trkpt>
<trkpt lat="48.00759" lon="7.90151">
<ele>683</ele>
<time>2025-07-27T15:33:08-07:00</time>
</trkpt>
<trkpt lat="48.00753" lon="7.9017">
<ele>682</ele>
<time>2025-07-27T15:33:09-07:00</time>
</trkpt>
<trkpt lat="48.00743" lon="7.90169">
<ele>682</ele>
<time>2025-07-27T15:33:10-07:00</time>
</trkpt>
<trkpt lat="48.00733" lon="7.902">
<ele>665</ele>
<time>2025-07-27T15:33:11-07:00</time>
</trkpt>
<trkpt lat="48.00717" lon="7.90198">
<ele>665</ele>
<time>2025-07-27T15:33:12-07:00</time>
</trkpt>
<trkpt lat="48.00697" lon="7.90219">
<ele>650</ele>
<time>2025-07-27T15:33:13-07:00</time>
</trkpt>
<trkpt lat="48.00683" lon="7.90223">
<ele>650</ele>
<time>2025-07-27T15:33:14-07:00</time>
</trkpt>
<trkpt lat="48.00649" lon="7.90256">
<ele>634</ele>
<time>2025-07-27T15:33:15-07:00</time>
</trkpt>
<trkpt lat="48.00624" lon="7.90273">
<ele>630</ele>
<time>2025-07-27T15:33:16-07:00</time>
</trkpt>
<trkpt lat="48.00613" lon="7.90259">
<ele>630</ele>
<time>2025-07-27T15:33:17-07:00</time>
</trkpt>
<trkpt lat="48.0061" lon="7.90235">
<ele>628</ele>
<time>2025-07-27T15:33:18-07:00</time>
</trkpt>
<trkpt lat="48.00586" lon="7.90255">
<ele>623</ele>
<time>2025-07-27T15:33:19-07:00</time>
</trkpt>
<trkpt lat="48.00545" lon="7.90301">
<ele>615</ele>
<time>2025-07-27T15:33:20-07:00</time>
</trkpt>
<trkpt lat="48.00534" lon="7.90316">
<ele>608</ele>
<time>2025-07-27T15:33:21-07:00</time>
</trkpt>
<trkpt lat="48.00526" lon="7.90342">
<ele>607</ele>
<time>2025-07-27T15:33:22-07:00</time>
</trkpt>
<trkpt lat="48.00509" lon="7.9036">
<ele>601</ele>
<time>2025-07-27T15:33:23-07:00</time>
</trkpt>
<trkpt lat="48.00494" lon="7.90395">
<ele>603</ele>
<time>2025-07-27T15:33:24-07:00</time>
</trkpt>
<trkpt lat="48.00475" lon="7.90413">
<ele>603</ele>
<time>2025-07-27T15:33:25-07:00</time>
</trkpt>
<trkpt lat="48.00442" lon="7.90426">
<ele>599</ele>
<time>2025-07-27T15:33:26-07:00</time>
</trkpt>
<trkpt lat="48.004" lon="7.90467">
<ele>590</ele>
<time>2025-07-27T15:33:27-07:00</time>
</trkpt>
<trkpt lat="48.00354" lon="7.90473">
<ele>587</ele>
<time>2025-07-27T15:33:28-07:00</time>
</trkpt>
<trkpt lat="48.00327" lon="7.90484">
<ele>586</ele>
<time>2025-07-27T15:33:29-07:00</time>
</trkpt>
<trkpt lat="48.00308" lon="7.905">
<ele>587</ele>
<time>2025-07-27T15:33:30-07:00</time>
</trkpt>
<trkpt lat="48.00246" lon="7.90544">
<ele>587</ele>
<time>2025-07-27T15:33:31-07:00</time>
</trkpt>
<trkpt lat="48.00185" lon="7.90584">
<ele>588</ele>
<time>2025-07-27T15:33:32-07:00</time>
</trkpt>
<trkpt lat="48.00161" lon="7.90589">
<ele>595</ele>
<time>2025-07-27T15:33:33-07:00</time>
</trkpt>
<trkpt lat="48.00143" lon="7.90587">
<ele>600</ele>
<time>2025-07-27T15:33:34-07:00</time>
</trkpt>
<trkpt lat="48.00132" lon="7.90572">
<ele>600</ele>
<time>2025-07-27T15:33:35-07:00</time>
</trkpt>
<trkpt lat="48.0011" lon="7.90575">
<ele>594</ele>
<time>2025-07-27T15:33:36-07:00</time>
</trkpt>
<trkpt lat="48.00086" lon="7.90563">
<ele>584</ele>
<time>2025-07-27T15:33:37-07:00</time>
</trkpt>
<trkpt lat="48.00066" lon="7.90545">
<ele>577</ele>
<time>2025-07-27T15:33:38-07:00</time>
</trkpt>
<trkpt lat="48.00046" lon="7.90556">
<ele>577</ele>
<time>2025-07-27T15:33:39-07:00</time>
</trkpt>
<trkpt lat="48.00033" lon="7.90542">
<ele>574</ele>
<time>2025-07-27T15:33:40-07:00</time>
</trkpt>
<trkpt lat="48.00022" lon="7.90533">
<ele>572</ele>
<time>2025-07-27T15:33:41-07:00</time>
</trkpt>
<trkpt lat="48.00002" lon="7.90542">
<ele>572</ele>
<time>2025-07-27T15:33:42-07:00</time>
</trkpt>
<trkpt lat="47.9999" lon="7.90556">
<ele>572</ele>
<time>2025-07-27T15:33:43-07:00</time>
</trkpt>
<trkpt lat="47.99964" lon="7.90538">
<ele>566</ele>
<time>2025-07-27T15:33:44-07:00</time>
</trkpt>
<trkpt lat="47.99937" lon="7.90487">
<ele>562</ele>
<time>2025-07-27T15:33:45-07:00</time>
</trkpt>
<trkpt lat="47.99914" lon="7.90519">
<ele>563</ele>
<time>2025-07-27T15:33:46-07:00</time>
</trkpt>
<trkpt lat="47.99912" lon="7.90549">
<ele>563</ele>
<time>2025-07-27T15:33:47-07:00</time>
</trkpt>
<trkpt lat="47.99748" lon="7.90619">
<ele>580</ele>
<time>2025-07-27T15:33:48-07:00</time>
</trkpt>
<trkpt lat="47.99696" lon="7.90656">
<ele>565</ele>
<time>2025-07-27T15:33:49-07:00</time>
</trkpt>
<trkpt lat="47.9965" lon="7.90684">
<ele>557</ele>
<time>2025-07-27T15:33:50-07:00</time>
</trkpt>
<trkpt lat="47.99634" lon="7.90698">
<ele>557</ele>
<time>2025-07-27T15:33:51-07:00</time>
</trkpt>
<trkpt lat="47.9962" lon="7.9074">
<ele>558</ele>
<time>2025-07-27T15:33:52-07:00</time>
</trkpt>
<trkpt lat="47.99596" lon="7.90776">
<ele>560</ele>
<time>2025-07-27T15:33:53-07:00</time>
</trkpt>
<trkpt lat="47.99573" lon="7.9078">
<ele>560</ele>
<time>2025-07-27T15:33:54-07:00</time>
</trkpt>
<trkpt lat="47.99525" lon="7.90772">
<ele>556</ele>
<time>2025-07-27T15:33:55-07:00</time>
</trkpt>
<trkpt lat="47.99509" lon="7.90758">
<ele>548</ele>
<time>2025-07-27T15:33:56-07:00</time>
</trkpt>
<trkpt lat="47.99486" lon="7.90728">
<ele>539</ele>
<time>2025-07-27T15:33:57-07:00</time>
</trkpt>
<trkpt lat="47.99462" lon="7.90707">
<ele>532</ele>
<time>2025-07-27T15:33:58-07:00</time>
</trkpt>
<trkpt lat="47.99439" lon="7.90676">
<ele>524</ele>
<time>2025-07-27T15:33:59-07:00</time>
</trkpt>
<trkpt lat="47.99399" lon="7.9064">
<ele>511</ele>
<time>2025-07-27T15:34:00-07:00</time>
</trkpt>
<trkpt lat="47.99354" lon="7.90604">
<ele>503</ele>
<time>2025-07-27T15:34:01-07:00</time>
</trkpt>
<trkpt lat="47.99287" lon="7.90543">
<ele>493</ele>
<time>2025-07-27T15:34:02-07:00</time>
</trkpt>
<trkpt lat="47.99224" lon="7.90415">
<ele>487</ele>
<time>2025-07-27T15:34:03-07:00</time>
</trkpt>
<trkpt lat="47.99185" lon="7.9034">
<ele>475</ele>
<time>2025-07-27T15:34:04-07:00</time>
</trkpt>
<trkpt lat="47.99146" lon="7.90282">
<ele>471</ele>
<time>2025-07-27T15:34:05-07:00</time>
</trkpt>
<trkpt lat="47.99114" lon="7.9022">
<ele>467</ele>
<time>2025-07-27T15:34:06-07:00</time>
</trkpt>
<trkpt lat="47.99113" lon="7.90119">
<ele>448</ele>
<time>2025-07-27T15:34:07-07:00</time>
</trkpt>
<trkpt lat="47.99106" lon="7.90084">
<ele>443</ele>
<time>2025-07-27T15:34:08-07:00</time>
</trkpt>
<trkpt lat="47.991" lon="7.90067">
<ele>440</ele>
<time>2025-07-27T15:34:09-07:00</time>
</trkpt>
<trkpt lat="47.99097" lon="7.90012">
<ele>427</ele>
<time>2025-07-27T15:34:10-07:00</time>
</trkpt>
<trkpt lat="47.99091" lon="7.89981">
<ele>421</ele>
<time>2025-07-27T15:34:11-07:00</time>
</trkpt>
<trkpt lat="47.9909" lon="7.89925">
<ele>412</ele>
<time>2025-07-27T15:34:12-07:00</time>
</trkpt>
<trkpt lat="47.99085" lon="7.89892">
<ele>409</ele>
<time>2025-07-27T15:34:13-07:00</time>
</trkpt>
<trkpt lat="47.99074" lon="7.89875">
<ele>406</ele>
<time>2025-07-27T15:34:14-07:00</time>
</trkpt>
<trkpt lat="47.99073" lon="7.89864">
<ele>406</ele>
<time>2025-07-27T15:34:15-07:00</time>
</trkpt>
<trkpt lat="47.99064" lon="7.89854">
<ele>402</ele>
<time>2025-07-27T15:34:16-07:00</time>
</trkpt>
<trkpt lat="47.99052" lon="7.89827">
<ele>400</ele>
<time>2025-07-27T15:34:17-07:00</time>
</trkpt>
<trkpt lat="47.99053" lon="7.89809">
<ele>399</ele>
<time>2025-07-27T15:34:18-07:00</time>
</trkpt>
<trkpt lat="47.99045" lon="7.89791">
<ele>395</ele>
<time>2025-07-27T15:34:19-07:00</time>
</trkpt>
<trkpt lat="47.99042" lon="7.89779">
<ele>395</ele>
<time>2025-07-27T15:34:20-07:00</time>
</trkpt>
<trkpt lat="47.99031" lon="7.89762">
<ele>385</ele>
<time>2025-07-27T15:34:21-07:00</time>
</trkpt>
<trkpt lat="47.99024" lon="7.89728">
<ele>381</ele>
<time>2025-07-27T15:34:22-07:00</time>
</trkpt>
<trkpt lat="47.99026" lon="7.89705">
<ele>376</ele>
<time>2025-07-27T15:34:23-07:00</time>
</trkpt>
<trkpt lat="47.99032" lon="7.89689">
<ele>376</ele>
<time>2025-07-27T15:34:24-07:00</time>
</trkpt>
<trkpt lat="47.99028" lon="7.8967">
<ele>369</ele>
<time>2025-07-27T15:34:25-07:00</time>
</trkpt>
<trkpt lat="47.99039" lon="7.8965">
<ele>362</ele>
<time>2025-07-27T15:34:26-07:00</time>
</trkpt>
<trkpt lat="47.99018" lon="7.89616">
<ele>355</ele>
<time>2025-07-27T15:34:27-07:00</time>
</trkpt>
<trkpt lat="47.99014" lon="7.89598">
<ele>355</ele>
<time>2025-07-27T15:34:28-07:00</time>
</trkpt>
<trkpt lat="47.99022" lon="7.89583">
<ele>347</ele>
<time>2025-07-27T15:34:29-07:00</time>
</trkpt>
<trkpt lat="47.99017" lon="7.89554">
<ele>335</ele>
<time>2025-07-27T15:34:30-07:00</time>
</trkpt>
<trkpt lat="47.99026" lon="7.8954">
<ele>324</ele>
<time>2025-07-27T15:34:31-07:00</time>
</trkpt>
<trkpt lat="47.99043" lon="7.89541">
<ele>332</ele>
<time>2025-07-27T15:34:32-07:00</time>
</trkpt>
<trkpt lat="47.99051" lon="7.89523">
<ele>332</ele>
<time>2025-07-27T15:34:33-07:00</time>
</trkpt>
<trkpt lat="47.99036" lon="7.89496">
<ele>317</ele>
<time>2025-07-27T15:34:34-07:00</time>
</trkpt>
<trkpt lat="47.99032" lon="7.89481">
<ele>312</ele>
<time>2025-07-27T15:34:35-07:00</time>
</trkpt>
<trkpt lat="47.99034" lon="7.89481">
<ele>312</ele>
<time>2025-07-27T15:34:36-07:00</time>
</trkpt>
</trkseg>
</trk>
</gpx>
