<?xml version="1.0" encoding="UTF-8" standalone="no"?>
<gpx version="1.1" creator="mountainbike-freiburg.com" xmlns="http://www.topografix.com/GPX/1/1" xmlns:xsi="http://www.w3.org/2001/XMLSchema-instance" xmlns:gpxtpx="http://www.garmin.com/xmlschemas/TrackPointExtension/v1" xsi:schemaLocation="http://www.topografix.com/GPX/1/1 http://www.topografix.com/GPX/1/1/gpx.xsd http://www.garmin.com/xmlschemas/TrackPointExtension/v1 http://www.garmin.com/xmlschemas/TrackPointExtensionv1.xsd">
<metadata>
<name>Woody Trail</name>
<link href="https://www.mountainbike-freiburg.com/">
<text>MTB Freiburg e.V.</text>
</link>
</metadata>
<trk>
<name>
Woody
</name>
<trkseg>
<trkpt lat="48.08184" lon="7.95943">
<ele>443</ele>
<time>2025-07-28T10:46:53-07:00</time>
</trkpt>
<trkpt lat="48.08188" lon="7.95919">
<ele>440</ele>
<time>2025-07-28T10:46:54-07:00</time>
</trkpt>
<trkpt lat="48.08193" lon="7.95908">
<ele>440</ele>
<time>2025-07-28T10:46:55-07:00</time>
</trkpt>
<trkpt lat="48.08201" lon="7.95894">
<ele>437</ele>
<time>2025-07-28T10:46:56-07:00</time>
</trkpt>
<trkpt lat="48.08217" lon="7.95863">
<ele>439</ele>
<time>2025-07-28T10:46:57-07:00</time>
</trkpt>
<trkpt lat="48.08236" lon="7.9583">
<ele>435</ele>
<time>2025-07-28T10:46:58-07:00</time>
</trkpt>
<trkpt lat="48.08246" lon="7.95809">
<ele>433</ele>
<time>2025-07-28T10:46:59-07:00</time>
</trkpt>
<trkpt lat="48.08258" lon="7.95796">
<ele>433</ele>
<time>2025-07-28T10:47:00-07:00</time>
</trkpt>
<trkpt lat="48.08266" lon="7.95779">
<ele>428</ele>
<time>2025-07-28T10:47:01-07:00</time>
</trkpt>
<trkpt lat="48.08286" lon="7.95758">
<ele>421</ele>
<time>2025-07-28T10:47:02-07:00</time>
</trkpt>
<trkpt lat="48.08299" lon="7.95752">
<ele>423</ele>
<time>2025-07-28T10:47:03-07:00</time>
</trkpt>
<trkpt lat="48.08322" lon="7.95734">
<ele>422</ele>
<time>2025-07-28T10:47:04-07:00</time>
</trkpt>
<trkpt lat="48.08328" lon="7.95727">
<ele>422</ele>
<time>2025-07-28T10:47:05-07:00</time>
</trkpt>
<trkpt lat="48.08335" lon="7.95724">
<ele>422</ele>
<time>2025-07-28T10:47:06-07:00</time>
</trkpt>
<trkpt lat="48.08345" lon="7.95715">
<ele>422</ele>
<time>2025-07-28T10:47:07-07:00</time>
</trkpt>
<trkpt lat="48.08355" lon="7.95712">
<ele>425</ele>
<time>2025-07-28T10:47:08-07:00</time>
</trkpt>
<trkpt lat="48.08381" lon="7.95712">
<ele>422</ele>
<time>2025-07-28T10:47:09-07:00</time>
</trkpt>
<trkpt lat="48.08409" lon="7.95728">
<ele>420</ele>
<time>2025-07-28T10:47:10-07:00</time>
</trkpt>
<trkpt lat="48.08435" lon="7.95724">
<ele>421</ele>
<time>2025-07-28T10:47:11-07:00</time>
</trkpt>
<trkpt lat="48.08445" lon="7.95719">
<ele>421</ele>
<time>2025-07-28T10:47:12-07:00</time>
</trkpt>
<trkpt lat="48.08454" lon="7.95718">
<ele>421</ele>
<time>2025-07-28T10:47:13-07:00</time>
</trkpt>
<trkpt lat="48.0846" lon="7.95715">
<ele>420</ele>
<time>2025-07-28T10:47:14-07:00</time>
</trkpt>
<trkpt lat="48.08499" lon="7.95704">
<ele>414</ele>
<time>2025-07-28T10:47:15-07:00</time>
</trkpt>
<trkpt lat="48.08507" lon="7.95695">
<ele>414</ele>
<time>2025-07-28T10:47:16-07:00</time>
</trkpt>
<trkpt lat="48.08508" lon="7.95691">
<ele>414</ele>
<time>2025-07-28T10:47:17-07:00</time>
</trkpt>
<trkpt lat="48.08506" lon="7.95685">
<ele>414</ele>
<time>2025-07-28T10:47:18-07:00</time>
</trkpt>
<trkpt lat="48.08511" lon="7.95684">
<ele>414</ele>
<time>2025-07-28T10:47:19-07:00</time>
</trkpt>
<trkpt lat="48.08511" lon="7.9568">
<ele>409</ele>
<time>2025-07-28T10:47:20-07:00</time>
</trkpt>
<trkpt lat="48.08515" lon="7.95679">
<ele>404</ele>
<time>2025-07-28T10:47:21-07:00</time>
</trkpt>
<trkpt lat="48.08521" lon="7.95679">
<ele>404</ele>
<time>2025-07-28T10:47:22-07:00</time>
</trkpt>
<trkpt lat="48.08523" lon="7.95673">
<ele>404</ele>
<time>2025-07-28T10:47:23-07:00</time>
</trkpt>
<trkpt lat="48.08523" lon="7.9567">
<ele>404</ele>
<time>2025-07-28T10:47:24-07:00</time>
</trkpt>
<trkpt lat="48.08525" lon="7.95668">
<ele>404</ele>
<time>2025-07-28T10:47:25-07:00</time>
</trkpt>
<trkpt lat="48.08534" lon="7.95672">
<ele>404</ele>
<time>2025-07-28T10:47:26-07:00</time>
</trkpt>
<trkpt lat="48.08538" lon="7.95678">
<ele>404</ele>
<time>2025-07-28T10:47:27-07:00</time>
</trkpt>
<trkpt lat="48.08548" lon="7.95681">
<ele>400</ele>
<time>2025-07-28T10:47:28-07:00</time>
</trkpt>
<trkpt lat="48.08551" lon="7.95687">
<ele>400</ele>
<time>2025-07-28T10:47:29-07:00</time>
</trkpt>
<trkpt lat="48.08558" lon="7.95685">
<ele>400</ele>
<time>2025-07-28T10:47:30-07:00</time>
</trkpt>
<trkpt lat="48.08563" lon="7.9569">
<ele>400</ele>
<time>2025-07-28T10:47:31-07:00</time>
</trkpt>
<trkpt lat="48.08566" lon="7.95693">
<ele>400</ele>
<time>2025-07-28T10:47:32-07:00</time>
</trkpt>
<trkpt lat="48.08568" lon="7.95699">
<ele>400</ele>
<time>2025-07-28T10:47:33-07:00</time>
</trkpt>
<trkpt lat="48.08569" lon="7.95702">
<ele>400</ele>
<time>2025-07-28T10:47:34-07:00</time>
</trkpt>
<trkpt lat="48.08573" lon="7.95705">
<ele>394</ele>
<time>2025-07-28T10:47:35-07:00</time>
</trkpt>
<trkpt lat="48.08577" lon="7.95706">
<ele>394</ele>
<time>2025-07-28T10:47:36-07:00</time>
</trkpt>
<trkpt lat="48.08593" lon="7.95714">
<ele>392</ele>
<time>2025-07-28T10:47:37-07:00</time>
</trkpt>
<trkpt lat="48.08597" lon="7.95703">
<ele>394</ele>
<time>2025-07-28T10:47:38-07:00</time>
</trkpt>
<trkpt lat="48.08597" lon="7.95683">
<ele>394</ele>
<time>2025-07-28T10:47:39-07:00</time>
</trkpt>
<trkpt lat="48.08601" lon="7.95682">
<ele>386</ele>
<time>2025-07-28T10:47:40-07:00</time>
</trkpt>
<trkpt lat="48.08607" lon="7.95686">
<ele>386</ele>
<time>2025-07-28T10:47:41-07:00</time>
</trkpt>
<trkpt lat="48.08612" lon="7.95694">
<ele>386</ele>
<time>2025-07-28T10:47:42-07:00</time>
</trkpt>
<trkpt lat="48.08615" lon="7.95694">
<ele>386</ele>
<time>2025-07-28T10:47:43-07:00</time>
</trkpt>
<trkpt lat="48.08617" lon="7.95691">
<ele>386</ele>
<time>2025-07-28T10:47:44-07:00</time>
</trkpt>
<trkpt lat="48.08621" lon="7.95692">
<ele>386</ele>
<time>2025-07-28T10:47:45-07:00</time>
</trkpt>
<trkpt lat="48.08626" lon="7.95695">
<ele>372</ele>
<time>2025-07-28T10:47:46-07:00</time>
</trkpt>
<trkpt lat="48.0863" lon="7.95704">
<ele>372</ele>
<time>2025-07-28T10:47:47-07:00</time>
</trkpt>
<trkpt lat="48.08637" lon="7.95715">
<ele>372</ele>
<time>2025-07-28T10:47:48-07:00</time>
</trkpt>
<trkpt lat="48.0864" lon="7.9571">
<ele>372</ele>
<time>2025-07-28T10:47:49-07:00</time>
</trkpt>
<trkpt lat="48.0864" lon="7.95704">
<ele>372</ele>
<time>2025-07-28T10:47:50-07:00</time>
</trkpt>
<trkpt lat="48.08642" lon="7.95696">
<ele>372</ele>
<time>2025-07-28T10:47:51-07:00</time>
</trkpt>
<trkpt lat="48.08642" lon="7.9569">
<ele>372</ele>
<time>2025-07-28T10:47:52-07:00</time>
</trkpt>
<trkpt lat="48.08642" lon="7.95682">
<ele>372</ele>
<time>2025-07-28T10:47:53-07:00</time>
</trkpt>
<trkpt lat="48.08637" lon="7.95664">
<ele>368</ele>
<time>2025-07-28T10:47:54-07:00</time>
</trkpt>
<trkpt lat="48.08624" lon="7.9563">
<ele>377</ele>
<time>2025-07-28T10:47:55-07:00</time>
</trkpt>
<trkpt lat="48.08664" lon="7.95677">
<ele>354</ele>
<time>2025-07-28T10:47:56-07:00</time>
</trkpt>
<trkpt lat="48.08684" lon="7.95716">
<ele>347</ele>
<time>2025-07-28T10:47:57-07:00</time>
</trkpt>
<trkpt lat="48.08689" lon="7.95741">
<ele>349</ele>
<time>2025-07-28T10:47:58-07:00</time>
</trkpt>
<trkpt lat="48.08692" lon="7.95748">
<ele>349</ele>
<time>2025-07-28T10:47:59-07:00</time>
</trkpt>
<trkpt lat="48.08702" lon="7.95743">
<ele>349</ele>
<time>2025-07-28T10:48:00-07:00</time>
</trkpt>
<trkpt lat="48.0871" lon="7.95735">
<ele>337</ele>
<time>2025-07-28T10:48:01-07:00</time>
</trkpt>
<trkpt lat="48.08715" lon="7.95719">
<ele>337</ele>
<time>2025-07-28T10:48:02-07:00</time>
</trkpt>
<trkpt lat="48.08713" lon="7.95686">
<ele>336</ele>
<time>2025-07-28T10:48:03-07:00</time>
</trkpt>
<trkpt lat="48.087" lon="7.95635">
<ele>338</ele>
<time>2025-07-28T10:48:04-07:00</time>
</trkpt>
<trkpt lat="48.08695" lon="7.95597">
<ele>324</ele>
<time>2025-07-28T10:48:05-07:00</time>
</trkpt>
<trkpt lat="48.08674" lon="7.95535">
<ele>320</ele>
<time>2025-07-28T10:48:06-07:00</time>
</trkpt>
<trkpt lat="48.08655" lon="7.95473">
<ele>304</ele>
<time>2025-07-28T10:48:07-07:00</time>
</trkpt>
</trkseg>
</trk>
</gpx>
