<?xml version="1.0" encoding="UTF-8" standalone="no"?>
<gpx version="1.1" creator="mountainbike-freiburg.com" xmlns="http://www.topografix.com/GPX/1/1" xmlns:xsi="http://www.w3.org/2001/XMLSchema-instance" xmlns:gpxtpx="http://www.garmin.com/xmlschemas/TrackPointExtension/v1" xsi:schemaLocation="http://www.topografix.com/GPX/1/1 http://www.topografix.com/GPX/1/1/gpx.xsd http://www.garmin.com/xmlschemas/TrackPointExtension/v1 http://www.garmin.com/xmlschemas/TrackPointExtensionv1.xsd">
<metadata>
<name>Schöni Trail</name>
<link href="https://www.mountainbike-freiburg.com/">
<text>MTB Freiburg e.V.</text>
</link>
</metadata>
<trk>
<name>
Schöni Trail
</name>
<trkseg>
<trkpt lat="47.95474" lon="7.80551">
<ele>636</ele>
<time>2025-07-28T10:50:34-07:00</time>
</trkpt>
<trkpt lat="47.95474" lon="7.80563">
<ele>636</ele>
<time>2025-07-28T10:50:35-07:00</time>
</trkpt>
<trkpt lat="47.95474" lon="7.80575">
<ele>633</ele>
<time>2025-07-28T10:50:36-07:00</time>
</trkpt>
<trkpt lat="47.95475" lon="7.80587">
<ele>633</ele>
<time>2025-07-28T10:50:37-07:00</time>
</trkpt>
<trkpt lat="47.95478" lon="7.80594">
<ele>633</ele>
<time>2025-07-28T10:50:38-07:00</time>
</trkpt>
<trkpt lat="47.95484" lon="7.80598">
<ele>629</ele>
<time>2025-07-28T10:50:39-07:00</time>
</trkpt>
<trkpt lat="47.95488" lon="7.80602">
<ele>631</ele>
<time>2025-07-28T10:50:40-07:00</time>
</trkpt>
<trkpt lat="47.95493" lon="7.80605">
<ele>631</ele>
<time>2025-07-28T10:50:41-07:00</time>
</trkpt>
<trkpt lat="47.95521" lon="7.80617">
<ele>632</ele>
<time>2025-07-28T10:50:42-07:00</time>
</trkpt>
<trkpt lat="47.95544" lon="7.80626">
<ele>629</ele>
<time>2025-07-28T10:50:43-07:00</time>
</trkpt>
<trkpt lat="47.95592" lon="7.80645">
<ele>628</ele>
<time>2025-07-28T10:50:44-07:00</time>
</trkpt>
<trkpt lat="47.95632" lon="7.80657">
<ele>627</ele>
<time>2025-07-28T10:50:45-07:00</time>
</trkpt>
<trkpt lat="47.95644" lon="7.80664">
<ele>627</ele>
<time>2025-07-28T10:50:46-07:00</time>
</trkpt>
<trkpt lat="47.95647" lon="7.8067">
<ele>627</ele>
<time>2025-07-28T10:50:47-07:00</time>
</trkpt>
<trkpt lat="47.95644" lon="7.80674">
<ele>627</ele>
<time>2025-07-28T10:50:48-07:00</time>
</trkpt>
<trkpt lat="47.95637" lon="7.80674">
<ele>627</ele>
<time>2025-07-28T10:50:49-07:00</time>
</trkpt>
<trkpt lat="47.95629" lon="7.80676">
<ele>627</ele>
<time>2025-07-28T10:50:50-07:00</time>
</trkpt>
<trkpt lat="47.95618" lon="7.8068">
<ele>625</ele>
<time>2025-07-28T10:50:51-07:00</time>
</trkpt>
<trkpt lat="47.95605" lon="7.80683">
<ele>620</ele>
<time>2025-07-28T10:50:52-07:00</time>
</trkpt>
<trkpt lat="47.95586" lon="7.80686">
<ele>618</ele>
<time>2025-07-28T10:50:53-07:00</time>
</trkpt>
<trkpt lat="47.95565" lon="7.80689">
<ele>615</ele>
<time>2025-07-28T10:50:54-07:00</time>
</trkpt>
<trkpt lat="47.95549" lon="7.80689">
<ele>615</ele>
<time>2025-07-28T10:50:55-07:00</time>
</trkpt>
<trkpt lat="47.95536" lon="7.80691">
<ele>612</ele>
<time>2025-07-28T10:50:56-07:00</time>
</trkpt>
<trkpt lat="47.95524" lon="7.80692">
<ele>612</ele>
<time>2025-07-28T10:50:57-07:00</time>
</trkpt>
<trkpt lat="47.95511" lon="7.80691">
<ele>611</ele>
<time>2025-07-28T10:50:58-07:00</time>
</trkpt>
<trkpt lat="47.95499" lon="7.80698">
<ele>611</ele>
<time>2025-07-28T10:50:59-07:00</time>
</trkpt>
<trkpt lat="47.95513" lon="7.80711">
<ele>604</ele>
<time>2025-07-28T10:51:00-07:00</time>
</trkpt>
<trkpt lat="47.95526" lon="7.8072">
<ele>607</ele>
<time>2025-07-28T10:51:01-07:00</time>
</trkpt>
<trkpt lat="47.95537" lon="7.80723">
<ele>607</ele>
<time>2025-07-28T10:51:02-07:00</time>
</trkpt>
<trkpt lat="47.95544" lon="7.80728">
<ele>608</ele>
<time>2025-07-28T10:51:03-07:00</time>
</trkpt>
<trkpt lat="47.95552" lon="7.80734">
<ele>608</ele>
<time>2025-07-28T10:51:04-07:00</time>
</trkpt>
<trkpt lat="47.95562" lon="7.80738">
<ele>601</ele>
<time>2025-07-28T10:51:05-07:00</time>
</trkpt>
<trkpt lat="47.9557" lon="7.80743">
<ele>602</ele>
<time>2025-07-28T10:51:06-07:00</time>
</trkpt>
<trkpt lat="47.95581" lon="7.80749">
<ele>602</ele>
<time>2025-07-28T10:51:07-07:00</time>
</trkpt>
<trkpt lat="47.95615" lon="7.80762">
<ele>604</ele>
<time>2025-07-28T10:51:08-07:00</time>
</trkpt>
<trkpt lat="47.95631" lon="7.80763">
<ele>608</ele>
<time>2025-07-28T10:51:09-07:00</time>
</trkpt>
<trkpt lat="47.95644" lon="7.80767">
<ele>596</ele>
<time>2025-07-28T10:51:10-07:00</time>
</trkpt>
<trkpt lat="47.9566" lon="7.80773">
<ele>599</ele>
<time>2025-07-28T10:51:11-07:00</time>
</trkpt>
<trkpt lat="47.95672" lon="7.80783">
<ele>599</ele>
<time>2025-07-28T10:51:12-07:00</time>
</trkpt>
<trkpt lat="47.95692" lon="7.80801">
<ele>590</ele>
<time>2025-07-28T10:51:13-07:00</time>
</trkpt>
<trkpt lat="47.95709" lon="7.80811">
<ele>582</ele>
<time>2025-07-28T10:51:14-07:00</time>
</trkpt>
<trkpt lat="47.95734" lon="7.80797">
<ele>582</ele>
<time>2025-07-28T10:51:15-07:00</time>
</trkpt>
<trkpt lat="47.95767" lon="7.80799">
<ele>568</ele>
<time>2025-07-28T10:51:16-07:00</time>
</trkpt>
<trkpt lat="47.95789" lon="7.80816">
<ele>568</ele>
<time>2025-07-28T10:51:17-07:00</time>
</trkpt>
<trkpt lat="47.95818" lon="7.80847">
<ele>562</ele>
<time>2025-07-28T10:51:18-07:00</time>
</trkpt>
<trkpt lat="47.95831" lon="7.80854">
<ele>557</ele>
<time>2025-07-28T10:51:19-07:00</time>
</trkpt>
<trkpt lat="47.95845" lon="7.80862">
<ele>557</ele>
<time>2025-07-28T10:51:20-07:00</time>
</trkpt>
<trkpt lat="47.95856" lon="7.80869">
<ele>549</ele>
<time>2025-07-28T10:51:21-07:00</time>
</trkpt>
<trkpt lat="47.95866" lon="7.80875">
<ele>549</ele>
<time>2025-07-28T10:51:22-07:00</time>
</trkpt>
<trkpt lat="47.95874" lon="7.80875">
<ele>549</ele>
<time>2025-07-28T10:51:23-07:00</time>
</trkpt>
<trkpt lat="47.9589" lon="7.80889">
<ele>545</ele>
<time>2025-07-28T10:51:24-07:00</time>
</trkpt>
<trkpt lat="47.95895" lon="7.80911">
<ele>544</ele>
<time>2025-07-28T10:51:25-07:00</time>
</trkpt>
<trkpt lat="47.95906" lon="7.80921">
<ele>544</ele>
<time>2025-07-28T10:51:26-07:00</time>
</trkpt>
<trkpt lat="47.95918" lon="7.80921">
<ele>544</ele>
<time>2025-07-28T10:51:27-07:00</time>
</trkpt>
<trkpt lat="47.95934" lon="7.80919">
<ele>544</ele>
<time>2025-07-28T10:51:28-07:00</time>
</trkpt>
<trkpt lat="47.95958" lon="7.80915">
<ele>544</ele>
<time>2025-07-28T10:51:29-07:00</time>
</trkpt>
<trkpt lat="47.95994" lon="7.80919">
<ele>545</ele>
<time>2025-07-28T10:51:30-07:00</time>
</trkpt>
<trkpt lat="47.96013" lon="7.80924">
<ele>545</ele>
<time>2025-07-28T10:51:31-07:00</time>
</trkpt>
<trkpt lat="47.9603" lon="7.80925">
<ele>545</ele>
<time>2025-07-28T10:51:32-07:00</time>
</trkpt>
<trkpt lat="47.9605" lon="7.80926">
<ele>536</ele>
<time>2025-07-28T10:51:33-07:00</time>
</trkpt>
<trkpt lat="47.96077" lon="7.80931">
<ele>526</ele>
<time>2025-07-28T10:51:34-07:00</time>
</trkpt>
<trkpt lat="47.96091" lon="7.80928">
<ele>528</ele>
<time>2025-07-28T10:51:35-07:00</time>
</trkpt>
<trkpt lat="47.96103" lon="7.80924">
<ele>524</ele>
<time>2025-07-28T10:51:36-07:00</time>
</trkpt>
<trkpt lat="47.96115" lon="7.80921">
<ele>524</ele>
<time>2025-07-28T10:51:37-07:00</time>
</trkpt>
<trkpt lat="47.96154" lon="7.80927">
<ele>520</ele>
<time>2025-07-28T10:51:38-07:00</time>
</trkpt>
<trkpt lat="47.9618" lon="7.80931">
<ele>518</ele>
<time>2025-07-28T10:51:39-07:00</time>
</trkpt>
<trkpt lat="47.96207" lon="7.80933">
<ele>517</ele>
<time>2025-07-28T10:51:40-07:00</time>
</trkpt>
<trkpt lat="47.96224" lon="7.80936">
<ele>514</ele>
<time>2025-07-28T10:51:41-07:00</time>
</trkpt>
<trkpt lat="47.96249" lon="7.80943">
<ele>513</ele>
<time>2025-07-28T10:51:42-07:00</time>
</trkpt>
<trkpt lat="47.96279" lon="7.80953">
<ele>510</ele>
<time>2025-07-28T10:51:43-07:00</time>
</trkpt>
<trkpt lat="47.96311" lon="7.80948">
<ele>507</ele>
<time>2025-07-28T10:51:44-07:00</time>
</trkpt>
<trkpt lat="47.96334" lon="7.80942">
<ele>500</ele>
<time>2025-07-28T10:51:45-07:00</time>
</trkpt>
<trkpt lat="47.96356" lon="7.80917">
<ele>500</ele>
<time>2025-07-28T10:51:46-07:00</time>
</trkpt>
<trkpt lat="47.96362" lon="7.8091">
<ele>500</ele>
<time>2025-07-28T10:51:47-07:00</time>
</trkpt>
<trkpt lat="47.96368" lon="7.80905">
<ele>500</ele>
<time>2025-07-28T10:51:48-07:00</time>
</trkpt>
<trkpt lat="47.96381" lon="7.80892">
<ele>499</ele>
<time>2025-07-28T10:51:49-07:00</time>
</trkpt>
<trkpt lat="47.96387" lon="7.80892">
<ele>499</ele>
<time>2025-07-28T10:51:50-07:00</time>
</trkpt>
<trkpt lat="47.96396" lon="7.80891">
<ele>499</ele>
<time>2025-07-28T10:51:51-07:00</time>
</trkpt>
<trkpt lat="47.96426" lon="7.80889">
<ele>492</ele>
<time>2025-07-28T10:51:52-07:00</time>
</trkpt>
<trkpt lat="47.96446" lon="7.80893">
<ele>487</ele>
<time>2025-07-28T10:51:53-07:00</time>
</trkpt>
<trkpt lat="47.96462" lon="7.80893">
<ele>479</ele>
<time>2025-07-28T10:51:54-07:00</time>
</trkpt>
<trkpt lat="47.96472" lon="7.8089">
<ele>479</ele>
<time>2025-07-28T10:51:55-07:00</time>
</trkpt>
<trkpt lat="47.96484" lon="7.80887">
<ele>479</ele>
<time>2025-07-28T10:51:56-07:00</time>
</trkpt>
<trkpt lat="47.965" lon="7.80884">
<ele>471</ele>
<time>2025-07-28T10:51:57-07:00</time>
</trkpt>
<trkpt lat="47.96522" lon="7.80893">
<ele>462</ele>
<time>2025-07-28T10:51:58-07:00</time>
</trkpt>
<trkpt lat="47.9654" lon="7.80897">
<ele>462</ele>
<time>2025-07-28T10:51:59-07:00</time>
</trkpt>
<trkpt lat="47.96552" lon="7.809">
<ele>457</ele>
<time>2025-07-28T10:52:00-07:00</time>
</trkpt>
<trkpt lat="47.96566" lon="7.80899">
<ele>457</ele>
<time>2025-07-28T10:52:01-07:00</time>
</trkpt>
<trkpt lat="47.96575" lon="7.80898">
<ele>450</ele>
<time>2025-07-28T10:52:02-07:00</time>
</trkpt>
<trkpt lat="47.96585" lon="7.80899">
<ele>450</ele>
<time>2025-07-28T10:52:03-07:00</time>
</trkpt>
<trkpt lat="47.96594" lon="7.80909">
<ele>446</ele>
<time>2025-07-28T10:52:04-07:00</time>
</trkpt>
<trkpt lat="47.96643" lon="7.80912">
<ele>436</ele>
<time>2025-07-28T10:52:05-07:00</time>
</trkpt>
<trkpt lat="47.9666" lon="7.80919">
<ele>434</ele>
<time>2025-07-28T10:52:06-07:00</time>
</trkpt>
<trkpt lat="47.96684" lon="7.80923">
<ele>429</ele>
<time>2025-07-28T10:52:07-07:00</time>
</trkpt>
<trkpt lat="47.96696" lon="7.80928">
<ele>429</ele>
<time>2025-07-28T10:52:08-07:00</time>
</trkpt>
<trkpt lat="47.96715" lon="7.80931">
<ele>418</ele>
<time>2025-07-28T10:52:09-07:00</time>
</trkpt>
<trkpt lat="47.96736" lon="7.80935">
<ele>418</ele>
<time>2025-07-28T10:52:10-07:00</time>
</trkpt>
<trkpt lat="47.96754" lon="7.80934">
<ele>411</ele>
<time>2025-07-28T10:52:11-07:00</time>
</trkpt>
<trkpt lat="47.96767" lon="7.80935">
<ele>406</ele>
<time>2025-07-28T10:52:12-07:00</time>
</trkpt>
<trkpt lat="47.96784" lon="7.80932">
<ele>406</ele>
<time>2025-07-28T10:52:13-07:00</time>
</trkpt>
<trkpt lat="47.96801" lon="7.80922">
<ele>396</ele>
<time>2025-07-28T10:52:14-07:00</time>
</trkpt>
<trkpt lat="47.96844" lon="7.80938">
<ele>389</ele>
<time>2025-07-28T10:52:15-07:00</time>
</trkpt>
<trkpt lat="47.96864" lon="7.80936">
<ele>377</ele>
<time>2025-07-28T10:52:16-07:00</time>
</trkpt>
<trkpt lat="47.96879" lon="7.80935">
<ele>363</ele>
<time>2025-07-28T10:52:17-07:00</time>
</trkpt>
<trkpt lat="47.96891" lon="7.80935">
<ele>363</ele>
<time>2025-07-28T10:52:18-07:00</time>
</trkpt>
<trkpt lat="47.96938" lon="7.80954">
<ele>350</ele>
<time>2025-07-28T10:52:19-07:00</time>
</trkpt>
<trkpt lat="47.96964" lon="7.80971">
<ele>347</ele>
<time>2025-07-28T10:52:20-07:00</time>
</trkpt>
<trkpt lat="47.96979" lon="7.80958">
<ele>345</ele>
<time>2025-07-28T10:52:21-07:00</time>
</trkpt>
<trkpt lat="47.96989" lon="7.80936">
<ele>336</ele>
<time>2025-07-28T10:52:22-07:00</time>
</trkpt>
<trkpt lat="47.97005" lon="7.80893">
<ele>331</ele>
<time>2025-07-28T10:52:23-07:00</time>
</trkpt>
<trkpt lat="47.9702" lon="7.80853">
<ele>330</ele>
<time>2025-07-28T10:52:24-07:00</time>
</trkpt>
<trkpt lat="47.97036" lon="7.80838">
<ele>332</ele>
<time>2025-07-28T10:52:25-07:00</time>
</trkpt>
<trkpt lat="47.97056" lon="7.80816">
<ele>324</ele>
<time>2025-07-28T10:52:26-07:00</time>
</trkpt>
</trkseg>
</trk>
</gpx>
