<?xml version="1.0" encoding="UTF-8" standalone="yes"?>
<gpx version="1.1" creator="outdooractive - http://www.outdooractive.com" xmlns="http://www.topografix.com/GPX/1/1" xmlns:oa="http://www.outdooractive.com/GPX/Extensions/1" xmlns:xsi="http://www.w3.org/2001/XMLSchema-instance" xsi:schemaLocation="http://www.topografix.com/GPX/1/1 http://www.topografix.com/GPX/1/1/gpx.xsd http://www.outdooractive.com/GPX/Extensions/1 https://www.outdooractive.com/schema/gpx_extensions.xsd">
  <metadata>
    <name>TEÄRE LINE (6003)</name>
    <author>
      <name>Roland Grüner - Ötztal</name>
    </author>
    <link href="https://www.outdooractive.com/r/19506498"/>
    <time>2025-10-11T17:23:28.733Z</time>
    <extensions>
      <oa:oaCategory>mountainbiking</oa:oaCategory>
    </extensions>
  </metadata>
  <trk>
    <name>TEÄRE LINE (6003)</name>
    <desc>Sie ist die Ikone der BIKE REPUBLIC SÖLDEN: Die rote TEÄRE war die erste Line der Nation und ist mit ihren 130 Kurven bis heute der Flow-Ride schlechthin.</desc>
    <type>mountainbiking</type>
    <trkseg>
      <trkpt lat="46.956245" lon="10.986798">
        <ele>2116.0554</ele>
        <name>46.956245,10.986798</name>
      </trkpt>
      <trkpt lat="46.956288" lon="10.986824">
        <ele>2115.01065</ele>
      </trkpt>
      <trkpt lat="46.956295" lon="10.986908">
        <ele>2114.09932</ele>
      </trkpt>
      <trkpt lat="46.956262" lon="10.986976">
        <ele>2113.81689</ele>
      </trkpt>
      <trkpt lat="46.95619" lon="10.987036">
        <ele>2112.927</ele>
      </trkpt>
      <trkpt lat="46.955737" lon="10.987282">
        <ele>2110.52698</ele>
      </trkpt>
      <trkpt lat="46.955348" lon="10.987537">
        <ele>2108.40813</ele>
      </trkpt>
      <trkpt lat="46.954769" lon="10.987882">
        <ele>2104.58429</ele>
      </trkpt>
      <trkpt lat="46.953901" lon="10.988349">
        <ele>2098.44549</ele>
      </trkpt>
      <trkpt lat="46.953638" lon="10.988546">
        <ele>2094.86658</ele>
      </trkpt>
      <trkpt lat="46.953369" lon="10.988685">
        <ele>2092.59931</ele>
      </trkpt>
      <trkpt lat="46.952976" lon="10.988968">
        <ele>2087.49213</ele>
      </trkpt>
      <trkpt lat="46.952942" lon="10.989028">
        <ele>2085.75001</ele>
      </trkpt>
      <trkpt lat="46.952932" lon="10.98911">
        <ele>2082.9526</ele>
      </trkpt>
      <trkpt lat="46.952934" lon="10.989119">
        <ele>2082.58332</ele>
      </trkpt>
      <trkpt lat="46.952938" lon="10.989139">
        <ele>2081.72332</ele>
      </trkpt>
      <trkpt lat="46.952944" lon="10.989157">
        <ele>2080.84936</ele>
      </trkpt>
      <trkpt lat="46.952955" lon="10.989176">
        <ele>2079.81532</ele>
      </trkpt>
      <trkpt lat="46.95299" lon="10.989191">
        <ele>2078.57657</ele>
        <name>46.952990,10.989191</name>
      </trkpt>
      <trkpt lat="46.95301" lon="10.98918">
        <ele>2078.70499</ele>
      </trkpt>
      <trkpt lat="46.953022" lon="10.989142">
        <ele>2079.99112</ele>
      </trkpt>
      <trkpt lat="46.95301" lon="10.989102">
        <ele>2081.81623</ele>
      </trkpt>
      <trkpt lat="46.952963" lon="10.989096">
        <ele>2082.90937</ele>
      </trkpt>
      <trkpt lat="46.952951" lon="10.989108">
        <ele>2082.65095</ele>
      </trkpt>
      <trkpt lat="46.952945" lon="10.989116">
        <ele>2082.46524</ele>
      </trkpt>
      <trkpt lat="46.95294" lon="10.989125">
        <ele>2082.22933</ele>
      </trkpt>
      <trkpt lat="46.952935" lon="10.989133">
        <ele>2082.0285</ele>
      </trkpt>
      <trkpt lat="46.952889" lon="10.989246">
        <ele>2078.40086</ele>
      </trkpt>
      <trkpt lat="46.952849" lon="10.9893">
        <ele>2077.74966</ele>
      </trkpt>
      <trkpt lat="46.952762" lon="10.989384">
        <ele>2077.32782</ele>
      </trkpt>
      <trkpt lat="46.952504" lon="10.989579">
        <ele>2074.09783</ele>
      </trkpt>
      <trkpt lat="46.95238" lon="10.9897">
        <ele>2072.26487</ele>
      </trkpt>
      <trkpt lat="46.952253" lon="10.989875">
        <ele>2070.67856</ele>
      </trkpt>
      <trkpt lat="46.952229" lon="10.989931">
        <ele>2070.48396</ele>
      </trkpt>
      <trkpt lat="46.952193" lon="10.990158">
        <ele>2066.7831</ele>
        <name>46.952193,10.990158</name>
      </trkpt>
      <trkpt lat="46.952196" lon="10.990229">
        <ele>2065.5363</ele>
      </trkpt>
      <trkpt lat="46.952215" lon="10.990268">
        <ele>2064.74825</ele>
      </trkpt>
      <trkpt lat="46.952251" lon="10.990296">
        <ele>2063.98132</ele>
      </trkpt>
      <trkpt lat="46.952282" lon="10.99029">
        <ele>2063.60676</ele>
      </trkpt>
      <trkpt lat="46.95234" lon="10.990151">
        <ele>2063.8757</ele>
      </trkpt>
      <trkpt lat="46.952365" lon="10.990134">
        <ele>2062.99066</ele>
      </trkpt>
      <trkpt lat="46.952379" lon="10.990151">
        <ele>2062.07016</ele>
      </trkpt>
      <trkpt lat="46.952383" lon="10.990194">
        <ele>2061.39067</ele>
      </trkpt>
      <trkpt lat="46.952343" lon="10.99038">
        <ele>2060.57071</ele>
      </trkpt>
      <trkpt lat="46.952351" lon="10.990425">
        <ele>2059.55913</ele>
      </trkpt>
      <trkpt lat="46.952396" lon="10.990417">
        <ele>2058.54812</ele>
      </trkpt>
      <trkpt lat="46.952463" lon="10.990282">
        <ele>2057.14381</ele>
      </trkpt>
      <trkpt lat="46.952484" lon="10.990279">
        <ele>2056.14616</ele>
      </trkpt>
      <trkpt lat="46.952501" lon="10.990304">
        <ele>2055.22954</ele>
      </trkpt>
      <trkpt lat="46.952498" lon="10.990452">
        <ele>2054.49516</ele>
      </trkpt>
      <trkpt lat="46.952462" lon="10.990625">
        <ele>2053.20735</ele>
        <name>46.952462,10.990625</name>
      </trkpt>
      <trkpt lat="46.95237" lon="10.9907">
        <ele>2052.40674</ele>
      </trkpt>
      <trkpt lat="46.952297" lon="10.990788">
        <ele>2051.53333</ele>
      </trkpt>
      <trkpt lat="46.952245" lon="10.990997">
        <ele>2048.72623</ele>
      </trkpt>
      <trkpt lat="46.952215" lon="10.991055">
        <ele>2048.13193</ele>
      </trkpt>
      <trkpt lat="46.952095" lon="10.99118">
        <ele>2046.79235</ele>
      </trkpt>
      <trkpt lat="46.951799" lon="10.991336">
        <ele>2046.83443</ele>
        <name>46.951799,10.991336</name>
      </trkpt>
      <trkpt lat="46.951777" lon="10.991365">
        <ele>2046.49993</ele>
      </trkpt>
      <trkpt lat="46.951773" lon="10.991401">
        <ele>2045.75704</ele>
      </trkpt>
      <trkpt lat="46.951809" lon="10.991443">
        <ele>2044.23372</ele>
      </trkpt>
      <trkpt lat="46.951932" lon="10.991419">
        <ele>2043.10622</ele>
      </trkpt>
      <trkpt lat="46.952128" lon="10.991341">
        <ele>2042.36832</ele>
      </trkpt>
      <trkpt lat="46.952254" lon="10.991263">
        <ele>2042.90096</ele>
      </trkpt>
      <trkpt lat="46.952285" lon="10.991283">
        <ele>2041.95083</ele>
      </trkpt>
      <trkpt lat="46.952285" lon="10.991337">
        <ele>2040.5155</ele>
      </trkpt>
      <trkpt lat="46.952168" lon="10.991486">
        <ele>2038.1402</ele>
      </trkpt>
      <trkpt lat="46.952163" lon="10.991515">
        <ele>2037.52376</ele>
      </trkpt>
      <trkpt lat="46.952183" lon="10.991541">
        <ele>2036.44032</ele>
      </trkpt>
      <trkpt lat="46.9525" lon="10.991427">
        <ele>2034.37604</ele>
      </trkpt>
      <trkpt lat="46.952554" lon="10.991356">
        <ele>2034.71122</ele>
      </trkpt>
      <trkpt lat="46.952585" lon="10.991343">
        <ele>2034.1478</ele>
      </trkpt>
      <trkpt lat="46.952609" lon="10.991355">
        <ele>2033.28022</ele>
      </trkpt>
      <trkpt lat="46.952615" lon="10.991389">
        <ele>2032.47971</ele>
      </trkpt>
      <trkpt lat="46.952543" lon="10.99149">
        <ele>2032.1928</ele>
        <name>46.952543,10.991490</name>
      </trkpt>
      <trkpt lat="46.952548" lon="10.991545">
        <ele>2030.89611</ele>
      </trkpt>
      <trkpt lat="46.95259" lon="10.991564">
        <ele>2029.60944</ele>
      </trkpt>
      <trkpt lat="46.952663" lon="10.991492">
        <ele>2028.97964</ele>
      </trkpt>
      <trkpt lat="46.952694" lon="10.991523">
        <ele>2027.29894</ele>
      </trkpt>
      <trkpt lat="46.95268" lon="10.991585">
        <ele>2026.47222</ele>
      </trkpt>
      <trkpt lat="46.952379" lon="10.99198">
        <ele>2021.18909</ele>
      </trkpt>
      <trkpt lat="46.952148" lon="10.992317">
        <ele>2016.0854</ele>
      </trkpt>
      <trkpt lat="46.95209" lon="10.992444">
        <ele>2013.18419</ele>
      </trkpt>
      <trkpt lat="46.952084" lon="10.992487">
        <ele>2011.84044</ele>
      </trkpt>
      <trkpt lat="46.952098" lon="10.99252">
        <ele>2010.77548</ele>
      </trkpt>
      <trkpt lat="46.952141" lon="10.992522">
        <ele>2010.36797</ele>
        <name>46.952141,10.992522</name>
      </trkpt>
      <trkpt lat="46.952316" lon="10.992431">
        <ele>2008.62303</ele>
      </trkpt>
      <trkpt lat="46.952551" lon="10.992269">
        <ele>2006.39774</ele>
      </trkpt>
      <trkpt lat="46.952593" lon="10.992256">
        <ele>2005.42922</ele>
      </trkpt>
      <trkpt lat="46.952619" lon="10.992296">
        <ele>2003.13867</ele>
      </trkpt>
      <trkpt lat="46.952606" lon="10.992335">
        <ele>2002.23471</ele>
      </trkpt>
      <trkpt lat="46.952386" lon="10.992559">
        <ele>2001.17433</ele>
      </trkpt>
      <trkpt lat="46.952373" lon="10.992595">
        <ele>2000.52104</ele>
      </trkpt>
      <trkpt lat="46.952401" lon="10.992638">
        <ele>1998.63261</ele>
      </trkpt>
      <trkpt lat="46.952451" lon="10.992621">
        <ele>1997.67778</ele>
      </trkpt>
      <trkpt lat="46.952632" lon="10.992436">
        <ele>1998.23851</ele>
      </trkpt>
      <trkpt lat="46.952655" lon="10.992452">
        <ele>1997.05425</ele>
      </trkpt>
      <trkpt lat="46.952658" lon="10.992481">
        <ele>1995.87443</ele>
      </trkpt>
      <trkpt lat="46.952606" lon="10.992568">
        <ele>1994.24478</ele>
      </trkpt>
      <trkpt lat="46.952616" lon="10.99259">
        <ele>1993.14578</ele>
      </trkpt>
      <trkpt lat="46.95264" lon="10.992595">
        <ele>1992.2067</ele>
      </trkpt>
      <trkpt lat="46.95268" lon="10.992572">
        <ele>1991.75302</ele>
      </trkpt>
      <trkpt lat="46.952867" lon="10.992375">
        <ele>1991.40835</ele>
      </trkpt>
      <trkpt lat="46.95298" lon="10.992317">
        <ele>1990.89406</ele>
      </trkpt>
      <trkpt lat="46.953022" lon="10.992341">
        <ele>1989.49912</ele>
      </trkpt>
      <trkpt lat="46.953024" lon="10.992384">
        <ele>1988.3403</ele>
        <name>46.953024,10.992384</name>
      </trkpt>
      <trkpt lat="46.953009" lon="10.992425">
        <ele>1987.53379</ele>
      </trkpt>
      <trkpt lat="46.95293" lon="10.992456">
        <ele>1987.65878</ele>
      </trkpt>
      <trkpt lat="46.952842" lon="10.992593">
        <ele>1985.6894</ele>
      </trkpt>
      <trkpt lat="46.952779" lon="10.99266">
        <ele>1985.35394</ele>
      </trkpt>
      <trkpt lat="46.952753" lon="10.992733">
        <ele>1984.56687</ele>
      </trkpt>
      <trkpt lat="46.952751" lon="10.992836">
        <ele>1983.03222</ele>
        <name>46.952751,10.992836</name>
      </trkpt>
      <trkpt lat="46.952791" lon="10.992892">
        <ele>1981.36224</ele>
      </trkpt>
      <trkpt lat="46.952878" lon="10.992901">
        <ele>1980.18654</ele>
      </trkpt>
      <trkpt lat="46.953022" lon="10.992861">
        <ele>1978.8041</ele>
        <name>46.953022,10.992861</name>
      </trkpt>
      <trkpt lat="46.953054" lon="10.992873">
        <ele>1978.21242</ele>
      </trkpt>
      <trkpt lat="46.953071" lon="10.99291">
        <ele>1977.49269</ele>
      </trkpt>
      <trkpt lat="46.953067" lon="10.992951">
        <ele>1976.87085</ele>
      </trkpt>
      <trkpt lat="46.953047" lon="10.992983">
        <ele>1976.55475</ele>
      </trkpt>
      <trkpt lat="46.952861" lon="10.993116">
        <ele>1976.38442</ele>
        <name>46.952861,10.993116</name>
      </trkpt>
      <trkpt lat="46.952841" lon="10.993163">
        <ele>1975.91511</ele>
      </trkpt>
      <trkpt lat="46.952842" lon="10.993196">
        <ele>1975.47993</ele>
      </trkpt>
      <trkpt lat="46.952866" lon="10.99322">
        <ele>1974.82304</ele>
      </trkpt>
      <trkpt lat="46.952919" lon="10.993217">
        <ele>1973.95036</ele>
      </trkpt>
      <trkpt lat="46.953097" lon="10.993078">
        <ele>1973.81309</ele>
        <name>46.953097,10.993078</name>
      </trkpt>
      <trkpt lat="46.953128" lon="10.993069">
        <ele>1973.37714</ele>
      </trkpt>
      <trkpt lat="46.953155" lon="10.993086">
        <ele>1972.47992</ele>
      </trkpt>
      <trkpt lat="46.953166" lon="10.993118">
        <ele>1971.65204</ele>
      </trkpt>
      <trkpt lat="46.95316" lon="10.993155">
        <ele>1971.09666</ele>
      </trkpt>
      <trkpt lat="46.95307" lon="10.993262">
        <ele>1970.48475</ele>
      </trkpt>
      <trkpt lat="46.953051" lon="10.993313">
        <ele>1969.83377</ele>
      </trkpt>
      <trkpt lat="46.953057" lon="10.993351">
        <ele>1969.03099</ele>
      </trkpt>
      <trkpt lat="46.953078" lon="10.993377">
        <ele>1968.093</ele>
      </trkpt>
      <trkpt lat="46.953107" lon="10.993379">
        <ele>1967.36915</ele>
      </trkpt>
      <trkpt lat="46.953183" lon="10.993296">
        <ele>1967.65328</ele>
      </trkpt>
      <trkpt lat="46.953228" lon="10.993271">
        <ele>1967.34451</ele>
      </trkpt>
      <trkpt lat="46.953253" lon="10.993285">
        <ele>1966.55398</ele>
      </trkpt>
      <trkpt lat="46.953261" lon="10.993325">
        <ele>1965.53924</ele>
      </trkpt>
      <trkpt lat="46.953246" lon="10.99337">
        <ele>1964.80568</ele>
      </trkpt>
      <trkpt lat="46.953136" lon="10.993453">
        <ele>1965.1816</ele>
      </trkpt>
      <trkpt lat="46.953134" lon="10.993526">
        <ele>1963.85554</ele>
      </trkpt>
      <trkpt lat="46.953176" lon="10.993565">
        <ele>1961.9518</ele>
      </trkpt>
      <trkpt lat="46.95324" lon="10.993561">
        <ele>1960.51083</ele>
      </trkpt>
      <trkpt lat="46.953316" lon="10.993529">
        <ele>1959.81665</ele>
      </trkpt>
      <trkpt lat="46.953376" lon="10.993471">
        <ele>1959.49571</ele>
      </trkpt>
      <trkpt lat="46.953401" lon="10.993477">
        <ele>1958.56206</ele>
      </trkpt>
      <trkpt lat="46.953421" lon="10.993518">
        <ele>1956.94657</ele>
      </trkpt>
      <trkpt lat="46.953403" lon="10.993607">
        <ele>1955.52468</ele>
      </trkpt>
      <trkpt lat="46.953263" lon="10.993888">
        <ele>1953.70514</ele>
      </trkpt>
      <trkpt lat="46.953267" lon="10.993917">
        <ele>1952.87603</ele>
      </trkpt>
      <trkpt lat="46.953284" lon="10.993929">
        <ele>1951.92542</ele>
      </trkpt>
      <trkpt lat="46.953349" lon="10.993876">
        <ele>1950.61731</ele>
      </trkpt>
      <trkpt lat="46.953372" lon="10.993881">
        <ele>1949.48215</ele>
      </trkpt>
      <trkpt lat="46.953377" lon="10.993915">
        <ele>1948.28997</ele>
      </trkpt>
      <trkpt lat="46.953356" lon="10.99401">
        <ele>1946.36384</ele>
      </trkpt>
      <trkpt lat="46.953323" lon="10.994063">
        <ele>1946.00697</ele>
      </trkpt>
      <trkpt lat="46.953249" lon="10.994106">
        <ele>1947.09996</ele>
      </trkpt>
      <trkpt lat="46.95324" lon="10.994156">
        <ele>1945.4204</ele>
      </trkpt>
      <trkpt lat="46.95335" lon="10.994174">
        <ele>1940.69448</ele>
      </trkpt>
      <trkpt lat="46.953458" lon="10.994039">
        <ele>1940.98577</ele>
      </trkpt>
      <trkpt lat="46.953486" lon="10.994048">
        <ele>1940.03411</ele>
      </trkpt>
      <trkpt lat="46.953493" lon="10.99409">
        <ele>1938.95255</ele>
        <name>46.953493,10.994090</name>
      </trkpt>
      <trkpt lat="46.953476" lon="10.994155">
        <ele>1937.74339</ele>
      </trkpt>
      <trkpt lat="46.95343" lon="10.994227">
        <ele>1937.0409</ele>
      </trkpt>
      <trkpt lat="46.953307" lon="10.994286">
        <ele>1938.08036</ele>
      </trkpt>
      <trkpt lat="46.953279" lon="10.9944">
        <ele>1934.58884</ele>
      </trkpt>
      <trkpt lat="46.953251" lon="10.994442">
        <ele>1933.82062</ele>
      </trkpt>
      <trkpt lat="46.953221" lon="10.994451">
        <ele>1933.84499</ele>
      </trkpt>
      <trkpt lat="46.95312" lon="10.994422">
        <ele>1935.47219</ele>
      </trkpt>
      <trkpt lat="46.952881" lon="10.994444">
        <ele>1934.53477</ele>
      </trkpt>
      <trkpt lat="46.952846" lon="10.994473">
        <ele>1934.10874</ele>
      </trkpt>
      <trkpt lat="46.952859" lon="10.994531">
        <ele>1931.30833</ele>
      </trkpt>
      <trkpt lat="46.952981" lon="10.994587">
        <ele>1928.74478</ele>
        <name>46.952981,10.994587</name>
      </trkpt>
      <trkpt lat="46.953078" lon="10.994602">
        <ele>1928.72697</ele>
      </trkpt>
      <trkpt lat="46.953203" lon="10.994585">
        <ele>1929.10761</ele>
      </trkpt>
      <trkpt lat="46.953304" lon="10.994538">
        <ele>1929.37201</ele>
      </trkpt>
      <trkpt lat="46.953393" lon="10.994524">
        <ele>1927.30347</ele>
      </trkpt>
      <trkpt lat="46.953536" lon="10.994457">
        <ele>1925.35159</ele>
      </trkpt>
      <trkpt lat="46.953674" lon="10.994325">
        <ele>1924.47082</ele>
      </trkpt>
      <trkpt lat="46.953771" lon="10.994146">
        <ele>1926.59176</ele>
      </trkpt>
      <trkpt lat="46.95381" lon="10.994146">
        <ele>1925.32362</ele>
        <name>46.953810,10.994146</name>
      </trkpt>
      <trkpt lat="46.953845" lon="10.994192">
        <ele>1922.66529</ele>
      </trkpt>
      <trkpt lat="46.953837" lon="10.994249">
        <ele>1920.93427</ele>
      </trkpt>
      <trkpt lat="46.953657" lon="10.99455">
        <ele>1917.00192</ele>
      </trkpt>
      <trkpt lat="46.95358" lon="10.994625">
        <ele>1917.28944</ele>
      </trkpt>
      <trkpt lat="46.953477" lon="10.994767">
        <ele>1914.94776</ele>
      </trkpt>
      <trkpt lat="46.953359" lon="10.994854">
        <ele>1914.672</ele>
      </trkpt>
      <trkpt lat="46.953359" lon="10.994913">
        <ele>1912.32533</ele>
      </trkpt>
      <trkpt lat="46.95339" lon="10.994938">
        <ele>1910.78317</ele>
        <name>46.953390,10.994938</name>
      </trkpt>
      <trkpt lat="46.953524" lon="10.994886">
        <ele>1908.80203</ele>
      </trkpt>
      <trkpt lat="46.953577" lon="10.994841">
        <ele>1908.62673</ele>
      </trkpt>
      <trkpt lat="46.953685" lon="10.994682">
        <ele>1910.86724</ele>
      </trkpt>
      <trkpt lat="46.953713" lon="10.99467">
        <ele>1910.28827</ele>
        <name>46.953713,10.994670</name>
      </trkpt>
      <trkpt lat="46.953733" lon="10.994691">
        <ele>1908.78721</ele>
      </trkpt>
      <trkpt lat="46.953743" lon="10.994732">
        <ele>1906.91345</ele>
      </trkpt>
      <trkpt lat="46.95372" lon="10.994806">
        <ele>1904.93693</ele>
      </trkpt>
      <trkpt lat="46.953614" lon="10.99499">
        <ele>1901.8572</ele>
      </trkpt>
      <trkpt lat="46.953492" lon="10.995098">
        <ele>1902.516</ele>
      </trkpt>
      <trkpt lat="46.953482" lon="10.99514">
        <ele>1901.26874</ele>
      </trkpt>
      <trkpt lat="46.953512" lon="10.995169">
        <ele>1899.56786</ele>
        <name>46.953512,10.995169</name>
      </trkpt>
      <trkpt lat="46.953555" lon="10.99517">
        <ele>1898.28966</ele>
      </trkpt>
      <trkpt lat="46.953718" lon="10.995018">
        <ele>1897.47692</ele>
        <name>46.953718,10.995018</name>
      </trkpt>
      <trkpt lat="46.953753" lon="10.995018">
        <ele>1896.42095</ele>
      </trkpt>
      <trkpt lat="46.953763" lon="10.995052">
        <ele>1894.95422</ele>
      </trkpt>
      <trkpt lat="46.953738" lon="10.995115">
        <ele>1893.63166</ele>
      </trkpt>
      <trkpt lat="46.953626" lon="10.995295">
        <ele>1892.48499</ele>
      </trkpt>
      <trkpt lat="46.953543" lon="10.995526">
        <ele>1888.86593</ele>
      </trkpt>
      <trkpt lat="46.953457" lon="10.99564">
        <ele>1887.72444</ele>
      </trkpt>
      <trkpt lat="46.953407" lon="10.995804">
        <ele>1885.82733</ele>
      </trkpt>
      <trkpt lat="46.953369" lon="10.995834">
        <ele>1885.72403</ele>
      </trkpt>
      <trkpt lat="46.953278" lon="10.995836">
        <ele>1886.10292</ele>
        <name>46.953278,10.995836</name>
      </trkpt>
      <trkpt lat="46.953253" lon="10.995878">
        <ele>1884.28457</ele>
      </trkpt>
      <trkpt lat="46.953262" lon="10.995927">
        <ele>1882.30179</ele>
      </trkpt>
      <trkpt lat="46.953299" lon="10.995942">
        <ele>1881.67259</ele>
      </trkpt>
      <trkpt lat="46.953558" lon="10.995905">
        <ele>1880.42906</ele>
      </trkpt>
      <trkpt lat="46.953611" lon="10.995942">
        <ele>1878.45833</ele>
      </trkpt>
      <trkpt lat="46.953643" lon="10.996038">
        <ele>1875.81462</ele>
      </trkpt>
      <trkpt lat="46.953638" lon="10.996099">
        <ele>1874.72</ele>
      </trkpt>
      <trkpt lat="46.953606" lon="10.996131">
        <ele>1874.16768</ele>
      </trkpt>
      <trkpt lat="46.953519" lon="10.996116">
        <ele>1874.15419</ele>
      </trkpt>
      <trkpt lat="46.953504" lon="10.996156">
        <ele>1872.4607</ele>
      </trkpt>
      <trkpt lat="46.953543" lon="10.996226">
        <ele>1870.64386</ele>
      </trkpt>
      <trkpt lat="46.953628" lon="10.99631">
        <ele>1870.26798</ele>
      </trkpt>
      <trkpt lat="46.953638" lon="10.996372">
        <ele>1868.98119</ele>
      </trkpt>
      <trkpt lat="46.953611" lon="10.996392">
        <ele>1867.83677</ele>
      </trkpt>
      <trkpt lat="46.953482" lon="10.996323">
        <ele>1866.85554</ele>
      </trkpt>
      <trkpt lat="46.953463" lon="10.996343">
        <ele>1866.31137</ele>
      </trkpt>
      <trkpt lat="46.953464" lon="10.996391">
        <ele>1865.12977</ele>
      </trkpt>
      <trkpt lat="46.953499" lon="10.99645">
        <ele>1863.9154</ele>
      </trkpt>
      <trkpt lat="46.953565" lon="10.996503">
        <ele>1863.48424</ele>
      </trkpt>
      <trkpt lat="46.953779" lon="10.996609">
        <ele>1861.32179</ele>
      </trkpt>
      <trkpt lat="46.953789" lon="10.996643">
        <ele>1860.42754</ele>
      </trkpt>
      <trkpt lat="46.953781" lon="10.996674">
        <ele>1860.15613</ele>
      </trkpt>
      <trkpt lat="46.953714" lon="10.996696">
        <ele>1859.97886</ele>
      </trkpt>
      <trkpt lat="46.953706" lon="10.996745">
        <ele>1858.57226</ele>
      </trkpt>
      <trkpt lat="46.953753" lon="10.996837">
        <ele>1857.33968</ele>
      </trkpt>
      <trkpt lat="46.953862" lon="10.996989">
        <ele>1855.42146</ele>
      </trkpt>
      <trkpt lat="46.9539" lon="10.997079">
        <ele>1854.61248</ele>
        <name>46.953900,10.997079</name>
      </trkpt>
      <trkpt lat="46.953895" lon="10.997147">
        <ele>1854.67279</ele>
      </trkpt>
      <trkpt lat="46.953842" lon="10.997225">
        <ele>1854.27846</ele>
      </trkpt>
      <trkpt lat="46.953858" lon="10.997287">
        <ele>1853.7828</ele>
      </trkpt>
      <trkpt lat="46.953927" lon="10.997364">
        <ele>1853.36775</ele>
      </trkpt>
      <trkpt lat="46.953924" lon="10.997446">
        <ele>1852.20186</ele>
      </trkpt>
      <trkpt lat="46.953875" lon="10.997517">
        <ele>1850.8896</ele>
      </trkpt>
      <trkpt lat="46.953719" lon="10.997626">
        <ele>1849.19473</ele>
      </trkpt>
      <trkpt lat="46.95359" lon="10.997676">
        <ele>1848.19787</ele>
      </trkpt>
      <trkpt lat="46.953582" lon="10.997715">
        <ele>1846.94789</ele>
      </trkpt>
      <trkpt lat="46.953604" lon="10.997752">
        <ele>1845.83747</ele>
      </trkpt>
      <trkpt lat="46.953734" lon="10.997758">
        <ele>1845.7955</ele>
      </trkpt>
      <trkpt lat="46.953756" lon="10.997782">
        <ele>1845.11184</ele>
      </trkpt>
      <trkpt lat="46.953758" lon="10.997825">
        <ele>1844.02881</ele>
      </trkpt>
      <trkpt lat="46.953711" lon="10.997858">
        <ele>1843.38504</ele>
      </trkpt>
      <trkpt lat="46.953586" lon="10.997881">
        <ele>1842.20447</ele>
      </trkpt>
      <trkpt lat="46.953556" lon="10.997907">
        <ele>1841.15948</ele>
        <name>46.953556,10.997907</name>
      </trkpt>
      <trkpt lat="46.953539" lon="10.997949">
        <ele>1839.69567</ele>
      </trkpt>
      <trkpt lat="46.953561" lon="10.997994">
        <ele>1838.61318</ele>
      </trkpt>
      <trkpt lat="46.95362" lon="10.998002">
        <ele>1838.92092</ele>
      </trkpt>
      <trkpt lat="46.953741" lon="10.997982">
        <ele>1839.1799</ele>
      </trkpt>
      <trkpt lat="46.953939" lon="10.997904">
        <ele>1839.1295</ele>
        <name>46.953939,10.997904</name>
      </trkpt>
      <trkpt lat="46.953987" lon="10.997911">
        <ele>1838.57678</ele>
      </trkpt>
      <trkpt lat="46.954016" lon="10.997948">
        <ele>1838.05272</ele>
      </trkpt>
      <trkpt lat="46.954029" lon="10.998018">
        <ele>1837.40377</ele>
      </trkpt>
      <trkpt lat="46.954013" lon="10.998082">
        <ele>1836.61864</ele>
      </trkpt>
      <trkpt lat="46.953907" lon="10.998189">
        <ele>1834.37041</ele>
      </trkpt>
      <trkpt lat="46.953743" lon="10.998289">
        <ele>1831.09044</ele>
        <name>46.953743,10.998289</name>
      </trkpt>
      <trkpt lat="46.953724" lon="10.998344">
        <ele>1830.49078</ele>
      </trkpt>
      <trkpt lat="46.953735" lon="10.998416">
        <ele>1830.0839</ele>
      </trkpt>
      <trkpt lat="46.953767" lon="10.998433">
        <ele>1829.97177</ele>
      </trkpt>
      <trkpt lat="46.95397" lon="10.998403">
        <ele>1828.37561</ele>
      </trkpt>
      <trkpt lat="46.954093" lon="10.998408">
        <ele>1826.67428</ele>
      </trkpt>
      <trkpt lat="46.954347" lon="10.998326">
        <ele>1823.07424</ele>
      </trkpt>
      <trkpt lat="46.954471" lon="10.998229">
        <ele>1821.99164</ele>
      </trkpt>
      <trkpt lat="46.954642" lon="10.998155">
        <ele>1817.77731</ele>
      </trkpt>
      <trkpt lat="46.954859" lon="10.997911">
        <ele>1821.09398</ele>
        <name>46.954859,10.997911</name>
      </trkpt>
      <trkpt lat="46.954887" lon="10.997899">
        <ele>1821.09682</ele>
      </trkpt>
      <trkpt lat="46.954911" lon="10.997913">
        <ele>1820.36365</ele>
      </trkpt>
      <trkpt lat="46.954914" lon="10.997966">
        <ele>1818.62224</ele>
      </trkpt>
      <trkpt lat="46.954845" lon="10.998052">
        <ele>1816.78526</ele>
      </trkpt>
      <trkpt lat="46.954793" lon="10.99816">
        <ele>1813.77385</ele>
      </trkpt>
      <trkpt lat="46.954732" lon="10.998192">
        <ele>1813.82154</ele>
      </trkpt>
      <trkpt lat="46.954688" lon="10.998254">
        <ele>1812.7257</ele>
      </trkpt>
      <trkpt lat="46.954601" lon="10.998304">
        <ele>1813.77434</ele>
      </trkpt>
      <trkpt lat="46.954563" lon="10.998348">
        <ele>1813.63169</ele>
      </trkpt>
      <trkpt lat="46.954585" lon="10.998395">
        <ele>1810.94969</ele>
      </trkpt>
      <trkpt lat="46.954621" lon="10.998395">
        <ele>1809.65891</ele>
      </trkpt>
      <trkpt lat="46.954766" lon="10.998282">
        <ele>1809.77082</ele>
      </trkpt>
      <trkpt lat="46.95479" lon="10.998312">
        <ele>1808.16773</ele>
      </trkpt>
      <trkpt lat="46.95478" lon="10.998387">
        <ele>1805.78381</ele>
      </trkpt>
      <trkpt lat="46.954625" lon="10.998484">
        <ele>1806.34555</ele>
      </trkpt>
      <trkpt lat="46.954457" lon="10.998763">
        <ele>1800.46143</ele>
      </trkpt>
      <trkpt lat="46.954271" lon="10.998872">
        <ele>1801.00089</ele>
      </trkpt>
      <trkpt lat="46.954194" lon="10.998961">
        <ele>1799.20424</ele>
      </trkpt>
      <trkpt lat="46.954185" lon="10.999004">
        <ele>1797.84264</ele>
      </trkpt>
      <trkpt lat="46.954195" lon="10.999031">
        <ele>1796.75326</ele>
      </trkpt>
      <trkpt lat="46.954259" lon="10.999055">
        <ele>1795.20877</ele>
      </trkpt>
      <trkpt lat="46.954393" lon="10.998989">
        <ele>1795.06538</ele>
      </trkpt>
      <trkpt lat="46.954448" lon="10.998914">
        <ele>1795.88811</ele>
      </trkpt>
      <trkpt lat="46.954487" lon="10.998922">
        <ele>1794.92912</ele>
      </trkpt>
      <trkpt lat="46.9545" lon="10.998965">
        <ele>1793.44226</ele>
      </trkpt>
      <trkpt lat="46.954478" lon="10.999018">
        <ele>1792.34607</ele>
      </trkpt>
      <trkpt lat="46.954369" lon="10.999098">
        <ele>1792.64791</ele>
        <name>46.954369,10.999098</name>
      </trkpt>
      <trkpt lat="46.954349" lon="10.999133">
        <ele>1792.02434</ele>
      </trkpt>
      <trkpt lat="46.954357" lon="10.999184">
        <ele>1790.13404</ele>
      </trkpt>
      <trkpt lat="46.954399" lon="10.999216">
        <ele>1787.87468</ele>
      </trkpt>
      <trkpt lat="46.954432" lon="10.999206">
        <ele>1787.19749</ele>
      </trkpt>
      <trkpt lat="46.954575" lon="10.999087">
        <ele>1787.38418</ele>
      </trkpt>
      <trkpt lat="46.954833" lon="10.998966">
        <ele>1786.93504</ele>
      </trkpt>
      <trkpt lat="46.954861" lon="10.998985">
        <ele>1785.46135</ele>
      </trkpt>
      <trkpt lat="46.954866" lon="10.999035">
        <ele>1783.65247</ele>
      </trkpt>
      <trkpt lat="46.954789" lon="10.999092">
        <ele>1783.55007</ele>
      </trkpt>
      <trkpt lat="46.954791" lon="10.999137">
        <ele>1781.65991</ele>
      </trkpt>
      <trkpt lat="46.954826" lon="10.999148">
        <ele>1780.49265</ele>
      </trkpt>
      <trkpt lat="46.954891" lon="10.999123">
        <ele>1779.71092</ele>
      </trkpt>
      <trkpt lat="46.954969" lon="10.999123">
        <ele>1777.72452</ele>
      </trkpt>
      <trkpt lat="46.955052" lon="10.999211">
        <ele>1775.51958</ele>
      </trkpt>
      <trkpt lat="46.955105" lon="10.999227">
        <ele>1775.05614</ele>
      </trkpt>
      <trkpt lat="46.955164" lon="10.999178">
        <ele>1773.57012</ele>
      </trkpt>
      <trkpt lat="46.955293" lon="10.998977">
        <ele>1771.2377</ele>
      </trkpt>
      <trkpt lat="46.955497" lon="10.998735">
        <ele>1773.33539</ele>
      </trkpt>
      <trkpt lat="46.95552" lon="10.998751">
        <ele>1772.08633</ele>
      </trkpt>
      <trkpt lat="46.955514" lon="10.998808">
        <ele>1770.1885</ele>
      </trkpt>
      <trkpt lat="46.955368" lon="10.998982">
        <ele>1769.04406</ele>
      </trkpt>
      <trkpt lat="46.955355" lon="10.999025">
        <ele>1768.58082</ele>
      </trkpt>
      <trkpt lat="46.955359" lon="10.999065">
        <ele>1767.41816</ele>
      </trkpt>
      <trkpt lat="46.955392" lon="10.999067">
        <ele>1765.6651</ele>
      </trkpt>
      <trkpt lat="46.955448" lon="10.999008">
        <ele>1765.10259</ele>
      </trkpt>
      <trkpt lat="46.955551" lon="10.998938">
        <ele>1763.718</ele>
      </trkpt>
      <trkpt lat="46.955772" lon="10.998717">
        <ele>1762.30716</ele>
      </trkpt>
      <trkpt lat="46.955855" lon="10.998668">
        <ele>1762.47544</ele>
      </trkpt>
      <trkpt lat="46.955884" lon="10.998676">
        <ele>1763.19675</ele>
      </trkpt>
      <trkpt lat="46.955895" lon="10.998701">
        <ele>1763.46402</ele>
      </trkpt>
      <trkpt lat="46.95588" lon="10.998748">
        <ele>1761.90461</ele>
      </trkpt>
      <trkpt lat="46.955809" lon="10.998777">
        <ele>1759.6668</ele>
        <name>46.955809,10.998777</name>
      </trkpt>
      <trkpt lat="46.955783" lon="10.99881">
        <ele>1758.82765</ele>
      </trkpt>
      <trkpt lat="46.95579" lon="10.998869">
        <ele>1757.22359</ele>
      </trkpt>
      <trkpt lat="46.955821" lon="10.998922">
        <ele>1757.44878</ele>
      </trkpt>
      <trkpt lat="46.955819" lon="10.998966">
        <ele>1756.96422</ele>
      </trkpt>
      <trkpt lat="46.955732" lon="10.999007">
        <ele>1754.11477</ele>
        <name>46.955732,10.999007</name>
      </trkpt>
      <trkpt lat="46.955712" lon="10.999041">
        <ele>1753.72009</ele>
      </trkpt>
      <trkpt lat="46.955716" lon="10.999105">
        <ele>1752.2993</ele>
      </trkpt>
      <trkpt lat="46.955756" lon="10.999162">
        <ele>1752.33464</ele>
      </trkpt>
      <trkpt lat="46.955752" lon="10.999212">
        <ele>1751.94871</ele>
      </trkpt>
      <trkpt lat="46.955661" lon="10.999288">
        <ele>1748.83384</ele>
      </trkpt>
      <trkpt lat="46.955634" lon="10.999334">
        <ele>1748.38587</ele>
      </trkpt>
      <trkpt lat="46.955645" lon="10.99942">
        <ele>1746.51239</ele>
      </trkpt>
      <trkpt lat="46.95569" lon="10.999544">
        <ele>1747.07114</ele>
        <name>46.955690,10.999544</name>
      </trkpt>
      <trkpt lat="46.955688" lon="10.999582">
        <ele>1746.90269</ele>
      </trkpt>
      <trkpt lat="46.95565" lon="10.999601">
        <ele>1744.38852</ele>
      </trkpt>
      <trkpt lat="46.955469" lon="10.999603">
        <ele>1741.33334</ele>
      </trkpt>
      <trkpt lat="46.955429" lon="10.99964">
        <ele>1740.77969</ele>
      </trkpt>
      <trkpt lat="46.955429" lon="10.999678">
        <ele>1739.41086</ele>
      </trkpt>
      <trkpt lat="46.955454" lon="10.999716">
        <ele>1737.7857</ele>
      </trkpt>
      <trkpt lat="46.95556" lon="10.999736">
        <ele>1738.50637</ele>
      </trkpt>
      <trkpt lat="46.955585" lon="10.999765">
        <ele>1739.1197</ele>
      </trkpt>
      <trkpt lat="46.955584" lon="10.999802">
        <ele>1738.74857</ele>
      </trkpt>
      <trkpt lat="46.955491" lon="10.999832">
        <ele>1734.8297</ele>
      </trkpt>
      <trkpt lat="46.955372" lon="10.999809">
        <ele>1736.1269</ele>
        <name>46.955372,10.999809</name>
      </trkpt>
      <trkpt lat="46.955345" lon="10.999844">
        <ele>1735.64489</ele>
      </trkpt>
      <trkpt lat="46.955349" lon="10.999879">
        <ele>1734.35435</ele>
      </trkpt>
      <trkpt lat="46.955385" lon="10.999915">
        <ele>1732.506</ele>
      </trkpt>
      <trkpt lat="46.95549" lon="10.999938">
        <ele>1732.8581</ele>
      </trkpt>
      <trkpt lat="46.955528" lon="10.999976">
        <ele>1734.16725</ele>
      </trkpt>
      <trkpt lat="46.955526" lon="11.000007">
        <ele>1733.86991</ele>
      </trkpt>
      <trkpt lat="46.955497" lon="11.000021">
        <ele>1732.11059</ele>
      </trkpt>
      <trkpt lat="46.955372" lon="10.999983">
        <ele>1730.27199</ele>
      </trkpt>
      <trkpt lat="46.955343" lon="11.000011">
        <ele>1729.50702</ele>
      </trkpt>
      <trkpt lat="46.955365" lon="11.000063">
        <ele>1727.59583</ele>
      </trkpt>
      <trkpt lat="46.955469" lon="11.000155">
        <ele>1729.02604</ele>
        <name>46.955469,11.000155</name>
      </trkpt>
      <trkpt lat="46.955501" lon="11.000218">
        <ele>1730.07002</ele>
      </trkpt>
      <trkpt lat="46.955497" lon="11.000273">
        <ele>1728.92442</ele>
      </trkpt>
      <trkpt lat="46.955443" lon="11.00029">
        <ele>1725.98522</ele>
      </trkpt>
      <trkpt lat="46.955278" lon="11.000201">
        <ele>1723.76554</ele>
      </trkpt>
      <trkpt lat="46.955184" lon="11.000324">
        <ele>1721.90606</ele>
      </trkpt>
      <trkpt lat="46.955054" lon="11.000433">
        <ele>1722.62385</ele>
        <name>46.955054,11.000433</name>
      </trkpt>
      <trkpt lat="46.955068" lon="11.00048">
        <ele>1720.6521</ele>
      </trkpt>
      <trkpt lat="46.955093" lon="11.000494">
        <ele>1719.47614</ele>
      </trkpt>
      <trkpt lat="46.955245" lon="11.000447">
        <ele>1718.40267</ele>
      </trkpt>
      <trkpt lat="46.955298" lon="11.000465">
        <ele>1718.85793</ele>
      </trkpt>
      <trkpt lat="46.95534" lon="11.000506">
        <ele>1719.38609</ele>
      </trkpt>
      <trkpt lat="46.955351" lon="11.000544">
        <ele>1719.00261</ele>
      </trkpt>
      <trkpt lat="46.95533" lon="11.000601">
        <ele>1717.14147</ele>
      </trkpt>
      <trkpt lat="46.955203" lon="11.000559">
        <ele>1715.92629</ele>
      </trkpt>
      <trkpt lat="46.955139" lon="11.000573">
        <ele>1716.08625</ele>
      </trkpt>
      <trkpt lat="46.955122" lon="11.000599">
        <ele>1715.58448</ele>
      </trkpt>
      <trkpt lat="46.955135" lon="11.000653">
        <ele>1713.39747</ele>
      </trkpt>
      <trkpt lat="46.955156" lon="11.000677">
        <ele>1712.32888</ele>
      </trkpt>
      <trkpt lat="46.955291" lon="11.000728">
        <ele>1712.9783</ele>
        <name>46.955291,11.000728</name>
      </trkpt>
      <trkpt lat="46.9553" lon="11.000759">
        <ele>1712.02947</ele>
      </trkpt>
      <trkpt lat="46.955292" lon="11.000778">
        <ele>1711.16963</ele>
      </trkpt>
      <trkpt lat="46.955212" lon="11.000771">
        <ele>1709.58188</ele>
      </trkpt>
      <trkpt lat="46.955198" lon="11.000797">
        <ele>1708.41171</ele>
      </trkpt>
      <trkpt lat="46.955236" lon="11.000853">
        <ele>1707.03907</ele>
      </trkpt>
      <trkpt lat="46.955329" lon="11.000912">
        <ele>1707.07918</ele>
      </trkpt>
      <trkpt lat="46.955345" lon="11.000951">
        <ele>1706.46038</ele>
      </trkpt>
      <trkpt lat="46.955318" lon="11.000978">
        <ele>1704.49185</ele>
      </trkpt>
      <trkpt lat="46.955207" lon="11.000934">
        <ele>1703.61938</ele>
      </trkpt>
      <trkpt lat="46.95518" lon="11.000986">
        <ele>1701.66047</ele>
      </trkpt>
      <trkpt lat="46.955198" lon="11.001033">
        <ele>1700.24432</ele>
      </trkpt>
      <trkpt lat="46.955308" lon="11.001084">
        <ele>1701.10251</ele>
      </trkpt>
      <trkpt lat="46.955309" lon="11.001153">
        <ele>1699.39828</ele>
      </trkpt>
      <trkpt lat="46.955202" lon="11.001168">
        <ele>1696.16718</ele>
      </trkpt>
      <trkpt lat="46.955131" lon="11.00121">
        <ele>1694.28206</ele>
      </trkpt>
      <trkpt lat="46.955031" lon="11.001221">
        <ele>1694.41743</ele>
      </trkpt>
      <trkpt lat="46.954955" lon="11.001328">
        <ele>1692.36701</ele>
      </trkpt>
      <trkpt lat="46.954886" lon="11.001336">
        <ele>1693.85284</ele>
      </trkpt>
      <trkpt lat="46.954865" lon="11.001368">
        <ele>1693.02722</ele>
      </trkpt>
      <trkpt lat="46.954865" lon="11.001398">
        <ele>1691.71779</ele>
      </trkpt>
      <trkpt lat="46.954882" lon="11.001413">
        <ele>1690.66387</ele>
      </trkpt>
      <trkpt lat="46.954966" lon="11.001399">
        <ele>1689.53417</ele>
        <name>46.954966,11.001399</name>
      </trkpt>
      <trkpt lat="46.955068" lon="11.001434">
        <ele>1687.40673</ele>
      </trkpt>
      <trkpt lat="46.955181" lon="11.001416">
        <ele>1688.70263</ele>
        <name>46.955181,11.001416</name>
      </trkpt>
      <trkpt lat="46.955214" lon="11.001434">
        <ele>1689.11537</ele>
      </trkpt>
      <trkpt lat="46.955223" lon="11.001461">
        <ele>1688.80006</ele>
      </trkpt>
      <trkpt lat="46.955212" lon="11.001498">
        <ele>1687.47907</ele>
      </trkpt>
      <trkpt lat="46.955181" lon="11.001524">
        <ele>1685.92961</ele>
      </trkpt>
      <trkpt lat="46.95493" lon="11.001573">
        <ele>1683.93013</ele>
        <name>46.954930,11.001573</name>
      </trkpt>
      <trkpt lat="46.954898" lon="11.001598">
        <ele>1683.40097</ele>
      </trkpt>
      <trkpt lat="46.954898" lon="11.001629">
        <ele>1682.39209</ele>
      </trkpt>
      <trkpt lat="46.954915" lon="11.001658">
        <ele>1681.3722</ele>
      </trkpt>
      <trkpt lat="46.955027" lon="11.001686">
        <ele>1679.48676</ele>
      </trkpt>
      <trkpt lat="46.95515" lon="11.00176">
        <ele>1678.85357</ele>
      </trkpt>
      <trkpt lat="46.95519" lon="11.001803">
        <ele>1678.24373</ele>
        <name>46.955190,11.001803</name>
      </trkpt>
      <trkpt lat="46.955189" lon="11.00184">
        <ele>1677.06094</ele>
      </trkpt>
      <trkpt lat="46.955123" lon="11.001887">
        <ele>1674.86572</ele>
      </trkpt>
      <trkpt lat="46.955053" lon="11.001893">
        <ele>1673.62184</ele>
      </trkpt>
      <trkpt lat="46.954943" lon="11.001867">
        <ele>1674.22749</ele>
      </trkpt>
      <trkpt lat="46.954907" lon="11.001901">
        <ele>1673.48997</ele>
      </trkpt>
      <trkpt lat="46.954929" lon="11.001982">
        <ele>1670.43416</ele>
      </trkpt>
      <trkpt lat="46.955022" lon="11.002029">
        <ele>1669.58928</ele>
      </trkpt>
      <trkpt lat="46.955094" lon="11.002102">
        <ele>1668.14811</ele>
      </trkpt>
      <trkpt lat="46.955165" lon="11.00212">
        <ele>1668.41184</ele>
      </trkpt>
      <trkpt lat="46.955183" lon="11.002147">
        <ele>1667.95656</ele>
      </trkpt>
      <trkpt lat="46.955187" lon="11.002187">
        <ele>1666.92333</ele>
      </trkpt>
      <trkpt lat="46.955178" lon="11.002222">
        <ele>1665.84073</ele>
      </trkpt>
      <trkpt lat="46.955152" lon="11.002243">
        <ele>1664.89578</ele>
      </trkpt>
      <trkpt lat="46.954959" lon="11.002277">
        <ele>1663.43941</ele>
      </trkpt>
      <trkpt lat="46.954902" lon="11.002306">
        <ele>1663.07134</ele>
      </trkpt>
      <trkpt lat="46.954886" lon="11.002349">
        <ele>1662.30216</ele>
      </trkpt>
      <trkpt lat="46.954897" lon="11.002404">
        <ele>1661.25798</ele>
      </trkpt>
      <trkpt lat="46.954926" lon="11.002423">
        <ele>1660.76753</ele>
      </trkpt>
      <trkpt lat="46.955002" lon="11.002425">
        <ele>1660.22344</ele>
        <name>46.955002,11.002425</name>
      </trkpt>
      <trkpt lat="46.955017" lon="11.002457">
        <ele>1659.26726</ele>
      </trkpt>
      <trkpt lat="46.955015" lon="11.002491">
        <ele>1658.30978</ele>
      </trkpt>
      <trkpt lat="46.95496" lon="11.00254">
        <ele>1657.59087</ele>
      </trkpt>
      <trkpt lat="46.954836" lon="11.002572">
        <ele>1657.0981</ele>
        <name>46.954836,11.002572</name>
      </trkpt>
      <trkpt lat="46.954814" lon="11.002609">
        <ele>1656.22638</ele>
      </trkpt>
      <trkpt lat="46.954819" lon="11.002645">
        <ele>1655.41656</ele>
      </trkpt>
      <trkpt lat="46.95485" lon="11.002661">
        <ele>1655.05435</ele>
      </trkpt>
      <trkpt lat="46.955083" lon="11.0026">
        <ele>1654.16822</ele>
      </trkpt>
      <trkpt lat="46.955143" lon="11.002609">
        <ele>1653.60506</ele>
      </trkpt>
      <trkpt lat="46.955163" lon="11.002651">
        <ele>1652.17254</ele>
      </trkpt>
      <trkpt lat="46.955149" lon="11.002699">
        <ele>1650.59648</ele>
      </trkpt>
      <trkpt lat="46.955038" lon="11.002761">
        <ele>1649.24524</ele>
      </trkpt>
      <trkpt lat="46.955004" lon="11.002807">
        <ele>1648.21819</ele>
      </trkpt>
      <trkpt lat="46.955035" lon="11.002845">
        <ele>1646.56667</ele>
      </trkpt>
      <trkpt lat="46.955129" lon="11.002876">
        <ele>1644.8967</ele>
      </trkpt>
      <trkpt lat="46.955297" lon="11.002856">
        <ele>1642.66282</ele>
      </trkpt>
      <trkpt lat="46.95541" lon="11.002768">
        <ele>1643.91696</ele>
      </trkpt>
      <trkpt lat="46.955441" lon="11.002764">
        <ele>1643.6153</ele>
      </trkpt>
      <trkpt lat="46.955458" lon="11.002818">
        <ele>1641.77918</ele>
      </trkpt>
      <trkpt lat="46.955425" lon="11.002946">
        <ele>1639.76414</ele>
      </trkpt>
      <trkpt lat="46.955455" lon="11.00299">
        <ele>1638.80097</ele>
        <name>46.955455,11.002990</name>
      </trkpt>
      <trkpt lat="46.95549" lon="11.002974">
        <ele>1638.73964</ele>
      </trkpt>
      <trkpt lat="46.955522" lon="11.002933">
        <ele>1638.85479</ele>
      </trkpt>
      <trkpt lat="46.955589" lon="11.002734">
        <ele>1640.10829</ele>
      </trkpt>
      <trkpt lat="46.955612" lon="11.002737">
        <ele>1639.18678</ele>
      </trkpt>
      <trkpt lat="46.955624" lon="11.002759">
        <ele>1638.0694</ele>
      </trkpt>
      <trkpt lat="46.955609" lon="11.002883">
        <ele>1636.25584</ele>
      </trkpt>
      <trkpt lat="46.955616" lon="11.002918">
        <ele>1635.52903</ele>
      </trkpt>
      <trkpt lat="46.955632" lon="11.00293">
        <ele>1634.60365</ele>
      </trkpt>
      <trkpt lat="46.955752" lon="11.002784">
        <ele>1633.82163</ele>
      </trkpt>
      <trkpt lat="46.95583" lon="11.002764">
        <ele>1632.51939</ele>
      </trkpt>
      <trkpt lat="46.956006" lon="11.00279">
        <ele>1630.63575</ele>
      </trkpt>
      <trkpt lat="46.956046" lon="11.002761">
        <ele>1630.60085</ele>
      </trkpt>
      <trkpt lat="46.956089" lon="11.002678">
        <ele>1630.94513</ele>
      </trkpt>
      <trkpt lat="46.956129" lon="11.002676">
        <ele>1630.47411</ele>
      </trkpt>
      <trkpt lat="46.956145" lon="11.002721">
        <ele>1629.61519</ele>
        <name>46.956145,11.002721</name>
      </trkpt>
      <trkpt lat="46.956133" lon="11.002804">
        <ele>1628.73302</ele>
      </trkpt>
      <trkpt lat="46.956102" lon="11.002893">
        <ele>1628.82987</ele>
      </trkpt>
      <trkpt lat="46.956042" lon="11.002948">
        <ele>1627.7773</ele>
      </trkpt>
      <trkpt lat="46.956023" lon="11.003065">
        <ele>1626.5986</ele>
      </trkpt>
      <trkpt lat="46.955967" lon="11.0031">
        <ele>1625.40062</ele>
      </trkpt>
      <trkpt lat="46.955826" lon="11.003119">
        <ele>1624.56613</ele>
      </trkpt>
      <trkpt lat="46.955745" lon="11.003153">
        <ele>1623.86986</ele>
      </trkpt>
      <trkpt lat="46.955586" lon="11.003281">
        <ele>1624.25229</ele>
      </trkpt>
      <trkpt lat="46.955549" lon="11.003351">
        <ele>1623.39368</ele>
      </trkpt>
      <trkpt lat="46.955561" lon="11.003403">
        <ele>1621.30177</ele>
      </trkpt>
      <trkpt lat="46.955584" lon="11.003424">
        <ele>1619.94253</ele>
      </trkpt>
      <trkpt lat="46.955687" lon="11.003381">
        <ele>1618.58673</ele>
        <name>46.955687,11.003381</name>
      </trkpt>
      <trkpt lat="46.955729" lon="11.003397">
        <ele>1617.95949</ele>
      </trkpt>
      <trkpt lat="46.955776" lon="11.003457">
        <ele>1617.00121</ele>
      </trkpt>
      <trkpt lat="46.95588" lon="11.003665">
        <ele>1615.82673</ele>
      </trkpt>
      <trkpt lat="46.955968" lon="11.003702">
        <ele>1614.98833</ele>
      </trkpt>
      <trkpt lat="46.956033" lon="11.003754">
        <ele>1613.10912</ele>
      </trkpt>
      <trkpt lat="46.956099" lon="11.003739">
        <ele>1612.3839</ele>
        <name>46.956099,11.003739</name>
      </trkpt>
      <trkpt lat="46.956263" lon="11.003638">
        <ele>1611.65337</ele>
      </trkpt>
      <trkpt lat="46.956404" lon="11.003518">
        <ele>1610.74726</ele>
      </trkpt>
      <trkpt lat="46.956593" lon="11.00317">
        <ele>1609.1874</ele>
      </trkpt>
      <trkpt lat="46.956715" lon="11.002983">
        <ele>1609.21571</ele>
      </trkpt>
      <trkpt lat="46.956741" lon="11.002985">
        <ele>1608.46882</ele>
        <name>46.956741,11.002985</name>
      </trkpt>
      <trkpt lat="46.956754" lon="11.003023">
        <ele>1607.1564</ele>
      </trkpt>
      <trkpt lat="46.956697" lon="11.003417">
        <ele>1603.84831</ele>
        <name>46.956697,11.003417</name>
      </trkpt>
      <trkpt lat="46.956703" lon="11.003477">
        <ele>1602.94872</ele>
      </trkpt>
      <trkpt lat="46.956727" lon="11.003501">
        <ele>1601.88433</ele>
      </trkpt>
      <trkpt lat="46.956751" lon="11.003488">
        <ele>1601.37198</ele>
      </trkpt>
      <trkpt lat="46.956767" lon="11.003452">
        <ele>1601.28167</ele>
      </trkpt>
      <trkpt lat="46.95681" lon="11.003246">
        <ele>1601.47756</ele>
      </trkpt>
      <trkpt lat="46.956826" lon="11.003244">
        <ele>1600.97634</ele>
      </trkpt>
      <trkpt lat="46.956839" lon="11.003271">
        <ele>1600.34639</ele>
      </trkpt>
      <trkpt lat="46.956841" lon="11.00343">
        <ele>1599.12769</ele>
      </trkpt>
      <trkpt lat="46.956869" lon="11.003448">
        <ele>1598.02168</ele>
      </trkpt>
      <trkpt lat="46.956974" lon="11.003245">
        <ele>1596.13195</ele>
      </trkpt>
      <trkpt lat="46.957027" lon="11.003202">
        <ele>1594.6511</ele>
      </trkpt>
      <trkpt lat="46.9572" lon="11.00312">
        <ele>1592.10271</ele>
      </trkpt>
      <trkpt lat="46.957293" lon="11.002952">
        <ele>1592.46961</ele>
      </trkpt>
      <trkpt lat="46.957324" lon="11.002955">
        <ele>1592.11438</ele>
      </trkpt>
      <trkpt lat="46.957335" lon="11.003047">
        <ele>1591.70582</ele>
      </trkpt>
      <trkpt lat="46.957368" lon="11.003058">
        <ele>1590.5508</ele>
      </trkpt>
      <trkpt lat="46.957439" lon="11.002889">
        <ele>1588.62611</ele>
      </trkpt>
      <trkpt lat="46.957493" lon="11.002625">
        <ele>1590.57344</ele>
      </trkpt>
      <trkpt lat="46.957515" lon="11.002617">
        <ele>1589.62822</ele>
      </trkpt>
      <trkpt lat="46.957531" lon="11.002635">
        <ele>1588.44411</ele>
      </trkpt>
      <trkpt lat="46.957519" lon="11.002746">
        <ele>1587.03051</ele>
      </trkpt>
      <trkpt lat="46.957535" lon="11.002769">
        <ele>1585.92118</ele>
      </trkpt>
      <trkpt lat="46.957557" lon="11.002756">
        <ele>1585.09886</ele>
      </trkpt>
      <trkpt lat="46.957585" lon="11.002676">
        <ele>1585.06747</ele>
        <name>46.957585,11.002676</name>
      </trkpt>
      <trkpt lat="46.957605" lon="11.002663">
        <ele>1584.29764</ele>
      </trkpt>
      <trkpt lat="46.957613" lon="11.002725">
        <ele>1583.0282</ele>
      </trkpt>
      <trkpt lat="46.957568" lon="11.003012">
        <ele>1580.72312</ele>
      </trkpt>
      <trkpt lat="46.957587" lon="11.003219">
        <ele>1578.1748</ele>
      </trkpt>
      <trkpt lat="46.957569" lon="11.003304">
        <ele>1578.14944</ele>
      </trkpt>
      <trkpt lat="46.957526" lon="11.003406">
        <ele>1578.92431</ele>
      </trkpt>
      <trkpt lat="46.957533" lon="11.003501">
        <ele>1577.62638</ele>
      </trkpt>
      <trkpt lat="46.957573" lon="11.003563">
        <ele>1576.60167</ele>
        <name>46.957573,11.003563</name>
      </trkpt>
      <trkpt lat="46.957631" lon="11.003547">
        <ele>1574.92074</ele>
      </trkpt>
      <trkpt lat="46.957665" lon="11.003478">
        <ele>1574.23913</ele>
      </trkpt>
      <trkpt lat="46.957666" lon="11.003327">
        <ele>1574.89867</ele>
      </trkpt>
      <trkpt lat="46.957692" lon="11.003298">
        <ele>1574.23015</ele>
      </trkpt>
      <trkpt lat="46.957743" lon="11.003327">
        <ele>1572.17367</ele>
      </trkpt>
      <trkpt lat="46.957777" lon="11.00342">
        <ele>1571.75873</ele>
      </trkpt>
      <trkpt lat="46.957783" lon="11.003478">
        <ele>1571.96264</ele>
        <name>46.957783,11.003478</name>
      </trkpt>
      <trkpt lat="46.957755" lon="11.003598">
        <ele>1571.84444</ele>
      </trkpt>
      <trkpt lat="46.957685" lon="11.003711">
        <ele>1571.30631</ele>
      </trkpt>
      <trkpt lat="46.957683" lon="11.003886">
        <ele>1568.39918</ele>
      </trkpt>
      <trkpt lat="46.957654" lon="11.003969">
        <ele>1568.15464</ele>
      </trkpt>
      <trkpt lat="46.957653" lon="11.004003">
        <ele>1567.6644</ele>
      </trkpt>
      <trkpt lat="46.95771" lon="11.004122">
        <ele>1564.85084</ele>
      </trkpt>
      <trkpt lat="46.957714" lon="11.004174">
        <ele>1564.0749</ele>
      </trkpt>
      <trkpt lat="46.957647" lon="11.004235">
        <ele>1563.87762</ele>
      </trkpt>
      <trkpt lat="46.957614" lon="11.004302">
        <ele>1562.8935</ele>
      </trkpt>
      <trkpt lat="46.95749" lon="11.004773">
        <ele>1557.62354</ele>
        <name>46.957490,11.004773</name>
      </trkpt>
      <trkpt lat="46.957491" lon="11.004823">
        <ele>1557.27948</ele>
      </trkpt>
      <trkpt lat="46.957537" lon="11.004845">
        <ele>1556.62076</ele>
      </trkpt>
      <trkpt lat="46.957676" lon="11.004776">
        <ele>1553.27146</ele>
      </trkpt>
      <trkpt lat="46.957989" lon="11.004542">
        <ele>1544.49326</ele>
      </trkpt>
      <trkpt lat="46.958131" lon="11.004457">
        <ele>1542.67131</ele>
      </trkpt>
      <trkpt lat="46.958202" lon="11.00444">
        <ele>1541.88039</ele>
      </trkpt>
      <trkpt lat="46.958237" lon="11.004453">
        <ele>1541.47177</ele>
        <name>46.958237,11.004453</name>
      </trkpt>
    </trkseg>
  </trk>
</gpx>