<?xml version="1.0" encoding="UTF-8" standalone="yes"?>
<gpx version="1.1" creator="outdooractive - http://www.outdooractive.com" xmlns="http://www.topografix.com/GPX/1/1" xmlns:oa="http://www.outdooractive.com/GPX/Extensions/1" xmlns:xsi="http://www.w3.org/2001/XMLSchema-instance" xsi:schemaLocation="http://www.topografix.com/GPX/1/1 http://www.topografix.com/GPX/1/1/gpx.xsd http://www.outdooractive.com/GPX/Extensions/1 https://www.outdooractive.com/schema/gpx_extensions.xsd">
  <metadata>
    <name>51 - Dolmen</name>
    <author>
      <name>Redazione Finale Outdoor Region - Finale Outdoor</name>
    </author>
    <link href="https://www.outdooractive.com/r/45230360"/>
    <time>2026-03-16T16:38:21.697Z</time>
    <extensions>
      <oa:oaCategory>mountainbiking</oa:oaCategory>
    </extensions>
  </metadata>
  <trk>
    <name>51 - Dolmen</name>
    <desc>A San Bernardino Classic. Techy and rowdy.</desc>
    <type>mountainbiking</type>
    <trkseg>
      <trkpt lat="44.19157" lon="8.33505">
        <ele>281.01982</ele>
        <name>44.191570,8.335050</name>
      </trkpt>
      <trkpt lat="44.19133" lon="8.33512">
        <ele>279.86966</ele>
      </trkpt>
      <trkpt lat="44.19121" lon="8.33513">
        <ele>278.79974</ele>
      </trkpt>
      <trkpt lat="44.19098" lon="8.33512">
        <ele>276.50244</ele>
      </trkpt>
      <trkpt lat="44.19059" lon="8.33504">
        <ele>274.18989</ele>
      </trkpt>
      <trkpt lat="44.19032" lon="8.33493">
        <ele>273.34885</ele>
      </trkpt>
      <trkpt lat="44.1902" lon="8.33492">
        <ele>273.65706</ele>
      </trkpt>
      <trkpt lat="44.19008" lon="8.33493">
        <ele>274.18795</ele>
      </trkpt>
      <trkpt lat="44.18965" lon="8.33501">
        <ele>275.93505</ele>
      </trkpt>
      <trkpt lat="44.18999" lon="8.33435">
        <ele>267.11885</ele>
      </trkpt>
      <trkpt lat="44.19017" lon="8.33411">
        <ele>262.63745</ele>
      </trkpt>
      <trkpt lat="44.19029" lon="8.33413">
        <ele>261.67561</ele>
      </trkpt>
      <trkpt lat="44.19047" lon="8.3342">
        <ele>261.0877</ele>
      </trkpt>
      <trkpt lat="44.19066" lon="8.33424">
        <ele>261.03674</ele>
      </trkpt>
      <trkpt lat="44.19075" lon="8.33431">
        <ele>262.04476</ele>
      </trkpt>
      <trkpt lat="44.19081" lon="8.33432">
        <ele>262.44023</ele>
      </trkpt>
      <trkpt lat="44.19084" lon="8.33429">
        <ele>262.24701</ele>
      </trkpt>
      <trkpt lat="44.19085" lon="8.33425">
        <ele>261.86667</ele>
      </trkpt>
      <trkpt lat="44.19079" lon="8.33416">
        <ele>260.67281</ele>
      </trkpt>
      <trkpt lat="44.1904" lon="8.33388">
        <ele>259.67658</ele>
      </trkpt>
      <trkpt lat="44.19026" lon="8.33362">
        <ele>259.63672</ele>
      </trkpt>
      <trkpt lat="44.19024" lon="8.33355">
        <ele>259.47311</ele>
      </trkpt>
      <trkpt lat="44.19024" lon="8.33354">
        <ele>259.43415</ele>
      </trkpt>
      <trkpt lat="44.1902" lon="8.33331">
        <ele>258.23563</ele>
      </trkpt>
      <trkpt lat="44.1902" lon="8.33288">
        <ele>254.2721</ele>
      </trkpt>
      <trkpt lat="44.19018" lon="8.33252">
        <ele>250.40896</ele>
      </trkpt>
      <trkpt lat="44.19022" lon="8.3323">
        <ele>248.29974</ele>
      </trkpt>
      <trkpt lat="44.19019" lon="8.33216">
        <ele>246.58653</ele>
      </trkpt>
      <trkpt lat="44.19014" lon="8.33203">
        <ele>244.48783</ele>
      </trkpt>
      <trkpt lat="44.19008" lon="8.33196">
        <ele>242.76375</ele>
      </trkpt>
      <trkpt lat="44.19003" lon="8.33185">
        <ele>240.2104</ele>
      </trkpt>
      <trkpt lat="44.18998" lon="8.33168">
        <ele>235.87803</ele>
      </trkpt>
      <trkpt lat="44.18996" lon="8.33148">
        <ele>230.89364</ele>
      </trkpt>
      <trkpt lat="44.18992" lon="8.33146">
        <ele>229.33205</ele>
      </trkpt>
      <trkpt lat="44.18983" lon="8.33146">
        <ele>226.97321</ele>
      </trkpt>
      <trkpt lat="44.18979" lon="8.3314">
        <ele>224.05087</ele>
      </trkpt>
      <trkpt lat="44.18979" lon="8.33131">
        <ele>221.137</ele>
      </trkpt>
      <trkpt lat="44.18977" lon="8.33129">
        <ele>219.81216</ele>
      </trkpt>
      <trkpt lat="44.18954" lon="8.33123">
        <ele>209.72771</ele>
      </trkpt>
      <trkpt lat="44.18947" lon="8.33123">
        <ele>207.41332</ele>
      </trkpt>
      <trkpt lat="44.18936" lon="8.33126">
        <ele>205.48004</ele>
      </trkpt>
      <trkpt lat="44.18906" lon="8.3314">
        <ele>205.49146</ele>
      </trkpt>
      <trkpt lat="44.18868" lon="8.33141">
        <ele>197.20289</ele>
      </trkpt>
      <trkpt lat="44.1883" lon="8.33148">
        <ele>192.59946</ele>
      </trkpt>
      <trkpt lat="44.18816" lon="8.33155">
        <ele>193.05615</ele>
      </trkpt>
      <trkpt lat="44.18808" lon="8.33156">
        <ele>191.59585</ele>
      </trkpt>
      <trkpt lat="44.18799" lon="8.33156">
        <ele>189.3538</ele>
      </trkpt>
      <trkpt lat="44.18776" lon="8.33147">
        <ele>180.08826</ele>
      </trkpt>
      <trkpt lat="44.1877" lon="8.33148">
        <ele>179.29475</ele>
      </trkpt>
      <trkpt lat="44.18745" lon="8.33168">
        <ele>182.64076</ele>
      </trkpt>
      <trkpt lat="44.18736" lon="8.33173">
        <ele>183.23838</ele>
      </trkpt>
      <trkpt lat="44.18719" lon="8.33181">
        <ele>184.27499</ele>
      </trkpt>
      <trkpt lat="44.18701" lon="8.33186">
        <ele>184.6706</ele>
      </trkpt>
      <trkpt lat="44.18673" lon="8.33197">
        <ele>189.89685</ele>
      </trkpt>
      <trkpt lat="44.18635" lon="8.33185">
        <ele>187.67087</ele>
      </trkpt>
      <trkpt lat="44.18634" lon="8.33183">
        <ele>186.64093</ele>
      </trkpt>
      <trkpt lat="44.18639" lon="8.33168">
        <ele>177.38145</ele>
      </trkpt>
      <trkpt lat="44.18638" lon="8.33162">
        <ele>174.81333</ele>
      </trkpt>
      <trkpt lat="44.18634" lon="8.33151">
        <ele>170.87732</ele>
      </trkpt>
      <trkpt lat="44.18626" lon="8.3314">
        <ele>167.73482</ele>
      </trkpt>
      <trkpt lat="44.18622" lon="8.33123">
        <ele>162.18934</ele>
      </trkpt>
      <trkpt lat="44.18626" lon="8.33115">
        <ele>159.45521</ele>
      </trkpt>
      <trkpt lat="44.18645" lon="8.331">
        <ele>155.31592</ele>
      </trkpt>
      <trkpt lat="44.1866" lon="8.33092">
        <ele>153.89391</ele>
      </trkpt>
      <trkpt lat="44.18676" lon="8.33074">
        <ele>149.98708</ele>
      </trkpt>
      <trkpt lat="44.18682" lon="8.33068">
        <ele>148.74172</ele>
      </trkpt>
      <trkpt lat="44.18695" lon="8.33036">
        <ele>141.30533</ele>
      </trkpt>
      <trkpt lat="44.18702" lon="8.33027">
        <ele>139.24787</ele>
      </trkpt>
      <trkpt lat="44.18715" lon="8.33021">
        <ele>138.07414</ele>
      </trkpt>
      <trkpt lat="44.18753" lon="8.33016">
        <ele>138.00697</ele>
      </trkpt>
      <trkpt lat="44.18783" lon="8.33004">
        <ele>135.78746</ele>
      </trkpt>
      <trkpt lat="44.18829" lon="8.32955">
        <ele>123.60407</ele>
      </trkpt>
      <trkpt lat="44.18864" lon="8.32937">
        <ele>120.29554</ele>
      </trkpt>
      <trkpt lat="44.18879" lon="8.32932">
        <ele>119.81606</ele>
      </trkpt>
      <trkpt lat="44.18899" lon="8.32936">
        <ele>123.18689</ele>
      </trkpt>
      <trkpt lat="44.18906" lon="8.32935">
        <ele>123.79599</ele>
      </trkpt>
      <trkpt lat="44.1891" lon="8.32932">
        <ele>123.3248</ele>
      </trkpt>
      <trkpt lat="44.18931" lon="8.32906">
        <ele>117.91075</ele>
      </trkpt>
      <trkpt lat="44.18959" lon="8.32878">
        <ele>114.59386</ele>
      </trkpt>
      <trkpt lat="44.18975" lon="8.32847">
        <ele>107.43929</ele>
      </trkpt>
      <trkpt lat="44.18983" lon="8.32836">
        <ele>105.14179</ele>
      </trkpt>
      <trkpt lat="44.19017" lon="8.328">
        <ele>95.26361</ele>
      </trkpt>
      <trkpt lat="44.1903" lon="8.32792">
        <ele>93.11483</ele>
      </trkpt>
      <trkpt lat="44.19051" lon="8.32786">
        <ele>92.40485</ele>
      </trkpt>
      <trkpt lat="44.19061" lon="8.32781">
        <ele>91.1376</ele>
      </trkpt>
      <trkpt lat="44.19067" lon="8.32776">
        <ele>89.54035</ele>
      </trkpt>
      <trkpt lat="44.19089" lon="8.32765">
        <ele>86.11316</ele>
      </trkpt>
      <trkpt lat="44.19113" lon="8.32757">
        <ele>82.73105</ele>
      </trkpt>
      <trkpt lat="44.1914" lon="8.32752">
        <ele>79.92159</ele>
      </trkpt>
      <trkpt lat="44.19171" lon="8.32742">
        <ele>75.59348</ele>
      </trkpt>
      <trkpt lat="44.1918" lon="8.32738">
        <ele>74.09647</ele>
      </trkpt>
      <trkpt lat="44.19186" lon="8.32729">
        <ele>70.41691</ele>
      </trkpt>
    </trkseg>
  </trk>
</gpx>