<?xml version="1.0" encoding="UTF-8" standalone="yes"?>
<gpx version="1.1" creator="outdooractive - http://www.outdooractive.com" xmlns="http://www.topografix.com/GPX/1/1" xmlns:oa="http://www.outdooractive.com/GPX/Extensions/1" xmlns:xsi="http://www.w3.org/2001/XMLSchema-instance" xsi:schemaLocation="http://www.topografix.com/GPX/1/1 http://www.topografix.com/GPX/1/1/gpx.xsd http://www.outdooractive.com/GPX/Extensions/1 https://www.outdooractive.com/schema/gpx_extensions.xsd">
  <metadata>
    <name>61 - Borgata Costa</name>
    <author>
      <name>Redazione Finale Outdoor Region - Finale Outdoor</name>
    </author>
    <link href="https://www.outdooractive.com/r/45252094"/>
    <time>2026-03-16T16:40:06.912Z</time>
    <extensions>
      <oa:oaCategory>mountainbiking</oa:oaCategory>
    </extensions>
  </metadata>
  <trk>
    <name>61 - Borgata Costa</name>
    <desc>Off-road climb to San Bernardino </desc>
    <type>mountainbiking</type>
    <trkseg>
      <trkpt lat="44.18767" lon="8.35057">
        <ele>126.40121</ele>
      </trkpt>
      <trkpt lat="44.18745" lon="8.35023">
        <ele>120.45721</ele>
      </trkpt>
      <trkpt lat="44.18739" lon="8.34996">
        <ele>118.8407</ele>
      </trkpt>
      <trkpt lat="44.18733" lon="8.34956">
        <ele>117.94146</ele>
      </trkpt>
      <trkpt lat="44.18729" lon="8.34945">
        <ele>116.53744</ele>
      </trkpt>
      <trkpt lat="44.18706" lon="8.34906">
        <ele>106.32078</ele>
      </trkpt>
      <trkpt lat="44.18699" lon="8.34879">
        <ele>102.24907</ele>
      </trkpt>
      <trkpt lat="44.18699" lon="8.34869">
        <ele>102.01749</ele>
      </trkpt>
      <trkpt lat="44.18712" lon="8.34808">
        <ele>113.47585</ele>
      </trkpt>
      <trkpt lat="44.18711" lon="8.34796">
        <ele>114.77133</ele>
      </trkpt>
      <trkpt lat="44.18701" lon="8.34768">
        <ele>113.2668</ele>
      </trkpt>
      <trkpt lat="44.18699" lon="8.34754">
        <ele>114.42526</ele>
      </trkpt>
      <trkpt lat="44.18701" lon="8.34738">
        <ele>118.43531</ele>
      </trkpt>
      <trkpt lat="44.187" lon="8.34718">
        <ele>121.48555</ele>
      </trkpt>
      <trkpt lat="44.18697" lon="8.34706">
        <ele>121.85587</ele>
      </trkpt>
      <trkpt lat="44.18697" lon="8.34705">
        <ele>122.04582</ele>
      </trkpt>
      <trkpt lat="44.18678" lon="8.34611">
        <ele>125.16498</ele>
      </trkpt>
      <trkpt lat="44.18674" lon="8.34582">
        <ele>129.78463</ele>
      </trkpt>
      <trkpt lat="44.18679" lon="8.34577">
        <ele>133.34498</ele>
      </trkpt>
      <trkpt lat="44.18674" lon="8.34562">
        <ele>137.20132</ele>
      </trkpt>
      <trkpt lat="44.18665" lon="8.34559">
        <ele>135.91754</ele>
      </trkpt>
      <trkpt lat="44.18641" lon="8.34555">
        <ele>135.35417</ele>
      </trkpt>
      <trkpt lat="44.18622" lon="8.34569">
        <ele>130.39777</ele>
      </trkpt>
      <trkpt lat="44.18617" lon="8.34584">
        <ele>125.35937</ele>
      </trkpt>
      <trkpt lat="44.18605" lon="8.34607">
        <ele>120.89706</ele>
      </trkpt>
      <trkpt lat="44.18598" lon="8.3461">
        <ele>121.19065</ele>
      </trkpt>
      <trkpt lat="44.18568" lon="8.3463">
        <ele>120.16761</ele>
      </trkpt>
      <trkpt lat="44.18558" lon="8.3464">
        <ele>119.28085</ele>
      </trkpt>
      <trkpt lat="44.1854" lon="8.3465">
        <ele>119.21845</ele>
      </trkpt>
      <trkpt lat="44.18525" lon="8.34671">
        <ele>114.89553</ele>
      </trkpt>
      <trkpt lat="44.1852" lon="8.34672">
        <ele>115.04393</ele>
      </trkpt>
      <trkpt lat="44.18508" lon="8.34685">
        <ele>111.57175</ele>
      </trkpt>
      <trkpt lat="44.18493" lon="8.34696">
        <ele>108.29915</ele>
      </trkpt>
      <trkpt lat="44.18462" lon="8.34702">
        <ele>106.60227</ele>
      </trkpt>
      <trkpt lat="44.18451" lon="8.34706">
        <ele>105.41864</ele>
      </trkpt>
      <trkpt lat="44.18437" lon="8.34716">
        <ele>102.74762</ele>
      </trkpt>
      <trkpt lat="44.18423" lon="8.34739">
        <ele>96.933</ele>
      </trkpt>
      <trkpt lat="44.18408" lon="8.34714">
        <ele>103.4796</ele>
      </trkpt>
      <trkpt lat="44.18398" lon="8.34702">
        <ele>106.3634</ele>
      </trkpt>
      <trkpt lat="44.1839" lon="8.34702">
        <ele>106.36797</ele>
      </trkpt>
      <trkpt lat="44.18384" lon="8.34707">
        <ele>105.17662</ele>
      </trkpt>
      <trkpt lat="44.18364" lon="8.34753">
        <ele>93.9622</ele>
      </trkpt>
      <trkpt lat="44.18353" lon="8.3476">
        <ele>92.09345</ele>
        <extensions>
          <oa:locType>routingNode</oa:locType>
        </extensions>
      </trkpt>
    </trkseg>
  </trk>
</gpx>